[
  {
    "osm_id": -13593738,
    "boundary": "administrative",
    "admin_level": 8,
    "parents": "-2009239,-1995970,-28699",
    "name": "Kobuleti",
    "local_name": "ქობულეთი",
    "name_en": "Kobuleti",
    "all_tags": {
      "name": "ქობულეთი",
      "name:ab": "Қобулеҭ",
      "name:ca": "Kobuleti",
      "name:cs": "Kobuleti",
      "name:de": "Kobuleti",
      "name:en": "Kobuleti",
      "name:et": "Khobulethi",
      "name:he": "כובולתי",
      "name:hy": "Քոբուլեթ",
      "name:ja": "コブレチ",
      "name:ka": "ქობულეთი",
      "name:ko": "코불레티",
      "name:ku": "Kobûlêtî",
      "name:lt": "Kobuletis",
      "name:nl": "Koboeleti",
      "name:os": "Кобулет",
      "name:pl": "Kobuleti",
      "name:ro": "Kobuleti",
      "name:ru": "Кобулети",
      "name:sl": "Kobuleti",
      "name:sr": "Кобулети",
      "name:sv": "Kobuleti",
      "name:tr": "Kobuleti",
      "name:uk": "Кобулеті",
      "name:zh": "科布列季",
      "boundary": "administrative",
      "name:mzn": "کوبولتی",
      "name:war": "Kobuleti",
      "name:xmf": "ქობულეთი",
      "way_area": "0.0016732",
      "admin_level": "8"
    }
  },
  {
    "osm_id": -12865104,
    "boundary": "administrative",
    "admin_level": 8,
    "parents": "-2009237,-1995970,-28699",
    "name": "Mtsvane Konskhi",
    "local_name": "Mtsvane Konskhi",
    "name_en": null,
    "all_tags": {
      "name": "Mtsvane Konskhi",
      "boundary": "administrative",
      "way_area": "0.000948866",
      "admin_level": "8"
    }
  },
  {
    "osm_id": -12865081,
    "boundary": "administrative",
    "admin_level": 8,
    "parents": "-2009237,-1995970,-28699",
    "name": "Kakhaberi",
    "local_name": "Kakhaberi",
    "name_en": null,
    "all_tags": {
      "name": "Kakhaberi",
      "boundary": "administrative",
      "way_area": "0.000978946",
      "admin_level": "8"
    }
  },
  {
    "osm_id": -12822696,
    "boundary": "administrative",
    "admin_level": 8,
    "parents": "-2009237,-1995970,-28699",
    "name": "Agmashenebeli",
    "local_name": "Agmashenebeli",
    "name_en": null,
    "all_tags": {
      "name": "Agmashenebeli",
      "boundary": "administrative",
      "way_area": "0.000253323",
      "admin_level": "8"
    }
  },
  {
    "osm_id": -12715721,
    "boundary": "administrative",
    "admin_level": 8,
    "parents": "-2009237,-1995970,-28699",
    "name": "აეროპორტის",
    "local_name": "აეროპორტის",
    "name_en": null,
    "all_tags": {
      "name": "აეროპორტის",
      "boundary": "administrative",
      "way_area": "0.00144564",
      "admin_level": "8"
    }
  },
  {
    "osm_id": -12706447,
    "boundary": "administrative",
    "admin_level": 9,
    "parents": "-12715721,-2009237,-1995970,-28699",
    "name": "Adlia",
    "local_name": "Adlia",
    "name_en": null,
    "all_tags": {
      "name": "Adlia",
      "boundary": "administrative",
      "way_area": "0.000138133",
      "admin_level": "9"
    }
  },
  {
    "osm_id": -12695439,
    "boundary": "administrative",
    "admin_level": 8,
    "parents": "-2009237,-1995970,-28699",
    "name": "Old Town",
    "local_name": "Old Town",
    "name_en": null,
    "all_tags": {
      "name": "Old Town",
      "boundary": "administrative",
      "way_area": "0.000172034",
      "admin_level": "8"
    }
  },
  {
    "osm_id": -12695438,
    "boundary": "administrative",
    "admin_level": 8,
    "parents": "-2009237,-1995970,-28699",
    "name": "Rustaveli",
    "local_name": "Rustaveli",
    "name_en": null,
    "all_tags": {
      "name": "Rustaveli",
      "boundary": "administrative",
      "way_area": "0.000109005",
      "admin_level": "8"
    }
  },
  {
    "osm_id": -12695437,
    "boundary": "administrative",
    "admin_level": 8,
    "parents": "-2009237,-1995970,-28699",
    "name": "Khimshiashvili",
    "local_name": "Khimshiashvili",
    "name_en": null,
    "all_tags": {
      "name": "Khimshiashvili",
      "boundary": "administrative",
      "way_area": "0.000120424",
      "admin_level": "8"
    }
  },
  {
    "osm_id": -12695436,
    "boundary": "administrative",
    "admin_level": 8,
    "parents": "-2009237,-1995970,-28699",
    "name": "Bagrationi",
    "local_name": "Bagrationi",
    "name_en": null,
    "all_tags": {
      "name": "Bagrationi",
      "boundary": "administrative",
      "way_area": "0.000261268",
      "admin_level": "8"
    }
  },
  {
    "osm_id": -12695435,
    "boundary": "administrative",
    "admin_level": 8,
    "parents": "-2009237,-1995970,-28699",
    "name": "Javakhishvili",
    "local_name": "Javakhishvili",
    "name_en": null,
    "all_tags": {
      "name": "Javakhishvili",
      "boundary": "administrative",
      "way_area": "0.000183843",
      "admin_level": "8"
    }
  },
  {
    "osm_id": -11904443,
    "boundary": "administrative",
    "admin_level": 8,
    "parents": "-2000091,-28699",
    "name": "zemo machkhaani",
    "local_name": "zemo machkhaani",
    "name_en": "zemo machkhaani",
    "all_tags": {
      "name": "zemo machkhaani",
      "name:en": "zemo machkhaani",
      "name:ka": "ზემო მაჩხაანი",
      "boundary": "administrative",
      "way_area": "0.0133202",
      "admin_level": "8"
    }
  },
  {
    "osm_id": -2612381,
    "boundary": "administrative",
    "admin_level": 8,
    "parents": "-2027322,-3572912,-1152720,-28699",
    "name": "New Athos",
    "local_name": "Афон Ҿыц - Новый Афон",
    "name_en": "New Athos",
    "all_tags": {
      "name": "Афон Ҿыц - Новый Афон",
      "name:ab": "Афон Ҿыц",
      "name:de": "Nowy Afon",
      "name:el": "Νέος Άθως",
      "name:en": "New Athos",
      "name:fr": "Nouvel Athos",
      "name:hy": "Նոր Աֆոն",
      "name:it": "Nuovo Athos",
      "name:ka": "ახალი ათონი",
      "name:ru": "Новый Афон",
      "name:sr": "Нови Атос",
      "boundary": "administrative",
      "int_name": "New Athos",
      "old_name": "Nikopol;Acheisos;Anakopia;Nikopia;Nikofia;Nikopsis;Absara;Psyrtskha",
      "way_area": "0.00186653",
      "wikidata": "Q42194",
      "wikipedia": "ru:Новый Афон",
      "admin_level": "8"
    }
  },
  {
    "osm_id": -2537351,
    "boundary": "administrative",
    "admin_level": 8,
    "parents": "-2027320,-1152717,-28699",
    "name": "Leningor",
    "local_name": "Ленингор",
    "name_en": "Leningor",
    "all_tags": {
      "name": "Ленингор",
      "name:de": "Leningor",
      "name:en": "Leningor",
      "name:ka": "ახალგორი",
      "name:os": "Ленингор",
      "name:ru": "Ленингор",
      "boundary": "administrative",
      "way_area": "0.104532",
      "admin_level": "8"
    }
  },
  {
    "osm_id": -2027324,
    "boundary": "administrative",
    "admin_level": 8,
    "parents": "-3572912,-1152720,-28699",
    "name": "Sokhumi",
    "local_name": "Аҟәа - Сухум",
    "name_en": "Sokhumi",
    "all_tags": {
      "name": "Аҟәа - Сухум",
      "name:ab": "Аҟәа",
      "name:de": "Suchum",
      "name:en": "Sokhumi",
      "name:ka": "სოხუმი",
      "name:pl": "Suchumi",
      "name:ru": "Сухум",
      "name:uk": "Сухумі",
      "boundary": "administrative",
      "way_area": "0.00197457",
      "wikidata": "Q40811",
      "wikipedia": "ru:Сухум",
      "population": "65439",
      "admin_level": "8",
      "alt_name:de": "Suchumi",
      "alt_name:en": "Sukhumi",
      "alt_name:ka": "აყუ",
      "old_name:ka": "ცხუმი",
      "old_name:ru": "Сухуми",
      "fixme:admin_level": "7,8?"
    }
  },
  {
    "osm_id": -2027318,
    "boundary": "administrative",
    "admin_level": 8,
    "parents": "-1152717,-28699",
    "name": "Tskhinvali",
    "local_name": "Цхинвал",
    "name_en": "Tskhinvali",
    "all_tags": {
      "name": "Цхинвал",
      "place": "city",
      "landuse": "residential",
      "name:be": "Цхінвалi",
      "name:ca": "Tskhinvali",
      "name:de": "Zchinwali",
      "name:en": "Tskhinvali",
      "name:es": "Tsjinvali",
      "name:fr": "Tskhinvali",
      "name:hu": "Chinvali",
      "name:hy": "Ցխինվալ",
      "name:ka": "ცხინვალი",
      "name:ku": "Çînwali",
      "name:os": "Цхинвал",
      "name:ru": "Цхинвал",
      "name:sr": "Цхинвали",
      "name:tg": "Схинволи",
      "name:uk": "Цхінвалі",
      "boundary": "administrative",
      "name:gag": "Tshinvali",
      "old_name": "Krtskhinvali;Staliniri",
      "way_area": "0.000937911",
      "wikidata": "Q79863",
      "wikipedia": "os:Цхинвал",
      "is_capital": "municipality",
      "population": "45000",
      "admin_level": "8",
      "alt_name:de": "Zchinwal",
      "alt_name:en": "Chreba;Tskhinvali",
      "alt_name:fr": "Tskhinval",
      "alt_name:ka": "ცხინვალი",
      "alt_name:os": "Чъреба",
      "alt_name:ru": "Цхинвали",
      "old_name:ka": "ქრცხინვალი;სტალინირი",
      "old_name:ru": "Крцхинвали;Сталинири",
      "wikipedia:en": "Tskhinvali",
      "wikipedia:ru": "Цхинвал"
    }
  },
  {
    "osm_id": -2027317,
    "boundary": "administrative",
    "admin_level": 8,
    "parents": "-2537350,-1152717,-28699",
    "name": "Znaur",
    "local_name": "Знаур - Знауыр",
    "name_en": "Znaur",
    "all_tags": {
      "name": "Знаур - Знауыр",
      "name:de": "Snaur",
      "name:en": "Znaur",
      "name:ka": "ზნაური",
      "name:os": "Знауыр",
      "name:ru": "Знаур",
      "boundary": "administrative",
      "way_area": "0.0432504",
      "admin_level": "8",
      "alt_name:ka": "ყორნისი"
    }
  },
  {
    "osm_id": -2012278,
    "boundary": "administrative",
    "admin_level": 9,
    "parents": "-1996871,-28699",
    "name": "Gldani-Nadzaladevi Raion",
    "local_name": "გლდანი-ნაძალადევის რაიონი",
    "name_en": "Gldani-Nadzaladevi Raion",
    "all_tags": {
      "name": "გლდანი-ნაძალადევის რაიონი",
      "place": "suburb",
      "name:en": "Gldani-Nadzaladevi Raion",
      "name:ka": "გლდანი-ნაძალადევის რაიონი",
      "name:ru": "Глдани-Надзаладевский Район",
      "boundary": "administrative",
      "int_name": "Gldani-Nadzaladevis Raioni",
      "way_area": "0.0106782",
      "admin_level": "9"
    }
  },
  {
    "osm_id": -2012258,
    "boundary": "administrative",
    "admin_level": 9,
    "parents": "-1996871,-28699",
    "name": "Isani-Samgori Raion",
    "local_name": "ისანი-სამგორის რაიონი",
    "name_en": "Isani-Samgori Raion",
    "all_tags": {
      "name": "ისანი-სამგორის რაიონი",
      "place": "suburb",
      "name:en": "Isani-Samgori Raion",
      "name:ka": "ისანი-სამგორის რაიონი",
      "name:ru": "Исани-Самгорский Район",
      "boundary": "administrative",
      "int_name": "Isani-Samgoris Raioni",
      "way_area": "0.0185749",
      "admin_level": "9"
    }
  },
  {
    "osm_id": -2012257,
    "boundary": "administrative",
    "admin_level": 9,
    "parents": "-1996871,-28699",
    "name": "Didube-Chugureti Raion",
    "local_name": "დიდუბე-ჩუღურეთის რაიონი",
    "name_en": "Didube-Chugureti Raion",
    "all_tags": {
      "name": "დიდუბე-ჩუღურეთის რაიონი",
      "place": "suburb",
      "name:en": "Didube-Chugureti Raion",
      "name:ka": "დიდუბე-ჩუღურეთის რაიონი",
      "name:ru": "Дидубе-Чугуретьский Район",
      "boundary": "administrative",
      "int_name": "Didube-Chuguretis Raioni",
      "way_area": "0.00172124",
      "admin_level": "9"
    }
  },
  {
    "osm_id": -2011969,
    "boundary": "administrative",
    "admin_level": 9,
    "parents": "-1996871,-28699",
    "name": "Vake-Saburtalo Raion",
    "local_name": "ვაკე-საბურთალოს რაიონი",
    "name_en": "Vake-Saburtalo Raion",
    "all_tags": {
      "name": "ვაკე-საბურთალოს რაიონი",
      "place": "suburb",
      "name:en": "Vake-Saburtalo Raion",
      "name:ka": "ვაკე-საბურთალოს რაიონი",
      "name:ru": "Ваке-Сабурталинский Район",
      "boundary": "administrative",
      "int_name": "Vake-Saburtalos Raioni",
      "way_area": "0.0111274",
      "admin_level": "9"
    }
  },
  {
    "osm_id": -2011952,
    "boundary": "administrative",
    "admin_level": 9,
    "parents": "-1996871,-28699",
    "name": "Didgori Raion",
    "local_name": "დიდგორის რაიონი",
    "name_en": "Didgori Raion",
    "all_tags": {
      "name": "დიდგორის რაიონი",
      "place": "suburb",
      "name:en": "Didgori Raion",
      "name:ka": "დიდგორის რაიონი",
      "name:ru": "Дидгорский район",
      "boundary": "administrative",
      "int_name": "Didgoris Raioni",
      "way_area": "0.0107747",
      "wikidata": "Q12863728",
      "wikipedia": "ka:დიდგორის რაიონი",
      "admin_level": "9"
    }
  },
  {
    "osm_id": -2011903,
    "boundary": "administrative",
    "admin_level": 9,
    "parents": "-1996871,-28699",
    "name": "Old Tbilisi District",
    "local_name": "ძველი თბილისის რაიონი",
    "name_en": "Old Tbilisi District",
    "all_tags": {
      "name": "ძველი თბილისის რაიონი",
      "place": "suburb",
      "name:de": "Tbilisi Altstadt",
      "name:en": "Old Tbilisi District",
      "name:ka": "ძველი თბილისის რაიონი",
      "name:ru": "Старотбилиский Район",
      "boundary": "administrative",
      "int_name": "Dzveli Tbilisis Raioni",
      "way_area": "0.00194085",
      "wikidata": "Q445572",
      "wikipedia": "en:Old Tbilisi",
      "admin_level": "9"
    }
  }
]
