[
  {
    "osm_id": -10072527,
    "boundary": "administrative",
    "admin_level": 8,
    "parents": "-11584745,-1400966,-1473946",
    "name": "Jatt",
    "local_name": "ג'ת",
    "name_en": "Jatt",
    "all_tags": {
      "name": "ג'ת",
      "name:ar": "جت",
      "name:en": "Jatt",
      "name:fr": "Jatt",
      "name:he": "ג'ת",
      "boundary": "administrative",
      "way_area": "0.000715763",
      "wikidata": "Q2911762",
      "wikipedia": "he:ג'ת",
      "admin_level": "8",
      "complete:relation": "yes"
    }
  },
  {
    "osm_id": -10052487,
    "boundary": "administrative",
    "admin_level": 8,
    "parents": "-11584306,-1473952,-1473946",
    "name": "al-Qasoum Regional Council",
    "local_name": "مجلس إقليمي القيصوم",
    "name_en": "al-Qasoum Regional Council",
    "all_tags": {
      "name": "مجلس إقليمي القيصوم",
      "name:ar": "مجلس إقليمي القيصوم",
      "name:en": "al-Qasoum Regional Council",
      "name:fr": "Al-Kasom",
      "name:he": "מועצה אזורית אל-קסום",
      "boundary": "administrative",
      "way_area": "0.00366601",
      "wikidata": "Q6568938",
      "wikipedia": "he:מועצה אזורית אל קסום",
      "admin_level": "8",
      "complete:relation": "yes"
    }
  },
  {
    "osm_id": -1933959,
    "boundary": "administrative",
    "admin_level": 8,
    "parents": "-11584519,-1400966,-1473946",
    "name": "Rehasim",
    "local_name": "רכסים",
    "name_en": "Rehasim",
    "all_tags": {
      "name": "רכסים",
      "name:en": "Rehasim",
      "name:fr": "Réhassim",
      "name:he": "רכסים",
      "boundary": "administrative",
      "way_area": "0.000318543",
      "wikidata": "Q135485",
      "wikipedia": "he:רכסים",
      "admin_level": "8",
      "complete:relation": "yes"
    }
  },
  {
    "osm_id": -1933868,
    "boundary": "administrative",
    "admin_level": 8,
    "parents": "-11586940,-1375620,-1473946",
    "name": "Al Buqei`a",
    "local_name": "البقيعة",
    "name_en": "Al Buqei`a",
    "all_tags": {
      "name": "البقيعة",
      "name:ar": "البقيعة",
      "name:cs": "Peki'in",
      "name:de": "Pek’in",
      "name:en": "Al Buqei`a",
      "name:es": "Peqi'in",
      "name:fi": "Peki'in",
      "name:fr": "Peki'in",
      "name:he": "פקיעין -בוקייעה",
      "name:nl": "Peki'in",
      "name:nn": "Peki'in",
      "name:pl": "Peki’in",
      "name:pt": "Peki'in",
      "name:ru": "Пкиин",
      "boundary": "administrative",
      "name:en1": "Pkiin - Bokaiin",
      "way_area": "0.000544158",
      "wikidata": "Q2915001",
      "wikipedia": "he:פקיעין",
      "admin_level": "8",
      "complete:relation": "yes"
    }
  },
  {
    "osm_id": -1933846,
    "boundary": "administrative",
    "admin_level": 8,
    "parents": "-11586982,-1375620,-1473946",
    "name": "Kaabiya Tabash Hajajira",
    "local_name": "كعبية طباش حجاجرة‎",
    "name_en": "Kaabiya Tabash Hajajira",
    "all_tags": {
      "name": "كعبية طباش حجاجرة‎",
      "name:ar": "كعبية طباش حجاجرة‎",
      "name:en": "Kaabiya Tabash Hajajira",
      "name:fr": "Ka'abiyye-Tabbash-Hajajre",
      "name:he": "כעביה טבאש חג'אג'רה",
      "boundary": "administrative",
      "name:ar1": "كعبية طباش الحجاجرة‎",
      "way_area": "0.000149416",
      "wikidata": "Q2915770",
      "wikipedia": "he:כעביה-טבאש-חג'אג'רה",
      "admin_level": "8",
      "complete:relation": "yes"
    }
  },
  {
    "osm_id": -1933845,
    "boundary": "administrative",
    "admin_level": 8,
    "parents": "-11586982,-1375620,-1473946",
    "name": "Zarzir",
    "local_name": "زرزير",
    "name_en": "Zarzir",
    "all_tags": {
      "name": "زرزير",
      "name:ar": "زرزير",
      "name:en": "Zarzir",
      "name:fr": "Zarzir",
      "name:he": "זרזיר",
      "name:ru": "Зарзир",
      "boundary": "administrative",
      "way_area": "0.000414608",
      "wikidata": "Q2658228",
      "wikipedia": "he:זרזיר (יישוב)",
      "admin_level": "8",
      "alt_name:ar": "بيت زرزير",
      "complete:relation": "yes"
    }
  },
  {
    "osm_id": -1933844,
    "boundary": "administrative",
    "admin_level": 8,
    "parents": "-11586982,-1375620,-1473946",
    "name": "Ramat Yishai",
    "local_name": "רמת ישי",
    "name_en": "Ramat Yishai",
    "all_tags": {
      "name": "רמת ישי",
      "name:ar": "رمات يشاي",
      "name:en": "Ramat Yishai",
      "name:fr": "Ramat Yishai",
      "name:he": "רמת ישי",
      "boundary": "administrative",
      "way_area": "0.00022433",
      "wikidata": "Q2615322",
      "wikipedia": "he:רמת ישי",
      "admin_level": "8",
      "complete:relation": "yes"
    }
  },
  {
    "osm_id": -1932371,
    "boundary": "administrative",
    "admin_level": 8,
    "parents": "-11587672,-1400928,-1473946",
    "name": "Savyon",
    "local_name": "סביון",
    "name_en": "Savyon",
    "all_tags": {
      "name": "סביון",
      "name:ar": "ساڤيون",
      "name:en": "Savyon",
      "name:fr": "Savyon",
      "name:he": "סביון",
      "boundary": "administrative",
      "way_area": "0.000355236",
      "wikidata": "Q592526",
      "wikipedia": "he:סביון (יישוב)",
      "admin_level": "8",
      "complete:relation": "yes"
    }
  },
  {
    "osm_id": -1932164,
    "boundary": "administrative",
    "admin_level": 8,
    "parents": "-11586940,-1375620,-1473946",
    "name": "Nahariah",
    "local_name": "נהריה",
    "name_en": "Nahariah",
    "all_tags": {
      "ele": "24",
      "name": "נהריה",
      "name:am": "ንሃርያ",
      "name:ar": "نهاريا",
      "name:en": "Nahariah",
      "name:fr": "Nahariya",
      "name:he": "נהריה",
      "name:ja": "ナハリヤ",
      "name:ko": "나하리아",
      "name:pl": "Naharijja",
      "website": "https://www.nahariya.muni.il/",
      "alt_name": "נהרייה",
      "boundary": "administrative",
      "way_area": "0.00133424",
      "wikidata": "Q167749",
      "wikipedia": "he:נהריה",
      "population": "65526",
      "admin_level": "8",
      "alt_name:en": "Nahariya",
      "complete:relation": "yes"
    }
  },
  {
    "osm_id": -1932154,
    "boundary": "administrative",
    "admin_level": 8,
    "parents": "-11586940,-1375620,-1473946",
    "name": "Mazraah",
    "local_name": "المزرعة",
    "name_en": "Mazraah",
    "all_tags": {
      "name": "المزرعة",
      "name:ar": "المزرعة",
      "name:cs": "Mazra'a",
      "name:en": "Mazraah",
      "name:fr": "Mazra'a",
      "name:he": "מזרעה",
      "name:nn": "Mazra'a",
      "name:pl": "Mazra’a",
      "name:ru": "Мазраа",
      "name:sv": "El Mazra‘a",
      "boundary": "administrative",
      "name:ar1": "المزرعة",
      "way_area": "9.49079e-05",
      "wikidata": "Q2890424",
      "wikipedia": "he:מזרעה",
      "admin_level": "8",
      "complete:relation": "yes"
    }
  },
  {
    "osm_id": -1932118,
    "boundary": "administrative",
    "admin_level": 8,
    "parents": "-11586940,-1375620,-1473946",
    "name": "Miilya",
    "local_name": "معليا",
    "name_en": "Miilya",
    "all_tags": {
      "name": "معليا",
      "name:ar": "معليا",
      "name:en": "Miilya",
      "name:fr": "Mhalia",
      "name:he": "מעיליא",
      "boundary": "administrative",
      "name:ar1": "معيليا",
      "way_area": "0.000205048",
      "wikidata": "Q2917297",
      "wikipedia": "ar:معليا",
      "admin_level": "8",
      "complete:relation": "yes"
    }
  },
  {
    "osm_id": -1663091,
    "boundary": "administrative",
    "admin_level": 8,
    "parents": "-11586940,-1375620,-1473946",
    "name": "Shlomi",
    "local_name": "שלומי",
    "name_en": "Shlomi",
    "all_tags": {
      "ele": "73",
      "name": "שלומי",
      "name:ar": "شلومي",
      "name:en": "Shlomi",
      "name:fr": "Shlomi",
      "name:he": "שלומי",
      "boundary": "administrative",
      "way_area": "0.000566335",
      "wikidata": "Q135421",
      "wikipedia": "he:שלומי",
      "population": "6187",
      "admin_level": "8",
      "complete:relation": "yes"
    }
  },
  {
    "osm_id": -1473954,
    "boundary": "administrative",
    "admin_level": 8,
    "parents": "-11584353,-1473952,-1473946",
    "name": "Shaar HaNegev Regional Council",
    "local_name": "מועצה אזורית שער הנגב",
    "name_en": "Shaar HaNegev Regional Council",
    "all_tags": {
      "name": "מועצה אזורית שער הנגב",
      "name:el": "Σαάρ ΧαΝεγκέβ Περιφερειακό Συμβούλιο",
      "name:en": "Shaar HaNegev Regional Council",
      "name:fr": "Sha'ar HaNegev",
      "name:he": "מועצה אזורית שער הנגב",
      "boundary": "administrative",
      "way_area": "0.0167929",
      "wikidata": "Q5426900",
      "wikipedia": "he:מועצה אזורית שער הנגב",
      "admin_level": "8",
      "complete:relation": "yes"
    }
  },
  {
    "osm_id": -1473953,
    "boundary": "administrative",
    "admin_level": 8,
    "parents": "-11584306,-1473952,-1473946",
    "name": "Sdot Negev Regional Council",
    "local_name": "מועצה אזורית שדות נגב",
    "name_en": "Sdot Negev Regional Council",
    "all_tags": {
      "name": "מועצה אזורית שדות נגב",
      "name:en": "Sdot Negev Regional Council",
      "name:fr": "Conseil régional de Sdot Negev",
      "name:he": "מועצה אזורית שדות נגב",
      "boundary": "administrative",
      "way_area": "0.010801",
      "wikidata": "Q2916768",
      "wikipedia": "he:מועצה אזורית שדות נגב",
      "admin_level": "8",
      "complete:relation": "yes"
    }
  },
  {
    "osm_id": -1473951,
    "boundary": "administrative",
    "admin_level": 8,
    "parents": "-11584353,-1473952,-1473946",
    "name": "Hof Ashkelon Regional Council",
    "local_name": "מועצה אזורית חוף אשקלון",
    "name_en": "Hof Ashkelon Regional Council",
    "all_tags": {
      "name": "מועצה אזורית חוף אשקלון",
      "name:el": "Περιφέρεια Χοφ Ασκελόν",
      "name:en": "Hof Ashkelon Regional Council",
      "name:fr": "Conseil régional Hof Ashkélon",
      "name:he": "מועצה אזורית חוף אשקלון",
      "boundary": "administrative",
      "way_area": "0.017183",
      "wikidata": "Q2366949",
      "wikipedia": "he:מועצה אזורית חוף אשקלון",
      "admin_level": "8",
      "complete:relation": "yes"
    }
  },
  {
    "osm_id": -1473950,
    "boundary": "administrative",
    "admin_level": 8,
    "parents": "-11584306,-1473952,-1473946",
    "name": "Eshkol Regional Council",
    "local_name": "מועצה אזורית אשכול",
    "name_en": "Eshkol Regional Council",
    "all_tags": {
      "name": "מועצה אזורית אשכול",
      "name:ar": "مجلس إقليمي إشكول",
      "name:en": "Eshkol Regional Council",
      "name:fr": "conseil régional d'Eshkol",
      "name:he": "מועצה אזורית אשכול",
      "boundary": "administrative",
      "way_area": "0.0698997",
      "wikidata": "Q1299011",
      "wikipedia": "he:מועצה אזורית אשכול",
      "admin_level": "8",
      "complete:relation": "yes"
    }
  },
  {
    "osm_id": -1406229,
    "boundary": "administrative",
    "admin_level": 8,
    "parents": "-11586940,-1375620,-1473946",
    "name": "Kfar Vradim",
    "local_name": "כפר ורדים",
    "name_en": "Kfar Vradim",
    "all_tags": {
      "name": "כפר ורדים",
      "name:ar": "كفر فراديم",
      "name:en": "Kfar Vradim",
      "name:fr": "Kfar Vradim",
      "name:he": "כפר ורדים",
      "boundary": "administrative",
      "way_area": "0.000468497",
      "wikidata": "Q2915542",
      "wikipedia": "he:כפר ורדים",
      "admin_level": "8",
      "complete:relation": "yes"
    }
  },
  {
    "osm_id": -1406228,
    "boundary": "administrative",
    "admin_level": 8,
    "parents": "-11586940,-1375620,-1473946",
    "name": "Migdal Tefen",
    "local_name": "מגדל תפן",
    "name_en": "Migdal Tefen",
    "all_tags": {
      "name": "מגדל תפן",
      "name:en": "Migdal Tefen",
      "name:fr": "The Tefen Tower",
      "name:he": "מגדל תפן",
      "boundary": "administrative",
      "way_area": "0.00025956",
      "wikidata": "Q4292724",
      "wikipedia": "he:מגדל תפן",
      "admin_level": "8",
      "complete:relation": "yes"
    }
  },
  {
    "osm_id": -1406086,
    "boundary": "administrative",
    "admin_level": 8,
    "parents": "-11587600,-1400928,-1473946",
    "name": "Shoham",
    "local_name": "שהם",
    "name_en": "Shoham",
    "all_tags": {
      "name": "שהם",
      "name:ar": "شوهام",
      "name:en": "Shoham",
      "name:fr": "Shoham",
      "name:he": "שהם",
      "boundary": "administrative",
      "way_area": "0.000683363",
      "wikidata": "Q304448",
      "wikipedia": "he:שוהם (יישוב)",
      "admin_level": "8",
      "alt_name:ar": "شوهم",
      "complete:relation": "yes"
    }
  },
  {
    "osm_id": -1405261,
    "boundary": "administrative",
    "admin_level": 8,
    "parents": "-11587672,-1400928,-1473946",
    "name": "Kafr Kasim",
    "local_name": "كفر قاسم‎",
    "name_en": "Kafr Kasim",
    "all_tags": {
      "name": "كفر قاسم‎",
      "name:ar": "كفر قاسم‎",
      "name:ca": "Kafr Qasim",
      "name:cs": "Kafr Kasim",
      "name:en": "Kafr Kasim",
      "name:es": "Kafr Qasim",
      "name:fi": "Kafr Qasim",
      "name:fr": "Kafr Qasim",
      "name:he": "כפר קאסם",
      "name:hy": "Քաֆր Կասեմ",
      "name:id": "Kafr Qasim",
      "name:it": "Kafr Qasim",
      "name:nl": "Kafr Qasim",
      "name:nn": "Kafr Qasim",
      "name:pl": "Kafr Kasim",
      "name:pt": "Kafr Qasim",
      "name:ru": "Кафр-Касем",
      "name:sv": "Kafr Qāsim",
      "name:tr": "Kafr Kasım",
      "name:vi": "Kafr Qasim",
      "name:yi": "כפר קאסם",
      "name:zh": "加西姆村",
      "boundary": "administrative",
      "way_area": "0.000889157",
      "wikidata": "Q152659",
      "wikipedia": "ar:كفر قاسم‎",
      "admin_level": "8",
      "wikipedia:he": "he:כפר קאסם",
      "complete:relation": "yes"
    }
  },
  {
    "osm_id": -1405260,
    "boundary": "administrative",
    "admin_level": 8,
    "parents": "-11587672,-1400928,-1473946",
    "name": "Kafr Bara",
    "local_name": "كفر برا",
    "name_en": "Kafr Bara",
    "all_tags": {
      "name": "كفر برا",
      "name:ar": "كفر برا",
      "name:en": "Kafr Bara",
      "name:fr": "Kafr Bara",
      "name:he": "כפר ברא",
      "boundary": "administrative",
      "way_area": "0.000217532",
      "wikidata": "Q2915658",
      "wikipedia": "ar:كفر برا",
      "admin_level": "8",
      "complete:relation": "yes"
    }
  },
  {
    "osm_id": -1405256,
    "boundary": "administrative",
    "admin_level": 8,
    "parents": "-11587672,-1400928,-1473946",
    "name": "Jaljulya",
    "local_name": "جلجولية",
    "name_en": "Jaljulya",
    "all_tags": {
      "name": "جلجولية",
      "name:ar": "جلجولية",
      "name:en": "Jaljulya",
      "name:fr": "Jaljulia",
      "name:he": "ג'לג'וליה",
      "boundary": "administrative",
      "way_area": "0.000236165",
      "wikidata": "Q2915655",
      "wikipedia": "ar:جلجولية",
      "admin_level": "8",
      "complete:relation": "yes"
    }
  },
  {
    "osm_id": -1404543,
    "boundary": "administrative",
    "admin_level": 8,
    "parents": "-11586940,-1375620,-1473946",
    "name": "Hurfeish",
    "local_name": "حرفيش",
    "name_en": "Hurfeish",
    "all_tags": {
      "name": "حرفيش",
      "name:ar": "حرفيش",
      "name:en": "Hurfeish",
      "name:fr": "Hurfeish",
      "name:he": "חורפיש",
      "boundary": "administrative",
      "way_area": "0.000601028",
      "wikidata": "Q2655024",
      "wikipedia": "ar:حرفيش (قرية)",
      "admin_level": "8",
      "complete:relation": "yes"
    }
  },
  {
    "osm_id": -1404529,
    "boundary": "administrative",
    "admin_level": 8,
    "parents": "-11586940,-1375620,-1473946",
    "name": "Maalot Tarshiha",
    "local_name": "מעלות תרשיחא",
    "name_en": "Maalot Tarshiha",
    "all_tags": {
      "ele": "521",
      "name": "מעלות תרשיחא",
      "name:ar": "معلوت ترشيحا",
      "name:en": "Maalot Tarshiha",
      "name:fr": "Ma'alot-Tarshiha",
      "name:he": "מעלות תרשיחא",
      "name:pl": "Ma'alot-Tarszicha",
      "website": "http://www.maltar.org.il",
      "boundary": "administrative",
      "way_area": "0.000893537",
      "wikidata": "Q152385",
      "wikipedia": "he:מעלות-תרשיחא",
      "population": "24364",
      "admin_level": "8",
      "alt_name:ar": "معالوت ترشيحا",
      "complete:relation": "yes"
    }
  },
  {
    "osm_id": -1404516,
    "boundary": "administrative",
    "admin_level": 8,
    "parents": "-11586940,-1375620,-1473946",
    "name": "Fassuta",
    "local_name": "فسوطة",
    "name_en": "Fassuta",
    "all_tags": {
      "name": "فسوطة",
      "name:ar": "فسوطة",
      "name:en": "Fassuta",
      "name:fr": "Fassuta",
      "name:he": "פסוטה",
      "boundary": "administrative",
      "way_area": "0.00106695",
      "wikidata": "Q2917294",
      "wikipedia": "he:פסוטה",
      "admin_level": "8",
      "complete:relation": "yes"
    }
  },
  {
    "osm_id": -1403485,
    "boundary": "administrative",
    "admin_level": 8,
    "parents": "-11584519,-1400966,-1473946",
    "name": "Isfiya",
    "local_name": "عسفيا",
    "name_en": "Isfiya",
    "all_tags": {
      "name": "عسفيا",
      "name:ar": "عسفيا",
      "name:en": "Isfiya",
      "name:fr": "Isfiya",
      "name:he": "עוספייא",
      "boundary": "administrative",
      "way_area": "0.000690655",
      "wikidata": "Q2890836",
      "wikipedia": "ar:عسفيا",
      "admin_level": "8",
      "complete:relation": "yes"
    }
  },
  {
    "osm_id": -1403095,
    "boundary": "administrative",
    "admin_level": 8,
    "parents": "-11584519,-1400966,-1473946",
    "name": "Daliyat al-Karmel",
    "local_name": "دالية الكرمل",
    "name_en": "Daliyat al-Karmel",
    "all_tags": {
      "name": "دالية الكرمل",
      "name:ar": "دالية الكرمل",
      "name:en": "Daliyat al-Karmel",
      "name:fr": "Daliat el Karmel",
      "name:he": "דלית אל-כרמל",
      "boundary": "administrative",
      "way_area": "0.000907681",
      "wikidata": "Q2667061",
      "wikipedia": "ar:دالية الكرمل",
      "admin_level": "8",
      "complete:relation": "yes"
    }
  },
  {
    "osm_id": -1403089,
    "boundary": "administrative",
    "admin_level": 8,
    "parents": "-11584519,-1400966,-1473946",
    "name": "Tirat HaCarmel",
    "local_name": "טירת הכרמל",
    "name_en": "Tirat HaCarmel",
    "all_tags": {
      "name": "טירת הכרמל",
      "name:ar": "طيرة الكرمل",
      "name:en": "Tirat HaCarmel",
      "name:fr": "Tirat Carmel",
      "name:he": "טירת הכרמל",
      "boundary": "administrative",
      "way_area": "0.000646308",
      "wikidata": "Q168215",
      "wikipedia": "he:טירת כרמל",
      "admin_level": "8"
    }
  },
  {
    "osm_id": -1401800,
    "boundary": "administrative",
    "admin_level": 8,
    "parents": "-11584519,-1400966,-1473946",
    "name": "Kiryat Tivon",
    "local_name": "קריית טבעון",
    "name_en": "Kiryat Tivon",
    "all_tags": {
      "name": "קריית טבעון",
      "name:en": "Kiryat Tivon",
      "name:fr": "Kiryat Tivon",
      "name:he": "קריית טבעון",
      "name:ru": "Кирьят-Тивон",
      "boundary": "administrative",
      "way_area": "0.000890031",
      "wikidata": "Q1743479",
      "wikipedia": "he:קריית טבעון",
      "admin_level": "8",
      "complete:relation": "yes"
    }
  },
  {
    "osm_id": -1401793,
    "boundary": "administrative",
    "admin_level": 8,
    "parents": "-11586940,-1375620,-1473946",
    "name": "Yanoah - Jatt",
    "local_name": "يانوح جت",
    "name_en": "Yanoah - Jatt",
    "all_tags": {
      "name": "يانوح جت",
      "name:ar": "يانوح جت",
      "name:en": "Yanoah - Jatt",
      "name:fr": "Yanuh-Jat",
      "name:he": "יאנוח - ג'ת",
      "boundary": "administrative",
      "way_area": "0.00130747",
      "wikidata": "Q2890238",
      "wikipedia": "he:יאנוח-ג'ת",
      "admin_level": "8",
      "alt_name:ar": "يانوح جث;يانوح-جت‎",
      "complete:relation": "yes"
    }
  },
  {
    "osm_id": -1401781,
    "boundary": "administrative",
    "admin_level": 8,
    "parents": "-11587672,-1400928,-1473946",
    "name": "Rosh HaAyin",
    "local_name": "ראש העין",
    "name_en": "Rosh HaAyin",
    "all_tags": {
      "ele": "81",
      "name": "ראש העין",
      "name:ar": "رأس العين",
      "name:en": "Rosh HaAyin",
      "name:fr": "Rosh HaAyin",
      "name:he": "ראש העין",
      "website": "http://www.rosh-haayin.muni.il/",
      "boundary": "administrative",
      "way_area": "0.00151623",
      "wikidata": "Q168202",
      "wikipedia": "he:ראש העין",
      "population": "54688",
      "admin_level": "8",
      "alt_name:ar": "روش هاعين",
      "alt_name:ar1": "روش هعاين",
      "complete:relation": "yes"
    }
  },
  {
    "osm_id": -1401193,
    "boundary": "administrative",
    "admin_level": 8,
    "parents": "-11587672,-1400928,-1473946",
    "name": "Ganei Tikva",
    "local_name": "גני תקווה",
    "name_en": "Ganei Tikva",
    "all_tags": {
      "name": "גני תקווה",
      "name:ar": "غني تيكفا",
      "name:en": "Ganei Tikva",
      "name:fr": "Ganei Tikva",
      "name:he": "גני תקווה",
      "boundary": "administrative",
      "way_area": "0.000205934",
      "wikidata": "Q2920123",
      "wikipedia": "he:גני תקווה",
      "admin_level": "8",
      "alt_name:ar": "جني تيكفا",
      "complete:relation": "yes"
    }
  },
  {
    "osm_id": -1399264,
    "boundary": "administrative",
    "admin_level": 8,
    "parents": "-11586982,-1375620,-1473946",
    "name": "Basmat Tabun",
    "local_name": "بسمة طبعون",
    "name_en": "Basmat Tabun",
    "all_tags": {
      "name": "بسمة طبعون",
      "name:ar": "بسمة طبعون",
      "name:en": "Basmat Tabun",
      "name:fr": "Basmat Tab'un",
      "name:he": "בסמת טבעון",
      "boundary": "administrative",
      "way_area": "0.00037802",
      "wikidata": "Q2651477",
      "wikipedia": "he:בסמת טבעון",
      "admin_level": "8",
      "complete:relation": "yes"
    }
  },
  {
    "osm_id": -1399133,
    "boundary": "administrative",
    "admin_level": 8,
    "parents": "-11587672,-1400928,-1473946",
    "name": "Elad",
    "local_name": "אלעד",
    "name_en": "Elad",
    "all_tags": {
      "ele": "122",
      "name": "אלעד",
      "name:ar": "إلعاد",
      "name:en": "Elad",
      "name:fr": "El'ad",
      "name:he": "אלעד",
      "website": "http://www.elad.muni.il/",
      "boundary": "administrative",
      "way_area": "0.000332966",
      "wikidata": "Q152399",
      "wikipedia": "he:אלעד",
      "population": "47033",
      "admin_level": "8",
      "complete:relation": "yes"
    }
  },
  {
    "osm_id": -1399119,
    "boundary": "administrative",
    "admin_level": 8,
    "parents": "-11586940,-1375620,-1473946",
    "name": "Abu Snan",
    "local_name": "أبو سنان",
    "name_en": "Abu Snan",
    "all_tags": {
      "name": "أبو سنان",
      "name:ar": "أبو سنان",
      "name:en": "Abu Snan",
      "name:fr": "Abu Snan",
      "name:he": "אבו סנאן",
      "boundary": "administrative",
      "way_area": "0.000625932",
      "wikidata": "Q2572624",
      "wikipedia": "en:Abu Snan",
      "admin_level": "8",
      "complete:relation": "yes"
    }
  },
  {
    "osm_id": -1398023,
    "boundary": "administrative",
    "admin_level": 8,
    "parents": "-11584745,-1400966,-1473946",
    "name": "Harish",
    "local_name": "חריש",
    "name_en": "Harish",
    "all_tags": {
      "name": "חריש",
      "name:ar": "حريش",
      "name:en": "Harish",
      "name:fr": "Harish",
      "name:he": "חריש",
      "boundary": "administrative",
      "way_area": "0.000675699",
      "wikidata": "Q2891177",
      "wikipedia": "he:חריש (יישוב)",
      "admin_level": "8",
      "complete:relation": "yes"
    }
  },
  {
    "osm_id": -1398019,
    "boundary": "administrative",
    "admin_level": 8,
    "parents": "-11584745,-1400966,-1473946",
    "name": "Baqa al-Gharbiyye",
    "local_name": "باقة الغربية",
    "name_en": "Baqa al-Gharbiyye",
    "all_tags": {
      "name": "باقة الغربية",
      "name:ar": "باقة الغربية",
      "name:en": "Baqa al-Gharbiyye",
      "name:fr": "Baka Jatt",
      "name:he": "באקה אל-גרבייה",
      "boundary": "administrative",
      "way_area": "0.000882444",
      "wikidata": "Q2916599",
      "wikipedia": "he:באקה אל-גרבייה",
      "admin_level": "8",
      "complete:relation": "yes"
    }
  },
  {
    "osm_id": -1398018,
    "boundary": "administrative",
    "admin_level": 8,
    "parents": "-11587694,-1400928,-1473946",
    "name": "Zemer",
    "local_name": "زيمر‎",
    "name_en": "Zemer",
    "all_tags": {
      "name": "زيمر‎",
      "image": "https://upload.wikimedia.org/wikipedia/commons/f/fe/Marjaa.jpg",
      "name:ar": "زيمر‎",
      "name:en": "Zemer",
      "name:fr": "Zemer",
      "name:he": "זמר",
      "boundary": "administrative",
      "way_area": "0.000786601",
      "wikidata": "Q2920220",
      "wikipedia": "en:Zemer",
      "admin_level": "8",
      "wikipedia:en": "Zemer",
      "wikipedia:he": "זמר (יישוב)",
      "complete:relation": "yes"
    }
  },
  {
    "osm_id": -1395620,
    "boundary": "administrative",
    "admin_level": 8,
    "parents": "-11587694,-1400928,-1473946",
    "name": "Tel Mond",
    "local_name": "תל מונד",
    "name_en": "Tel Mond",
    "all_tags": {
      "name": "תל מונד",
      "name:en": "Tel Mond",
      "name:fr": "Tel Mond",
      "name:he": "תל מונד",
      "boundary": "administrative",
      "way_area": "0.000681872",
      "wikidata": "Q2304754",
      "wikipedia": "he:תל מונד",
      "admin_level": "8",
      "complete:relation": "yes"
    }
  },
  {
    "osm_id": -1395619,
    "boundary": "administrative",
    "admin_level": 8,
    "parents": "-11587694,-1400928,-1473946",
    "name": "Even Yehuda",
    "local_name": "אבן יהודה",
    "name_en": "Even Yehuda",
    "all_tags": {
      "name": "אבן יהודה",
      "name:ar": "إيفن يهودا",
      "name:en": "Even Yehuda",
      "name:fr": "Even-Yéhouda",
      "name:he": "אבן יהודה",
      "boundary": "administrative",
      "way_area": "0.000791189",
      "wikidata": "Q2915760",
      "wikipedia": "he:אבן יהודה",
      "admin_level": "8",
      "complete:relation": "yes"
    }
  },
  {
    "osm_id": -1395618,
    "boundary": "administrative",
    "admin_level": 8,
    "parents": "-11587694,-1400928,-1473946",
    "name": "Kalanswa",
    "local_name": "قلنسوة",
    "name_en": "Kalanswa",
    "all_tags": {
      "name": "قلنسوة",
      "name:ar": "قلنسوة",
      "name:en": "Kalanswa",
      "name:fr": "Qalansawe",
      "name:he": "קלנסווה",
      "boundary": "administrative",
      "way_area": "0.00079835",
      "wikidata": "Q168152",
      "wikipedia": "he:קלנסווה",
      "admin_level": "8",
      "complete:relation": "yes"
    }
  },
  {
    "osm_id": -1395617,
    "boundary": "administrative",
    "admin_level": 8,
    "parents": "-11587694,-1400928,-1473946",
    "name": "Kadima - Zoran",
    "local_name": "קדימה - צורן",
    "name_en": "Kadima - Zoran",
    "all_tags": {
      "name": "קדימה - צורן",
      "name:en": "Kadima - Zoran",
      "name:fr": "Tzoran-Kadima",
      "name:he": "קדימה - צורן",
      "boundary": "administrative",
      "way_area": "0.00100404",
      "wikidata": "Q2670398",
      "wikipedia": "he:קדימה-צורן",
      "admin_level": "8",
      "complete:relation": "yes"
    }
  },
  {
    "osm_id": -1393026,
    "boundary": "administrative",
    "admin_level": 8,
    "parents": "-11586940,-1375620,-1473946",
    "name": "Bet Jan",
    "local_name": "بيت جن",
    "name_en": "Bet Jan",
    "all_tags": {
      "name": "بيت جن",
      "name:ar": "بيت جن",
      "name:en": "Bet Jan",
      "name:fr": "Beit Jann",
      "name:he": "בית ג'ן",
      "boundary": "administrative",
      "way_area": "0.00069428",
      "wikidata": "Q814900",
      "wikipedia": "ar:بيت جن",
      "admin_level": "8",
      "complete:relation": "yes"
    }
  },
  {
    "osm_id": -1393009,
    "boundary": "administrative",
    "admin_level": 8,
    "parents": "-11586908,-1375620,-1473946",
    "name": "Jish",
    "local_name": "الجش",
    "name_en": "Jish",
    "all_tags": {
      "name": "الجش",
      "name:ar": "الجش",
      "name:cs": "Džiš",
      "name:de": "Gisch",
      "name:en": "Jish",
      "name:es": "Gush Halav",
      "name:fi": "Jish",
      "name:fr": "Jish",
      "name:he": "ג'יש",
      "name:it": "Jish",
      "name:nn": "Jish",
      "name:pl": "Dżisz",
      "name:ru": "Джиш",
      "name:sv": "Jīsh",
      "boundary": "administrative",
      "way_area": "0.000681428",
      "wikidata": "Q1527236",
      "wikipedia": "ar:الجش (الجليل)",
      "admin_level": "8",
      "complete:relation": "yes"
    }
  },
  {
    "osm_id": -1392988,
    "boundary": "administrative",
    "admin_level": 8,
    "parents": "-11586940,-1375620,-1473946",
    "name": "Sakhnin",
    "local_name": "سخنين",
    "name_en": "Sakhnin",
    "all_tags": {
      "ele": "223",
      "name": "سخنين",
      "name:ar": "سخنين",
      "name:cs": "Sachnín",
      "name:en": "Sakhnin",
      "name:fa": "سخنین",
      "name:fr": "Sakhnin",
      "name:he": "סכנין",
      "name:ru": "Сахнин",
      "name:ur": "سخنین",
      "website": "http://www.sakhnin.muni.il",
      "boundary": "administrative",
      "way_area": "0.00111075",
      "wikidata": "Q168330",
      "wikipedia": "ar:سخنين",
      "population": "29856",
      "admin_level": "8",
      "alt_name:he": "סח'נין",
      "complete:relation": "yes"
    }
  },
  {
    "osm_id": -1392964,
    "boundary": "administrative",
    "admin_level": 8,
    "parents": "-11586940,-1375620,-1473946",
    "name": "Rameh",
    "local_name": "الرامة",
    "name_en": "Rameh",
    "all_tags": {
      "name": "الرامة",
      "name:ar": "الرامة",
      "name:cs": "Rama",
      "name:en": "Rameh",
      "name:es": "Rama",
      "name:fi": "Al-Rama",
      "name:fr": "Rameh",
      "name:he": "ראמה",
      "name:nn": "Rameh",
      "name:pl": "Rama",
      "name:ru": "Раме",
      "name:sv": "Rama",
      "boundary": "administrative",
      "way_area": "0.000625804",
      "wikidata": "Q2915661",
      "wikipedia": "ar:الرامة (عكا)",
      "admin_level": "8",
      "complete:relation": "yes"
    }
  },
  {
    "osm_id": -1392894,
    "boundary": "administrative",
    "admin_level": 8,
    "parents": "-11584745,-1400966,-1473946",
    "name": "Jisr az-Zarqa",
    "local_name": "جسر الزرقاء",
    "name_en": "Jisr az-Zarqa",
    "all_tags": {
      "name": "جسر الزرقاء",
      "name:ar": "جسر الزرقاء",
      "name:en": "Jisr az-Zarqa",
      "name:fr": "Jisr az-Zarqa",
      "name:he": "ג׳סר א-זרקא",
      "boundary": "administrative",
      "way_area": "0.000198953",
      "wikidata": "Q764601",
      "wikipedia": "ar:جسر الزرقاء",
      "admin_level": "8",
      "alt_name:he": "ג'יסר א-זרקא",
      "complete:relation": "yes"
    }
  },
  {
    "osm_id": -1392861,
    "boundary": "administrative",
    "admin_level": 8,
    "parents": "-11587694,-1400928,-1473946",
    "name": "Elyachin",
    "local_name": "אליכין",
    "name_en": "Elyachin",
    "all_tags": {
      "name": "אליכין",
      "name:en": "Elyachin",
      "name:fr": "Elyakhin",
      "name:he": "אליכין",
      "boundary": "administrative",
      "way_area": "0.000161913",
      "wikidata": "Q2920239",
      "wikipedia": "he:אליכין",
      "admin_level": "8",
      "complete:relation": "yes"
    }
  },
  {
    "osm_id": -1392860,
    "boundary": "administrative",
    "admin_level": 8,
    "parents": "-11584745,-1400966,-1473946",
    "name": "Hadera",
    "local_name": "חדרה",
    "name_en": "Hadera",
    "all_tags": {
      "ele": "19",
      "name": "חדרה",
      "name:ar": "الخضيرة",
      "name:cs": "Chadera",
      "name:en": "Hadera",
      "name:fr": "Hadera",
      "name:he": "חדרה",
      "name:ja": "ハデラ",
      "name:ko": "하데라",
      "name:ru": "Хадера",
      "website": "http://www.hadera.muni.il/",
      "boundary": "administrative",
      "way_area": "0.00539616",
      "wikidata": "Q471886",
      "wikipedia": "he:חדרה",
      "population": "102223",
      "admin_level": "8",
      "complete:relation": "yes"
    }
  },
  {
    "osm_id": -1392849,
    "boundary": "administrative",
    "admin_level": 8,
    "parents": "-11584745,-1400966,-1473946",
    "name": "Pardes Hana - Karkur",
    "local_name": "פרדס חנה - כרכור",
    "name_en": "Pardes Hana - Karkur",
    "all_tags": {
      "name": "פרדס חנה - כרכור",
      "name:ar": "برديس حنا-كركور",
      "name:en": "Pardes Hana - Karkur",
      "name:fr": "Pardes Hanna-Karkur",
      "name:he": "פרדס חנה - כרכור",
      "boundary": "administrative",
      "way_area": "0.00219115",
      "wikidata": "Q2475182",
      "wikipedia": "he:פרדס חנה-כרכור",
      "admin_level": "8",
      "complete:relation": "yes"
    }
  },
  {
    "osm_id": -1392848,
    "boundary": "administrative",
    "admin_level": 8,
    "parents": "-11584745,-1400966,-1473946",
    "name": "Or Akiva",
    "local_name": "אור עקיבא",
    "name_en": "Or Akiva",
    "all_tags": {
      "name": "אור עקיבא",
      "name:ar": "أور عقيفا",
      "name:cs": "Or Akiva",
      "name:en": "Or Akiva",
      "name:fr": "Or Aqiva",
      "name:he": "אור עקיבא",
      "boundary": "administrative",
      "way_area": "0.000532027",
      "wikidata": "Q1814658",
      "wikipedia": "he:אור עקיבא",
      "admin_level": "8",
      "alt_name:ar": "اُور عَكيفا",
      "complete:relation": "yes"
    }
  },
  {
    "osm_id": -1392847,
    "boundary": "administrative",
    "admin_level": 8,
    "parents": "-11584745,-1400966,-1473946",
    "name": "Binyamina - Givat Ada",
    "local_name": "בנימינה - גבעת עדה",
    "name_en": "Binyamina - Givat Ada",
    "all_tags": {
      "name": "בנימינה - גבעת עדה",
      "name:en": "Binyamina - Givat Ada",
      "name:fr": "Binyamina-Giv'at Ada",
      "name:he": "בנימינה - גבעת עדה",
      "boundary": "administrative",
      "way_area": "0.00234172",
      "wikidata": "Q863890",
      "wikipedia": "he:בנימינה-גבעת עדה",
      "admin_level": "8",
      "complete:relation": "yes"
    }
  },
  {
    "osm_id": -1392829,
    "boundary": "administrative",
    "admin_level": 8,
    "parents": "-11584745,-1400966,-1473946",
    "name": "Alona Regional Council",
    "local_name": "מועצה אזורית אלונה",
    "name_en": "Alona Regional Council",
    "all_tags": {
      "name": "מועצה אזורית אלונה",
      "name:en": "Alona Regional Council",
      "name:fr": "Alona",
      "name:he": "מועצה אזורית אלונה",
      "boundary": "administrative",
      "way_area": "0.00264854",
      "wikidata": "Q2424427",
      "wikipedia": "he:מועצה אזורית אלונה",
      "admin_level": "8",
      "complete:relation": "yes"
    }
  },
  {
    "osm_id": -1392828,
    "boundary": "administrative",
    "admin_level": 8,
    "parents": "-11584745,-1400966,-1473946",
    "name": "Zichron Ya'akov",
    "local_name": "זכרון יעקב",
    "name_en": "Zichron Ya'akov",
    "all_tags": {
      "name": "זכרון יעקב",
      "name:ar": "زخرون يعكوف",
      "name:en": "Zichron Ya'akov",
      "name:fr": "Zikhron Yaakov",
      "name:he": "זכרון יעקב",
      "boundary": "administrative",
      "way_area": "0.00302709",
      "wikidata": "Q198399",
      "wikipedia": "he:זכרון יעקב",
      "admin_level": "8",
      "complete:relation": "yes"
    }
  },
  {
    "osm_id": -1392186,
    "boundary": "administrative",
    "admin_level": 8,
    "parents": "-11586940,-1375620,-1473946",
    "name": "Maale Yosef Regional Council",
    "local_name": "מועצה אזורית מעלה יוסף",
    "name_en": "Maale Yosef Regional Council",
    "all_tags": {
      "name": "מועצה אזורית מעלה יוסף",
      "name:ar": "مجلس إقليمي معليه يوسف",
      "name:en": "Maale Yosef Regional Council",
      "name:fr": "Ma'ale Yosef",
      "name:he": "מועצה אזורית מעלה יוסף",
      "boundary": "administrative",
      "name:ar1": "المجلس الإقليمي معليه يوسف",
      "way_area": "0.00900813",
      "wikidata": "Q2436968",
      "wikipedia": "he:מועצה אזורית מעלה יוסף",
      "admin_level": "8",
      "short_name:ar": "معليه يوسف"
    }
  },
  {
    "osm_id": -1392179,
    "boundary": "administrative",
    "admin_level": 8,
    "parents": "-11586940,-1375620,-1473946",
    "name": "Arraba",
    "local_name": "عرابة",
    "name_en": "Arraba",
    "all_tags": {
      "name": "عرابة",
      "name:ar": "عرابة",
      "name:en": "Arraba",
      "name:fr": "Arraba",
      "name:he": "עראבה",
      "boundary": "administrative",
      "name:en1": "Arabe",
      "way_area": "0.000809159",
      "wikidata": "Q2568887",
      "wikipedia": "he:עראבה",
      "admin_level": "8",
      "complete:relation": "yes"
    }
  },
  {
    "osm_id": -1392167,
    "boundary": "administrative",
    "admin_level": 8,
    "parents": "-11586940,-1375620,-1473946",
    "name": "Deir Hanna",
    "local_name": "دير حنا",
    "name_en": "Deir Hanna",
    "all_tags": {
      "name": "دير حنا",
      "name:ar": "دير حنا",
      "name:en": "Deir Hanna",
      "name:fr": "Deir Hanna",
      "name:he": "דיר חנא",
      "boundary": "administrative",
      "way_area": "0.000859112",
      "wikidata": "Q612483",
      "wikipedia": "ar:دير حنا",
      "admin_level": "8",
      "complete:relation": "yes"
    }
  },
  {
    "osm_id": -1392115,
    "boundary": "administrative",
    "admin_level": 8,
    "parents": "-11586940,-1375620,-1473946",
    "name": "Judeida - Makr",
    "local_name": "جديدة-المكر",
    "name_en": "Judeida - Makr",
    "all_tags": {
      "name": "جديدة-المكر",
      "name:ar": "جديدة-المكر",
      "name:en": "Judeida - Makr",
      "name:fr": "Jadeidi-Makr",
      "name:he": "ג'דיידה - מכר",
      "boundary": "administrative",
      "way_area": "0.000876541",
      "wikidata": "Q613180",
      "wikipedia": "ar:جديدة (المكر)",
      "admin_level": "8"
    }
  },
  {
    "osm_id": -1392114,
    "boundary": "administrative",
    "admin_level": 8,
    "parents": "-11586940,-1375620,-1473946",
    "name": "Kafr Yasif",
    "local_name": "كفر ياسيف",
    "name_en": "Kafr Yasif",
    "all_tags": {
      "name": "كفر ياسيف",
      "name:ar": "كفر ياسيف",
      "name:en": "Kafr Yasif",
      "name:fr": "Kafar Yassif",
      "name:he": "כפר יאסיף",
      "boundary": "administrative",
      "way_area": "0.000543646",
      "wikidata": "Q2632879",
      "wikipedia": "ar:كفرياسيف",
      "admin_level": "8",
      "complete:relation": "yes"
    }
  },
  {
    "osm_id": -1392113,
    "boundary": "administrative",
    "admin_level": 8,
    "parents": "-11586940,-1375620,-1473946",
    "name": "Yirka",
    "local_name": "يركا",
    "name_en": "Yirka",
    "all_tags": {
      "name": "يركا",
      "name:ar": "يركا",
      "name:en": "Yirka",
      "name:fr": "Yarka",
      "name:he": "ירכא",
      "boundary": "administrative",
      "way_area": "0.00154991",
      "wikidata": "Q2640151",
      "wikipedia": "ar:يركا",
      "admin_level": "8",
      "complete:relation": "yes"
    }
  },
  {
    "osm_id": -1392112,
    "boundary": "administrative",
    "admin_level": 8,
    "parents": "-11586940,-1375620,-1473946",
    "name": "Julis",
    "local_name": "جولس",
    "name_en": "Julis",
    "all_tags": {
      "name": "جولس",
      "name:ar": "جولس",
      "name:en": "Julis",
      "name:fr": "Julis",
      "name:he": "ג'ולס",
      "boundary": "administrative",
      "way_area": "0.000385353",
      "wikidata": "Q2601777",
      "wikipedia": "ar:جولس",
      "admin_level": "8",
      "complete:relation": "yes"
    }
  },
  {
    "osm_id": -1391830,
    "boundary": "administrative",
    "admin_level": 8,
    "parents": "-11584745,-1400966,-1473946",
    "name": "Arara",
    "local_name": "عرعرة",
    "name_en": "Arara",
    "all_tags": {
      "name": "عرعرة",
      "name:ar": "عرعرة",
      "name:en": "Arara",
      "name:fr": "Ar'ara",
      "name:he": "ערערה",
      "boundary": "administrative",
      "way_area": "0.000890336",
      "wikidata": "Q2915935",
      "wikipedia": "ar:عرعرة",
      "admin_level": "8",
      "complete:relation": "yes"
    }
  },
  {
    "osm_id": -1391829,
    "boundary": "administrative",
    "admin_level": 8,
    "parents": "-11584745,-1400966,-1473946",
    "name": "Kfar Kara",
    "local_name": "كفر قرع",
    "name_en": "Kfar Kara",
    "all_tags": {
      "name": "كفر قرع",
      "name:ar": "كفر قرع",
      "name:en": "Kfar Kara",
      "name:fr": "Kafr Qara",
      "name:he": "כפר קרע",
      "boundary": "administrative",
      "way_area": "0.000749239",
      "wikidata": "Q1721086",
      "wikipedia": "ar:كفر قرع",
      "admin_level": "8",
      "complete:relation": "yes"
    }
  },
  {
    "osm_id": -1391828,
    "boundary": "administrative",
    "admin_level": 8,
    "parents": "-11584745,-1400966,-1473946",
    "name": "Menashe Regional Council",
    "local_name": "מועצה אזורית מנשה",
    "name_en": "Menashe Regional Council",
    "all_tags": {
      "name": "מועצה אזורית מנשה",
      "name:ar": "مجلس منشة الإقليمي",
      "name:en": "Menashe Regional Council",
      "name:fr": "Menashe",
      "name:he": "מועצה אזורית מנשה",
      "boundary": "administrative",
      "way_area": "0.0107289",
      "wikidata": "Q731661",
      "wikipedia": "he:מועצה אזורית מנשה",
      "admin_level": "8",
      "complete:relation": "yes"
    }
  },
  {
    "osm_id": -1391826,
    "boundary": "administrative",
    "admin_level": 8,
    "parents": "-11584745,-1400966,-1473946",
    "name": "Basma",
    "local_name": "بسمة",
    "name_en": "Basma",
    "all_tags": {
      "name": "بسمة",
      "name:ar": "بسمة",
      "name:en": "Basma",
      "name:fr": "Basma",
      "name:he": "בסמ\"ה",
      "boundary": "administrative",
      "way_area": "0.00053859",
      "wikidata": "Q2890539",
      "wikipedia": "ar:بسمة (مجلس محلي)",
      "admin_level": "8",
      "complete:relation": "yes"
    }
  },
  {
    "osm_id": -1391710,
    "boundary": "administrative",
    "admin_level": 8,
    "parents": "-11584745,-1400966,-1473946",
    "name": "Hof HaCarmel Regional Council",
    "local_name": "מועצה אזורית חוף הכרמל",
    "name_en": "Hof HaCarmel Regional Council",
    "all_tags": {
      "name": "מועצה אזורית חוף הכרמל",
      "name:ar": "مجلس إقليمي شاطئ الكرمل",
      "name:en": "Hof HaCarmel Regional Council",
      "name:fr": "Côte de Carmel",
      "name:he": "מועצה אזורית חוף הכרמל",
      "boundary": "administrative",
      "way_area": "0.018727",
      "wikidata": "Q1915911",
      "wikipedia": "he:מועצה אזורית חוף הכרמל",
      "admin_level": "8",
      "alt_name:ar": "المجلس الإقليمي شاطئ الكرمل;مجلس إقليمي حوف هكرمل;المجلس الإقليمي حوف هكرمل;حوف هكرمل",
      "addr:postcode": "30***",
      "short_name:ar": "شاطئ الكرمل",
      "complete:relation": "yes"
    }
  },
  {
    "osm_id": -1391709,
    "boundary": "administrative",
    "admin_level": 8,
    "parents": "-11584745,-1400966,-1473946",
    "name": "Fureidis",
    "local_name": "الفريديس",
    "name_en": "Fureidis",
    "all_tags": {
      "name": "الفريديس",
      "name:ar": "الفريديس",
      "name:en": "Fureidis",
      "name:fr": "Fureidis",
      "name:he": "פוריידיס",
      "boundary": "administrative",
      "way_area": "0.000389758",
      "wikidata": "Q1011538",
      "wikipedia": "ar:الفريديس",
      "admin_level": "8",
      "alt_name:ar": "فريديس;فـُرَيـْدِيس",
      "complete:relation": "yes"
    }
  },
  {
    "osm_id": -1391621,
    "boundary": "administrative",
    "admin_level": 8,
    "parents": "-11586982,-1375620,-1473946",
    "name": "Yokneam Ilit",
    "local_name": "יקנעם עילית",
    "name_en": "Yokneam Ilit",
    "all_tags": {
      "name": "יקנעם עילית",
      "name:en": "Yokneam Ilit",
      "name:fr": "Yoqneam",
      "name:he": "יקנעם עילית",
      "boundary": "administrative",
      "way_area": "0.000798909",
      "wikidata": "Q167582",
      "wikipedia": "he:יקנעם עילית",
      "admin_level": "8",
      "complete:relation": "yes"
    }
  },
  {
    "osm_id": -1389571,
    "boundary": "administrative",
    "admin_level": 8,
    "parents": "-11587694,-1400928,-1473946",
    "name": "Taibe",
    "local_name": "الطيبة",
    "name_en": "Taibe",
    "all_tags": {
      "ele": "64",
      "name": "الطيبة",
      "name:ar": "الطيبة",
      "name:en": "Taibe",
      "name:fr": "Tayibe",
      "name:he": "טייבה",
      "website": "http://www.taibeh.muni.il/",
      "boundary": "administrative",
      "way_area": "0.00181775",
      "wikidata": "Q1022481",
      "wikipedia": "he:טייבה",
      "population": "43567",
      "admin_level": "8",
      "alt_name:ar": "الطيّبة‎",
      "complete:relation": "yes"
    }
  },
  {
    "osm_id": -1389567,
    "boundary": "administrative",
    "admin_level": 8,
    "parents": "-11587694,-1400928,-1473946",
    "name": "Tira",
    "local_name": "الطيرة",
    "name_en": "Tira",
    "all_tags": {
      "name": "الطيرة",
      "name:ar": "الطيرة",
      "name:en": "Tira",
      "name:fr": "Tira",
      "name:he": "טירה",
      "boundary": "administrative",
      "way_area": "0.0011339",
      "wikidata": "Q167594",
      "wikipedia": "he:טירה (עיר)",
      "admin_level": "8",
      "complete:relation": "yes"
    }
  },
  {
    "osm_id": -1389566,
    "boundary": "administrative",
    "admin_level": 8,
    "parents": "-11587672,-1400928,-1473946",
    "name": "Kochav Yair",
    "local_name": "כוכב יאיר",
    "name_en": "Kochav Yair",
    "all_tags": {
      "name": "כוכב יאיר",
      "name:en": "Kochav Yair",
      "name:fr": "Kokhav Yaïr Tsour Yigaël",
      "name:he": "כוכב יאיר",
      "boundary": "administrative",
      "way_area": "0.000293062",
      "wikidata": "Q2594036",
      "wikipedia": "he:כוכב יאיר צור יגאל",
      "admin_level": "8",
      "complete:relation": "yes"
    }
  },
  {
    "osm_id": -1389557,
    "boundary": "administrative",
    "admin_level": 8,
    "parents": "-11587694,-1400928,-1473946",
    "name": "Lev HaSharon Regional Council",
    "local_name": "מועצה אזורית לב השרון",
    "name_en": "Lev HaSharon Regional Council",
    "all_tags": {
      "name": "מועצה אזורית לב השרון",
      "name:en": "Lev HaSharon Regional Council",
      "name:fr": "Lev HaSharon",
      "name:he": "מועצה אזורית לב השרון",
      "boundary": "administrative",
      "way_area": "0.00528799",
      "wikidata": "Q1822040",
      "wikipedia": "he:מועצה אזורית לב השרון",
      "admin_level": "8",
      "complete:relation": "yes"
    }
  },
  {
    "osm_id": -1388019,
    "boundary": "administrative",
    "admin_level": 8,
    "parents": "-11586940,-1375620,-1473946",
    "name": "Kisra - Sumei",
    "local_name": "كيسرى-كفر سميع",
    "name_en": "Kisra - Sumei",
    "all_tags": {
      "name": "كيسرى-كفر سميع",
      "name:ar": "كيسرى-كفر سميع",
      "name:en": "Kisra - Sumei",
      "name:fr": "Kisra-Sumei",
      "name:he": "כסרה - סמיע",
      "boundary": "administrative",
      "way_area": "0.00136543",
      "wikidata": "Q2890184",
      "wikipedia": "ar:كسرى-كفرسميع",
      "admin_level": "8"
    }
  },
  {
    "osm_id": -1388015,
    "boundary": "administrative",
    "admin_level": 8,
    "parents": "-11586940,-1375620,-1473946",
    "name": "Sajur",
    "local_name": "ساجور",
    "name_en": "Sajur",
    "all_tags": {
      "name": "ساجور",
      "name:ar": "ساجور",
      "name:en": "Sajur",
      "name:fr": "Sajur",
      "name:he": "סג'ור",
      "boundary": "administrative",
      "way_area": "0.000344071",
      "wikidata": "Q732433",
      "wikipedia": "ar:ساجور",
      "admin_level": "8",
      "complete:relation": "yes"
    }
  },
  {
    "osm_id": -1388009,
    "boundary": "administrative",
    "admin_level": 8,
    "parents": "-11586940,-1375620,-1473946",
    "name": "Nahf",
    "local_name": "نحف",
    "name_en": "Nahf",
    "all_tags": {
      "name": "نحف",
      "name:ar": "نحف",
      "name:en": "Nahf",
      "name:fr": "Nahf",
      "name:he": "נחף",
      "boundary": "administrative",
      "way_area": "0.000584913",
      "wikidata": "Q2390257",
      "wikipedia": "ar:نحف",
      "admin_level": "8",
      "complete:relation": "yes"
    }
  },
  {
    "osm_id": -1387994,
    "boundary": "administrative",
    "admin_level": 8,
    "parents": "-11586940,-1375620,-1473946",
    "name": "Shaab",
    "local_name": "شعب‎",
    "name_en": "Shaab",
    "all_tags": {
      "name": "شعب‎",
      "name:ar": "شعب‎",
      "name:en": "Shaab",
      "name:fr": "Sha'ab",
      "name:he": "שעב",
      "boundary": "administrative",
      "way_area": "0.000518782",
      "wikidata": "Q2655669",
      "wikipedia": "ar:شعب (الجليل)",
      "admin_level": "8",
      "complete:relation": "yes"
    }
  },
  {
    "osm_id": -1387992,
    "boundary": "administrative",
    "admin_level": 8,
    "parents": "-11586940,-1375620,-1473946",
    "name": "Majd el Kurum",
    "local_name": "مجد الكروم",
    "name_en": "Majd el Kurum",
    "all_tags": {
      "name": "مجد الكروم",
      "name:ar": "مجد الكروم",
      "name:en": "Majd el Kurum",
      "name:fr": "Majd al-Krum",
      "name:he": "מג'ד אל כרום",
      "boundary": "administrative",
      "way_area": "0.000897207",
      "wikidata": "Q2777868",
      "wikipedia": "he:מג'ד אל-כרום",
      "admin_level": "8",
      "complete:relation": "yes"
    }
  },
  {
    "osm_id": -1387991,
    "boundary": "administrative",
    "admin_level": 8,
    "parents": "-11586940,-1375620,-1473946",
    "name": "Bi'na",
    "local_name": "البعنة",
    "name_en": "Bi'na",
    "all_tags": {
      "name": "البعنة",
      "name:ar": "البعنة",
      "name:en": "Bi'na",
      "name:fr": "Bi'ina",
      "name:he": "בענה",
      "boundary": "administrative",
      "way_area": "0.000333586",
      "wikidata": "Q2890909",
      "wikipedia": "ar:البعنة",
      "admin_level": "8",
      "alt_name:ar": "بعنة",
      "alt_name:en": "Bi'ina;Al-Bi'na;Al-Bi'ina;Al-Baana;el-Baneh;Al-Baneh",
      "complete:relation": "yes"
    }
  },
  {
    "osm_id": -1387990,
    "boundary": "administrative",
    "admin_level": 8,
    "parents": "-11586940,-1375620,-1473946",
    "name": "Karmiel",
    "local_name": "כרמיאל",
    "name_en": "Karmiel",
    "all_tags": {
      "ele": "270",
      "name": "כרמיאל",
      "name:ar": "كرمئيل",
      "name:en": "Karmiel",
      "name:fr": "Karmiel",
      "name:he": "כרמיאל",
      "website": "http://www.karmiel.muni.il/",
      "boundary": "administrative",
      "way_area": "0.00212317",
      "wikidata": "Q152418",
      "wikipedia": "he:כרמיאל",
      "population": "53736",
      "admin_level": "8",
      "complete:relation": "yes"
    }
  },
  {
    "osm_id": -1387988,
    "boundary": "administrative",
    "admin_level": 8,
    "parents": "-11586940,-1375620,-1473946",
    "name": "Deir al Asad",
    "local_name": "دير الأسد",
    "name_en": "Deir al Asad",
    "all_tags": {
      "name": "دير الأسد",
      "name:ar": "دير الأسد",
      "name:en": "Deir al Asad",
      "name:fr": "Deir al-Asad",
      "name:he": "דיר אל אסד",
      "boundary": "administrative",
      "way_area": "0.000495322",
      "wikidata": "Q612599",
      "wikipedia": "ar:دير الأسد",
      "admin_level": "8",
      "alt_name:en": "Dēr il ʔasad"
    }
  },
  {
    "osm_id": -1387964,
    "boundary": "administrative",
    "admin_level": 8,
    "parents": "-11584519,-1400966,-1473946",
    "name": "Kiryat Motzkin",
    "local_name": "קרית מוצקין",
    "name_en": "Kiryat Motzkin",
    "all_tags": {
      "ele": "9",
      "name": "קרית מוצקין",
      "name:ar": "كريات موصقين",
      "name:en": "Kiryat Motzkin",
      "name:fr": "Kiryat-Motzkin",
      "name:he": "קרית מוצקין",
      "website": "http://www.motzkin.co.il/",
      "boundary": "administrative",
      "way_area": "0.000369437",
      "wikidata": "Q152567",
      "wikipedia": "he:קריית מוצקין",
      "population": "47675",
      "admin_level": "8",
      "alt_name:ar": "كريات موتسكين",
      "complete:relation": "yes"
    }
  },
  {
    "osm_id": -1387962,
    "boundary": "administrative",
    "admin_level": 8,
    "parents": "-11586940,-1375620,-1473946",
    "name": "Acre",
    "local_name": "עכו",
    "name_en": "Acre",
    "all_tags": {
      "ele": "9",
      "name": "עכו",
      "name:am": "ዓኮ",
      "name:ar": "عكا",
      "name:en": "Acre",
      "name:fr": "Acre",
      "name:he": "עכו",
      "name:hi": "एकर",
      "name:it": "Acri",
      "name:ja": "アッコ",
      "name:ku": "Eka",
      "website": "http://www.akko.muni.il/",
      "boundary": "administrative",
      "name:en1": "Acco",
      "name:en2": "Akko",
      "way_area": "0.00174465",
      "wikidata": "Q126084",
      "wikipedia": "he:עכו",
      "population": "55974",
      "admin_level": "8"
    }
  },
  {
    "osm_id": -1387931,
    "boundary": "administrative",
    "admin_level": 8,
    "parents": "-11584519,-1400966,-1473946",
    "name": "Kiryat Yam",
    "local_name": "קרית ים",
    "name_en": "Kiryat Yam",
    "all_tags": {
      "name": "קרית ים",
      "name:ar": "كريات يام",
      "name:en": "Kiryat Yam",
      "name:fi": "Kirjat Jam",
      "name:fr": "Kiryat-Yam",
      "name:he": "קרית ים",
      "boundary": "administrative",
      "way_area": "0.00122501",
      "wikidata": "Q152387",
      "wikipedia": "he:קריית ים",
      "admin_level": "8",
      "complete:relation": "yes"
    }
  },
  {
    "osm_id": -1387889,
    "boundary": "administrative",
    "admin_level": 8,
    "parents": "-11584519,-1400966,-1473946",
    "name": "Nesher",
    "local_name": "נשר",
    "name_en": "Nesher",
    "all_tags": {
      "name": "נשר",
      "name:ar": "نيشر",
      "name:cs": "Nešer",
      "name:en": "Nesher",
      "name:fr": "Nesher",
      "name:he": "נשר",
      "boundary": "administrative",
      "way_area": "0.00124705",
      "wikidata": "Q135432",
      "wikipedia": "he:נשר (עיר)",
      "admin_level": "8",
      "complete:relation": "yes"
    }
  },
  {
    "osm_id": -1387888,
    "boundary": "administrative",
    "admin_level": 8,
    "parents": "-11584519,-1400966,-1473946",
    "name": "Haifa",
    "local_name": "חיפה",
    "name_en": "Haifa",
    "all_tags": {
      "ele": "103",
      "name": "חיפה",
      "place": "minicipality",
      "name:am": "ሐይፋ",
      "name:ar": "حيفا",
      "name:en": "Haifa",
      "name:fi": "Haifa",
      "name:fr": "Haïfa",
      "name:he": "חיפה",
      "name:it": "Haifa",
      "name:ja": "ハイファ",
      "name:ko": "하이파",
      "name:mi": "Haiwha",
      "name:ru": "Хайфа",
      "website": "https://www.haifa.muni.il/",
      "boundary": "administrative",
      "name:arc": "ܚܝܦܐ",
      "way_area": "0.00755078",
      "wikidata": "Q41621",
      "wikipedia": "en:Haifa",
      "population": "279591",
      "admin_level": "8",
      "alt_name:it": "Caifa"
    }
  },
  {
    "osm_id": -1387456,
    "boundary": "administrative",
    "admin_level": 8,
    "parents": "-11584519,-1400966,-1473946",
    "name": "Kiryat Bialik",
    "local_name": "קרית ביאליק",
    "name_en": "Kiryat Bialik",
    "all_tags": {
      "name": "קרית ביאליק",
      "name:ar": "كريات بياليك",
      "name:en": "Kiryat Bialik",
      "name:fr": "Kiryat-Bialik",
      "name:he": "קרית ביאליק",
      "boundary": "administrative",
      "way_area": "0.000827346",
      "wikidata": "Q152374",
      "wikipedia": "he:קריית ביאליק",
      "admin_level": "8",
      "alt_name:ar": "كيرات بياليك",
      "complete:relation": "yes"
    }
  },
  {
    "osm_id": -1387455,
    "boundary": "administrative",
    "admin_level": 8,
    "parents": "-11584519,-1400966,-1473946",
    "name": "Zvulun Regional Council",
    "local_name": "מועצה אזורית זבולון",
    "name_en": "Zvulun Regional Council",
    "all_tags": {
      "name": "מועצה אזורית זבולון",
      "name:ar": "مجلس إقليمي زبولون",
      "name:en": "Zvulun Regional Council",
      "name:fr": "Conseil régional de Zevulun",
      "name:he": "מועצה אזורית זבולון",
      "boundary": "administrative",
      "name:ar1": "المجلس الإقليمي زبولون",
      "way_area": "0.00591236",
      "wikidata": "Q2914961",
      "wikipedia": "he:מועצה אזורית זבולון",
      "admin_level": "8",
      "short_name:ar": "زبولون"
    }
  },
  {
    "osm_id": -1387454,
    "boundary": "administrative",
    "admin_level": 8,
    "parents": "-11584519,-1400966,-1473946",
    "name": "Kiryat Ata",
    "local_name": "קרית אתא",
    "name_en": "Kiryat Ata",
    "all_tags": {
      "ele": "37",
      "name": "קרית אתא",
      "name:ar": "قرية آتا",
      "name:en": "Kiryat Ata",
      "name:fr": "Kiryat-Ata",
      "name:he": "קרית אתא",
      "website": "http://www.kiryat-ata.org.il",
      "boundary": "administrative",
      "way_area": "0.00166925",
      "wikidata": "Q152602",
      "wikipedia": "he:קריית אתא",
      "population": "62821",
      "admin_level": "8",
      "alt_name:ar": "كريات آتا",
      "old_name:ar": "كفر آتا",
      "complete:relation": "yes"
    }
  },
  {
    "osm_id": -1387432,
    "boundary": "administrative",
    "admin_level": 8,
    "parents": "-11586940,-1375620,-1473946",
    "name": "Mate Asher Regional Council",
    "local_name": "מועצה אזורית מטה אשר",
    "name_en": "Mate Asher Regional Council",
    "all_tags": {
      "name": "מועצה אזורית מטה אשר",
      "name:ar": "مجلس اقليمي مطه أشر",
      "name:en": "Mate Asher Regional Council",
      "name:fr": "Conseil régional de Mateh Asher",
      "name:he": "מועצה אזורית מטה אשר",
      "boundary": "administrative",
      "way_area": "0.0207789",
      "wikidata": "Q194689",
      "wikipedia": "he:מועצה אזורית מטה אשר",
      "admin_level": "8",
      "short_name:ar": "مطه أشر"
    }
  },
  {
    "osm_id": -1387401,
    "boundary": "administrative",
    "admin_level": 8,
    "parents": "-11586472,-1375620,-1473946",
    "name": "Ilabun",
    "local_name": "عيلبون",
    "name_en": "Ilabun",
    "all_tags": {
      "name": "عيلبون",
      "name:ar": "عيلبون",
      "name:en": "Ilabun",
      "name:fr": "Eilabun",
      "name:he": "עילבון",
      "boundary": "administrative",
      "way_area": "0.000541905",
      "wikidata": "Q377111",
      "wikipedia": "ar:عيلبون",
      "admin_level": "8",
      "complete:relation": "yes"
    }
  },
  {
    "osm_id": -1387400,
    "boundary": "administrative",
    "admin_level": 8,
    "parents": "-11586472,-1375620,-1473946",
    "name": "Maghar",
    "local_name": "المغار",
    "name_en": "Maghar",
    "all_tags": {
      "name": "المغار",
      "name:ar": "المغار",
      "name:en": "Maghar",
      "name:fr": "Maghar",
      "name:he": "מר'אר",
      "boundary": "administrative",
      "name:ar1": "مغار",
      "way_area": "0.00203422",
      "wikidata": "Q930847",
      "wikipedia": "ar:المغار",
      "admin_level": "8",
      "complete:relation": "yes"
    }
  },
  {
    "osm_id": -1387371,
    "boundary": "administrative",
    "admin_level": 8,
    "parents": "-11586472,-1375620,-1473946",
    "name": "Migdal",
    "local_name": "מגדל",
    "name_en": "Migdal",
    "all_tags": {
      "name": "מגדל",
      "name:ar": "المجدل",
      "name:cs": "Migdal",
      "name:en": "Migdal",
      "name:fr": "Migdal",
      "name:he": "מגדל",
      "boundary": "administrative",
      "way_area": "0.00112019",
      "wikidata": "Q2916182",
      "wikipedia": "he:מגדל (יישוב)",
      "admin_level": "8",
      "complete:relation": "yes"
    }
  },
  {
    "osm_id": -1387370,
    "boundary": "administrative",
    "admin_level": 8,
    "parents": "-1375620,-1473946",
    "name": "Merom HaGalil Regional Council",
    "local_name": "מועצה אזורית מרום הגליל",
    "name_en": "Merom HaGalil Regional Council",
    "all_tags": {
      "name": "מועצה אזורית מרום הגליל",
      "name:ar": "مجلس إقليمي ماروم الجليل",
      "name:en": "Merom HaGalil Regional Council",
      "name:fr": "Conseil Régional Merom HaGalil",
      "name:he": "מועצה אזורית מרום הגליל",
      "boundary": "administrative",
      "name:ar1": "المجلس الإقليمي ماروم الجليل",
      "way_area": "0.0171722",
      "wikidata": "Q680095",
      "wikipedia": "he:מועצה אזורית מרום הגליל",
      "admin_level": "8",
      "short_name:ar": "ماروم الجليل",
      "complete:relation": "yes"
    }
  },
  {
    "osm_id": -1387273,
    "boundary": "administrative",
    "admin_level": 8,
    "parents": "-11586472,-1375620,-1473946",
    "name": "Tveria",
    "local_name": "טבריה",
    "name_en": "Tveria",
    "all_tags": {
      "ele": "-200",
      "name": "טבריה",
      "name:am": "ቲቤሪያ",
      "name:ar": "طبريا",
      "name:el": "Τιβεριάδα",
      "name:en": "Tveria",
      "name:fi": "Tiberias",
      "name:fr": "Tibériade",
      "name:he": "טבריה",
      "name:it": "Tiberiade",
      "name:ja": "ティベリア",
      "name:ko": "티베리아스",
      "name:ru": "Тверия",
      "website": "https://www.tiberias.muni.il/",
      "boundary": "administrative",
      "name:en1": "Tiberias",
      "way_area": "0.00155881",
      "wikidata": "Q151920",
      "wikipedia": "he:טבריה",
      "population": "48505",
      "admin_level": "8",
      "complete:relation": "yes"
    }
  },
  {
    "osm_id": -1387228,
    "boundary": "administrative",
    "admin_level": 8,
    "parents": "-11586472,-1375620,-1473946",
    "name": "Yavneel",
    "local_name": "יבנאל",
    "name_en": "Yavneel",
    "all_tags": {
      "name": "יבנאל",
      "name:en": "Yavneel",
      "name:fr": "Yavnéel",
      "name:he": "יבנאל",
      "boundary": "administrative",
      "way_area": "0.00300161",
      "wikidata": "Q1676894",
      "wikipedia": "he:יבנאל",
      "admin_level": "8",
      "complete:relation": "yes"
    }
  },
  {
    "osm_id": -1386852,
    "boundary": "administrative",
    "admin_level": 8,
    "parents": "-11586940,-1375620,-1473946",
    "name": "Kabul",
    "local_name": "كابول",
    "name_en": "Kabul",
    "all_tags": {
      "name": "كابول",
      "name:ar": "كابول",
      "name:en": "Kabul",
      "name:fr": "Kabul",
      "name:he": "כאבול",
      "boundary": "administrative",
      "way_area": "0.000701092",
      "wikidata": "Q1018884",
      "wikipedia": "ar:كابول (إسرائيل)",
      "admin_level": "8",
      "complete:relation": "yes"
    }
  },
  {
    "osm_id": -1386851,
    "boundary": "administrative",
    "admin_level": 8,
    "parents": "-11586940,-1375620,-1473946",
    "name": "Tamra",
    "local_name": "طمرة‎",
    "name_en": "Tamra",
    "all_tags": {
      "name": "طمرة‎",
      "name:ar": "طمرة‎",
      "name:en": "Tamra",
      "name:fr": "Tamra",
      "name:he": "טמרה",
      "boundary": "administrative",
      "way_area": "0.00286758",
      "wikidata": "Q168176",
      "wikipedia": "ar:طمرة",
      "admin_level": "8",
      "complete:relation": "yes"
    }
  },
  {
    "osm_id": -1386845,
    "boundary": "administrative",
    "admin_level": 8,
    "parents": "-11586940,-1375620,-1473946",
    "name": "Shfaram",
    "local_name": "شفا عمرو",
    "name_en": "Shfaram",
    "all_tags": {
      "ele": "137",
      "name": "شفا عمرو",
      "name:ar": "شفا عمرو",
      "name:en": "Shfaram",
      "name:fr": "Shefa Amr",
      "name:he": "שפרעם",
      "boundary": "administrative",
      "name:ar1": "شفارعم",
      "way_area": "0.00188997",
      "wikidata": "Q990657",
      "wikipedia": "ar:شفا عمرو",
      "population": "40535",
      "admin_level": "8",
      "alt_name:ar": "شفاعمرو",
      "complete:relation": "yes"
    }
  },
  {
    "osm_id": -1386844,
    "boundary": "administrative",
    "admin_level": 8,
    "parents": "-11586940,-1375620,-1473946",
    "name": "Misgav Regional Council",
    "local_name": "מועצה אזורית משגב",
    "name_en": "Misgav Regional Council",
    "all_tags": {
      "name": "מועצה אזורית משגב",
      "name:ar": "مجلس إقليمي مسغاف",
      "name:en": "Misgav Regional Council",
      "name:fr": "Misgav",
      "name:he": "מועצה אזורית משגב",
      "boundary": "administrative",
      "name:ar1": "المجلس الإقليمي مسغاف",
      "way_area": "0.0158127",
      "wikidata": "Q1965822",
      "wikipedia": "he:מועצה אזורית משגב",
      "admin_level": "8",
      "short_name:ar": "مسغاف",
      "complete:relation": "yes"
    }
  },
  {
    "osm_id": -1386843,
    "boundary": "administrative",
    "admin_level": 8,
    "parents": "-11586940,-1375620,-1473946",
    "name": "Kaukab Abu Al Hija",
    "local_name": "كوكب أبو الهيجاء",
    "name_en": "Kaukab Abu Al Hija",
    "all_tags": {
      "name": "كوكب أبو الهيجاء",
      "name:ar": "كوكب أبو الهيجاء",
      "name:en": "Kaukab Abu Al Hija",
      "name:fr": "Kaukab Abu al-Hija",
      "name:he": "כווכב אבו אל-היג'א",
      "boundary": "administrative",
      "name:ar1": "كوكب",
      "way_area": "0.000263046",
      "wikidata": "Q2604424",
      "wikipedia": "ar:كوكب أبو الهيجاء",
      "admin_level": "8",
      "complete:relation": "yes"
    }
  },
  {
    "osm_id": -1386842,
    "boundary": "administrative",
    "admin_level": 8,
    "parents": "-11586940,-1375620,-1473946",
    "name": "Ibilin",
    "local_name": "إعبلين",
    "name_en": "Ibilin",
    "all_tags": {
      "name": "إعبلين",
      "name:ar": "إعبلين",
      "name:cs": "I'billin",
      "name:en": "Ibilin",
      "name:es": "I'billin",
      "name:fi": "I'billin",
      "name:fr": "I'billin",
      "name:he": "אעבלין",
      "name:nn": "I'billin",
      "name:pl": "I’billin",
      "name:ru": "Ибилин",
      "boundary": "administrative",
      "name:ar1": "عبلين",
      "name:ar2": "اعبلين",
      "way_area": "0.0011636",
      "wikidata": "Q2915647",
      "wikipedia": "ar:إعبلين",
      "admin_level": "8",
      "alt_name:ar": "أعبلين",
      "complete:relation": "yes"
    }
  },
  {
    "osm_id": -1386841,
    "boundary": "administrative",
    "admin_level": 8,
    "parents": "-11586940,-1375620,-1473946",
    "name": "Kfar Manda",
    "local_name": "كفر مندا",
    "name_en": "Kfar Manda",
    "all_tags": {
      "name": "كفر مندا",
      "name:ar": "كفر مندا",
      "name:en": "Kfar Manda",
      "name:fr": "Kafr Manda",
      "name:he": "כפר מנדא",
      "boundary": "administrative",
      "way_area": "0.00106169",
      "wikidata": "Q2915534",
      "wikipedia": "ar:كفر مندا",
      "admin_level": "8",
      "complete:relation": "yes"
    }
  },
  {
    "osm_id": -1386840,
    "boundary": "administrative",
    "admin_level": 8,
    "parents": "-11586982,-1375620,-1473946",
    "name": "Turan",
    "local_name": "طرعان",
    "name_en": "Turan",
    "all_tags": {
      "name": "طرعان",
      "name:ar": "طرعان",
      "name:en": "Turan",
      "name:fr": "Turan",
      "name:he": "טורעאן",
      "boundary": "administrative",
      "way_area": "0.00114747",
      "wikidata": "Q2915766",
      "wikipedia": "ar:طرعان",
      "admin_level": "8",
      "complete:relation": "yes"
    }
  },
  {
    "osm_id": -1386839,
    "boundary": "administrative",
    "admin_level": 8,
    "parents": "-11586940,-1375620,-1473946",
    "name": "Bir al-Maksur",
    "local_name": "بئر المكسور",
    "name_en": "Bir al-Maksur",
    "all_tags": {
      "name": "بئر المكسور",
      "name:ar": "بئر المكسور",
      "name:en": "Bir al-Maksur",
      "name:fr": "Bir al-Maksur",
      "name:he": "ביר אל מכסור",
      "boundary": "administrative",
      "way_area": "0.000563275",
      "wikidata": "Q2467031",
      "wikipedia": "ar:بئر المكسور",
      "admin_level": "8",
      "complete:relation": "yes"
    }
  },
  {
    "osm_id": -1386838,
    "boundary": "administrative",
    "admin_level": 8,
    "parents": "-1375620,-1473946",
    "name": "Al Batuf Regional Council",
    "local_name": "مجلس إقليمي البطوف",
    "name_en": "Al Batuf Regional Council",
    "all_tags": {
      "name": "مجلس إقليمي البطوف",
      "name:ar": "مجلس إقليمي البطوف",
      "name:cs": "Oblastní rada al-Batúf",
      "name:en": "Al Batuf Regional Council",
      "name:fr": "Al-Batuf",
      "name:he": "מועצה אזורית אל בטוף",
      "name:nl": "Regionale raad van al-Batuf",
      "name:nn": "Al-Batuf regionale kommune",
      "name:pl": "Samorząd Regionu Al-Batuf",
      "name:ru": "Аль-Батуф",
      "boundary": "administrative",
      "name:ar1": "المجلس الإقليمي البطوف",
      "name:ar2": "منطقة آماری البطوف",
      "way_area": "0.000406588",
      "wikidata": "Q1444669",
      "wikipedia": "he:מועצה אזורית אל-בטוף",
      "admin_level": "8",
      "short_name:ar": "البطوف",
      "complete:relation": "yes"
    }
  },
  {
    "osm_id": -1386837,
    "boundary": "administrative",
    "admin_level": 8,
    "parents": "-11586982,-1375620,-1473946",
    "name": "Biina Nujeidat",
    "local_name": "البعينة",
    "name_en": "Biina Nujeidat",
    "all_tags": {
      "name": "البعينة",
      "name:ar": "البعينة",
      "name:en": "Biina Nujeidat",
      "name:fr": "Bu'eine Nujeidat",
      "name:he": "בועיינה ניג'ידאת",
      "boundary": "administrative",
      "name:ar1": "البعينة نجيدات",
      "way_area": "0.000689298",
      "wikidata": "Q2655774",
      "wikipedia": "en:Bu'eine Nujeidat",
      "admin_level": "8",
      "complete:relation": "yes"
    }
  },
  {
    "osm_id": -1386836,
    "boundary": "administrative",
    "admin_level": 8,
    "parents": "-11586982,-1375620,-1473946",
    "name": "Nazareth",
    "local_name": "الناصرة",
    "name_en": "Nazareth",
    "all_tags": {
      "ele": "347",
      "name": "الناصرة",
      "name:am": "ናጼሬት",
      "name:ar": "الناصرة",
      "name:en": "Nazareth",
      "name:fi": "Nasaret",
      "name:fr": "Nazareth",
      "name:he": "נצרת",
      "name:it": "Nazareth",
      "name:ro": "Nazaret",
      "website": "http://www.nazareth.muni.il/",
      "boundary": "administrative",
      "way_area": "0.0013629",
      "wikidata": "Q430776",
      "wikipedia": "he:נצרת",
      "population": "81631",
      "admin_level": "8",
      "alt_name:it": "Nazaret",
      "complete:relation": "yes"
    }
  },
  {
    "osm_id": -1386835,
    "boundary": "administrative",
    "admin_level": 8,
    "parents": "-11586982,-1375620,-1473946",
    "name": "Ilut",
    "local_name": "عيلوط",
    "name_en": "Ilut",
    "all_tags": {
      "name": "عيلوط",
      "name:ar": "عيلوط",
      "name:en": "Ilut",
      "name:fr": "Ilut",
      "name:he": "עילוט",
      "boundary": "administrative",
      "way_area": "0.000299536",
      "wikidata": "Q2915756",
      "wikipedia": "ar:عيلوط",
      "admin_level": "8",
      "complete:relation": "yes"
    }
  },
  {
    "osm_id": -1383937,
    "boundary": "administrative",
    "admin_level": 8,
    "parents": "-11586982,-1375620,-1473946",
    "name": "Kfar Kana",
    "local_name": "كفر كنا",
    "name_en": "Kfar Kana",
    "all_tags": {
      "name": "كفر كنا",
      "name:ar": "كفر كنا",
      "name:en": "Kfar Kana",
      "name:fr": "Kafr Cana",
      "name:he": "כפר כנא",
      "boundary": "administrative",
      "way_area": "0.000967696",
      "wikidata": "Q2633158",
      "wikipedia": "ar:كفر كنا",
      "admin_level": "8",
      "complete:relation": "yes"
    }
  },
  {
    "osm_id": -1383936,
    "boundary": "administrative",
    "admin_level": 8,
    "parents": "-11586982,-1375620,-1473946",
    "name": "Reine",
    "local_name": "الرينة",
    "name_en": "Reine",
    "all_tags": {
      "name": "الرينة",
      "name:ar": "الرينة",
      "name:cs": "Rejne",
      "name:de": "Reina",
      "name:en": "Reine",
      "name:fr": "Reineh",
      "name:he": "ריינה",
      "name:id": "Reineh",
      "name:nn": "Reineh",
      "name:pl": "Ar-Rajna",
      "name:ru": "Рейне",
      "name:sv": "Er Reina",
      "boundary": "administrative",
      "way_area": "0.00104336",
      "wikidata": "Q2655682",
      "wikipedia": "ar:الرينة",
      "admin_level": "8",
      "complete:relation": "yes"
    }
  },
  {
    "osm_id": -1383935,
    "boundary": "administrative",
    "admin_level": 8,
    "parents": "-11586982,-1375620,-1473946",
    "name": "Mashhad",
    "local_name": "المشهد",
    "name_en": "Mashhad",
    "all_tags": {
      "name": "المشهد",
      "name:ar": "المشهد",
      "name:en": "Mashhad",
      "name:fr": "Mashhad",
      "name:he": "משהד",
      "boundary": "administrative",
      "name:ar1": "مشهد",
      "way_area": "0.000689341",
      "wikidata": "Q2915771",
      "wikipedia": "ar:المشهد (قرية)",
      "admin_level": "8",
      "complete:relation": "yes"
    }
  },
  {
    "osm_id": -1383934,
    "boundary": "administrative",
    "admin_level": 8,
    "parents": "-11586982,-1375620,-1473946",
    "name": "Ein Mahil",
    "local_name": "عين ماهل",
    "name_en": "Ein Mahil",
    "all_tags": {
      "name": "عين ماهل",
      "name:ar": "عين ماهل",
      "name:en": "Ein Mahil",
      "name:fr": "Ein Mahil",
      "name:he": "עין מאהל",
      "boundary": "administrative",
      "way_area": "0.000502247",
      "admin_level": "8",
      "complete:relation": "yes"
    }
  },
  {
    "osm_id": -1383762,
    "boundary": "administrative",
    "admin_level": 8,
    "parents": "-11586472,-1375620,-1473946",
    "name": "Kfar Tavor",
    "local_name": "כפר תבור",
    "name_en": "Kfar Tavor",
    "all_tags": {
      "name": "כפר תבור",
      "name:ar": "كفر طابور",
      "name:en": "Kfar Tavor",
      "name:fr": "Kfar Tabor",
      "name:he": "כפר תבור",
      "boundary": "administrative",
      "way_area": "0.0011907",
      "wikidata": "Q1186956",
      "wikipedia": "he:כפר תבור",
      "admin_level": "8",
      "alt_name:ar": "كفر تافور;كفار تافور;كفار تفور",
      "complete:relation": "yes"
    }
  },
  {
    "osm_id": -1383761,
    "boundary": "administrative",
    "admin_level": 8,
    "parents": "-11586982,-1375620,-1473946",
    "name": "Daburiya",
    "local_name": "دبورية",
    "name_en": "Daburiya",
    "all_tags": {
      "name": "دبورية",
      "name:ar": "دبورية",
      "name:en": "Daburiya",
      "name:fr": "Daburiyya",
      "boundary": "administrative",
      "way_area": "0.000541462",
      "wikidata": "Q2915531",
      "wikipedia": "ar:دبورية",
      "admin_level": "8",
      "complete:relation": "yes"
    }
  },
  {
    "osm_id": -1383760,
    "boundary": "administrative",
    "admin_level": 8,
    "parents": "-11586982,-1375620,-1473946",
    "name": "Nof HaGalil",
    "local_name": "נוף הגליל",
    "name_en": "Nof HaGalil",
    "all_tags": {
      "ele": "327",
      "name": "נוף הגליל",
      "name:ar": "نوف هجليل",
      "name:en": "Nof HaGalil",
      "name:fr": "Nof HaGalil",
      "name:he": "נוף הגליל",
      "website": "https://www.nof-hagalil.muni.il/",
      "boundary": "administrative",
      "old_name": "נצרת עילית",
      "way_area": "0.00316088",
      "wikidata": "Q167659",
      "wikipedia": "he:נוף הגליל",
      "population": "50268",
      "admin_level": "8",
      "old_name:ar": "ناصيرات عيليت",
      "old_name:en": "Nazareth Ilit",
      "old_name:fr": "Nazareth Ilit",
      "old_name:he": "נצרת עילית",
      "old_name:ar1": "الناصرة العليا"
    }
  },
  {
    "osm_id": -1383759,
    "boundary": "administrative",
    "admin_level": 8,
    "parents": "-11586982,-1375620,-1473946",
    "name": "Yafia",
    "local_name": "يافة الناصرة",
    "name_en": "Yafia",
    "all_tags": {
      "name": "يافة الناصرة",
      "name:ar": "يافة الناصرة",
      "name:en": "Yafia",
      "name:fr": "Yafa an-Naseriyye",
      "name:he": "יפיע",
      "boundary": "administrative",
      "way_area": "0.000392318",
      "wikidata": "Q2468131",
      "wikipedia": "ar:يافة الناصرة",
      "admin_level": "8",
      "complete:relation": "yes"
    }
  },
  {
    "osm_id": -1383758,
    "boundary": "administrative",
    "admin_level": 8,
    "parents": "-11586982,-1375620,-1473946",
    "name": "Migdal HaEmek",
    "local_name": "מגדל העמק",
    "name_en": "Migdal HaEmek",
    "all_tags": {
      "name": "מגדל העמק",
      "name:ar": "مجدال هعيمق",
      "name:en": "Migdal HaEmek",
      "name:fr": "Migdal HaEmek",
      "name:he": "מגדל העמק",
      "boundary": "administrative",
      "way_area": "0.000837749",
      "wikidata": "Q168337",
      "wikipedia": "he:מגדל העמק",
      "admin_level": "8",
      "complete:relation": "yes"
    }
  },
  {
    "osm_id": -1383757,
    "boundary": "administrative",
    "admin_level": 8,
    "parents": "-11586982,-1375620,-1473946",
    "name": "Iksal",
    "local_name": "إكسال",
    "name_en": "Iksal",
    "all_tags": {
      "name": "إكسال",
      "name:ar": "إكسال",
      "name:cs": "Iksal",
      "name:en": "Iksal",
      "name:es": "Iksal",
      "name:fr": "Iksal",
      "name:he": "איכסאל",
      "name:nn": "Iksal",
      "name:pl": "Iksal",
      "name:ru": "Иксал",
      "name:sv": "Iksāl",
      "boundary": "administrative",
      "way_area": "0.000901463",
      "wikidata": "Q2915526",
      "wikipedia": "ar:إكسال",
      "admin_level": "8",
      "complete:relation": "yes"
    }
  },
  {
    "osm_id": -1383756,
    "boundary": "administrative",
    "admin_level": 8,
    "parents": "-11586982,-1375620,-1473946",
    "name": "Shibli - Umm el Ghanam",
    "local_name": "الشبلي-أم الغنم‎",
    "name_en": "Shibli - Umm el Ghanam",
    "all_tags": {
      "name": "الشبلي-أم الغنم‎",
      "name:ar": "الشبلي-أم الغنم‎",
      "name:en": "Shibli - Umm el Ghanam",
      "name:fr": "Shibli-Umm al-Ghanam",
      "name:he": "שבלי - אום אל-ר'נם",
      "boundary": "administrative",
      "way_area": "0.000302527",
      "wikidata": "Q2601842",
      "wikipedia": "he:שבלי - אום אל-גנם",
      "admin_level": "8",
      "long_name:ar": "الشبلي - أم الغنم‎",
      "short_name:ar": "شبلي-أم الغنم‎",
      "complete:relation": "yes"
    }
  },
  {
    "osm_id": -1383755,
    "boundary": "administrative",
    "admin_level": 8,
    "parents": "-11586472,-1375620,-1473946",
    "name": "Kfar Kama",
    "local_name": "כפר כמא",
    "name_en": "Kfar Kama",
    "all_tags": {
      "name": "כפר כמא",
      "name:en": "Kfar Kama",
      "name:fr": "Kfar Kama",
      "name:he": "כפר כמא",
      "boundary": "administrative",
      "way_area": "0.000849067",
      "wikidata": "Q2576600",
      "wikipedia": "he:כפר כמא",
      "admin_level": "8",
      "complete:relation": "yes"
    }
  },
  {
    "osm_id": -1383754,
    "boundary": "administrative",
    "admin_level": 8,
    "parents": "-1375620,-1473946",
    "name": "Galil Tachton Regional Council",
    "local_name": "מועצה אזורית גליל תחתון",
    "name_en": "Galil Tachton Regional Council",
    "all_tags": {
      "name": "מועצה אזורית גליל תחתון",
      "name:ar": "مجلس إقليمي جليل تحتون",
      "name:en": "Galil Tachton Regional Council",
      "name:fr": "Basse Galilée",
      "name:he": "מועצה אזורית גליל תחתון",
      "boundary": "administrative",
      "name:ar1": "المجلس الإقليمي جليل تحتون",
      "way_area": "0.0185522",
      "wikidata": "Q2344202",
      "wikipedia": "he:מועצה אזורית הגליל התחתון",
      "admin_level": "8",
      "short_name:ar": "جليل تحتون",
      "complete:relation": "yes"
    }
  },
  {
    "osm_id": -1383640,
    "boundary": "administrative",
    "admin_level": 8,
    "parents": "-1473946",
    "name": "Hof HaSharon Regional Council",
    "local_name": "מועצה אזורית חוף השרון",
    "name_en": "Hof HaSharon Regional Council",
    "all_tags": {
      "name": "מועצה אזורית חוף השרון",
      "name:en": "Hof HaSharon Regional Council",
      "name:fr": "Conseil régional Hof HaSharon",
      "name:he": "מועצה אזורית חוף השרון",
      "boundary": "administrative",
      "way_area": "0.00478562",
      "wikidata": "Q389568",
      "wikipedia": "he:מועצה אזורית חוף השרון",
      "admin_level": "8",
      "complete:relation": "yes"
    }
  },
  {
    "osm_id": -1383632,
    "boundary": "administrative",
    "admin_level": 8,
    "parents": "-12197868,-1400916,-1473946",
    "name": "Kfar Shmaryahu",
    "local_name": "כפר שמריהו",
    "name_en": "Kfar Shmaryahu",
    "all_tags": {
      "name": "כפר שמריהו",
      "name:ar": "كفار شمرياهو",
      "name:en": "Kfar Shmaryahu",
      "name:fr": "Kfar Shemaryahu",
      "name:he": "כפר שמריהו",
      "boundary": "administrative",
      "way_area": "0.000260835",
      "wikidata": "Q2389508",
      "wikipedia": "he:כפר שמריהו",
      "admin_level": "8",
      "complete:relation": "yes"
    }
  },
  {
    "osm_id": -1383631,
    "boundary": "administrative",
    "admin_level": 8,
    "parents": "-11587672,-1400928,-1473946",
    "name": "Kfar Sava",
    "local_name": "כפר סבא",
    "name_en": "Kfar Sava",
    "all_tags": {
      "ele": "52",
      "name": "כפר סבא",
      "place": "municipality",
      "name:en": "Kfar Sava",
      "name:fr": "Kfar Saba",
      "name:he": "כפר סבא",
      "website": "https://www.kfar-saba.muni.il/",
      "boundary": "administrative",
      "way_area": "0.00138612",
      "wikidata": "Q152436",
      "wikipedia": "he:כפר סבא",
      "population": "109091",
      "admin_level": "8",
      "complete:relation": "yes"
    }
  },
  {
    "osm_id": -1383630,
    "boundary": "administrative",
    "admin_level": 8,
    "parents": "-11587672,-1400928,-1473946",
    "name": "Raanana",
    "local_name": "רעננה",
    "name_en": "Raanana",
    "all_tags": {
      "ele": "48",
      "name": "רעננה",
      "name:en": "Raanana",
      "name:fr": "Raanana",
      "name:he": "רעננה",
      "website": "https://www.raanana.muni.il/",
      "boundary": "administrative",
      "way_area": "0.00142146",
      "wikidata": "Q309164",
      "wikipedia": "he:רעננה",
      "population": "91534",
      "admin_level": "8",
      "complete:relation": "yes"
    }
  },
  {
    "osm_id": -1383629,
    "boundary": "administrative",
    "admin_level": 8,
    "parents": "-11587672,-1400928,-1473946",
    "name": "Hod HaSharon",
    "local_name": "הוד השרון",
    "name_en": "Hod HaSharon",
    "all_tags": {
      "ele": "37",
      "name": "הוד השרון",
      "name:ar": "هود هشارون",
      "name:en": "Hod HaSharon",
      "name:fr": "Hod Hasharon",
      "name:he": "הוד השרון",
      "website": "http://www.hod-hasharon.muni.il/",
      "boundary": "administrative",
      "way_area": "0.0018391",
      "wikidata": "Q152379",
      "wikipedia": "he:הוד השרון",
      "population": "64120",
      "admin_level": "8",
      "alt_name:ar": "هود هاشارون;هود هشَرون",
      "complete:relation": "yes"
    }
  },
  {
    "osm_id": -1383393,
    "boundary": "administrative",
    "admin_level": 8,
    "parents": "-11587694,-1400928,-1473946",
    "name": "Pardesiya",
    "local_name": "פרדסיה",
    "name_en": "Pardesiya",
    "all_tags": {
      "name": "פרדסיה",
      "name:en": "Pardesiya",
      "name:fr": "Pardesiya",
      "name:he": "פרדסיה",
      "boundary": "administrative",
      "way_area": "0.000141185",
      "wikidata": "Q1018875",
      "wikipedia": "he:פרדסיה",
      "admin_level": "8",
      "complete:relation": "yes"
    }
  },
  {
    "osm_id": -1383392,
    "boundary": "administrative",
    "admin_level": 8,
    "parents": "-11587694,-1400928,-1473946",
    "name": "Kfar Yona",
    "local_name": "כפר יונה",
    "name_en": "Kfar Yona",
    "all_tags": {
      "name": "כפר יונה",
      "name:en": "Kfar Yona",
      "name:fr": "Kfar Yona",
      "name:he": "כפר יונה",
      "boundary": "administrative",
      "way_area": "0.00110243",
      "wikidata": "Q2640074",
      "wikipedia": "he:כפר יונה",
      "admin_level": "8",
      "complete:relation": "yes"
    }
  },
  {
    "osm_id": -1383391,
    "boundary": "administrative",
    "admin_level": 8,
    "parents": "-11587694,-1400928,-1473946",
    "name": "Netanya",
    "local_name": "נתניה",
    "name_en": "Netanya",
    "all_tags": {
      "ele": "28",
      "name": "נתניה",
      "name:am": "ኔታንያ",
      "name:ar": "نتانيا",
      "name:en": "Netanya",
      "name:fr": "Netanya",
      "name:he": "נתניה",
      "name:it": "Netanya",
      "name:ja": "ネタニヤ",
      "name:ko": "네타냐",
      "name:pl": "Netanja",
      "name:ru": "Нетания",
      "website": "https://www.netanya.muni.il/",
      "boundary": "administrative",
      "way_area": "0.00332686",
      "wikidata": "Q192225",
      "wikipedia": "he:נתניה",
      "population": "245454",
      "admin_level": "8",
      "addr:postcode": "42***",
      "complete:relation": "yes"
    }
  },
  {
    "osm_id": -1383390,
    "boundary": "administrative",
    "admin_level": 8,
    "parents": "-11587694,-1400928,-1473946",
    "name": "Emek Hefer Regional Council",
    "local_name": "מועצה אזורית עמק חפר",
    "name_en": "Emek Hefer Regional Council",
    "all_tags": {
      "name": "מועצה אזורית עמק חפר",
      "name:en": "Emek Hefer Regional Council",
      "name:fr": "Conseil régional de la vallée de Hefer",
      "name:he": "מועצה אזורית עמק חפר",
      "boundary": "administrative",
      "way_area": "0.0124511",
      "wikidata": "Q2678908",
      "wikipedia": "he:מועצה אזורית עמק חפר",
      "admin_level": "8",
      "complete:relation": "yes"
    }
  },
  {
    "osm_id": -1382923,
    "boundary": "administrative",
    "admin_level": 8,
    "parents": "-12197868,-1400916,-1473946",
    "name": "Givatayim",
    "local_name": "גבעתיים",
    "name_en": "Givatayim",
    "all_tags": {
      "ele": "42",
      "area": "yes",
      "name": "גבעתיים",
      "place": "town",
      "landuse": "residential",
      "name:ar": "غفعتايم",
      "name:cs": "Giv'atajim",
      "name:en": "Givatayim",
      "name:fa": "گیواتائیم",
      "name:fr": "Givatayim",
      "name:he": "גבעתיים",
      "name:ru": "Гиватаим",
      "name:ur": "جفعاتایم",
      "website": "http://www.givatayim.muni.il",
      "boundary": "administrative",
      "way_area": "0.000309525",
      "wikidata": "Q152413",
      "wikipedia": "he:גבעתיים",
      "population": "62546",
      "admin_level": "8",
      "alt_name:ar": "غفعتاييم;جفعاتايم;جيفعتايم",
      "contact:website": "http://www.givatayim.muni.il",
      "complete:relation": "yes"
    }
  },
  {
    "osm_id": -1382894,
    "boundary": "administrative",
    "admin_level": 8,
    "parents": "-12197868,-1400916,-1473946",
    "name": "Kiryat Ono",
    "local_name": "קריית אונו",
    "name_en": "Kiryat Ono",
    "all_tags": {
      "name": "קריית אונו",
      "name:ar": "كريات أونو",
      "name:en": "Kiryat Ono",
      "name:fr": "Kiryat Ono",
      "name:he": "קריית אונו",
      "boundary": "administrative",
      "way_area": "0.00043971",
      "wikidata": "Q152501",
      "wikipedia": "he:קריית אונו",
      "admin_level": "8",
      "complete:relation": "yes"
    }
  },
  {
    "osm_id": -1382837,
    "boundary": "administrative",
    "admin_level": 8,
    "parents": "-11587672,-1400928,-1473946",
    "name": "Givat Shmuel",
    "local_name": "גבעת שמואל",
    "name_en": "Givat Shmuel",
    "all_tags": {
      "name": "גבעת שמואל",
      "name:en": "Givat Shmuel",
      "name:fr": "Giv'at Shmuel",
      "name:he": "גבעת שמואל",
      "boundary": "administrative",
      "way_area": "0.000245988",
      "wikidata": "Q152641",
      "wikipedia": "he:גבעת שמואל",
      "admin_level": "8",
      "complete:relation": "yes"
    }
  },
  {
    "osm_id": -1382821,
    "boundary": "administrative",
    "admin_level": 8,
    "parents": "-12197868,-1400916,-1473946",
    "name": "Ramat HaSharon",
    "local_name": "רמת השרון",
    "name_en": "Ramat HaSharon",
    "all_tags": {
      "ele": "39",
      "name": "רמת השרון",
      "name:ar": "رمات هشارون",
      "name:en": "Ramat HaSharon",
      "name:fr": "Ramat Ha-Sharon",
      "name:he": "רמת השרון",
      "website": "https://www.ramat-hasharon.muni.il/",
      "boundary": "administrative",
      "way_area": "0.00159936",
      "wikidata": "Q845866",
      "wikipedia": "he:רמת השרון",
      "population": "50786",
      "admin_level": "8",
      "alt_name:ar": "رامات هاشارون;رمات هشَرون"
    }
  },
  {
    "osm_id": -1382820,
    "boundary": "administrative",
    "admin_level": 8,
    "parents": "-12197868,-1400916,-1473946",
    "name": "Herzliya",
    "local_name": "הרצליה",
    "name_en": "Herzliya",
    "all_tags": {
      "ele": "39",
      "name": "הרצליה",
      "place": "town",
      "name:ar": "هرتسليا",
      "name:en": "Herzliya",
      "name:fa": "هرتزلیا",
      "name:fr": "Herzliya",
      "name:he": "הרצליה",
      "name:hi": "हर्जलिया",
      "name:ur": "ہرتزیلیا",
      "website": "https://www.herzliya.muni.il/",
      "boundary": "administrative",
      "way_area": "0.00230126",
      "wikidata": "Q152491",
      "wikipedia": "en:Herzliya",
      "population": "106022",
      "admin_level": "8",
      "alt_name:ar": "هرزيلية",
      "alt_name:fa": "هرتسلیا",
      "complete:relation": "yes"
    }
  },
  {
    "osm_id": -1382817,
    "boundary": "administrative",
    "admin_level": 8,
    "parents": "-12197868,-1400916,-1473946",
    "name": "Bnei Brak",
    "local_name": "בני ברק",
    "name_en": "Bnei Brak",
    "all_tags": {
      "ele": "26",
      "name": "בני ברק",
      "place": "town",
      "landuse": "residential",
      "name:ar": "بني براك",
      "name:cs": "Bnej Brak",
      "name:en": "Bnei Brak",
      "name:fr": "Bnei Brak",
      "name:he": "בני ברק",
      "name:pl": "Bene Berak",
      "name:ru": "Бней-Брак",
      "website": "http://www.bnei-brak.muni.il",
      "boundary": "administrative",
      "way_area": "0.000701961",
      "wikidata": "Q152467",
      "wikipedia": "he:בני ברק",
      "population": "203573",
      "admin_level": "8",
      "contact:website": "http://www.bnei-brak.muni.il",
      "complete:relation": "yes"
    }
  },
  {
    "osm_id": -1382816,
    "boundary": "administrative",
    "admin_level": 8,
    "parents": "-11587672,-1400928,-1473946",
    "name": "Petah Tikva",
    "local_name": "פתח תקווה",
    "name_en": "Petah Tikva",
    "all_tags": {
      "ele": "31",
      "name": "פתח תקווה",
      "name:en": "Petah Tikva",
      "name:fr": "Petah Tikva",
      "name:he": "פתח תקווה",
      "name:pl": "Petach Tikwa",
      "website": "http://www.petah-tikva.muni.il/",
      "boundary": "administrative",
      "way_area": "0.00341722",
      "wikidata": "Q190828",
      "wikipedia": "he:פתח תקווה",
      "population": "236169",
      "start_date": "1878",
      "admin_level": "8",
      "complete:relation": "yes"
    }
  },
  {
    "osm_id": -1382494,
    "boundary": "administrative",
    "admin_level": 8,
    "parents": "-12197868,-1400916,-1473946",
    "name": "Tel Aviv-Yafo",
    "local_name": "תל אביב-יפו",
    "name_en": "Tel Aviv-Yafo",
    "all_tags": {
      "ele": "17",
      "name": "תל אביב-יפו",
      "place": "city",
      "name:am": "ቴል አቪቭ-ያፎ",
      "name:ar": "تل أبيب-يافا",
      "name:de": "Tel Aviv-Yafo",
      "name:el": "Τελ Αβίβ",
      "name:en": "Tel Aviv-Yafo",
      "name:es": "Tel Aviv-Yafo",
      "name:et": "Tel Aviv-Yafo",
      "name:fa": "تل آویو-یافا",
      "name:fi": "Tel Aviv-Yafo",
      "name:fr": "Tel Aviv-Yafo",
      "name:he": "תל אביב-יפו",
      "name:hi": "तेल अविव",
      "name:ko": "텔아비브",
      "name:lb": "Tel Aviv-Yafo",
      "name:pl": "Tel Awiw",
      "name:ro": "Tel Aviv",
      "name:ru": "Тель-Авив",
      "name:zh": "特拉維夫-雅法",
      "website": "http://www.tel-aviv.gov.il",
      "alt_name": "Tellu",
      "boundary": "administrative",
      "name:arc": "ܬܠ ܐܒܝܒ",
      "name:he2": "תל אביב",
      "way_area": "0.00545404",
      "wikidata": "Q33935",
      "wikipedia": "en:Tel Aviv",
      "population": "438818",
      "start_date": "1909",
      "admin_level": "8",
      "alt_name:ar": "تل أبيب;يافا",
      "alt_name:de": "Tel Aviv",
      "alt_name:el": "Τελ Αβίβ-Γιάφα",
      "alt_name:en": "Tel Aviv",
      "alt_name:ro": "Tel Aviv",
      "alt_name:ru": "Тель-Авив-Яффа",
      "name:zh-Hans": "特拉维夫-雅法",
      "name:zh-Hant": "特拉維夫-雅法",
      "contact:website": "http://www.tel-aviv.gov.il",
      "complete:relation": "yes"
    }
  },
  {
    "osm_id": -1382493,
    "boundary": "administrative",
    "admin_level": 8,
    "parents": "-12197868,-1400916,-1473946",
    "name": "Ramat Gan",
    "local_name": "רמת גן",
    "name_en": "Ramat Gan",
    "all_tags": {
      "ele": "37",
      "name": "רמת גן",
      "place": "town",
      "landuse": "residential",
      "name:en": "Ramat Gan",
      "name:fr": "Ramat Gan",
      "name:he": "רמת גן",
      "name:ru": "Рамат-Ган",
      "website": "https://www.ramat-gan.muni.il/",
      "boundary": "administrative",
      "way_area": "0.00156573",
      "wikidata": "Q192807",
      "wikipedia": "en:Ramat Gan",
      "population": "164764",
      "admin_level": "8",
      "complete:relation": "yes"
    }
  },
  {
    "osm_id": -1382466,
    "boundary": "administrative",
    "admin_level": 8,
    "parents": "-11587672,-1400928,-1473946",
    "name": "Yehud Monosson",
    "local_name": "יהוד מונוסון",
    "name_en": "Yehud Monosson",
    "all_tags": {
      "name": "יהוד מונוסון",
      "name:ar": "يهود-مونوسون",
      "name:en": "Yehud Monosson",
      "name:fr": "Yehud-Monosson",
      "name:he": "יהוד מונוסון",
      "boundary": "administrative",
      "way_area": "0.000546822",
      "wikidata": "Q1948533",
      "wikipedia": "he:יהוד-מונוסון",
      "admin_level": "8",
      "complete:relation": "yes"
    }
  },
  {
    "osm_id": -1382465,
    "boundary": "administrative",
    "admin_level": 8,
    "parents": "-11587672,-1400928,-1473946",
    "name": "Drom HaSharon Regional Council",
    "local_name": "מועצה אזורית דרום השרון",
    "name_en": "Drom HaSharon Regional Council",
    "all_tags": {
      "name": "מועצה אזורית דרום השרון",
      "name:ar": "مجلس إقليمي شارون الجنوب",
      "name:en": "Drom HaSharon Regional Council",
      "name:fr": "Drom Hasharon",
      "name:he": "מועצה אזורית דרום השרון",
      "boundary": "administrative",
      "name:ar1": "المجلس الإقليمي شارون الجنوب",
      "way_area": "0.00913429",
      "wikidata": "Q2249100",
      "wikipedia": "he:מועצה אזורית דרום השרון",
      "admin_level": "8"
    }
  },
  {
    "osm_id": -1382464,
    "boundary": "administrative",
    "admin_level": 8,
    "parents": "-12197868,-1400916,-1473946",
    "name": "Or Yehuda",
    "local_name": "אור יהודה",
    "name_en": "Or Yehuda",
    "all_tags": {
      "name": "אור יהודה",
      "name:en": "Or Yehuda",
      "name:fr": "Or Yehuda",
      "name:he": "אור יהודה",
      "name:pl": "Or Jehuda",
      "boundary": "administrative",
      "way_area": "0.000642588",
      "wikidata": "Q950347",
      "wikipedia": "he:אור יהודה",
      "admin_level": "8",
      "complete:relation": "yes"
    }
  },
  {
    "osm_id": -1382460,
    "boundary": "administrative",
    "admin_level": 8,
    "parents": "-12197868,-1400916,-1473946",
    "name": "Holon",
    "local_name": "חולון",
    "name_en": "Holon",
    "all_tags": {
      "ele": "34",
      "name": "חולון",
      "place": "city",
      "name:en": "Holon",
      "name:fr": "Holon",
      "name:he": "חולון",
      "website": "https://www.holon.muni.il/",
      "boundary": "administrative",
      "way_area": "0.00181733",
      "wikidata": "Q192213",
      "wikipedia": "en:Holon",
      "population": "211032",
      "admin_level": "8",
      "complete:relation": "yes"
    }
  },
  {
    "osm_id": -1382459,
    "boundary": "administrative",
    "admin_level": 8,
    "parents": "-12197868,-1400916,-1473946",
    "name": "Azor",
    "local_name": "אזור",
    "name_en": "Azor",
    "all_tags": {
      "name": "אזור",
      "name:en": "Azor",
      "name:fr": "Azor",
      "name:he": "אזור",
      "boundary": "administrative",
      "way_area": "0.000211509",
      "wikidata": "Q952186",
      "wikipedia": "he:אזור",
      "admin_level": "8",
      "complete:relation": "yes"
    }
  },
  {
    "osm_id": -1382458,
    "boundary": "administrative",
    "admin_level": 8,
    "parents": "-12197868,-1400916,-1473946",
    "name": "Bat Yam",
    "local_name": "בת ים",
    "name_en": "Bat Yam",
    "all_tags": {
      "ele": "23",
      "name": "בת ים",
      "place": "city",
      "name:en": "Bat Yam",
      "name:fr": "Bat Yam",
      "name:he": "בת ים",
      "name:pl": "Bat Jam",
      "name:ru": "Бат-Ям",
      "website": "http://www.bat-yam.muni.il/",
      "boundary": "administrative",
      "way_area": "0.000898155",
      "wikidata": "Q208725",
      "wikipedia": "he:בת ים",
      "population": "158565",
      "admin_level": "8",
      "complete:relation": "yes"
    }
  },
  {
    "osm_id": -1382242,
    "boundary": "administrative",
    "admin_level": 8,
    "parents": "-11587600,-1400928,-1473946",
    "name": "Bet Dagan",
    "local_name": "בית דגן",
    "name_en": "Bet Dagan",
    "all_tags": {
      "name": "בית דגן",
      "name:en": "Bet Dagan",
      "name:fr": "Beit Dagan",
      "name:he": "בית דגן",
      "boundary": "administrative",
      "way_area": "0.000135165",
      "wikidata": "Q2920214",
      "wikipedia": "he:בית דגן",
      "admin_level": "8",
      "complete:relation": "yes"
    }
  },
  {
    "osm_id": -1382177,
    "boundary": "administrative",
    "admin_level": 8,
    "parents": "-11587514,-1400928,-1473946",
    "name": "Rishon LeZion",
    "local_name": "ראשון לציון",
    "name_en": "Rishon LeZion",
    "all_tags": {
      "ele": "41",
      "name": "ראשון לציון",
      "place": "municipality",
      "name:en": "Rishon LeZion",
      "name:fi": "Rishon LeTsion",
      "name:fr": "Rishon LeZion",
      "name:he": "ראשון לציון",
      "name:pl": "Riszon le-Cijjon",
      "name:ru": "Ришон-ле-Цион",
      "website": "https://www.rishonlezion.muni.il/",
      "boundary": "administrative",
      "way_area": "0.00590697",
      "wikidata": "Q201051",
      "wikipedia": "en:Rishon LeZion",
      "population": "247323",
      "start_date": "1882",
      "admin_level": "8",
      "complete:relation": "yes"
    }
  },
  {
    "osm_id": -1381564,
    "boundary": "administrative",
    "admin_level": 8,
    "parents": "-12197869,-1384720,-1473946",
    "name": "Abu Gosh",
    "local_name": "أبو غوش‎",
    "name_en": "Abu Gosh",
    "all_tags": {
      "name": "أبو غوش‎",
      "name:ar": "أبو غوش‎",
      "name:cs": "Abú Ghoš",
      "name:en": "Abu Gosh",
      "name:fr": "Abou Gosh",
      "name:he": "אבו גוש",
      "alt_name": "قرية العنب",
      "boundary": "administrative",
      "way_area": "0.000180082",
      "wikidata": "Q335023",
      "wikipedia": "ar:أبو غوش (قرية)",
      "admin_level": "8",
      "alt_name:ar": "قرية العنب",
      "complete:relation": "yes"
    }
  },
  {
    "osm_id": -1381559,
    "boundary": "administrative",
    "admin_level": 8,
    "parents": "-12197869,-1384720,-1473946",
    "name": "Kiryat Yearim",
    "local_name": "קרית יערים",
    "name_en": "Kiryat Yearim",
    "all_tags": {
      "name": "קרית יערים",
      "name:ar": "كريات يعاريم",
      "name:cs": "Kirjat Je'arim",
      "name:en": "Kiryat Yearim",
      "name:fr": "Kiryat-Yéarim",
      "name:he": "קרית יערים",
      "boundary": "administrative",
      "way_area": "4.74979e-05",
      "wikidata": "Q2366487",
      "wikipedia": "he:קריית יערים",
      "admin_level": "8",
      "alt_name:ar": "كِريات يعاريم",
      "complete:relation": "yes"
    }
  },
  {
    "osm_id": -1381544,
    "boundary": "administrative",
    "admin_level": 8,
    "parents": "-11587600,-1400928,-1473946",
    "name": "Sdot Dan Regional Council",
    "local_name": "מועצה אזורית שדות דן",
    "name_en": "Sdot Dan Regional Council",
    "all_tags": {
      "name": "מועצה אזורית שדות דן",
      "name:en": "Sdot Dan Regional Council",
      "name:fr": "Emek Lod",
      "name:he": "מועצה אזורית שדות דן",
      "boundary": "administrative",
      "old_name": "מועצה אזורית עמק לוד",
      "way_area": "0.00284367",
      "wikidata": "Q2305374",
      "wikipedia": "he:מועצה אזורית שדות דן",
      "admin_level": "8",
      "complete:relation": "yes"
    }
  },
  {
    "osm_id": -1381532,
    "boundary": "administrative",
    "admin_level": 8,
    "parents": "-11587600,-1400928,-1473946",
    "name": "Lod",
    "local_name": "לוד",
    "name_en": "Lod",
    "all_tags": {
      "ele": "57",
      "name": "לוד",
      "name:ar": "اللد",
      "name:en": "Lod",
      "name:fr": "Lod",
      "name:he": "לוד",
      "name:it": "Lidda",
      "name:ro": "Lida",
      "name:ru": "Лод",
      "website": "http://www.lod.muni.il/",
      "boundary": "administrative",
      "way_area": "0.0014099",
      "wikidata": "Q207540",
      "name:ro_1": "Lod",
      "name:ro_2": "Lydda",
      "name:ro_3": "Lodd",
      "wikipedia": "he:לוד",
      "population": "81202",
      "admin_level": "8",
      "complete:relation": "yes"
    }
  },
  {
    "osm_id": -1381478,
    "boundary": "administrative",
    "admin_level": 8,
    "parents": "-1400928,-1473946",
    "name": "Beer Yaakov",
    "local_name": "באר יעקב",
    "name_en": "Beer Yaakov",
    "all_tags": {
      "name": "באר יעקב",
      "name:en": "Beer Yaakov",
      "name:fr": "Be'er Ya'akov",
      "name:he": "באר יעקב",
      "name:ru": "Беэр-Яаков",
      "boundary": "administrative",
      "way_area": "0.000902585",
      "wikidata": "Q2640170",
      "wikipedia": "he:באר יעקב",
      "admin_level": "8",
      "complete:relation": "yes"
    }
  },
  {
    "osm_id": -1381458,
    "boundary": "administrative",
    "admin_level": 8,
    "parents": "-11587600,-1400928,-1473946",
    "name": "Ramla",
    "local_name": "רמלה",
    "name_en": "Ramla",
    "all_tags": {
      "ele": "76",
      "name": "רמלה",
      "name:ar": "الرملة",
      "name:en": "Ramla",
      "name:fr": "Ramla",
      "name:he": "רמלה",
      "name:it": "Ramla",
      "website": "http://www.ramla.muni.il/",
      "boundary": "administrative",
      "way_area": "0.00127688",
      "wikidata": "Q221447",
      "wikipedia": "he:רמלה",
      "population": "80786",
      "admin_level": "8",
      "complete:relation": "yes"
    }
  },
  {
    "osm_id": -1381426,
    "boundary": "administrative",
    "admin_level": 8,
    "parents": "-1400928,-1473946",
    "name": "Hevel Modiin Regional Council",
    "local_name": "מועצה אזורית חבל מודיעין",
    "name_en": "Hevel Modiin Regional Council",
    "all_tags": {
      "name": "מועצה אזורית חבל מודיעין",
      "name:ar": "قطاع موديعين",
      "name:en": "Hevel Modiin Regional Council",
      "name:fr": "Conseil régional d'Hevel Modi'in",
      "name:he": "מועצה אזורית חבל מודיעין",
      "boundary": "administrative",
      "way_area": "0.012208",
      "wikidata": "Q2640094",
      "wikipedia": "he:מועצה אזורית חבל מודיעין",
      "admin_level": "8"
    }
  },
  {
    "osm_id": -1381425,
    "boundary": "administrative",
    "admin_level": 8,
    "parents": "-11587600,-1400928,-1473946",
    "name": "Modiin-Maccabim-Reut",
    "local_name": "מודיעין-מכבים-רעות",
    "name_en": "Modiin-Maccabim-Reut",
    "all_tags": {
      "name": "מודיעין-מכבים-רעות",
      "name:en": "Modiin-Maccabim-Reut",
      "name:fr": "Modiin-Maccabim-Reout",
      "name:he": "מודיעין-מכבים-רעות",
      "boundary": "administrative",
      "name:he1": "מודיעין",
      "way_area": "0.00460742",
      "wikidata": "Q165867",
      "wikipedia": "he:מודיעין-מכבים-רעות",
      "admin_level": "8",
      "complete:relation": "yes"
    }
  },
  {
    "osm_id": -1381394,
    "boundary": "administrative",
    "admin_level": 8,
    "parents": "-11587514,-1400928,-1473946",
    "name": "Kiryat Ekron",
    "local_name": "קרית עקרון",
    "name_en": "Kiryat Ekron",
    "all_tags": {
      "name": "קרית עקרון",
      "name:en": "Kiryat Ekron",
      "name:fr": "Kiryat Ekron",
      "name:he": "קרית עקרון",
      "boundary": "administrative",
      "way_area": "0.000267993",
      "wikidata": "Q2640159",
      "wikipedia": "he:קריית עקרון",
      "admin_level": "8",
      "complete:relation": "yes"
    }
  },
  {
    "osm_id": -1381350,
    "boundary": "administrative",
    "admin_level": 8,
    "parents": "-12197869,-1384720,-1473946",
    "name": "Jerusalem",
    "local_name": "ירושלים",
    "name_en": "Jerusalem",
    "all_tags": {
      "ele": "715",
      "name": "ירושלים",
      "name:ar": "القدس",
      "name:cs": "Jeruzalém",
      "name:de": "Jerusalem",
      "name:el": "Ιερουσαλήμ",
      "name:en": "Jerusalem",
      "name:fi": "Jerusalem",
      "name:fr": "Jérusalem",
      "name:fy": "Jeruzalim",
      "name:he": "ירושלים",
      "name:hu": "Jeruzsálem",
      "name:it": "Gerusalemme",
      "name:ko": "예루살렘",
      "name:mi": "Hiruhārama",
      "name:nl": "Jeruzalem",
      "name:ro": "Ierusalim",
      "name:ru": "Иерусалим",
      "website": "https://www.jerusalem.muni.il/",
      "boundary": "administrative",
      "int_name": "Jerusalem",
      "name:ckb": "قودس",
      "name:szl": "Jeruzalym",
      "name:tzl": "Ierusalem",
      "way_area": "0.0119632",
      "wikidata": "Q1218",
      "population": "882652",
      "admin_level": "8",
      "official_name": "القدس",
      "complete:relation": "yes"
    }
  },
  {
    "osm_id": -1381349,
    "boundary": "administrative",
    "admin_level": 8,
    "parents": "-11587514,-1400928,-1473946",
    "name": "Mazkeret Batya",
    "local_name": "מזכרת בתיה",
    "name_en": "Mazkeret Batya",
    "all_tags": {
      "name": "מזכרת בתיה",
      "name:ar": "مزكيرت باتيا",
      "name:cs": "Mazkeret Batja",
      "name:en": "Mazkeret Batya",
      "name:fr": "Mazkeret Batya",
      "name:he": "מזכרת בתיה",
      "boundary": "administrative",
      "way_area": "0.000707432",
      "wikidata": "Q1914736",
      "wikipedia": "he:מזכרת בתיה",
      "admin_level": "8",
      "complete:relation": "yes"
    }
  },
  {
    "osm_id": -1381348,
    "boundary": "administrative",
    "admin_level": 8,
    "parents": "-12197869,-1384720,-1473946",
    "name": "Mevaseret Zion",
    "local_name": "מבשרת ציון",
    "name_en": "Mevaseret Zion",
    "all_tags": {
      "name": "מבשרת ציון",
      "name:ar": "مفسيرت تصيون",
      "name:cs": "Mevaseret Cijon",
      "name:en": "Mevaseret Zion",
      "name:fr": "Mevasseret Tsion",
      "name:he": "מבשרת ציון",
      "boundary": "administrative",
      "way_area": "0.000598234",
      "wikidata": "Q1025294",
      "wikipedia": "he:מבשרת ציון",
      "admin_level": "8",
      "alt_name:ar": "مفسيرت تسيون",
      "complete:relation": "yes"
    }
  },
  {
    "osm_id": -1381347,
    "boundary": "administrative",
    "admin_level": 8,
    "parents": "-11587600,-1400928,-1473946",
    "name": "Gezer Regional Council",
    "local_name": "מועצה אזורית גזר",
    "name_en": "Gezer Regional Council",
    "all_tags": {
      "name": "מועצה אזורית גזר",
      "name:en": "Gezer Regional Council",
      "name:fr": "Gezer",
      "name:he": "מועצה אזורית גזר",
      "boundary": "administrative",
      "way_area": "0.0113907",
      "wikidata": "Q2693373",
      "wikipedia": "he:מועצה אזורית גזר",
      "admin_level": "8",
      "complete:relation": "yes"
    }
  },
  {
    "osm_id": -1380426,
    "boundary": "administrative",
    "admin_level": 8,
    "parents": "-11587514,-1400928,-1473946",
    "name": "Brener Regional Council",
    "local_name": "מועצה אזורית ברנר",
    "name_en": "Brener Regional Council",
    "all_tags": {
      "name": "מועצה אזורית ברנר",
      "name:ar": "المجلس الإقليمي برنر",
      "name:en": "Brener Regional Council",
      "name:fr": "Conseil régional de Brenner",
      "name:he": "מועצה אזורית ברנר",
      "boundary": "administrative",
      "way_area": "0.00351737",
      "wikidata": "Q111740",
      "wikipedia": "he:מועצה אזורית ברנר",
      "admin_level": "8",
      "complete:relation": "yes"
    }
  },
  {
    "osm_id": -1380425,
    "boundary": "administrative",
    "admin_level": 8,
    "parents": "-11587514,-1400928,-1473946",
    "name": "Gan Rave Regional Council",
    "local_name": "מועצה אזורית גן רווה",
    "name_en": "Gan Rave Regional Council",
    "all_tags": {
      "name": "מועצה אזורית גן רווה",
      "name:en": "Gan Rave Regional Council",
      "name:fr": "Conseil régional de Gan Raveh",
      "name:he": "מועצה אזורית גן רווה",
      "boundary": "administrative",
      "way_area": "0.00413728",
      "wikidata": "Q1841919",
      "wikipedia": "he:מועצה אזורית גן רווה",
      "admin_level": "8",
      "complete:relation": "yes"
    }
  },
  {
    "osm_id": -1380415,
    "boundary": "administrative",
    "admin_level": 8,
    "parents": "-11587514,-1400928,-1473946",
    "name": "Yavne",
    "local_name": "יבנה",
    "name_en": "Yavne",
    "all_tags": {
      "ele": "30",
      "name": "יבנה",
      "name:ar": "يافني",
      "name:en": "Yavne",
      "name:fr": "Yavnéel",
      "name:he": "יבנה",
      "website": "https://www.yavne.muni.il/",
      "boundary": "administrative",
      "way_area": "0.00284904",
      "wikidata": "Q167677",
      "wikipedia": "he:יבנה",
      "population": "48193",
      "admin_level": "8",
      "alt_name:ar": "يفنيه",
      "complete:relation": "yes"
    }
  },
  {
    "osm_id": -1380385,
    "boundary": "administrative",
    "admin_level": 8,
    "parents": "-11584353,-1473952,-1473946",
    "name": "Kiryat Malachi",
    "local_name": "קרית מלאכי",
    "name_en": "Kiryat Malachi",
    "all_tags": {
      "name": "קרית מלאכי",
      "name:ar": "كريات ملاخي",
      "name:en": "Kiryat Malachi",
      "name:fr": "Kiryat-Malakhi",
      "name:he": "קרית מלאכי",
      "boundary": "administrative",
      "way_area": "0.000435656",
      "wikidata": "Q501543",
      "wikipedia": "he:קריית מלאכי",
      "admin_level": "8",
      "complete:relation": "yes"
    }
  },
  {
    "osm_id": -1380374,
    "boundary": "administrative",
    "admin_level": 8,
    "parents": "-11587514,-1400928,-1473946",
    "name": "Nahal Sorek Regional Council",
    "local_name": "מועצה אזורית נחל שורק",
    "name_en": "Nahal Sorek Regional Council",
    "all_tags": {
      "name": "מועצה אזורית נחל שורק",
      "name:en": "Nahal Sorek Regional Council",
      "name:fr": "Nahal Sorek",
      "name:he": "מועצה אזורית נחל שורק",
      "boundary": "administrative",
      "way_area": "0.00269705",
      "wikidata": "Q2418003",
      "wikipedia": "he:מועצה אזורית נחל שורק",
      "admin_level": "8",
      "complete:relation": "yes"
    }
  },
  {
    "osm_id": -1380254,
    "boundary": "administrative",
    "admin_level": 8,
    "parents": "-11586982,-1375620,-1473946",
    "name": "Emek HaMaayanot Regional Council",
    "local_name": "מועצה אזורית עמק המעיינות",
    "name_en": "Emek HaMaayanot Regional Council",
    "all_tags": {
      "name": "מועצה אזורית עמק המעיינות",
      "name:en": "Emek HaMaayanot Regional Council",
      "name:fr": "Vallée de Beït-Shéan",
      "name:he": "מועצה אזורית עמק המעיינות",
      "boundary": "administrative",
      "way_area": "0.0235835",
      "wikidata": "Q1335377",
      "wikipedia": "he:מועצה אזורית עמק המעיינות",
      "admin_level": "8",
      "complete:relation": "yes"
    }
  },
  {
    "osm_id": -1380253,
    "boundary": "administrative",
    "admin_level": 8,
    "parents": "-11586982,-1375620,-1473946",
    "name": "Beit Shean",
    "local_name": "בית שאן",
    "name_en": "Beit Shean",
    "all_tags": {
      "name": "בית שאן",
      "name:ar": "بيت شيئان",
      "name:cs": "Bejt Še'an",
      "name:en": "Beit Shean",
      "name:fr": "Beït Shéan",
      "name:he": "בית שאן",
      "boundary": "administrative",
      "way_area": "0.00105269",
      "wikidata": "Q152368",
      "wikipedia": "en:Beit She'an",
      "population": "17587",
      "admin_level": "8",
      "complete:relation": "yes"
    }
  },
  {
    "osm_id": -1380233,
    "boundary": "administrative",
    "admin_level": 8,
    "parents": "-11586982,-1375620,-1473946",
    "name": "Emek Izrael Regional Council",
    "local_name": "מועצה אזורית עמק יזרעאל",
    "name_en": "Emek Izrael Regional Council",
    "all_tags": {
      "name": "מועצה אזורית עמק יזרעאל",
      "name:ar": "مجلس إقليمي عمك يزرعئيل",
      "name:en": "Emek Izrael Regional Council",
      "name:fr": "Conseil régional de la vallée de Jezreel",
      "name:he": "מועצה אזורית עמק יזרעאל",
      "boundary": "administrative",
      "name:ar1": "المجلس الإقليمي عمك يزرعئيل",
      "way_area": "0.0318376",
      "wikidata": "Q795067",
      "wikipedia": "he:מועצה אזורית עמק יזרעאל",
      "admin_level": "8",
      "short_name:ar": "عمك يزرعئيل",
      "complete:relation": "yes"
    }
  },
  {
    "osm_id": -1380232,
    "boundary": "administrative",
    "admin_level": 8,
    "parents": "-11586982,-1375620,-1473946",
    "name": "Gilboa Regional Council",
    "local_name": "מועצה אזורית גלבוע",
    "name_en": "Gilboa Regional Council",
    "all_tags": {
      "name": "מועצה אזורית גלבוע",
      "name:ar": "مجلس إقليمي جلبواع",
      "name:en": "Gilboa Regional Council",
      "name:fr": "Conseil régional de Guilboa",
      "name:he": "מועצה אזורית גלבוע",
      "boundary": "administrative",
      "name:ar1": "المجلس الإقليمي جلبواع",
      "way_area": "0.0242001",
      "wikidata": "Q2915451",
      "wikipedia": "he:מועצה אזורית הגלבוע",
      "admin_level": "8",
      "short_name:ar": "جلبواع",
      "complete:relation": "yes"
    }
  },
  {
    "osm_id": -1380231,
    "boundary": "administrative",
    "admin_level": 8,
    "parents": "-11586472,-1375620,-1473946",
    "name": "Emek HaYarden Regional Council",
    "local_name": "מועצה אזורית עמק הירדן",
    "name_en": "Emek HaYarden Regional Council",
    "all_tags": {
      "name": "מועצה אזורית עמק הירדן",
      "name:ar": "مجلس إقليمي غور الأردن",
      "name:en": "Emek HaYarden Regional Council",
      "name:fr": "Conseil régional d'Emek HaYarden",
      "name:he": "מועצה אזורית עמק הירדן",
      "boundary": "administrative",
      "name:ar1": "المجلس الإقليمي غور الأردن",
      "way_area": "0.017793",
      "wikidata": "Q1967925",
      "wikipedia": "he:מועצה אזורית עמק הירדן",
      "admin_level": "8",
      "short_name:ar": "غور الأردن",
      "complete:relation": "yes"
    }
  },
  {
    "osm_id": -1380230,
    "boundary": "administrative",
    "admin_level": 8,
    "parents": "-11584745,-1400966,-1473946",
    "name": "Maale Iron",
    "local_name": "طلعة عارة",
    "name_en": "Maale Iron",
    "all_tags": {
      "name": "طلعة عارة",
      "name:ar": "طلعة عارة",
      "name:en": "Maale Iron",
      "name:fr": "Ma'ale Iron",
      "name:he": "מעלה עירון",
      "boundary": "administrative",
      "way_area": "0.000608991",
      "wikidata": "Q2917278",
      "wikipedia": "he:מעלה עירון",
      "admin_level": "8",
      "alt_name:ar": "معاليه عيرون",
      "complete:relation": "yes"
    }
  },
  {
    "osm_id": -1380229,
    "boundary": "administrative",
    "admin_level": 8,
    "parents": "-11586982,-1375620,-1473946",
    "name": "Megido Regional Council",
    "local_name": "מועצה אזורית מגידו",
    "name_en": "Megido Regional Council",
    "all_tags": {
      "name": "מועצה אזורית מגידו",
      "name:ar": "المجلس الإقليمي المجیدو",
      "name:en": "Megido Regional Council",
      "name:fr": "Megiddo",
      "name:he": "מועצה אזורית מגידו",
      "boundary": "administrative",
      "way_area": "0.0166505",
      "wikidata": "Q2359581",
      "wikipedia": "he:מועצה אזורית מגידו",
      "admin_level": "8",
      "alt_name:ar": "المجلس الإقليمي مجدو",
      "complete:relation": "yes"
    }
  },
  {
    "osm_id": -1380228,
    "boundary": "administrative",
    "admin_level": 8,
    "parents": "-11584745,-1400966,-1473946",
    "name": "Umm al-Fahm",
    "local_name": "أم الفحم",
    "name_en": "Umm al-Fahm",
    "all_tags": {
      "ele": "310",
      "name": "أم الفحم",
      "name:ar": "أم الفحم",
      "name:en": "Umm al-Fahm",
      "name:fr": "Umm al-Fahm",
      "name:he": "אום אל-פחם",
      "website": "http://www.umelfahem.org/",
      "boundary": "administrative",
      "way_area": "0.00250304",
      "wikidata": "Q168245",
      "wikipedia": "ar:أم الفحم",
      "population": "55411",
      "admin_level": "8",
      "complete:relation": "yes"
    }
  },
  {
    "osm_id": -1380227,
    "boundary": "administrative",
    "admin_level": 8,
    "parents": "-11586982,-1375620,-1473946",
    "name": "Bustan Al Marj Regional Council",
    "local_name": "مجلس إقليمي بستان المرج",
    "name_en": "Bustan Al Marj Regional Council",
    "all_tags": {
      "name": "مجلس إقليمي بستان المرج",
      "name:ar": "مجلس إقليمي بستان المرج",
      "name:en": "Bustan Al Marj Regional Council",
      "name:fr": "Bustan al-Marj",
      "name:he": "מועצה אזורית בוסתן-אל-מרג'",
      "boundary": "administrative",
      "way_area": "0.000865164",
      "wikidata": "Q1530274",
      "wikipedia": "he:מועצה אזורית בוסתאן אל-מרג'",
      "admin_level": "8",
      "alt_name:ar": "المجلس الإقليمي بستان المرج",
      "short_name:ar": "بستان المرج",
      "complete:relation": "yes"
    }
  },
  {
    "osm_id": -1380226,
    "boundary": "administrative",
    "admin_level": 8,
    "parents": "-11586982,-1375620,-1473946",
    "name": "Afula",
    "local_name": "עפולה",
    "name_en": "Afula",
    "all_tags": {
      "ele": "144",
      "name": "עפולה",
      "name:ar": "العفولة",
      "name:en": "Afula",
      "name:fr": "Afoula",
      "name:he": "עפולה",
      "website": "http://www.afula.muni.il/",
      "boundary": "administrative",
      "way_area": "0.00280248",
      "wikidata": "Q152462",
      "wikipedia": "he:עפולה",
      "population": "53958",
      "admin_level": "8",
      "complete:relation": "yes"
    }
  },
  {
    "osm_id": -1380017,
    "boundary": "administrative",
    "admin_level": 8,
    "parents": "-11587514,-1400928,-1473946",
    "name": "Bnei Ayish",
    "local_name": "בני עי\"ש",
    "name_en": "Bnei Ayish",
    "all_tags": {
      "name": "בני עי\"ש",
      "name:en": "Bnei Ayish",
      "name:fr": "Bnei Ayish",
      "name:he": "בני עי\"ש",
      "boundary": "administrative",
      "way_area": "7.78884e-05",
      "wikidata": "Q2915758",
      "wikipedia": "he:בני עי\"ש",
      "admin_level": "8",
      "complete:relation": "yes"
    }
  },
  {
    "osm_id": -1380016,
    "boundary": "administrative",
    "admin_level": 8,
    "parents": "-11587514,-1400928,-1473946",
    "name": "Gdera",
    "local_name": "גדרה",
    "name_en": "Gdera",
    "all_tags": {
      "name": "גדרה",
      "name:ar": "غديرا",
      "name:en": "Gdera",
      "name:fr": "Guedera",
      "name:he": "גדרה",
      "boundary": "administrative",
      "way_area": "0.001089",
      "wikidata": "Q921505",
      "wikipedia": "he:גדרה",
      "admin_level": "8",
      "complete:relation": "yes"
    }
  },
  {
    "osm_id": -1380015,
    "boundary": "administrative",
    "admin_level": 8,
    "parents": "-11587514,-1400928,-1473946",
    "name": "Hevel Yavne Regional Council",
    "local_name": "מועצה אזורית חבל יבנה",
    "name_en": "Hevel Yavne Regional Council",
    "all_tags": {
      "name": "מועצה אזורית חבל יבנה",
      "name:en": "Hevel Yavne Regional Council",
      "name:fr": "Hevel Yavne",
      "name:he": "מועצה אזורית חבל יבנה",
      "boundary": "administrative",
      "way_area": "0.00347907",
      "wikidata": "Q2278320",
      "wikipedia": "he:מועצה אזורית חבל יבנה",
      "admin_level": "8",
      "complete:relation": "yes"
    }
  },
  {
    "osm_id": -1380014,
    "boundary": "administrative",
    "admin_level": 8,
    "parents": "-11587514,-1400928,-1473946",
    "name": "Gan Yavne",
    "local_name": "גן יבנה",
    "name_en": "Gan Yavne",
    "all_tags": {
      "name": "גן יבנה",
      "name:en": "Gan Yavne",
      "name:fr": "Gan Yavné",
      "name:he": "גן יבנה",
      "boundary": "administrative",
      "way_area": "0.00109059",
      "wikidata": "Q924849",
      "wikipedia": "he:גן יבנה",
      "admin_level": "8",
      "complete:relation": "yes"
    }
  },
  {
    "osm_id": -1380013,
    "boundary": "administrative",
    "admin_level": 8,
    "parents": "-11584353,-1473952,-1473946",
    "name": "Ashdod",
    "local_name": "אשדוד",
    "name_en": "Ashdod",
    "all_tags": {
      "ele": "23",
      "name": "אשדוד",
      "place": "city",
      "name:ar": "أسدود",
      "name:el": "Ασντόντ",
      "name:en": "Ashdod",
      "name:fi": "Ashdod",
      "name:fr": "Ashdod",
      "name:he": "אשדוד",
      "name:pl": "Aszdod",
      "name:ru": "Ашдод",
      "boundary": "administrative",
      "way_area": "0.00608766",
      "wikidata": "Q171639",
      "wikipedia": "he:אשדוד",
      "population": "251837",
      "admin_level": "8",
      "alt_name:ar": "أشدود",
      "complete:relation": "yes"
    }
  },
  {
    "osm_id": -1380012,
    "boundary": "administrative",
    "admin_level": 8,
    "parents": "-11587514,-1400928,-1473946",
    "name": "Gderot Regional Council",
    "local_name": "מועצה אזורית גדרות",
    "name_en": "Gderot Regional Council",
    "all_tags": {
      "name": "מועצה אזורית גדרות",
      "name:en": "Gderot Regional Council",
      "name:fr": "Conseil régional de Guederot",
      "name:he": "מועצה אזורית גדרות",
      "boundary": "administrative",
      "way_area": "0.00130699",
      "wikidata": "Q2267176",
      "wikipedia": "he:מועצה אזורית גדרות",
      "admin_level": "8",
      "complete:relation": "yes"
    }
  },
  {
    "osm_id": -1380003,
    "boundary": "administrative",
    "admin_level": 8,
    "parents": "-11584353,-1473952,-1473946",
    "name": "Beer Tuvia Regional Council",
    "local_name": "מועצה אזורית באר טוביה",
    "name_en": "Beer Tuvia Regional Council",
    "all_tags": {
      "name": "מועצה אזורית באר טוביה",
      "name:en": "Beer Tuvia Regional Council",
      "name:fr": "Be'er Tuvia",
      "name:he": "מועצה אזורית באר טוביה",
      "boundary": "administrative",
      "way_area": "0.0122013",
      "wikidata": "Q2800164",
      "wikipedia": "he:מועצה אזורית באר טוביה",
      "admin_level": "8",
      "complete:relation": "yes"
    }
  },
  {
    "osm_id": -1380001,
    "boundary": "administrative",
    "admin_level": 8,
    "parents": "-11584353,-1473952,-1473946",
    "name": "Sderot",
    "local_name": "שדרות",
    "name_en": "Sderot",
    "all_tags": {
      "ele": "89",
      "name": "שדרות",
      "name:en": "Sderot",
      "name:fr": "Sdérot",
      "name:he": "שדרות",
      "boundary": "administrative",
      "way_area": "0.00101205",
      "wikidata": "Q123196",
      "wikipedia": "he:שדרות",
      "population": "27512",
      "start_date": "1951",
      "admin_level": "8",
      "complete:relation": "yes"
    }
  },
  {
    "osm_id": -1379486,
    "boundary": "administrative",
    "admin_level": 8,
    "parents": "-11584353,-1473952,-1473946",
    "name": "Yoav Regional Council",
    "local_name": "מועצה אזורית יואב",
    "name_en": "Yoav Regional Council",
    "all_tags": {
      "name": "מועצה אזורית יואב",
      "name:en": "Yoav Regional Council",
      "name:fr": "Conseil régional de Yoav",
      "name:he": "מועצה אזורית יואב",
      "boundary": "administrative",
      "way_area": "0.0188929",
      "wikidata": "Q690444",
      "wikipedia": "he:מועצה אזורית יואב",
      "admin_level": "8",
      "complete:relation": "yes"
    }
  },
  {
    "osm_id": -1379485,
    "boundary": "administrative",
    "admin_level": 8,
    "parents": "-11584353,-1473952,-1473946",
    "name": "Kiryat Gat",
    "local_name": "קרית גת",
    "name_en": "Kiryat Gat",
    "all_tags": {
      "ele": "128",
      "name": "קרית גת",
      "name:af": "Kirjat Gat",
      "name:ar": "كريات جات",
      "name:de": "Kirjat Gat",
      "name:en": "Kiryat Gat",
      "name:es": "Kiryat Gat",
      "name:fa": "کریات گت",
      "name:fr": "Kiryat Gat",
      "name:he": "קרית גת",
      "name:hy": "Կիրյաթ Գաթ",
      "name:ks": "کریات جات",
      "name:nl": "Kirjat Gat",
      "name:pt": "Qiryat Gat",
      "name:sv": "Qiryat Gat",
      "name:ur": "کریات جات",
      "website": "https://www.qiryat-gat.muni.il/",
      "boundary": "administrative",
      "name:azb": "کریات گات",
      "way_area": "0.00150633",
      "wikidata": "Q152406",
      "wikipedia": "he:קריית גת",
      "population": "59408",
      "admin_level": "8",
      "alt_name:ar": "كريات غات",
      "name:az-Arab": "کریات گات",
      "wikipedia:ar": "كريات جات",
      "complete:relation": "yes"
    }
  },
  {
    "osm_id": -1379484,
    "boundary": "administrative",
    "admin_level": 8,
    "parents": "-11584353,-1473952,-1473946",
    "name": "Shafir Regional Council",
    "local_name": "מועצה אזורית שפיר",
    "name_en": "Shafir Regional Council",
    "all_tags": {
      "name": "מועצה אזורית שפיר",
      "name:ar": "مجلس إقليمي شفير",
      "name:en": "Shafir Regional Council",
      "name:es": "Concejo Regional Shafir",
      "name:fr": "Conseil régional de Shafir",
      "name:he": "מועצה אזורית שפיר",
      "name:nl": "Regionale Raad van Shafir",
      "boundary": "administrative",
      "way_area": "0.00776641",
      "wikidata": "Q2222059",
      "wikipedia": "he:מועצה אזורית שפיר",
      "admin_level": "8",
      "complete:relation": "yes"
    }
  },
  {
    "osm_id": -1379449,
    "boundary": "administrative",
    "admin_level": 8,
    "parents": "-12197869,-1384720,-1473946",
    "name": "Bet Shemesh",
    "local_name": "בית שמש",
    "name_en": "Bet Shemesh",
    "all_tags": {
      "ele": "307",
      "name": "בית שמש",
      "name:cs": "Bejt Šemeš",
      "name:en": "Bet Shemesh",
      "name:fr": "Bet Shemesh",
      "name:he": "בית שמש",
      "website": "https://betshemesh.muni.il/",
      "boundary": "administrative",
      "way_area": "0.0036437",
      "wikidata": "Q152449",
      "wikipedia": "he:בית שמש",
      "population": "124445",
      "admin_level": "8",
      "complete:relation": "yes"
    }
  },
  {
    "osm_id": -1379430,
    "boundary": "administrative",
    "admin_level": 8,
    "parents": "-12197869,-1384720,-1473946",
    "name": "Mate Yehuda Regional Council",
    "local_name": "מועצה אזורית מטה יהודה",
    "name_en": "Mate Yehuda Regional Council",
    "all_tags": {
      "name": "מועצה אזורית מטה יהודה",
      "name:ar": "إقليم ماتيه يهودا‎",
      "name:de": "Regionalverwaltung Mateh Jehuda",
      "name:el": "Περιφερειακό Συμβούλιο Μάτε Γιεχουντά",
      "name:en": "Mate Yehuda Regional Council",
      "name:fr": "Mateh Yehuda",
      "name:he": "מועצה אזורית מטה יהודה",
      "name:ru": "Региональный совет Мате-Йехуда",
      "boundary": "administrative",
      "way_area": "0.0456654",
      "wikidata": "Q799284",
      "wikipedia": "he:מועצה אזורית מטה יהודה",
      "admin_level": "8",
      "long_name:ar": "مجلس إقليمي ماتيه يهودا‎",
      "short_name:ar": "ماتيه يهودا‎",
      "complete:relation": "yes"
    }
  },
  {
    "osm_id": -1379423,
    "boundary": "administrative",
    "admin_level": 8,
    "parents": "-11584353,-1473952,-1473946",
    "name": "Lachish Regional Council",
    "local_name": "מועצה אזורית לכיש",
    "name_en": "Lachish Regional Council",
    "all_tags": {
      "name": "מועצה אזורית לכיש",
      "name:en": "Lachish Regional Council",
      "name:fr": "Lakhish",
      "name:he": "מועצה אזורית לכיש",
      "boundary": "administrative",
      "way_area": "0.0359972",
      "wikidata": "Q2594249",
      "wikipedia": "he:מועצה אזורית לכיש",
      "admin_level": "8",
      "complete:relation": "yes"
    }
  },
  {
    "osm_id": -1379342,
    "boundary": "administrative",
    "admin_level": 8,
    "parents": "-11586908,-1375620,-1473946",
    "name": "Hatzor HaGlilit",
    "local_name": "חצור הגלילית",
    "name_en": "Hatzor HaGlilit",
    "all_tags": {
      "ele": "438",
      "name": "חצור הגלילית",
      "name:cs": "Chacor ha-Glilit",
      "name:en": "Hatzor HaGlilit",
      "name:fr": "Hatzor-Haglilit",
      "name:he": "חצור הגלילית",
      "website": "http://www.hatzorg.co.il",
      "boundary": "administrative",
      "way_area": "0.00052949",
      "wikidata": "Q2588837",
      "wikipedia": "en:Hatzor HaGlilit",
      "population": "8834",
      "admin_level": "8",
      "complete:relation": "yes"
    }
  },
  {
    "osm_id": -1379335,
    "boundary": "administrative",
    "admin_level": 8,
    "parents": "-11586908,-1375620,-1473946",
    "name": "Zefat",
    "local_name": "צפת",
    "name_en": "Zefat",
    "all_tags": {
      "ele": "900",
      "name": "צפת",
      "name:cs": "Safed",
      "name:en": "Zefat",
      "name:fr": "Safed",
      "name:he": "צפת",
      "name:ru": "Цфат",
      "website": "https://www.zefat.muni.il/",
      "boundary": "administrative",
      "name:en1": "Safed",
      "name:en2": "Tzfat",
      "name:en3": "Tzefat",
      "name:en4": "Zfat",
      "way_area": "0.00288715",
      "wikidata": "Q188336",
      "wikipedia": "he:צפת",
      "population": "33358",
      "admin_level": "8",
      "complete:relation": "yes"
    }
  },
  {
    "osm_id": -1379262,
    "boundary": "administrative",
    "admin_level": 8,
    "parents": "-11586908,-1375620,-1473946",
    "name": "Tuba Zangariya",
    "local_name": "طوبا الزنغرية",
    "name_en": "Tuba Zangariya",
    "all_tags": {
      "ele": "294",
      "name": "طوبا الزنغرية",
      "name:ar": "طوبا الزنغرية",
      "name:en": "Tuba Zangariya",
      "name:fr": "Tuba-Zangariyye",
      "name:he": "טובא זנגריה",
      "website": "http://www.tuba-zangariyye.muni.il",
      "boundary": "administrative",
      "way_area": "0.000349324",
      "wikidata": "Q1028203",
      "wikipedia": "ar:طوبا الزنغرية",
      "population": "6530",
      "start_date": "1908",
      "admin_level": "8",
      "alt_name:ar": "طوبا زنغرية;طوبه زنغرية‎;طوبا زنجرية",
      "alt_name:he": "טובא זנגרייה",
      "complete:relation": "yes"
    }
  },
  {
    "osm_id": -1379241,
    "boundary": "administrative",
    "admin_level": 8,
    "parents": "-11586908,-1375620,-1473946",
    "name": "Rosh Pina",
    "local_name": "ראש פינה",
    "name_en": "Rosh Pina",
    "all_tags": {
      "ele": "308",
      "name": "ראש פינה",
      "name:en": "Rosh Pina",
      "name:fr": "Rosh Pina",
      "name:he": "ראש פינה",
      "website": "http://www.rosh-pinna.muni.il",
      "boundary": "administrative",
      "way_area": "0.00161888",
      "wikidata": "Q525649",
      "wikipedia": "en:Rosh Pinna",
      "population": "3304",
      "admin_level": "8",
      "complete:relation": "yes"
    }
  },
  {
    "osm_id": -1379226,
    "boundary": "administrative",
    "admin_level": 8,
    "parents": "-11584306,-1473952,-1473946",
    "name": "Lehavim",
    "local_name": "להבים",
    "name_en": "Lehavim",
    "all_tags": {
      "name": "להבים",
      "name:en": "Lehavim",
      "name:fr": "Lehavim",
      "name:he": "להבים",
      "boundary": "administrative",
      "way_area": "0.00105715",
      "wikidata": "Q1589806",
      "wikipedia": "he:להבים",
      "admin_level": "8",
      "complete:relation": "yes"
    }
  },
  {
    "osm_id": -1379225,
    "boundary": "administrative",
    "admin_level": 8,
    "parents": "-11584306,-1473952,-1473946",
    "name": "Rahat",
    "local_name": "رهط",
    "name_en": "Rahat",
    "all_tags": {
      "ele": "222",
      "name": "رهط",
      "name:ar": "رهط",
      "name:bn": "রাহাত",
      "name:en": "Rahat",
      "name:fa": "رهط",
      "name:fr": "Rahat",
      "name:he": "רהט",
      "name:ur": "رہط",
      "website": "https://www.rahat-muni.com/",
      "boundary": "administrative",
      "way_area": "0.00317569",
      "wikidata": "Q167617",
      "wikipedia": "ar:رهط (مدينة)",
      "population": "63922",
      "admin_level": "8",
      "alt_name:ar": "راهط",
      "complete:relation": "yes"
    }
  },
  {
    "osm_id": -1379176,
    "boundary": "administrative",
    "admin_level": 8,
    "parents": "-11585174,-1375620,-1473946",
    "name": "Golan Regional Council",
    "local_name": "מועצה אזורית גולן",
    "name_en": "Golan Regional Council",
    "all_tags": {
      "name": "מועצה אזורית גולן",
      "name:ar": "مجلس الجولان الإقليمي‎‎",
      "name:en": "Golan Regional Council",
      "name:fr": "Golan",
      "name:he": "מועצה אזורית גולן",
      "boundary": "administrative",
      "way_area": "0.105261",
      "wikidata": "Q2391142",
      "wikipedia": "he:מועצה אזורית גולן",
      "population": "16500",
      "admin_level": "8",
      "complete:relation": "yes"
    }
  },
  {
    "osm_id": -1379175,
    "boundary": "administrative",
    "admin_level": 8,
    "parents": "-11585174,-1375620,-1473946",
    "name": "Katzrin",
    "local_name": "קצרין",
    "name_en": "Katzrin",
    "all_tags": {
      "ele": "339",
      "name": "קצרין",
      "name:ar": "كتسرين",
      "name:cs": "Kacrin",
      "name:en": "Katzrin",
      "name:fr": "Katzrin",
      "name:he": "קצרין",
      "boundary": "administrative",
      "way_area": "0.00105042",
      "wikidata": "Q1736959",
      "wikipedia": "en:Katzrin",
      "population": "6913",
      "admin_level": "8",
      "complete:relation": "yes"
    }
  },
  {
    "osm_id": -1379121,
    "boundary": "administrative",
    "admin_level": 8,
    "parents": "-11586908,-1375620,-1473946",
    "name": "Yesud HaMaala",
    "local_name": "יסוד המעלה",
    "name_en": "Yesud HaMaala",
    "all_tags": {
      "ele": "95",
      "name": "יסוד המעלה",
      "name:en": "Yesud HaMaala",
      "name:fr": "Yessod Haméala",
      "name:he": "יסוד המעלה",
      "boundary": "administrative",
      "way_area": "0.00112831",
      "wikidata": "Q2639602",
      "wikipedia": "he:יסוד המעלה",
      "population": "1644",
      "admin_level": "8",
      "complete:relation": "yes"
    }
  },
  {
    "osm_id": -1379103,
    "boundary": "administrative",
    "admin_level": 8,
    "parents": "-11584306,-1473952,-1473946",
    "name": "Netivot",
    "local_name": "נתיבות",
    "name_en": "Netivot",
    "all_tags": {
      "ele": "130",
      "name": "נתיבות",
      "name:en": "Netivot",
      "name:fr": "Netivot",
      "name:he": "נתיבות",
      "boundary": "administrative",
      "way_area": "0.00153829",
      "wikidata": "Q167649",
      "wikipedia": "he:נתיבות",
      "population": "36961",
      "start_date": "1956",
      "admin_level": "8",
      "complete:relation": "yes"
    }
  },
  {
    "osm_id": -1379102,
    "boundary": "administrative",
    "admin_level": 8,
    "parents": "-11584306,-1473952,-1473946",
    "name": "Ofakim",
    "local_name": "אופקים",
    "name_en": "Ofakim",
    "all_tags": {
      "name": "אופקים",
      "name:ar": "أوفاكيم",
      "name:en": "Ofakim",
      "name:fr": "Ofaqim",
      "name:he": "אופקים",
      "website": "http://www.ofaqim.muni.il/",
      "boundary": "administrative",
      "way_area": "0.00154902",
      "wikidata": "Q167632",
      "wikipedia": "he:אופקים",
      "population": "31178",
      "admin_level": "8",
      "complete:relation": "yes"
    }
  },
  {
    "osm_id": -1378949,
    "boundary": "administrative",
    "admin_level": 8,
    "parents": "-11586908,-1375620,-1473946",
    "name": "Metula",
    "local_name": "מטולה",
    "name_en": "Metula",
    "all_tags": {
      "ele": "442",
      "name": "מטולה",
      "place": "town",
      "name:ar": "المطلة",
      "name:en": "Metula",
      "name:fr": "Metoula",
      "name:he": "מטולה",
      "boundary": "administrative",
      "way_area": "0.000902694",
      "wikidata": "Q1011497",
      "wikipedia": "en:Metula",
      "population": "1614",
      "admin_level": "8",
      "alt_name:ar": "مطولاه;مطلله",
      "complete:relation": "yes"
    }
  },
  {
    "osm_id": -1378948,
    "boundary": "administrative",
    "admin_level": 8,
    "parents": "-1375620,-1473946",
    "name": "Galil Elyon Regional Council",
    "local_name": "מועצה אזורית גליל עליון",
    "name_en": "Galil Elyon Regional Council",
    "all_tags": {
      "name": "מועצה אזורית גליל עליון",
      "name:ar": "مجلس إقليمي الجليل الأعلى",
      "name:en": "Galil Elyon Regional Council",
      "name:fr": "Haute Galilée",
      "name:he": "מועצה אזורית גליל עליון",
      "boundary": "administrative",
      "name:ar1": "المجلس الإقليمي الجليل الأعلى",
      "way_area": "0.0285917",
      "wikidata": "Q2915660",
      "wikipedia": "he:מועצה אזורית הגליל העליון",
      "population": "17400",
      "admin_level": "8",
      "short_name:ar": "الجليل الأعلى",
      "complete:relation": "yes"
    }
  },
  {
    "osm_id": -1378947,
    "boundary": "administrative",
    "admin_level": 8,
    "parents": "-11586908,-1375620,-1473946",
    "name": "Kiryat Shmona",
    "local_name": "קרית שמונה",
    "name_en": "Kiryat Shmona",
    "all_tags": {
      "ele": "207",
      "name": "קרית שמונה",
      "name:cs": "Kirjat Šmona",
      "name:en": "Kiryat Shmona",
      "name:fr": "Kiryat Shmona",
      "name:he": "קרית שמונה",
      "website": "https://www.k-8.co.il/",
      "alt_name": "קריית יוסף",
      "boundary": "administrative",
      "name:en1": "Qiryat Shemona",
      "name:he1": "קריית שמונה",
      "way_area": "0.00139093",
      "wikidata": "Q327413",
      "wikipedia": "he:קריית שמונה",
      "population": "23076",
      "admin_level": "8",
      "complete:relation": "yes"
    }
  },
  {
    "osm_id": -1377972,
    "boundary": "administrative",
    "admin_level": 8,
    "parents": "-11585174,-1375620,-1473946",
    "name": "Ghajar",
    "local_name": "ע'ג'ר",
    "name_en": "Ghajar",
    "all_tags": {
      "name": "ע'ג'ר",
      "name:ar": "غجر",
      "name:de": "Ghajar",
      "name:en": "Ghajar",
      "name:fr": "Ghajar",
      "name:he": "ע'ג'ר",
      "boundary": "administrative",
      "way_area": "0.000231068",
      "wikidata": "Q1261045",
      "wikipedia": "he:ע'ג'ר",
      "admin_level": "8",
      "alt_name:ar": "الغجر",
      "complete:relation": "yes"
    }
  },
  {
    "osm_id": -1377971,
    "boundary": "administrative",
    "admin_level": 8,
    "parents": "-11586908,-1375620,-1473946",
    "name": "Mevoot HaHermon Regional Council",
    "local_name": "מועצה אזורית מבואות החרמון",
    "name_en": "Mevoot HaHermon Regional Council",
    "all_tags": {
      "name": "מועצה אזורית מבואות החרמון",
      "name:ar": "مجلس إقليمي مقدمات جبل الشيخ",
      "name:en": "Mevoot HaHermon Regional Council",
      "name:fr": "Mevo'ot HaHermon",
      "name:he": "מועצה אזורית מבואות החרמון",
      "boundary": "administrative",
      "name:ar1": "المجلس الإقليمي مقدمات جبل الشيخ",
      "name:ar2": "مجلس إقليمي مفوئوت هحرمون",
      "name:ar3": "المجلس الإقليمي مفوئوت هحرمون",
      "way_area": "0.0129852",
      "wikidata": "Q2916811",
      "wikipedia": "en:Mevo'ot HaHermon Regional Council",
      "population": "7200",
      "admin_level": "8",
      "short_name:ar": "مقدمات جبل الشيخ",
      "short_name:ar1": "مفوئوت هحرمون",
      "complete:relation": "yes"
    }
  },
  {
    "osm_id": -1377284,
    "boundary": "administrative",
    "admin_level": 8,
    "parents": "-11584306,-1473952,-1473946",
    "name": "Eilat",
    "local_name": "אילת",
    "name_en": "Eilat",
    "all_tags": {
      "ele": "164",
      "name": "אילת",
      "name:ar": "إيلات",
      "name:be": "Эйлат",
      "name:cs": "Ejlat",
      "name:de": "Eilat",
      "name:el": "Εϊλάτ",
      "name:en": "Eilat",
      "name:es": "Eilat",
      "name:et": "Elat",
      "name:fa": "ایلات",
      "name:fr": "Eilat",
      "name:he": "אילת",
      "name:hy": "Էյլաթ",
      "name:ka": "ეილათი",
      "name:ks": "ایلات",
      "name:uk": "Ейлат",
      "name:ur": "ایلات",
      "website": "http://www.eilat.muni.il/",
      "boundary": "administrative",
      "name:azb": "ایلات",
      "way_area": "0.0095435",
      "wikidata": "Q134762",
      "wikipedia": "he:אילת",
      "population": "66618",
      "admin_level": "8",
      "name:az-Arab": "ایلات",
      "wikipedia:ar": "إيلات",
      "wikipedia:es": "Eilat"
    }
  },
  {
    "osm_id": -1377268,
    "boundary": "administrative",
    "admin_level": 8,
    "parents": "-11584306,-1473952,-1473946",
    "name": "Hevel Eilot Regional Council",
    "local_name": "מועצה אזורית חבל אילות",
    "name_en": "Hevel Eilot Regional Council",
    "all_tags": {
      "name": "מועצה אזורית חבל אילות",
      "name:cs": "oblastní rada Chevel Ejlot",
      "name:en": "Hevel Eilot Regional Council",
      "name:fr": "Hevel Eilot",
      "name:he": "מועצה אזורית חבל אילות",
      "boundary": "administrative",
      "way_area": "0.246323",
      "wikidata": "Q2552366",
      "wikipedia": "he:מועצה אזורית חבל אילות",
      "admin_level": "8",
      "sorting_name:cs": "Chevel Ejlot"
    }
  },
  {
    "osm_id": -1377267,
    "boundary": "administrative",
    "admin_level": 8,
    "parents": "-11584306,-1473952,-1473946",
    "name": "Lakiya",
    "local_name": "اللقية",
    "name_en": "Lakiya",
    "all_tags": {
      "name": "اللقية",
      "name:ar": "اللقية",
      "name:en": "Lakiya",
      "name:fr": "Lakiya",
      "name:he": "לקיה",
      "boundary": "administrative",
      "way_area": "0.00065021",
      "wikidata": "Q925908",
      "wikipedia": "ar:اللقية (بئر السبع)",
      "admin_level": "8",
      "complete:relation": "yes"
    }
  },
  {
    "osm_id": -1377266,
    "boundary": "administrative",
    "admin_level": 8,
    "parents": "-11584306,-1473952,-1473946",
    "name": "Shaqib al-Salam",
    "local_name": "شقيب السلام",
    "name_en": "Shaqib al-Salam",
    "all_tags": {
      "name": "شقيب السلام",
      "name:ar": "شقيب السلام",
      "name:en": "Shaqib al-Salam",
      "name:fr": "Shaqib al-Salam",
      "name:he": "שגב שלום",
      "boundary": "administrative",
      "name:en1": "Segev Shalom",
      "way_area": "0.00127988",
      "wikidata": "Q2633019",
      "wikipedia": "ar:شقيب السلام",
      "admin_level": "8",
      "complete:relation": "yes"
    }
  },
  {
    "osm_id": -1377264,
    "boundary": "administrative",
    "admin_level": 8,
    "parents": "-11584306,-1473952,-1473946",
    "name": "Beer Sheva",
    "local_name": "באר שבע",
    "name_en": "Beer Sheva",
    "all_tags": {
      "ele": "291",
      "name": "באר שבע",
      "name:am": "ቤርሳቤ",
      "name:ar": "بئر السبع",
      "name:en": "Beer Sheva",
      "name:fi": "Beer Sheva",
      "name:fr": "Beer-Sheva",
      "name:he": "באר שבע",
      "name:it": "Bersabea",
      "name:ja": "ベエルシェバ",
      "name:ko": "베르셰바",
      "name:ru": "Беэр-Шева",
      "website": "https://www.beer-sheva.muni.il/",
      "boundary": "administrative",
      "way_area": "0.0111164",
      "wikidata": "Q41843",
      "wikipedia": "he:באר שבע",
      "population": "220126",
      "admin_level": "8",
      "alt_name:ru": "Вирсавия",
      "complete:relation": "yes"
    }
  },
  {
    "osm_id": -1376931,
    "boundary": "administrative",
    "admin_level": 8,
    "parents": "-11584306,-1473952,-1473946",
    "name": "Ar'arat an-Naqab",
    "local_name": "عرعرة النقب",
    "name_en": "Ar'arat an-Naqab",
    "all_tags": {
      "name": "عرعرة النقب",
      "name:ar": "عرعرة النقب",
      "name:en": "Ar'arat an-Naqab",
      "name:fr": "Ar'arat an-Naqab",
      "name:he": "ערערה בנגב",
      "boundary": "administrative",
      "way_area": "0.00132759",
      "wikidata": "Q2915541",
      "wikipedia": "ar:عرعرة النقب",
      "admin_level": "8",
      "short_name:ar": "عرعرة",
      "complete:relation": "yes"
    }
  },
  {
    "osm_id": -1376929,
    "boundary": "administrative",
    "admin_level": 8,
    "parents": "-11584306,-1473952,-1473946",
    "name": "Arava Tichona Regional Council",
    "local_name": "מועצה אזורית הערבה התיכונה",
    "name_en": "Arava Tichona Regional Council",
    "all_tags": {
      "name": "מועצה אזורית הערבה התיכונה",
      "name:cs": "oblastní rada Centrální Arava",
      "name:en": "Arava Tichona Regional Council",
      "name:fr": "Arava centre",
      "name:he": "מועצה אזורית הערבה התיכונה",
      "boundary": "administrative",
      "way_area": "0.144781",
      "wikidata": "Q2284370",
      "wikipedia": "he:מועצה אזורית הערבה התיכונה",
      "admin_level": "8",
      "sorting_name:cs": "Centrální Arava",
      "complete:relation": "yes"
    }
  },
  {
    "osm_id": -1376912,
    "boundary": "administrative",
    "admin_level": 8,
    "parents": "-11584306,-1473952,-1473946",
    "name": "Tamar Regional Council",
    "local_name": "מועצה אזורית תמר",
    "name_en": "Tamar Regional Council",
    "all_tags": {
      "name": "מועצה אזורית תמר",
      "name:cs": "oblastní rada Tamar",
      "name:el": "Περιφέρεια Ταμάρ",
      "name:en": "Tamar Regional Council",
      "name:fr": "Conseil régional de Tamar",
      "name:he": "מועצה אזורית תמר",
      "boundary": "administrative",
      "way_area": "0.152842",
      "wikidata": "Q2454567",
      "wikipedia": "he:מועצה אזורית תמר",
      "admin_level": "8",
      "sorting_name:cs": "Tamar",
      "complete:relation": "yes"
    }
  },
  {
    "osm_id": -1376911,
    "boundary": "administrative",
    "admin_level": 8,
    "parents": "-11584306,-1473952,-1473946",
    "name": "Kuseife",
    "local_name": "كسيفة",
    "name_en": "Kuseife",
    "all_tags": {
      "name": "كسيفة",
      "name:ar": "كسيفة",
      "name:en": "Kuseife",
      "name:fr": "Kuseife",
      "name:he": "כסייפה",
      "boundary": "administrative",
      "way_area": "0.00128061",
      "wikidata": "Q2652222",
      "wikipedia": "ar:كسيفة",
      "admin_level": "8",
      "complete:relation": "yes"
    }
  },
  {
    "osm_id": -1376910,
    "boundary": "administrative",
    "admin_level": 8,
    "parents": "-11584306,-1473952,-1473946",
    "name": "Arad",
    "local_name": "ערד",
    "name_en": "Arad",
    "all_tags": {
      "name": "ערד",
      "name:en": "Arad",
      "name:fr": "Arad",
      "name:he": "ערד",
      "boundary": "administrative",
      "way_area": "0.0119441",
      "wikidata": "Q152473",
      "wikipedia": "he:ערד",
      "population": "25530",
      "admin_level": "8",
      "complete:relation": "yes"
    }
  },
  {
    "osm_id": -1376830,
    "boundary": "administrative",
    "admin_level": 8,
    "parents": "-11584306,-1473952,-1473946",
    "name": "Neve Midbar Regional Council",
    "local_name": "مجلس إقليمي واحة الصحراء",
    "name_en": "Neve Midbar Regional Council",
    "all_tags": {
      "name": "مجلس إقليمي واحة الصحراء",
      "name:ar": "مجلس إقليمي واحة الصحراء",
      "name:en": "Neve Midbar Regional Council",
      "name:fr": "Neve Midbar",
      "name:he": "מועצה אזורית נווה מדבר",
      "boundary": "administrative",
      "way_area": "0.00309401",
      "wikidata": "Q12408952",
      "wikipedia": "he:מועצה אזורית נווה מדבר",
      "admin_level": "8",
      "alt_name:ar": "مجلس إقليمي نيفى ميدبار",
      "alt_name:en": "Wahat a-Sahra Regional Council",
      "alt_name:he": "מועצה אזורית וואחת א-סחרא",
      "complete:relation": "yes"
    }
  },
  {
    "osm_id": -1376829,
    "boundary": "administrative",
    "admin_level": 8,
    "parents": "-11584306,-1473952,-1473946",
    "name": "Hora",
    "local_name": "حورة",
    "name_en": "Hora",
    "all_tags": {
      "name": "حورة",
      "name:ar": "حورة",
      "name:en": "Hora",
      "name:fr": "Hura",
      "name:he": "חורה",
      "boundary": "administrative",
      "way_area": "0.0008277",
      "wikidata": "Q1638374",
      "wikipedia": "ar:حورة (إسرائيل)",
      "admin_level": "8",
      "wikipedia:ar": "حورة (إسرائيل)",
      "complete:relation": "yes"
    }
  },
  {
    "osm_id": -1376828,
    "boundary": "administrative",
    "admin_level": 8,
    "parents": "-11584306,-1473952,-1473946",
    "name": "Meitar",
    "local_name": "מיתר",
    "name_en": "Meitar",
    "all_tags": {
      "name": "מיתר",
      "name:ar": "ميتار",
      "name:en": "Meitar",
      "name:fr": "Meitar",
      "name:he": "מיתר",
      "name:ru": "Мейтар",
      "boundary": "administrative",
      "way_area": "0.00226175",
      "wikidata": "Q1246119",
      "wikipedia": "he:מיתר (יישוב)",
      "admin_level": "8",
      "complete:relation": "yes"
    }
  },
  {
    "osm_id": -1376827,
    "boundary": "administrative",
    "admin_level": 8,
    "parents": "-11584306,-1473952,-1473946",
    "name": "Tal as-Sabi",
    "local_name": "تل السبع",
    "name_en": "Tal as-Sabi",
    "all_tags": {
      "ele": "312",
      "name": "تل السبع",
      "name:ar": "تل السبع",
      "name:en": "Tal as-Sabi",
      "name:fr": "Tel as-Sabi",
      "name:he": "תל שבע",
      "website": "https://www.tel-sheva.muni.il/",
      "boundary": "administrative",
      "name:en1": "Tel Sheva",
      "way_area": "0.000882119",
      "wikidata": "Q2298534",
      "wikipedia": "ar:تل السبع",
      "population": "19163",
      "admin_level": "8",
      "complete:relation": "yes"
    }
  },
  {
    "osm_id": -1376826,
    "boundary": "administrative",
    "admin_level": 8,
    "parents": "-11584306,-1473952,-1473946",
    "name": "Dimona",
    "local_name": "דימונה",
    "name_en": "Dimona",
    "all_tags": {
      "ele": "463",
      "name": "דימונה",
      "name:ar": "ديمونا",
      "name:en": "Dimona",
      "name:fr": "Dimona",
      "name:he": "דימונה",
      "website": "http://www.dimona.muni.il",
      "boundary": "administrative",
      "way_area": "0.0208318",
      "wikidata": "Q152396",
      "wikipedia": "en:Dimona",
      "population": "33666",
      "start_date": "1955",
      "admin_level": "8",
      "complete:relation": "yes"
    }
  },
  {
    "osm_id": -1376825,
    "boundary": "administrative",
    "admin_level": 8,
    "parents": "-11584306,-1473952,-1473946",
    "name": "Omer",
    "local_name": "עומר",
    "name_en": "Omer",
    "all_tags": {
      "ele": "331",
      "name": "עומר",
      "name:ar": "عومر",
      "name:en": "Omer",
      "name:fr": "Omer",
      "name:he": "עומר",
      "website": "http://www.omer.muni.il",
      "boundary": "administrative",
      "way_area": "0.00173561",
      "wikidata": "Q1968636",
      "wikipedia": "he:עומר (יישוב)",
      "population": "7514",
      "admin_level": "8",
      "complete:relation": "yes"
    }
  },
  {
    "osm_id": -1376824,
    "boundary": "administrative",
    "admin_level": 8,
    "parents": "-11584306,-1473952,-1473946",
    "name": "Bnei Shimon Regional Council",
    "local_name": "מועצה אזורית בני שמעון",
    "name_en": "Bnei Shimon Regional Council",
    "all_tags": {
      "name": "מועצה אזורית בני שמעון",
      "name:ar": "مجلس اقليمي بني شمعون",
      "name:en": "Bnei Shimon Regional Council",
      "name:fr": "Bney Shimon Regional Council",
      "name:he": "מועצה אזורית בני שמעון",
      "boundary": "administrative",
      "way_area": "0.0350747",
      "wikidata": "Q794964",
      "wikipedia": "he:מועצה אזורית בני שמעון",
      "admin_level": "8",
      "short_name:ar": "بني شمعون",
      "complete:relation": "yes"
    }
  },
  {
    "osm_id": -1376788,
    "boundary": "administrative",
    "admin_level": 8,
    "parents": "-11584306,-1473952,-1473946",
    "name": "Merhavim Regional Council",
    "local_name": "מועצה אזורית מרחבים",
    "name_en": "Merhavim Regional Council",
    "all_tags": {
      "name": "מועצה אזורית מרחבים",
      "name:ar": "مجلس اقليمي مرحافيم",
      "name:en": "Merhavim Regional Council",
      "name:fr": "Conseil Régional Merhavim",
      "name:he": "מועצה אזורית מרחבים",
      "boundary": "administrative",
      "way_area": "0.0464104",
      "wikidata": "Q1883349",
      "wikipedia": "he:מועצה אזורית מרחבים",
      "admin_level": "8",
      "short_name:ar": "مرحافيم",
      "complete:relation": "yes"
    }
  },
  {
    "osm_id": -1376786,
    "boundary": "administrative",
    "admin_level": 8,
    "parents": "-11584306,-1473952,-1473946",
    "name": "Ramat Negev Regional Council",
    "local_name": "מועצה אזורית רמת נגב",
    "name_en": "Ramat Negev Regional Council",
    "all_tags": {
      "name": "מועצה אזורית רמת נגב",
      "name:ar": "مجلس إقليمي رمات النقب",
      "name:en": "Ramat Negev Regional Council",
      "name:fr": "Conseil régional de Ramat Negev",
      "name:he": "מועצה אזורית רמת נגב",
      "boundary": "administrative",
      "name:ar1": "المجلس الإقليمي رمات النقب",
      "way_area": "0.385254",
      "wikidata": "Q195968",
      "wikipedia": "he:מועצה אזורית רמת הנגב",
      "admin_level": "8",
      "short_name:ar": "رمات النقب",
      "complete:relation": "yes"
    }
  },
  {
    "osm_id": -1376782,
    "boundary": "administrative",
    "admin_level": 8,
    "parents": "-11584353,-1473952,-1473946",
    "name": "Ashkelon",
    "local_name": "אשקלון",
    "name_en": "Ashkelon",
    "all_tags": {
      "ele": "36",
      "name": "אשקלון",
      "name:ar": "عسقلان",
      "name:el": "Ασκελόν",
      "name:en": "Ashkelon",
      "name:fi": "Ashkelon",
      "name:fr": "Ascalon",
      "name:he": "אשקלון",
      "name:it": "Ascalona",
      "name:pl": "Aszkelon",
      "name:ru": "Ашкелон",
      "website": "http://www.ashkelon.muni.il/",
      "boundary": "administrative",
      "way_area": "0.00497492",
      "wikidata": "Q60956",
      "wikipedia": "he:אשקלון",
      "population": "152439",
      "admin_level": "8",
      "alt_name:ar": "أشكلون;عسقلون;مجدل",
      "complete:relation": "yes"
    }
  },
  {
    "osm_id": -1376773,
    "boundary": "administrative",
    "admin_level": 8,
    "parents": "-11584306,-1473952,-1473946",
    "name": "Neot Hovav",
    "local_name": "נאות חובב",
    "name_en": "Neot Hovav",
    "all_tags": {
      "name": "נאות חובב",
      "name:en": "Neot Hovav",
      "name:fr": "Ramat Hovav",
      "name:he": "נאות חובב",
      "alt_name": "רמת חובב",
      "boundary": "administrative",
      "way_area": "0.00726873",
      "wikidata": "Q1000978",
      "wikipedia": "he:נאות חובב",
      "admin_level": "8",
      "complete:relation": "yes"
    }
  },
  {
    "osm_id": -1376764,
    "boundary": "administrative",
    "admin_level": 8,
    "parents": "-11584306,-1473952,-1473946",
    "name": "Yeroham",
    "local_name": "ירוחם",
    "name_en": "Yeroham",
    "all_tags": {
      "name": "ירוחם",
      "name:ar": "يروحام",
      "name:de": "Jerocham",
      "name:en": "Yeroham",
      "name:fr": "Yeruham",
      "name:he": "ירוחם",
      "name:pl": "Yeruham",
      "name:ru": "Йерухам",
      "name:sv": "Yeroẖam",
      "boundary": "administrative",
      "way_area": "0.00553337",
      "wikidata": "Q1687708",
      "wikipedia": "he:ירוחם",
      "admin_level": "8",
      "complete:relation": "yes"
    }
  },
  {
    "osm_id": -1376758,
    "boundary": "administrative",
    "admin_level": 8,
    "parents": "-11584306,-1473952,-1473946",
    "name": "Mizpe Ramon",
    "local_name": "מצפה רמון",
    "name_en": "Mizpe Ramon",
    "all_tags": {
      "name": "מצפה רמון",
      "name:ar": "متسبي رمون",
      "name:en": "Mizpe Ramon",
      "name:fr": "Mitzpe Ramon",
      "name:he": "מצפה רמון",
      "boundary": "administrative",
      "way_area": "0.00713525",
      "wikidata": "Q741793",
      "wikipedia": "he:מצפה רמון",
      "admin_level": "8",
      "complete:relation": "yes"
    }
  },
  {
    "osm_id": -1375245,
    "boundary": "administrative",
    "admin_level": 8,
    "parents": "-11585174,-1375620,-1473946",
    "name": "Ein Kinya",
    "local_name": "عين قنية",
    "name_en": "Ein Kinya",
    "all_tags": {
      "name": "عين قنية",
      "name:ar": "عين قنية",
      "name:en": "Ein Kinya",
      "name:fr": "Ein Qiniyye",
      "name:he": "עין קיניא",
      "boundary": "administrative",
      "way_area": "0.000523631",
      "wikidata": "Q2917274",
      "wikipedia": "ar:عين قنية",
      "admin_level": "8",
      "complete:relation": "yes"
    }
  },
  {
    "osm_id": -1375244,
    "boundary": "administrative",
    "admin_level": 8,
    "parents": "-11585174,-1375620,-1473946",
    "name": "Masade",
    "local_name": "مسعدة",
    "name_en": "Masade",
    "all_tags": {
      "ele": "1034",
      "name": "مسعدة",
      "name:ar": "مسعدة",
      "name:en": "Masade",
      "name:fr": "Mas'ade",
      "name:he": "מסעדה",
      "boundary": "administrative",
      "way_area": "0.00116171",
      "wikidata": "Q2655013",
      "wikipedia": "he:מסעדה (יישוב)",
      "population": "3557",
      "admin_level": "8",
      "complete:relation": "yes"
    }
  },
  {
    "osm_id": -1375243,
    "boundary": "administrative",
    "admin_level": 8,
    "parents": "-11585174,-1375620,-1473946",
    "name": "Bukata",
    "local_name": "بقعاثا",
    "name_en": "Bukata",
    "all_tags": {
      "name": "بقعاثا",
      "name:ar": "بقعاثا",
      "name:en": "Bukata",
      "name:fr": "Buq'ata",
      "name:he": "בוקעאתא",
      "boundary": "administrative",
      "way_area": "0.00188959",
      "wikidata": "Q2915523",
      "wikipedia": "he:בוקעאתא",
      "population": "6590",
      "admin_level": "8",
      "complete:relation": "yes"
    }
  },
  {
    "osm_id": -1375242,
    "boundary": "administrative",
    "admin_level": 8,
    "parents": "-11585174,-1375620,-1473946",
    "name": "Majdal al-Shams",
    "local_name": "مجدل شمس",
    "name_en": "Majdal al-Shams",
    "all_tags": {
      "name": "مجدل شمس",
      "name:ar": "مجدل شمس",
      "name:en": "Majdal al-Shams",
      "name:fr": "Majdal Shams",
      "name:he": "מג'דל א-שמס",
      "boundary": "administrative",
      "way_area": "0.00148853",
      "wikidata": "Q670612",
      "wikipedia": "he:מג'דל שמס",
      "population": "11295",
      "admin_level": "8",
      "complete:relation": "yes"
    }
  },
  {
    "osm_id": -1246791,
    "boundary": "administrative",
    "admin_level": 8,
    "parents": "-11587514,-1400928,-1473946",
    "name": "Rehovot",
    "local_name": "רחובות",
    "name_en": "Rehovot",
    "all_tags": {
      "ele": "51",
      "name": "רחובות",
      "name:ar": "رحوفوت",
      "name:cs": "Rechovot",
      "name:en": "Rehovot",
      "name:fr": "Rehovot",
      "name:he": "רחובות",
      "website": "https://www.rehovot.muni.il/",
      "boundary": "administrative",
      "way_area": "0.00226466",
      "wikidata": "Q207350",
      "land_area": "administrative",
      "wikipedia": "he:רחובות",
      "population": "150349",
      "admin_level": "8",
      "complete:relation": "yes"
    }
  },
  {
    "osm_id": -1246731,
    "boundary": "administrative",
    "admin_level": 8,
    "parents": "-11587514,-1400928,-1473946",
    "name": "Nes Ziona",
    "local_name": "נס ציונה",
    "name_en": "Nes Ziona",
    "all_tags": {
      "ele": "39",
      "name": "נס ציונה",
      "name:ar": "نس تصيونا",
      "name:cs": "Nes Cijona",
      "name:en": "Nes Ziona",
      "name:fr": "Ness Ziona",
      "name:he": "נס ציונה",
      "name:ru": "Нес-Циона",
      "website": "http://www.nzc.org.il/",
      "boundary": "administrative",
      "way_area": "0.00149481",
      "wikidata": "Q168162",
      "land_area": "administrative",
      "wikipedia": "he:נס ציונה",
      "population": "48723",
      "admin_level": "8",
      "alt_name:ar": "نيس زيونا;نس تسيونا",
      "complete:relation": "yes"
    }
  }
]
