[
  {
    "osm_id": -9521529,
    "boundary": "administrative",
    "admin_level": 8,
    "parents": "-1759477,-9455886,-9456066,-382313",
    "name": "Ebisu",
    "local_name": "渋谷区",
    "name_en": "Ebisu",
    "all_tags": {
      "name": "渋谷区",
      "place": "quarter",
      "name:en": "Ebisu",
      "name:es": "Ebisu",
      "name:ja": "恵比寿)",
      "name:ru": "Эбису",
      "boundary": "administrative",
      "way_area": "6.8529e-05",
      "wikidata": "Q1203521",
      "wikipedia": "ja:恵比寿 (渋谷区)",
      "admin_level": "8",
      "name:ja_kana": "えびす"
    }
  },
  {
    "osm_id": -9478737,
    "boundary": "administrative",
    "admin_level": 8,
    "parents": "-1759477,-9455886,-9456066,-382313",
    "name": "Hiroo",
    "local_name": "広尾",
    "name_en": "Hiroo",
    "all_tags": {
      "name": "広尾",
      "place": "quarter",
      "name:en": "Hiroo",
      "boundary": "administrative",
      "way_area": "8.11034e-05",
      "wikidata": "Q3136345",
      "wikipedia": "ja:広尾 (渋谷区)",
      "admin_level": "8"
    }
  },
  {
    "osm_id": -8004038,
    "boundary": "administrative",
    "admin_level": 8,
    "parents": "-4561990,-3606141,-1543125,-1803923,-382313",
    "name": "Minami-Tori-shima",
    "local_name": "南鳥島",
    "name_en": "Minami-Tori-shima",
    "all_tags": {
      "name": "南鳥島",
      "name:az": "Minamitori",
      "name:be": "Мінаміторы",
      "name:ca": "Minami Torishima",
      "name:cs": "Minami Torišima",
      "name:de": "Minami-Torishima",
      "name:en": "Minami-Tori-shima",
      "name:eo": "Minami-Tori-ŝima",
      "name:es": "Minami Torishima",
      "name:et": "Minamitori",
      "name:eu": "Minamitorishima",
      "name:fa": "می‌نامی-توری-شیما",
      "name:fi": "Minamitori-shima",
      "name:fr": "Île Minamitori",
      "name:gl": "Minami Torishima",
      "name:hy": "Մինամիտորի",
      "name:it": "Minami Torishima",
      "name:ja": "南鳥島",
      "name:ko": "미나미토리 섬",
      "name:lv": "Minamitori",
      "name:pl": "Minami Tori-shima",
      "name:pt": "Minamitorishima",
      "name:ru": "Минамитори",
      "name:sv": "Minami-Torishima",
      "name:tr": "Minami Torishima",
      "name:uk": "Острів Мінамі-Торісіма",
      "name:ur": "مینامی توری شیما",
      "name:vi": "Minami Tori-shima",
      "name:zh": "南鸟岛",
      "boundary": "administrative",
      "name:ast": "Islla Minami Torishima",
      "way_area": "0.148874",
      "wikidata": "Q1047492",
      "wikipedia": "ja:南鳥島",
      "admin_level": "8",
      "alt_name:de": "Marcusinsel",
      "alt_name:en": "Marcus Island",
      "alt_name:fr": "Île Marcus",
      "wikipedia:en": "Minami-Tori-shima",
      "wikipedia:ja": "南鳥島"
    }
  },
  {
    "osm_id": -4846980,
    "boundary": "administrative",
    "admin_level": 8,
    "parents": "-4847014,-1800742,-1803923,-382313",
    "name": "Iwafune",
    "local_name": "岩舟町",
    "name_en": "Iwafune",
    "all_tags": {
      "name": "岩舟町",
      "name:en": "Iwafune",
      "name:ja": "岩舟町",
      "boundary": "administrative",
      "way_area": "0.00469279",
      "wikidata": "Q1203561",
      "wikipedia": "ja:岩舟町",
      "name:ja_rm": "Iwafune-Machi",
      "admin_level": "8",
      "name:ja_kana": "いわふねまち"
    }
  },
  {
    "osm_id": -4674698,
    "boundary": "administrative",
    "admin_level": 8,
    "parents": "-4674741,-9454757,-9456066,-382313",
    "name": "Kita Ward",
    "local_name": "北区",
    "name_en": "Kita Ward",
    "all_tags": {
      "name": "北区",
      "name:en": "Kita Ward",
      "name:ja": "北区",
      "boundary": "administrative",
      "way_area": "0.0286202",
      "name:ja_rm": "Kita-Ku",
      "admin_level": "8",
      "name:ja_kana": "きたく"
    }
  },
  {
    "osm_id": -4674693,
    "boundary": "administrative",
    "admin_level": 8,
    "parents": "-4674741,-9454757,-9456066,-382313",
    "name": "Hamakita Ward",
    "local_name": "浜北区",
    "name_en": "Hamakita Ward",
    "all_tags": {
      "name": "浜北区",
      "name:en": "Hamakita Ward",
      "name:ja": "浜北区",
      "boundary": "administrative",
      "way_area": "0.0065564",
      "wikidata": "Q853203",
      "wikipedia": "ja:浜北市",
      "name:ja_rm": "Hamakita-Ku",
      "admin_level": "8",
      "name:ja_kana": "はまきたく"
    }
  },
  {
    "osm_id": -4674689,
    "boundary": "administrative",
    "admin_level": 8,
    "parents": "-4674741,-9454757,-9456066,-382313",
    "name": "Minami Ward",
    "local_name": "南区",
    "name_en": "Minami Ward",
    "all_tags": {
      "name": "南区",
      "name:en": "Minami Ward",
      "name:ja": "南区",
      "boundary": "administrative",
      "way_area": "0.0356321",
      "name:ja_rm": "Minami-Ku",
      "admin_level": "8",
      "name:ja_kana": "みなみく"
    }
  },
  {
    "osm_id": -4674688,
    "boundary": "administrative",
    "admin_level": 8,
    "parents": "-4674741,-9454757,-9456066,-382313",
    "name": "Higashi Ward",
    "local_name": "東区",
    "name_en": "Higashi Ward",
    "all_tags": {
      "name": "東区",
      "name:en": "Higashi Ward",
      "name:ja": "東区",
      "boundary": "administrative",
      "way_area": "0.00455563",
      "name:ja_rm": "Higashi-Ku",
      "admin_level": "8",
      "name:ja_kana": "ひがしく"
    }
  },
  {
    "osm_id": -4674686,
    "boundary": "administrative",
    "admin_level": 8,
    "parents": "-4674741,-9454757,-9456066,-382313",
    "name": "Tenryu Ward",
    "local_name": "天竜区",
    "name_en": "Tenryu Ward",
    "all_tags": {
      "name": "天竜区",
      "name:en": "Tenryu Ward",
      "name:ja": "天竜区",
      "boundary": "administrative",
      "way_area": "0.0932615",
      "wikidata": "Q1042402",
      "wikipedia": "ja:天竜市",
      "name:ja_rm": "Tenryu-ku",
      "admin_level": "8",
      "name:ja_kana": "てんりゅうく"
    }
  },
  {
    "osm_id": -4674677,
    "boundary": "administrative",
    "admin_level": 8,
    "parents": "-4674741,-9454757,-9456066,-382313",
    "name": "Naka Ward",
    "local_name": "中区",
    "name_en": "Naka Ward",
    "all_tags": {
      "name": "中区",
      "name:en": "Naka Ward",
      "name:ja": "中区",
      "boundary": "administrative",
      "way_area": "0.00434663",
      "name:ja_rm": "Naka-Ku",
      "admin_level": "8",
      "name:ja_kana": "なかく"
    }
  },
  {
    "osm_id": -4674674,
    "boundary": "administrative",
    "admin_level": 8,
    "parents": "-4674741,-9454757,-9456066,-382313",
    "name": "Nishi Ward",
    "local_name": "西区",
    "name_en": "Nishi Ward",
    "all_tags": {
      "name": "西区",
      "name:en": "Nishi Ward",
      "name:ja": "西区",
      "boundary": "administrative",
      "way_area": "0.0322544",
      "wikidata": "Q1131075",
      "wikipedia": "ja:西区 (浜松市)",
      "name:ja_rm": "Nishi-Ku",
      "admin_level": "8",
      "name:ja_kana": "にしく"
    }
  },
  {
    "osm_id": -4674670,
    "boundary": "administrative",
    "admin_level": 8,
    "parents": "-4674742,-9454748,-9456066,-382313",
    "name": "Shimizu Ward",
    "local_name": "清水区",
    "name_en": "Shimizu Ward",
    "all_tags": {
      "name": "清水区",
      "name:en": "Shimizu Ward",
      "name:ja": "清水区",
      "boundary": "administrative",
      "way_area": "0.0562237",
      "wikidata": "Q79385",
      "name:ja_rm": "Shimizu-Ku",
      "admin_level": "8",
      "postal_code": "424-8701",
      "name:ja_kana": "しみずく",
      "wikipedia:ja": "清水区"
    }
  },
  {
    "osm_id": -4674665,
    "boundary": "administrative",
    "admin_level": 8,
    "parents": "-4674742,-9454748,-9456066,-382313",
    "name": "Suruga Ward",
    "local_name": "駿河区",
    "name_en": "Suruga Ward",
    "all_tags": {
      "name": "駿河区",
      "name:en": "Suruga Ward",
      "name:ja": "駿河区",
      "boundary": "administrative",
      "way_area": "0.0216378",
      "wikidata": "Q1042630",
      "name:ja_rm": "Suruga-Ku",
      "admin_level": "8",
      "postal_code": "422-8550",
      "name:ja_kana": "するがく",
      "wikipedia:ja": "駿河区"
    }
  },
  {
    "osm_id": -4674661,
    "boundary": "administrative",
    "admin_level": 8,
    "parents": "-4674742,-9454748,-9456066,-382313",
    "name": "Aoi Ward",
    "local_name": "葵区",
    "name_en": "Aoi Ward",
    "all_tags": {
      "name": "葵区",
      "name:en": "Aoi Ward",
      "name:ja": "葵区",
      "boundary": "administrative",
      "way_area": "0.106357",
      "wikidata": "Q1131483",
      "name:ja_rm": "Aoi-Ku",
      "admin_level": "8",
      "postal_code": "420-8602",
      "name:ja_kana": "あおいく",
      "wikipedia:ja": "葵区"
    }
  },
  {
    "osm_id": -4567639,
    "boundary": "administrative",
    "admin_level": 8,
    "parents": "-4576938,-9454631,-9456066,-382313",
    "name": "Midori Ward",
    "local_name": "緑区",
    "name_en": "Midori Ward",
    "all_tags": {
      "name": "緑区",
      "name:en": "Midori Ward",
      "name:ja": "緑区",
      "boundary": "administrative",
      "way_area": "0.00374866",
      "wikidata": "Q1155209",
      "name:ja_rm": "Midori-Ku",
      "admin_level": "8",
      "name:ja_kana": "みどりく"
    }
  },
  {
    "osm_id": -4567636,
    "boundary": "administrative",
    "admin_level": 8,
    "parents": "-4576938,-9454631,-9456066,-382313",
    "name": "Meito Ward",
    "local_name": "名東区",
    "name_en": "Meito Ward",
    "all_tags": {
      "name": "名東区",
      "name:en": "Meito Ward",
      "name:es": "Barrio Meito",
      "name:ja": "名東区",
      "boundary": "administrative",
      "way_area": "0.00192068",
      "wikidata": "Q1155280",
      "name:ja_rm": "Meito-Ku",
      "admin_level": "8",
      "name:ja_kana": "めいとうく"
    }
  },
  {
    "osm_id": -4567635,
    "boundary": "administrative",
    "admin_level": 8,
    "parents": "-4576938,-9454631,-9456066,-382313",
    "name": "Kita Ward",
    "local_name": "北区",
    "name_en": "Kita Ward",
    "all_tags": {
      "name": "北区",
      "name:en": "Kita Ward",
      "name:ja": "北区",
      "boundary": "administrative",
      "way_area": "0.00173547",
      "wikidata": "Q1207964",
      "name:ja_rm": "Kita-Ku",
      "admin_level": "8",
      "name:ja_kana": "きたく"
    }
  },
  {
    "osm_id": -4567628,
    "boundary": "administrative",
    "admin_level": 8,
    "parents": "-4576938,-9454631,-9456066,-382313",
    "name": "Atsuta Ward",
    "local_name": "熱田区",
    "name_en": "Atsuta Ward",
    "all_tags": {
      "name": "熱田区",
      "name:en": "Atsuta Ward",
      "name:ja": "熱田区",
      "boundary": "administrative",
      "way_area": "0.00081046",
      "wikidata": "Q1355625",
      "name:ja_rm": "Atsuta-Ku",
      "admin_level": "8",
      "name:ja_kana": "あつたく"
    }
  },
  {
    "osm_id": -4567626,
    "boundary": "administrative",
    "admin_level": 8,
    "parents": "-4576938,-9454631,-9456066,-382313",
    "name": "Minami Ward",
    "local_name": "南区",
    "name_en": "Minami Ward",
    "all_tags": {
      "name": "南区",
      "name:en": "Minami Ward",
      "name:ja": "南区",
      "boundary": "administrative",
      "way_area": "0.00182582",
      "wikidata": "Q1155286",
      "name:ja_rm": "Minami-Ku",
      "admin_level": "8",
      "name:ja_kana": "みなみく"
    }
  },
  {
    "osm_id": -4567617,
    "boundary": "administrative",
    "admin_level": 8,
    "parents": "-4576938,-9454631,-9456066,-382313",
    "name": "Higashi Ward",
    "local_name": "東区",
    "name_en": "Higashi Ward",
    "all_tags": {
      "name": "東区",
      "name:en": "Higashi Ward",
      "name:ja": "東区",
      "boundary": "administrative",
      "way_area": "0.000765205",
      "wikidata": "Q578824",
      "name:ja_rm": "Higashi-Ku",
      "admin_level": "8",
      "name:ja_kana": "ひがしく"
    }
  },
  {
    "osm_id": -4567614,
    "boundary": "administrative",
    "admin_level": 8,
    "parents": "-4576938,-9454631,-9456066,-382313",
    "name": "Tenpaku Ward",
    "local_name": "天白区",
    "name_en": "Tenpaku Ward",
    "all_tags": {
      "name": "天白区",
      "name:en": "Tenpaku Ward",
      "name:ja": "天白区",
      "boundary": "administrative",
      "way_area": "0.00213555",
      "wikidata": "Q1155245",
      "name:ja_rm": "Tenpaku-Ku",
      "admin_level": "8",
      "name:ja_kana": "てんぱくく"
    }
  },
  {
    "osm_id": -4567594,
    "boundary": "administrative",
    "admin_level": 8,
    "parents": "-4576938,-9454631,-9456066,-382313",
    "name": "Nakamura Ward",
    "local_name": "中村区",
    "name_en": "Nakamura Ward",
    "all_tags": {
      "name": "中村区",
      "name:en": "Nakamura Ward",
      "name:ja": "中村区",
      "boundary": "administrative",
      "way_area": "0.00161341",
      "wikidata": "Q780521",
      "name:ja_rm": "Nakamura-Ku",
      "admin_level": "8",
      "name:ja_kana": "なかむらく"
    }
  },
  {
    "osm_id": -4567592,
    "boundary": "administrative",
    "admin_level": 8,
    "parents": "-4576938,-9454631,-9456066,-382313",
    "name": "Nakagawa Ward",
    "local_name": "中川区",
    "name_en": "Nakagawa Ward",
    "all_tags": {
      "name": "中川区",
      "name:en": "Nakagawa Ward",
      "name:ja": "中川区",
      "boundary": "administrative",
      "way_area": "0.00316519",
      "wikidata": "Q1155226",
      "name:ja_rm": "Nakagawa-Ku",
      "admin_level": "8",
      "name:ja_kana": "なかがわく"
    }
  },
  {
    "osm_id": -4567580,
    "boundary": "administrative",
    "admin_level": 8,
    "parents": "-4576938,-9454631,-9456066,-382313",
    "name": "Naka Ward",
    "local_name": "中区",
    "name_en": "Naka Ward",
    "all_tags": {
      "name": "中区",
      "name:en": "Naka Ward",
      "name:es": "Barrio Naka",
      "name:ja": "中区",
      "boundary": "administrative",
      "way_area": "0.000925439",
      "wikidata": "Q1207921",
      "name:ja_rm": "Naka-Ku",
      "admin_level": "8",
      "name:ja_kana": "なかく"
    }
  },
  {
    "osm_id": -4567579,
    "boundary": "administrative",
    "admin_level": 8,
    "parents": "-4576938,-9454631,-9456066,-382313",
    "name": "Chikusa Ward",
    "local_name": "千種区",
    "name_en": "Chikusa Ward",
    "all_tags": {
      "name": "千種区",
      "name:en": "Chikusa Ward",
      "name:ja": "千種区",
      "boundary": "administrative",
      "way_area": "0.00180114",
      "wikidata": "Q1207951",
      "name:ja_rm": "Chikusa-Ku",
      "admin_level": "8",
      "name:ja_kana": "ちくさく"
    }
  },
  {
    "osm_id": -4567577,
    "boundary": "administrative",
    "admin_level": 8,
    "parents": "-4576938,-9454631,-9456066,-382313",
    "name": "Nishi Ward",
    "local_name": "西区",
    "name_en": "Nishi Ward",
    "all_tags": {
      "name": "西区",
      "name:en": "Nishi Ward",
      "name:ja": "西区",
      "boundary": "administrative",
      "way_area": "0.00177604",
      "wikidata": "Q1207973",
      "name:ja_rm": "Nishi-Ku",
      "admin_level": "8",
      "name:ja_kana": "にしく"
    }
  },
  {
    "osm_id": -4567572,
    "boundary": "administrative",
    "admin_level": 8,
    "parents": "-4576938,-9454631,-9456066,-382313",
    "name": "Mizuho Ward",
    "local_name": "瑞穂区",
    "name_en": "Mizuho Ward",
    "all_tags": {
      "name": "瑞穂区",
      "name:en": "Mizuho Ward",
      "name:ja": "瑞穂区",
      "boundary": "administrative",
      "way_area": "0.00110795",
      "wikidata": "Q1207957",
      "name:ja_rm": "Mizuho-Ku",
      "admin_level": "8",
      "name:ja_kana": "みずほく"
    }
  },
  {
    "osm_id": -4567527,
    "boundary": "administrative",
    "admin_level": 8,
    "parents": "-4576938,-9454631,-9456066,-382313",
    "name": "Showa Ward",
    "local_name": "昭和区",
    "name_en": "Showa Ward",
    "all_tags": {
      "name": "昭和区",
      "name:en": "Showa Ward",
      "name:ja": "昭和区",
      "boundary": "administrative",
      "way_area": "0.00108278",
      "wikidata": "Q1155273",
      "name:ja_rm": "Shouwa-Ku",
      "admin_level": "8",
      "name:ja_kana": "しょうわく"
    }
  },
  {
    "osm_id": -4567526,
    "boundary": "administrative",
    "admin_level": 8,
    "parents": "-4576938,-9454631,-9456066,-382313",
    "name": "Moriyama Ward",
    "local_name": "守山区",
    "name_en": "Moriyama Ward",
    "all_tags": {
      "name": "守山区",
      "name:en": "Moriyama Ward",
      "name:ja": "守山区",
      "boundary": "administrative",
      "way_area": "0.00336632",
      "wikidata": "Q1155291",
      "wikipedia": "ja:守山区",
      "name:ja_rm": "Moriyama-Ku",
      "admin_level": "8",
      "name:ja_kana": "もりやまく",
      "wikimedia_commons": "Category:Moriyama-ku, Nagoya"
    }
  },
  {
    "osm_id": -4567524,
    "boundary": "administrative",
    "admin_level": 8,
    "parents": "-4576938,-9454631,-9456066,-382313",
    "name": "Minato Ward",
    "local_name": "港区",
    "name_en": "Minato Ward",
    "all_tags": {
      "name": "港区",
      "name:en": "Minato Ward",
      "name:ja": "港区",
      "boundary": "administrative",
      "way_area": "0.00602844",
      "wikidata": "Q1207982",
      "name:ja_rm": "Minato-Ku",
      "admin_level": "8",
      "name:ja_kana": "みなとく"
    }
  },
  {
    "osm_id": -4453851,
    "boundary": "administrative",
    "admin_level": 8,
    "parents": "-4237973,-3559887,-382313",
    "name": "Akiha Ward",
    "local_name": "秋葉区",
    "name_en": "Akiha Ward",
    "all_tags": {
      "name": "秋葉区",
      "name:en": "Akiha Ward",
      "name:ja": "秋葉区",
      "boundary": "administrative",
      "way_area": "0.00975398",
      "name:ja_rm": "Akiha-Ku",
      "admin_level": "8",
      "name:ja_kana": "あきはく"
    }
  },
  {
    "osm_id": -4453850,
    "boundary": "administrative",
    "admin_level": 8,
    "parents": "-4237973,-3559887,-382313",
    "name": "Nishikan Ward",
    "local_name": "西蒲区",
    "name_en": "Nishikan Ward",
    "all_tags": {
      "name": "西蒲区",
      "name:en": "Nishikan Ward",
      "name:ja": "西蒲区",
      "boundary": "administrative",
      "way_area": "0.0549073",
      "name:ja_rm": "Nishikan-Ku",
      "admin_level": "8",
      "name:ja_kana": "にしかんく"
    }
  },
  {
    "osm_id": -4453849,
    "boundary": "administrative",
    "admin_level": 8,
    "parents": "-4237973,-3559887,-382313",
    "name": "Minami Ward",
    "local_name": "南区",
    "name_en": "Minami Ward",
    "all_tags": {
      "name": "南区",
      "name:en": "Minami Ward",
      "name:ja": "南区",
      "boundary": "administrative",
      "way_area": "0.010278",
      "name:ja_rm": "Minami-Ku",
      "admin_level": "8",
      "name:ja_kana": "みなみく"
    }
  },
  {
    "osm_id": -4453845,
    "boundary": "administrative",
    "admin_level": 8,
    "parents": "-4237973,-3559887,-382313",
    "name": "Nishi Ward",
    "local_name": "西区",
    "name_en": "Nishi Ward",
    "all_tags": {
      "name": "西区",
      "name:en": "Nishi Ward",
      "name:ja": "西区",
      "boundary": "administrative",
      "way_area": "0.0444571",
      "wikidata": "Q711716",
      "name:ja_rm": "Nishi-Ku",
      "admin_level": "8",
      "name:ja_kana": "にしく"
    }
  },
  {
    "osm_id": -4453844,
    "boundary": "administrative",
    "admin_level": 8,
    "parents": "-4237973,-3559887,-382313",
    "name": "Chuo Ward",
    "local_name": "中央区",
    "name_en": "Chuo Ward",
    "all_tags": {
      "name": "中央区",
      "name:en": "Chuo Ward",
      "name:ja": "中央区",
      "boundary": "administrative",
      "way_area": "0.0180912",
      "wikidata": "Q711787",
      "name:ja_rm": "Chuo-Ku",
      "admin_level": "8",
      "name:ja_kana": "ちゅうおうく"
    }
  },
  {
    "osm_id": -4453842,
    "boundary": "administrative",
    "admin_level": 8,
    "parents": "-4237973,-3559887,-382313",
    "name": "Higashi Ward",
    "local_name": "東区",
    "name_en": "Higashi Ward",
    "all_tags": {
      "name": "東区",
      "name:en": "Higashi Ward",
      "name:ja": "東区",
      "boundary": "administrative",
      "way_area": "0.0445595",
      "name:ja_rm": "Higashi-Ku",
      "admin_level": "8",
      "name:ja_kana": "ひがしく"
    }
  },
  {
    "osm_id": -4288112,
    "boundary": "administrative",
    "admin_level": 8,
    "parents": "-4237973,-3559887,-382313",
    "name": "Konan Ward",
    "local_name": "江南区",
    "name_en": "Konan Ward",
    "all_tags": {
      "name": "江南区",
      "name:en": "Konan Ward",
      "name:ja": "江南区",
      "boundary": "administrative",
      "way_area": "0.00773525",
      "name:ja_rm": "Konan-Ku",
      "admin_level": "8",
      "name:ja_kana": "こうなんく"
    }
  },
  {
    "osm_id": -4288111,
    "boundary": "administrative",
    "admin_level": 8,
    "parents": "-4237973,-3559887,-382313",
    "name": "Kita Ward",
    "local_name": "北区",
    "name_en": "Kita Ward",
    "all_tags": {
      "name": "北区",
      "name:en": "Kita Ward",
      "name:ja": "北区",
      "boundary": "administrative",
      "way_area": "0.0442154",
      "name:ja_rm": "Kita-Ku",
      "admin_level": "8",
      "name:ja_kana": "きたく"
    }
  },
  {
    "osm_id": -4168634,
    "boundary": "administrative",
    "admin_level": 8,
    "parents": "-4135014,-3790801,-382313",
    "name": "Wakabayashi Ward",
    "local_name": "若林区",
    "name_en": "Wakabayashi Ward",
    "all_tags": {
      "name": "若林区",
      "name:en": "Wakabayashi Ward",
      "name:ja": "若林区",
      "boundary": "administrative",
      "way_area": "0.00919972",
      "wikidata": "Q1131743",
      "wikipedia": "ja:若林区",
      "admin_level": "8",
      "name:ja_kana": "わかばやしく"
    }
  },
  {
    "osm_id": -4168599,
    "boundary": "administrative",
    "admin_level": 8,
    "parents": "-4135014,-3790801,-382313",
    "name": "Taihaku Ward",
    "local_name": "太白区",
    "name_en": "Taihaku Ward",
    "all_tags": {
      "name": "太白区",
      "name:en": "Taihaku Ward",
      "name:ja": "太白区",
      "boundary": "administrative",
      "way_area": "0.0235118",
      "admin_level": "8",
      "name:ja_kana": "たいはくく"
    }
  },
  {
    "osm_id": -4159314,
    "boundary": "administrative",
    "admin_level": 8,
    "parents": "-4135014,-3790801,-382313",
    "name": "Miyagino Ward",
    "local_name": "宮城野区",
    "name_en": "Miyagino Ward",
    "all_tags": {
      "name": "宮城野区",
      "name:en": "Miyagino Ward",
      "name:ja": "宮城野区",
      "boundary": "administrative",
      "way_area": "0.0275358",
      "admin_level": "8",
      "name:ja_kana": "みやぎのく"
    }
  },
  {
    "osm_id": -4159306,
    "boundary": "administrative",
    "admin_level": 8,
    "parents": "-4135014,-3790801,-382313",
    "name": "Izumi Ward",
    "local_name": "泉区",
    "name_en": "Izumi Ward",
    "all_tags": {
      "name": "泉区",
      "name:en": "Izumi Ward",
      "name:ja": "泉区",
      "boundary": "administrative",
      "way_area": "0.0151069",
      "admin_level": "8",
      "name:ja_kana": "いずみく"
    }
  },
  {
    "osm_id": -4159305,
    "boundary": "administrative",
    "admin_level": 8,
    "parents": "-4135014,-3790801,-382313",
    "name": "Aoba Ward",
    "local_name": "青葉区",
    "name_en": "Aoba Ward",
    "all_tags": {
      "name": "青葉区",
      "name:en": "Aoba Ward",
      "name:ja": "青葉区",
      "boundary": "administrative",
      "way_area": "0.0311405",
      "admin_level": "8",
      "name:ja_kana": "あおばく"
    }
  },
  {
    "osm_id": -4134335,
    "boundary": "administrative",
    "admin_level": 8,
    "parents": "-4085749,-4088199,-3795658,-382313",
    "name": "Kiyota Ward",
    "local_name": "清田区",
    "name_en": "Kiyota Ward",
    "all_tags": {
      "name": "清田区",
      "name:en": "Kiyota Ward",
      "name:es": "Kiyota",
      "name:ja": "清田区",
      "name:ru": "Киёта",
      "boundary": "administrative",
      "way_area": "0.00659844",
      "wikidata": "Q1134019",
      "wikipedia": "ja:清田区",
      "name:ja_rm": "Kiyota-ku",
      "admin_level": "8",
      "name:ja-Latn": "Kiyota-ku",
      "name:ja_kana": "きよたく"
    }
  },
  {
    "osm_id": -4134324,
    "boundary": "administrative",
    "admin_level": 8,
    "parents": "-4085749,-4088199,-3795658,-382313",
    "name": "Atsubetsu Ward",
    "local_name": "厚別区",
    "name_en": "Atsubetsu Ward",
    "all_tags": {
      "name": "厚別区",
      "name:en": "Atsubetsu Ward",
      "name:es": "Atsubetsu",
      "name:ja": "厚別区",
      "name:ru": "Ацубэцу",
      "boundary": "administrative",
      "way_area": "0.00269384",
      "wikidata": "Q1134346",
      "wikipedia": "ja:厚別区",
      "name:ja_rm": "Atsubetsu-ku",
      "admin_level": "8",
      "name:ja-Latn": "Atsubetsu-ku",
      "name:ja_kana": "あつべつく"
    }
  },
  {
    "osm_id": -4134323,
    "boundary": "administrative",
    "admin_level": 8,
    "parents": "-4085749,-4088199,-3795658,-382313",
    "name": "Toyohira Ward",
    "local_name": "豊平区",
    "name_en": "Toyohira Ward",
    "all_tags": {
      "name": "豊平区",
      "name:en": "Toyohira Ward",
      "name:es": "Toyohira",
      "name:ja": "豊平区",
      "name:ru": "Тоёхира",
      "boundary": "administrative",
      "way_area": "0.00511535",
      "wikidata": "Q11633682",
      "name:ja_rm": "Toyohira-ku",
      "admin_level": "8",
      "name:ja-Latn": "Toyohira-ku",
      "name:ja_kana": "とよひらく"
    }
  },
  {
    "osm_id": -4134320,
    "boundary": "administrative",
    "admin_level": 8,
    "parents": "-4085749,-4088199,-3795658,-382313",
    "name": "Shiroishi Ward",
    "local_name": "白石区",
    "name_en": "Shiroishi Ward",
    "all_tags": {
      "name": "白石区",
      "name:en": "Shiroishi Ward",
      "name:es": "Distrito de Shiroishi",
      "name:ja": "白石区",
      "name:ru": "Сироиси",
      "boundary": "administrative",
      "way_area": "0.00381945",
      "wikidata": "Q647388",
      "wikipedia": "ja:白石区",
      "name:ja_rm": "Shiroishi-ku",
      "admin_level": "8",
      "name:ja-Latn": "Shiroishi-ku",
      "name:ja_kana": "しろいしく"
    }
  },
  {
    "osm_id": -4134315,
    "boundary": "administrative",
    "admin_level": 8,
    "parents": "-4085749,-4088199,-3795658,-382313",
    "name": "Chuo",
    "local_name": "中央区",
    "name_en": "Chuo",
    "all_tags": {
      "name": "中央区",
      "name:en": "Chuo",
      "name:ja": "中央区",
      "name:ru": "Тюо",
      "boundary": "administrative",
      "way_area": "0.00514911",
      "wikidata": "Q1079635",
      "name:ja_rm": "Chuo-ku",
      "admin_level": "8",
      "name:ja-Latn": "Chuo-ku",
      "name:ja_kana": "ちゅうおうく"
    }
  },
  {
    "osm_id": -4134279,
    "boundary": "administrative",
    "admin_level": 8,
    "parents": "-4085749,-4088199,-3795658,-382313",
    "name": "Higashi Ward",
    "local_name": "東区",
    "name_en": "Higashi Ward",
    "all_tags": {
      "name": "東区",
      "name:en": "Higashi Ward",
      "name:ja": "東区",
      "name:ru": "Хигаси",
      "boundary": "administrative",
      "way_area": "0.00631164",
      "wikidata": "Q1134006",
      "wikipedia": "ja:東区 (札幌市)",
      "name:ja_rm": "Higashi-ku",
      "admin_level": "8",
      "name:ja-Latn": "Higashi-ku",
      "name:ja_kana": "ひがしく"
    }
  },
  {
    "osm_id": -4134272,
    "boundary": "administrative",
    "admin_level": 8,
    "parents": "-4085749,-4088199,-3795658,-382313",
    "name": "Nishi Ward",
    "local_name": "西区",
    "name_en": "Nishi Ward",
    "all_tags": {
      "name": "西区",
      "name:en": "Nishi Ward",
      "name:ja": "西区",
      "name:ru": "Ниси",
      "boundary": "administrative",
      "way_area": "0.00828057",
      "wikidata": "Q1135640",
      "name:ja_rm": "Nishi-ku",
      "admin_level": "8",
      "name:ja-Latn": "Nishi-ku",
      "name:ja_kana": "にしく"
    }
  },
  {
    "osm_id": -4134265,
    "boundary": "administrative",
    "admin_level": 8,
    "parents": "-4085749,-4088199,-3795658,-382313",
    "name": "Minami Ward",
    "local_name": "南区",
    "name_en": "Minami Ward",
    "all_tags": {
      "name": "南区",
      "name:en": "Minami Ward",
      "name:ja": "南区",
      "name:ru": "Минами",
      "boundary": "administrative",
      "way_area": "0.0725017",
      "wikidata": "Q1134027",
      "name:ja_rm": "Minami-ku",
      "admin_level": "8",
      "name:ja-Latn": "Minami-ku",
      "name:ja_kana": "みなみく"
    }
  },
  {
    "osm_id": -4134259,
    "boundary": "administrative",
    "admin_level": 8,
    "parents": "-4085749,-4088199,-3795658,-382313",
    "name": "Teine Ward",
    "local_name": "手稲区",
    "name_en": "Teine Ward",
    "all_tags": {
      "name": "手稲区",
      "name:en": "Teine Ward",
      "name:es": "Teine",
      "name:ja": "手稲区",
      "name:ru": "Тэйнэ",
      "boundary": "administrative",
      "way_area": "0.00629697",
      "wikidata": "Q1134339",
      "wikipedia": "ja:手稲区",
      "name:ja_rm": "Teine-ku",
      "admin_level": "8",
      "name:ja-Latn": "Teine-ku",
      "name:ja_kana": "ていねく"
    }
  },
  {
    "osm_id": -4134258,
    "boundary": "administrative",
    "admin_level": 8,
    "parents": "-4085749,-4088199,-3795658,-382313",
    "name": "Kita Ward",
    "local_name": "北区",
    "name_en": "Kita Ward",
    "all_tags": {
      "name": "北区",
      "name:en": "Kita Ward",
      "name:ja": "北区",
      "name:ru": "Кита",
      "boundary": "administrative",
      "way_area": "0.00700671",
      "wikidata": "Q1134013",
      "name:ja_rm": "Kita-ku",
      "admin_level": "8",
      "name:ja-Latn": "Kita-ku",
      "name:ja_kana": "きたく"
    }
  },
  {
    "osm_id": -4097058,
    "boundary": "administrative",
    "admin_level": 8,
    "parents": "-4097196,-9450669,-9450900,-382313",
    "name": "Minami Ward",
    "local_name": "南区",
    "name_en": "Minami Ward",
    "all_tags": {
      "name": "南区",
      "name:en": "Minami Ward",
      "name:ja": "南区",
      "name:ru": "Минами",
      "boundary": "administrative",
      "way_area": "0.00694085",
      "name:ja_rm": "Minami-ku",
      "admin_level": "8",
      "name:ja_kana": "みなみく"
    }
  },
  {
    "osm_id": -4097051,
    "boundary": "administrative",
    "admin_level": 8,
    "parents": "-4097196,-9450669,-9450900,-382313",
    "name": "Higashi Ward",
    "local_name": "東区",
    "name_en": "Higashi Ward",
    "all_tags": {
      "name": "東区",
      "name:en": "Higashi Ward",
      "name:ja": "東区",
      "name:ru": "Хигаси",
      "boundary": "administrative",
      "way_area": "0.00386365",
      "wikidata": "Q73724",
      "name:ja_rm": "Higashi-ku",
      "admin_level": "8",
      "name:ja_kana": "ひがしく"
    }
  },
  {
    "osm_id": -4097049,
    "boundary": "administrative",
    "admin_level": 8,
    "parents": "-4097196,-9450669,-9450900,-382313",
    "name": "Naka Ward",
    "local_name": "中区",
    "name_en": "Naka Ward",
    "all_tags": {
      "name": "中区",
      "name:en": "Naka Ward",
      "name:ja": "中区",
      "name:ru": "Нака",
      "boundary": "administrative",
      "way_area": "0.00158736",
      "wikidata": "Q63436",
      "name:ja_rm": "Naka-ku",
      "admin_level": "8",
      "name:ja_kana": "なかく"
    }
  },
  {
    "osm_id": -4097036,
    "boundary": "administrative",
    "admin_level": 8,
    "parents": "-4097196,-9450669,-9450900,-382313",
    "name": "Nishi Ward",
    "local_name": "西区",
    "name_en": "Nishi Ward",
    "all_tags": {
      "name": "西区",
      "name:en": "Nishi Ward",
      "name:ja": "西区",
      "name:ru": "Ниси",
      "boundary": "administrative",
      "way_area": "0.00419826",
      "name:ja_rm": "Nishi-ku",
      "admin_level": "8",
      "name:ja_kana": "にしく"
    }
  },
  {
    "osm_id": -4091241,
    "boundary": "administrative",
    "admin_level": 8,
    "parents": "-4097196,-9450669,-9450900,-382313",
    "name": "Saeki Ward",
    "local_name": "佐伯区",
    "name_en": "Saeki Ward",
    "all_tags": {
      "name": "佐伯区",
      "name:en": "Saeki Ward",
      "name:ja": "佐伯区",
      "name:ru": "Саэки",
      "boundary": "administrative",
      "way_area": "0.0232443",
      "name:ja_rm": "Saeki-ku",
      "admin_level": "8",
      "name:ja_kana": "さえきく"
    }
  },
  {
    "osm_id": -4091235,
    "boundary": "administrative",
    "admin_level": 8,
    "parents": "-4097196,-9450669,-9450900,-382313",
    "name": "Asakita Ward",
    "local_name": "安佐北区",
    "name_en": "Asakita Ward",
    "all_tags": {
      "name": "安佐北区",
      "name:en": "Asakita Ward",
      "name:ja": "安佐北区",
      "name:ru": "Асакита",
      "boundary": "administrative",
      "way_area": "0.0347022",
      "name:ja_rm": "Asakita-ku",
      "admin_level": "8",
      "name:ja_kana": "あさきたく"
    }
  },
  {
    "osm_id": -4091187,
    "boundary": "administrative",
    "admin_level": 8,
    "parents": "-4097196,-9450669,-9450900,-382313",
    "name": "Asaminami Ward",
    "local_name": "安佐南区",
    "name_en": "Asaminami Ward",
    "all_tags": {
      "name": "安佐南区",
      "name:en": "Asaminami Ward",
      "name:ja": "安佐南区",
      "name:ru": "Асаминами",
      "boundary": "administrative",
      "way_area": "0.0114866",
      "name:ja_rm": "Asaminami-ku",
      "admin_level": "8",
      "name:ja_kana": "あさみなみく"
    }
  },
  {
    "osm_id": -4090632,
    "boundary": "administrative",
    "admin_level": 8,
    "parents": "-4097196,-9450669,-9450900,-382313",
    "name": "Aki Ward",
    "local_name": "安芸区",
    "name_en": "Aki Ward",
    "all_tags": {
      "name": "安芸区",
      "name:en": "Aki Ward",
      "name:ja": "安芸区",
      "name:ru": "Аки",
      "boundary": "administrative",
      "way_area": "0.00925694",
      "name:ja_rm": "Aki-ku",
      "admin_level": "8",
      "name:ja_kana": "あきく"
    }
  },
  {
    "osm_id": -4008584,
    "boundary": "administrative",
    "admin_level": 8,
    "parents": "-4008600,-1553735,-9449972,-382313",
    "name": "Moji Ward",
    "local_name": "門司区",
    "name_en": "Moji Ward",
    "all_tags": {
      "name": "門司区",
      "name:en": "Moji Ward",
      "name:ja": "門司区",
      "name:ko": "모지 구",
      "name:zh": "门司区",
      "boundary": "administrative",
      "way_area": "0.0160022",
      "wikidata": "Q1045113",
      "name:ja_rm": "Moji-Ku",
      "admin_level": "8",
      "name:ja_kana": "もじく",
      "name:zh-Hans": "门司区",
      "name:zh-Hant": "門司區"
    }
  },
  {
    "osm_id": -4008582,
    "boundary": "administrative",
    "admin_level": 8,
    "parents": "-4008600,-1553735,-9449972,-382313",
    "name": "Yahata-Higashi Ward",
    "local_name": "八幡東区",
    "name_en": "Yahata-Higashi Ward",
    "all_tags": {
      "name": "八幡東区",
      "name:en": "Yahata-Higashi Ward",
      "name:ja": "八幡東区",
      "name:zh": "八幡东区",
      "boundary": "administrative",
      "way_area": "0.0036331",
      "wikidata": "Q857895",
      "name:ja_rm": "Yahata-Higashi-ku",
      "admin_level": "8",
      "name:ja_kana": "やはたひがしく",
      "name:zh-Hans": "八幡东区",
      "name:zh-Hant": "八幡東區"
    }
  },
  {
    "osm_id": -4008581,
    "boundary": "administrative",
    "admin_level": 8,
    "parents": "-4008600,-1553735,-9449972,-382313",
    "name": "Yahata-Nishi Ward",
    "local_name": "八幡西区",
    "name_en": "Yahata-Nishi Ward",
    "all_tags": {
      "name": "八幡西区",
      "name:en": "Yahata-Nishi Ward",
      "name:ja": "八幡西区",
      "name:zh": "八幡西区",
      "boundary": "administrative",
      "way_area": "0.00819742",
      "wikidata": "Q1044377",
      "wikipedia": "ja:八幡西区",
      "admin_level": "8",
      "name:ja-Hira": "やはたにしく",
      "name:ja-Latn": "Yahata-Nishi-ku",
      "name:zh-Hans": "八幡西区",
      "name:zh-Hant": "八幡西區"
    }
  },
  {
    "osm_id": -4008575,
    "boundary": "administrative",
    "admin_level": 8,
    "parents": "-4008611,-9449900,-9449972,-382313",
    "name": "Hakata Ward",
    "local_name": "博多区",
    "name_en": "Hakata Ward",
    "all_tags": {
      "name": "博多区",
      "name:en": "Hakata Ward",
      "name:ja": "博多区",
      "name:ko": "하카타구",
      "name:zh": "博多区",
      "boundary": "administrative",
      "way_area": "0.00312721",
      "wikidata": "Q1330839",
      "wikipedia": "ja:博多区",
      "admin_level": "8",
      "name:ja-Hira": "はかたく",
      "name:ja-Latn": "Hakata-Ku",
      "name:ja_kana": "ハカタク",
      "name:zh-Hans": "博多区",
      "name:zh-Hant": "博多區"
    }
  },
  {
    "osm_id": -4008564,
    "boundary": "administrative",
    "admin_level": 8,
    "parents": "-4008611,-9449900,-9449972,-382313",
    "name": "Minami Ward",
    "local_name": "南区",
    "name_en": "Minami Ward",
    "all_tags": {
      "name": "南区",
      "name:en": "Minami Ward",
      "name:ja": "南区",
      "name:zh": "南区",
      "boundary": "administrative",
      "way_area": "0.00300795",
      "wikidata": "Q1132419",
      "wikipedia": "ja:南区 (福岡市)",
      "admin_level": "8",
      "name:ja-Hira": "みなみく",
      "name:ja-Latn": "Minami-ku",
      "name:zh-Hans": "南区",
      "name:zh-Hant": "南區"
    }
  },
  {
    "osm_id": -4008561,
    "boundary": "administrative",
    "admin_level": 8,
    "parents": "-4008611,-9449900,-9449972,-382313",
    "name": "Higashi Ward",
    "local_name": "東区",
    "name_en": "Higashi Ward",
    "all_tags": {
      "name": "東区",
      "name:en": "Higashi Ward",
      "name:ja": "東区",
      "name:zh": "东区",
      "boundary": "administrative",
      "way_area": "0.0194298",
      "wikidata": "Q1206659",
      "name:ja_rm": "Higashi-Ku",
      "admin_level": "8",
      "name:ja_kana": "ひがしく",
      "name:zh-Hans": "东区",
      "name:zh-Hant": "東區"
    }
  },
  {
    "osm_id": -4008554,
    "boundary": "administrative",
    "admin_level": 8,
    "parents": "-4008611,-9449900,-9449972,-382313",
    "name": "Chuo Ward",
    "local_name": "中央区",
    "name_en": "Chuo Ward",
    "all_tags": {
      "name": "中央区",
      "name:en": "Chuo Ward",
      "name:ja": "中央区",
      "name:zh": "中央区",
      "boundary": "administrative",
      "way_area": "0.00254386",
      "wikidata": "Q1156273",
      "name:ja_rm": "Chuo-Ku",
      "admin_level": "8",
      "name:ja_kana": "ちゅうおうく",
      "name:zh-Hans": "中央区",
      "name:zh-Hant": "中央區"
    }
  },
  {
    "osm_id": -4008553,
    "boundary": "administrative",
    "admin_level": 8,
    "parents": "-4008611,-9449900,-9449972,-382313",
    "name": "Sawara Ward",
    "local_name": "早良区",
    "name_en": "Sawara Ward",
    "all_tags": {
      "name": "早良区",
      "name:en": "Sawara Ward",
      "name:ja": "早良区",
      "name:zh": "早良区",
      "boundary": "administrative",
      "way_area": "0.00944803",
      "wikidata": "Q1071779",
      "wikipedia": "ja:早良区",
      "admin_level": "8",
      "name:ja-Hira": "さわらく",
      "name:ja-Latn": "Sawara-Ku",
      "name:zh-Hans": "早良区",
      "name:zh-Hant": "早良區"
    }
  },
  {
    "osm_id": -4008548,
    "boundary": "administrative",
    "admin_level": 8,
    "parents": "-4008611,-9449900,-9449972,-382313",
    "name": "Nishi Ward",
    "local_name": "西区",
    "name_en": "Nishi Ward",
    "all_tags": {
      "name": "西区",
      "name:en": "Nishi Ward",
      "name:ja": "西区",
      "name:zh": "西区",
      "boundary": "administrative",
      "way_area": "0.128948",
      "wikidata": "Q1132402",
      "wikipedia": "ja:西区 (福岡市)",
      "admin_level": "8",
      "name:ja-Hira": "にしく",
      "name:ja-Latn": "Nishi-Ku",
      "name:ja_kana": "ニシク",
      "name:zh-Hans": "西区",
      "name:zh-Hant": "西區"
    }
  },
  {
    "osm_id": -4008545,
    "boundary": "administrative",
    "admin_level": 8,
    "parents": "-4008611,-9449900,-9449972,-382313",
    "name": "Jonan Ward",
    "local_name": "城南区",
    "name_en": "Jonan Ward",
    "all_tags": {
      "name": "城南区",
      "name:en": "Jonan Ward",
      "name:ja": "城南区",
      "name:zh": "城南区",
      "boundary": "administrative",
      "way_area": "0.00155312",
      "wikidata": "Q948351",
      "name:ja_rm": "Jonan-ku",
      "admin_level": "8",
      "name:ja_kana": "じょうなんく",
      "name:zh-Hans": "城南区",
      "name:zh-Hant": "城南區"
    }
  },
  {
    "osm_id": -4008544,
    "boundary": "administrative",
    "admin_level": 8,
    "parents": "-4008600,-1553735,-9449972,-382313",
    "name": "Kokura-Kita Ward",
    "local_name": "小倉北区",
    "name_en": "Kokura-Kita Ward",
    "all_tags": {
      "name": "小倉北区",
      "name:en": "Kokura-Kita Ward",
      "name:ja": "小倉北区",
      "name:ko": "쿠라키타 구",
      "name:zh": "小仓北区",
      "boundary": "administrative",
      "way_area": "0.0121802",
      "wikidata": "Q1042291",
      "wikipedia": "ja:小倉北区",
      "admin_level": "8",
      "name:ja-Hira": "こくらきたく",
      "name:ja-Latn": "Kokura-Kita-ku",
      "name:ja_kana": "コクラキタク",
      "name:zh-Hans": "小仓北区",
      "name:zh-Hant": "小倉北區"
    }
  },
  {
    "osm_id": -4008543,
    "boundary": "administrative",
    "admin_level": 8,
    "parents": "-4008600,-1553735,-9449972,-382313",
    "name": "Kokura-Minami Ward",
    "local_name": "小倉南区",
    "name_en": "Kokura-Minami Ward",
    "all_tags": {
      "name": "小倉南区",
      "name:en": "Kokura-Minami Ward",
      "name:ja": "小倉南区",
      "name:zh": "小仓南区",
      "boundary": "administrative",
      "way_area": "0.0232612",
      "wikidata": "Q858201",
      "name:ja_rm": "Kokura-Minami-ku",
      "admin_level": "8",
      "name:ja_kana": "こくらみなみく",
      "name:zh-Hans": "小仓南区",
      "name:zh-Hant": "小倉南區"
    }
  },
  {
    "osm_id": -4008540,
    "boundary": "administrative",
    "admin_level": 8,
    "parents": "-4008600,-1553735,-9449972,-382313",
    "name": "Wakamatsu Ward",
    "local_name": "若松区",
    "name_en": "Wakamatsu Ward",
    "all_tags": {
      "name": "若松区",
      "name:en": "Wakamatsu Ward",
      "name:ja": "若松区",
      "name:zh": "若松区",
      "boundary": "administrative",
      "way_area": "0.0438428",
      "wikidata": "Q858184",
      "wikipedia": "ja:若松区",
      "admin_level": "8",
      "name:ja-Hira": "わかまつく",
      "name:ja-Latn": "Wakamatsu-Ku",
      "name:zh-Hans": "若松区",
      "name:zh-Hant": "若松區"
    }
  },
  {
    "osm_id": -4008537,
    "boundary": "administrative",
    "admin_level": 8,
    "parents": "-4008600,-1553735,-9449972,-382313",
    "name": "Tobara Ward",
    "local_name": "戸畑区",
    "name_en": "Tobara Ward",
    "all_tags": {
      "name": "戸畑区",
      "name:en": "Tobara Ward",
      "name:ja": "戸畑区",
      "name:ko": "도바타 구",
      "name:zh": "户畑区",
      "boundary": "administrative",
      "way_area": "0.00240866",
      "wikidata": "Q858143",
      "wikipedia": "ja:戸畑区",
      "admin_level": "8",
      "name:ja-Hira": "とばたく",
      "name:ja-Latn": "Tobata-Ku",
      "name:ja_kana": "トバタク",
      "name:zh-Hans": "户畑区",
      "name:zh-Hant": "戶畑區"
    }
  },
  {
    "osm_id": -4000502,
    "boundary": "administrative",
    "admin_level": 8,
    "parents": "-4000503,-9449796,-9449972,-382313",
    "name": "Kita Ward",
    "local_name": "北区",
    "name_en": "Kita Ward",
    "all_tags": {
      "name": "北区",
      "name:en": "Kita Ward",
      "name:ja": "北区",
      "name:ru": "Кита",
      "name:zh": "北区",
      "boundary": "administrative",
      "way_area": "0.0111147",
      "wikidata": "Q876926",
      "name:ja_rm": "Kita-Ku",
      "admin_level": "8",
      "name:ja_kana": "きたく",
      "name:zh-Hans": "北区",
      "name:zh-Hant": "北區"
    }
  },
  {
    "osm_id": -4000501,
    "boundary": "administrative",
    "admin_level": 8,
    "parents": "-4000503,-9449796,-9449972,-382313",
    "name": "Minami Ward",
    "local_name": "南区",
    "name_en": "Minami Ward",
    "all_tags": {
      "name": "南区",
      "name:en": "Minami Ward",
      "name:ja": "南区",
      "name:ru": "Минами",
      "name:zh": "南区",
      "boundary": "administrative",
      "way_area": "0.0112669",
      "wikidata": "Q876960",
      "name:ja_rm": "Minami-Ku",
      "admin_level": "8",
      "name:ja_kana": "みなみく",
      "name:zh-Hans": "南区",
      "name:zh-Hant": "南區"
    }
  },
  {
    "osm_id": -4000500,
    "boundary": "administrative",
    "admin_level": 8,
    "parents": "-4000503,-9449796,-9449972,-382313",
    "name": "Higashi Ward",
    "local_name": "東区",
    "name_en": "Higashi Ward",
    "all_tags": {
      "name": "東区",
      "name:en": "Higashi Ward",
      "name:ja": "東区",
      "name:ru": "Хигаси",
      "name:zh": "东区",
      "boundary": "administrative",
      "way_area": "0.00483121",
      "wikidata": "Q875464",
      "name:ja_rm": "Higashi-Ku",
      "admin_level": "8",
      "name:ja_kana": "ひがしく",
      "name:zh-Hans": "东区",
      "name:zh-Hant": "東區"
    }
  },
  {
    "osm_id": -4000498,
    "boundary": "administrative",
    "admin_level": 8,
    "parents": "-4000503,-9449796,-9449972,-382313",
    "name": "Chuo Ward",
    "local_name": "中央区",
    "name_en": "Chuo Ward",
    "all_tags": {
      "name": "中央区",
      "name:en": "Chuo Ward",
      "name:ja": "中央区",
      "name:ru": "Тюо",
      "name:zh": "中央区",
      "boundary": "administrative",
      "way_area": "0.00245042",
      "wikidata": "Q137716",
      "wikipedia": "ja:中央区 (熊本市)",
      "name:ja_rm": "Chuo-Ku",
      "admin_level": "8",
      "name:ja_kana": "ちゅうおうく",
      "name:zh-Hans": "中央区",
      "name:zh-Hant": "中央區"
    }
  },
  {
    "osm_id": -4000495,
    "boundary": "administrative",
    "admin_level": 8,
    "parents": "-4000503,-9449796,-9449972,-382313",
    "name": "Nishi Ward",
    "local_name": "西区",
    "name_en": "Nishi Ward",
    "all_tags": {
      "name": "西区",
      "name:en": "Nishi Ward",
      "name:ja": "西区",
      "name:ru": "Ниси",
      "name:zh": "西区",
      "boundary": "administrative",
      "way_area": "0.0173598",
      "wikidata": "Q877003",
      "name:ja_rm": "Nishi-Ku",
      "admin_level": "8",
      "name:ja_kana": "にしく",
      "name:zh-Hans": "西区",
      "name:zh-Hant": "西區"
    }
  },
  {
    "osm_id": -3939484,
    "boundary": "administrative",
    "admin_level": 8,
    "parents": "-3939644,-3794962,-9450900,-382313",
    "name": "Kita Ward",
    "local_name": "北区",
    "name_en": "Kita Ward",
    "all_tags": {
      "name": "北区",
      "name:en": "Kita Ward",
      "name:ja": "北区",
      "boundary": "administrative",
      "way_area": "0.0444044",
      "wikidata": "Q855478",
      "wikipedia": "ja:北区 (岡山市)",
      "admin_level": "8",
      "name:ja-Hira": "きたく",
      "name:ja-Latn": "Kita-Ku",
      "name:ja_kana": "キタク"
    }
  },
  {
    "osm_id": -3939424,
    "boundary": "administrative",
    "admin_level": 8,
    "parents": "-3939644,-3794962,-9450900,-382313",
    "name": "Minami Ward",
    "local_name": "南区",
    "name_en": "Minami Ward",
    "all_tags": {
      "name": "南区",
      "name:en": "Minami Ward",
      "name:ja": "南区",
      "boundary": "administrative",
      "way_area": "0.0142994",
      "wikidata": "Q1042680",
      "wikipedia": "ja:南区 (岡山市)",
      "admin_level": "8",
      "name:ja-Hira": "みなみく",
      "name:ja-Latn": "Minami-Ku",
      "name:ja_kana": "ミナミク"
    }
  },
  {
    "osm_id": -3939400,
    "boundary": "administrative",
    "admin_level": 8,
    "parents": "-3939644,-3794962,-9450900,-382313",
    "name": "Higashi Ward",
    "local_name": "東区",
    "name_en": "Higashi Ward",
    "all_tags": {
      "name": "東区",
      "name:en": "Higashi Ward",
      "name:ja": "東区",
      "boundary": "administrative",
      "way_area": "0.0201507",
      "wikidata": "Q855491",
      "wikipedia": "ja:東区 (岡山市)",
      "admin_level": "8",
      "name:ja-Hira": "ひがしく",
      "name:ja-Latn": "Higashi-Ku",
      "name:ja_kana": "ヒガシク"
    }
  },
  {
    "osm_id": -3939392,
    "boundary": "administrative",
    "admin_level": 8,
    "parents": "-3939644,-3794962,-9450900,-382313",
    "name": "Naka Ward",
    "local_name": "中区",
    "name_en": "Naka Ward",
    "all_tags": {
      "name": "中区",
      "name:en": "Naka Ward",
      "name:ja": "中区",
      "boundary": "administrative",
      "way_area": "0.00517373",
      "wikidata": "Q852116",
      "wikipedia": "ja:中区 (岡山市)",
      "admin_level": "8",
      "name:ja-Hira": "なかく",
      "name:ja-Latn": "Naka-Ku",
      "name:ja_kana": "ナカク"
    }
  },
  {
    "osm_id": -3565868,
    "boundary": "administrative",
    "admin_level": 8,
    "parents": "-3565867,-1768185,-9456066,-382313",
    "name": "Nishi-ku",
    "local_name": "Nishi-ku",
    "name_en": null,
    "all_tags": {
      "name": "Nishi-ku",
      "name:ja": "西区",
      "boundary": "administrative",
      "way_area": "1.79914e-05",
      "admin_level": "8"
    }
  },
  {
    "osm_id": -2689474,
    "boundary": "administrative",
    "admin_level": 8,
    "parents": "-2689487,-9456066,-382313",
    "name": "Asao Ward",
    "local_name": "麻生区",
    "name_en": "Asao Ward",
    "all_tags": {
      "name": "麻生区",
      "place": "suburb",
      "name:en": "Asao Ward",
      "name:fr": "Asao-Ku",
      "name:ja": "麻生区",
      "name:ko": "아사오 구",
      "name:ru": "Асао",
      "boundary": "administrative",
      "way_area": "0.00231041",
      "wikidata": "Q1041779",
      "name:ja_rm": "Asao-ku",
      "admin_level": "8",
      "name:ja_kana": "あさおく",
      "is_in:prefecture": "神奈川県"
    }
  },
  {
    "osm_id": -2689473,
    "boundary": "administrative",
    "admin_level": 8,
    "parents": "-2689487,-9456066,-382313",
    "name": "Tsurumi Ward",
    "local_name": "鶴見区",
    "name_en": "Tsurumi Ward",
    "all_tags": {
      "name": "鶴見区",
      "place": "suburb",
      "name:en": "Tsurumi Ward",
      "name:ja": "鶴見区",
      "name:ru": "Цуруми",
      "boundary": "administrative",
      "way_area": "0.00562952",
      "wikidata": "Q1202820",
      "name:ja_rm": "Tsurumi-ku",
      "admin_level": "8",
      "name:ja_kana": "つるみく",
      "is_in:prefecture": "神奈川県"
    }
  },
  {
    "osm_id": -2689472,
    "boundary": "administrative",
    "admin_level": 8,
    "parents": "-2689487,-9456066,-382313",
    "name": "Takatsu Ward",
    "local_name": "高津区",
    "name_en": "Takatsu Ward",
    "all_tags": {
      "name": "高津区",
      "place": "suburb",
      "name:en": "Takatsu Ward",
      "name:ja": "高津区",
      "name:ru": "Такацу",
      "boundary": "administrative",
      "way_area": "0.00162688",
      "wikidata": "Q1076736",
      "name:ja_rm": "Takatsu-ku",
      "admin_level": "8",
      "name:ja_kana": "たかつく",
      "is_in:prefecture": "神奈川県"
    }
  },
  {
    "osm_id": -2689471,
    "boundary": "administrative",
    "admin_level": 8,
    "parents": "-2689487,-9456066,-382313",
    "name": "Aoba Ward",
    "local_name": "青葉区",
    "name_en": "Aoba Ward",
    "all_tags": {
      "name": "青葉区",
      "place": "suburb",
      "name:en": "Aoba Ward",
      "name:ja": "青葉区",
      "name:ru": "Аоба",
      "boundary": "administrative",
      "way_area": "0.00349939",
      "wikidata": "Q1203361",
      "name:ja_rm": "Aoba-ku",
      "admin_level": "8",
      "name:ja_kana": "あおばく",
      "is_in:prefecture": "神奈川県"
    }
  },
  {
    "osm_id": -2689470,
    "boundary": "administrative",
    "admin_level": 8,
    "parents": "-2689487,-9456066,-382313",
    "name": "Kanazawa Ward",
    "local_name": "金沢区",
    "name_en": "Kanazawa Ward",
    "all_tags": {
      "name": "金沢区",
      "place": "suburb",
      "name:en": "Kanazawa Ward",
      "name:ja": "金沢区",
      "name:ru": "Канадзава",
      "boundary": "administrative",
      "way_area": "0.00534618",
      "wikidata": "Q1153908",
      "wikipedia": "ja:金沢区",
      "name:ja_rm": "Kanazawa-ku",
      "admin_level": "8",
      "name:ja_kana": "かなざわく",
      "is_in:prefecture": "神奈川県"
    }
  },
  {
    "osm_id": -2689469,
    "boundary": "administrative",
    "admin_level": 8,
    "parents": "-2689487,-9456066,-382313",
    "name": "Tsuzuki Ward",
    "local_name": "都筑区",
    "name_en": "Tsuzuki Ward",
    "all_tags": {
      "name": "都筑区",
      "place": "suburb",
      "name:en": "Tsuzuki Ward",
      "name:ja": "都筑区",
      "name:ru": "Цудзуки",
      "boundary": "administrative",
      "way_area": "0.00277422",
      "wikidata": "Q1153920",
      "name:ja_rm": "Tsuzuki-ku",
      "admin_level": "8",
      "name:ja_kana": "つづきく",
      "is_in:prefecture": "神奈川県"
    }
  },
  {
    "osm_id": -2689468,
    "boundary": "administrative",
    "admin_level": 8,
    "parents": "-2689487,-9456066,-382313",
    "name": "Nishi Ward",
    "local_name": "西区",
    "name_en": "Nishi Ward",
    "all_tags": {
      "name": "西区",
      "place": "suburb",
      "name:en": "Nishi Ward",
      "name:es": "Barrio Nishi",
      "name:ja": "西区",
      "name:ru": "Ниси",
      "boundary": "administrative",
      "way_area": "0.000732085",
      "wikidata": "Q1203393",
      "name:ja_rm": "Nishi-ku",
      "admin_level": "8",
      "name:ja_kana": "にしく",
      "is_in:prefecture": "神奈川県"
    }
  },
  {
    "osm_id": -2689467,
    "boundary": "administrative",
    "admin_level": 8,
    "parents": "-2689487,-9456066,-382313",
    "name": "Midori Ward",
    "local_name": "緑区",
    "name_en": "Midori Ward",
    "all_tags": {
      "name": "緑区",
      "place": "suburb",
      "name:en": "Midori Ward",
      "name:ja": "緑区",
      "name:ru": "Мидори",
      "boundary": "administrative",
      "way_area": "0.00252997",
      "wikidata": "Q1203373",
      "name:ja_rm": "Midori-ku",
      "admin_level": "8",
      "name:ja_kana": "みどりく",
      "is_in:prefecture": "神奈川県"
    }
  },
  {
    "osm_id": -2689466,
    "boundary": "administrative",
    "admin_level": 8,
    "parents": "-2689481,-9454825,-9456066,-382313",
    "name": "Midori Ward",
    "local_name": "緑区",
    "name_en": "Midori Ward",
    "all_tags": {
      "name": "緑区",
      "place": "suburb",
      "name:en": "Midori Ward",
      "name:ja": "緑区",
      "name:ru": "Мидори",
      "boundary": "administrative",
      "way_area": "0.0252482",
      "wikidata": "Q1132502",
      "wikipedia": "ja:緑区 (相模原市)",
      "name:ja_rm": "Midori-ku",
      "admin_level": "8",
      "name:ja_kana": "みどりく",
      "is_in:prefecture": "神奈川県"
    }
  },
  {
    "osm_id": -2689465,
    "boundary": "administrative",
    "admin_level": 8,
    "parents": "-2689487,-9456066,-382313",
    "name": "Kanagawa Ward",
    "local_name": "神奈川区",
    "name_en": "Kanagawa Ward",
    "all_tags": {
      "name": "神奈川区",
      "place": "suburb",
      "name:en": "Kanagawa Ward",
      "name:ja": "神奈川区",
      "name:ru": "Канагава",
      "boundary": "administrative",
      "way_area": "0.00268757",
      "wikidata": "Q1143712",
      "name:ja_rm": "Kanagawa-ku",
      "admin_level": "8",
      "name:ja_kana": "かながわく",
      "is_in:prefecture": "神奈川県"
    }
  },
  {
    "osm_id": -2689464,
    "boundary": "administrative",
    "admin_level": 8,
    "parents": "-2689487,-9456066,-382313",
    "name": "Isogo Ward",
    "local_name": "磯子区",
    "name_en": "Isogo Ward",
    "all_tags": {
      "name": "磯子区",
      "place": "suburb",
      "name:en": "Isogo Ward",
      "name:ja": "磯子区",
      "name:ru": "Исого",
      "boundary": "administrative",
      "way_area": "0.00228929",
      "wikidata": "Q1141223",
      "name:ja_rm": "Isogo-ku",
      "admin_level": "8",
      "name:ja_kana": "いそごく",
      "is_in:prefecture": "神奈川県"
    }
  },
  {
    "osm_id": -2689463,
    "boundary": "administrative",
    "admin_level": 8,
    "parents": "-9454825,-9456066,-382313",
    "name": "Seya Ward",
    "local_name": "瀬谷区",
    "name_en": "Seya Ward",
    "all_tags": {
      "name": "瀬谷区",
      "place": "suburb",
      "name:en": "Seya Ward",
      "name:ja": "瀬谷区",
      "name:ru": "Сэйя",
      "boundary": "administrative",
      "way_area": "0.00169839",
      "wikidata": "Q1153930",
      "wikipedia": "ja:瀬谷区",
      "name:ja_rm": "Seya-ku",
      "admin_level": "8",
      "name:ja_kana": "せやく",
      "is_in:prefecture": "神奈川県"
    }
  },
  {
    "osm_id": -2689462,
    "boundary": "administrative",
    "admin_level": 8,
    "parents": "-2689487,-9456066,-382313",
    "name": "Konan Ward",
    "local_name": "港南区",
    "name_en": "Konan Ward",
    "all_tags": {
      "name": "港南区",
      "place": "suburb",
      "name:en": "Konan Ward",
      "name:ja": "港南区",
      "name:ru": "Конан",
      "boundary": "administrative",
      "way_area": "0.00197678",
      "wikidata": "Q1153968",
      "name:ja_rm": "Kōnan-ku",
      "admin_level": "8",
      "name:ja_kana": "こうなんく",
      "is_in:prefecture": "神奈川県"
    }
  },
  {
    "osm_id": -2689460,
    "boundary": "administrative",
    "admin_level": 8,
    "parents": "-9454825,-9456066,-382313",
    "name": "Izumi Ward",
    "local_name": "泉区",
    "name_en": "Izumi Ward",
    "all_tags": {
      "name": "泉区",
      "place": "suburb",
      "name:en": "Izumi Ward",
      "name:ja": "泉区",
      "name:ru": "Идзуми",
      "boundary": "administrative",
      "way_area": "0.00233699",
      "wikidata": "Q1203386",
      "name:ja_rm": "Izumi-ku",
      "admin_level": "8",
      "name:ja_kana": "いずみく",
      "is_in:prefecture": "神奈川県"
    }
  },
  {
    "osm_id": -2689458,
    "boundary": "administrative",
    "admin_level": 8,
    "parents": "-9454825,-9456066,-382313",
    "name": "Asahi Ward",
    "local_name": "旭区",
    "name_en": "Asahi Ward",
    "all_tags": {
      "name": "旭区",
      "place": "suburb",
      "name:en": "Asahi Ward",
      "name:ja": "旭区",
      "name:ru": "Асахи",
      "boundary": "administrative",
      "way_area": "0.00327018",
      "wikidata": "Q1153953",
      "name:ja_rm": "Asahi-ku",
      "admin_level": "8",
      "name:ja_kana": "あさひく",
      "is_in:prefecture": "神奈川県"
    }
  },
  {
    "osm_id": -2689457,
    "boundary": "administrative",
    "admin_level": 8,
    "parents": "-9454825,-9456066,-382313",
    "name": "Totsuka Ward",
    "local_name": "戸塚区",
    "name_en": "Totsuka Ward",
    "all_tags": {
      "name": "戸塚区",
      "place": "suburb",
      "name:en": "Totsuka Ward",
      "name:ja": "戸塚区",
      "name:ru": "Тоцука",
      "boundary": "administrative",
      "way_area": "0.00354558",
      "wikidata": "Q524038",
      "name:ja_rm": "Totsuka-ku",
      "admin_level": "8",
      "name:ja_kana": "とつかく",
      "is_in:prefecture": "神奈川県"
    }
  },
  {
    "osm_id": -2689456,
    "boundary": "administrative",
    "admin_level": 8,
    "parents": "-2689487,-9456066,-382313",
    "name": "Saiwai Ward",
    "local_name": "幸区",
    "name_en": "Saiwai Ward",
    "all_tags": {
      "name": "幸区",
      "place": "suburb",
      "name:en": "Saiwai Ward",
      "name:ja": "幸区",
      "name:ru": "Саиваи",
      "boundary": "administrative",
      "way_area": "0.000994762",
      "wikidata": "Q1153579",
      "wikipedia": "ja:幸区",
      "name:ja_rm": "Saiwai-ku",
      "admin_level": "8",
      "name:ja_kana": "さいわいく",
      "is_in:prefecture": "神奈川県"
    }
  },
  {
    "osm_id": -2689455,
    "boundary": "administrative",
    "admin_level": 8,
    "parents": "-2689487,-9456066,-382313",
    "name": "Kawasaki Ward",
    "local_name": "川崎区",
    "name_en": "Kawasaki Ward",
    "all_tags": {
      "name": "川崎区",
      "place": "suburb",
      "name:en": "Kawasaki Ward",
      "name:ja": "川崎区",
      "name:ru": "Кавасаки",
      "boundary": "administrative",
      "way_area": "0.0137826",
      "wikidata": "Q1204949",
      "wikipedia": "ja:川崎区",
      "name:ja_rm": "Kawasaki-ku",
      "admin_level": "8",
      "name:ja_kana": "かわさきく",
      "is_in:prefecture": "神奈川県"
    }
  },
  {
    "osm_id": -2689454,
    "boundary": "administrative",
    "admin_level": 8,
    "parents": "-2689487,-9456066,-382313",
    "name": "Miyamae Ward",
    "local_name": "宮前区",
    "name_en": "Miyamae Ward",
    "all_tags": {
      "name": "宮前区",
      "place": "suburb",
      "name:en": "Miyamae Ward",
      "name:ja": "宮前区",
      "name:ru": "Миямаэ",
      "boundary": "administrative",
      "way_area": "0.00185296",
      "wikidata": "Q1076753",
      "wikipedia": "ja:宮前区",
      "name:ja_rm": "Miyamae-ku",
      "admin_level": "8",
      "name:ja_kana": "みやまえく",
      "is_in:prefecture": "神奈川県"
    }
  },
  {
    "osm_id": -2689453,
    "boundary": "administrative",
    "admin_level": 8,
    "parents": "-2689487,-9456066,-382313",
    "name": "Tama Ward",
    "local_name": "多摩区",
    "name_en": "Tama Ward",
    "all_tags": {
      "name": "多摩区",
      "place": "suburb",
      "name:en": "Tama Ward",
      "name:es": "Tama",
      "name:fr": "Tama-Ku",
      "name:ja": "多摩区",
      "name:ru": "Тама",
      "boundary": "administrative",
      "way_area": "0.00203736",
      "wikidata": "Q1076769",
      "name:ja_rm": "Tama-ku",
      "admin_level": "8",
      "name:ja_kana": "たまく",
      "is_in:prefecture": "神奈川県"
    }
  },
  {
    "osm_id": -2689452,
    "boundary": "administrative",
    "admin_level": 8,
    "parents": "-2689487,-9456066,-382313",
    "name": "Minami Ward",
    "local_name": "南区",
    "name_en": "Minami Ward",
    "all_tags": {
      "name": "南区",
      "place": "suburb",
      "name:en": "Minami Ward",
      "name:es": "Barrio Minami",
      "name:ja": "南区",
      "name:ru": "Минами",
      "boundary": "administrative",
      "way_area": "0.00125003",
      "wikidata": "Q1153982",
      "name:ja_rm": "Minami-ku",
      "admin_level": "8",
      "name:ja_kana": "みなみく",
      "is_in:prefecture": "神奈川県"
    }
  },
  {
    "osm_id": -2689451,
    "boundary": "administrative",
    "admin_level": 8,
    "parents": "-2689481,-9454825,-9456066,-382313",
    "name": "Minami Ward",
    "local_name": "南区",
    "name_en": "Minami Ward",
    "all_tags": {
      "name": "南区",
      "place": "suburb",
      "name:en": "Minami Ward",
      "name:ja": "南区",
      "name:ru": "Минами",
      "boundary": "administrative",
      "way_area": "0.00378492",
      "wikidata": "Q1132081",
      "name:ja_rm": "Minami-ku",
      "admin_level": "8",
      "name:ja_kana": "みなみく",
      "is_in:prefecture": "神奈川県"
    }
  },
  {
    "osm_id": -2689450,
    "boundary": "administrative",
    "admin_level": 8,
    "parents": "-2689487,-9456066,-382313",
    "name": "Hodogaya Ward",
    "local_name": "保土ヶ谷区",
    "name_en": "Hodogaya Ward",
    "all_tags": {
      "name": "保土ヶ谷区",
      "place": "suburb",
      "name:en": "Hodogaya Ward",
      "name:ja": "保土ヶ谷区",
      "name:ru": "Ходогая",
      "boundary": "administrative",
      "way_area": "0.00216739",
      "wikidata": "Q1192964",
      "name:ja_rm": "Hodogaya-ku",
      "admin_level": "8",
      "name:ja_kana": "ほどがやく",
      "is_in:prefecture": "神奈川県"
    }
  },
  {
    "osm_id": -2689449,
    "boundary": "administrative",
    "admin_level": 8,
    "parents": "-2689481,-9454825,-9456066,-382313",
    "name": "Chuo Ward",
    "local_name": "中央区",
    "name_en": "Chuo Ward",
    "all_tags": {
      "name": "中央区",
      "place": "suburb",
      "name:en": "Chuo Ward",
      "name:es": "Barrio Chuo",
      "name:ja": "中央区",
      "name:ru": "Тюо",
      "boundary": "administrative",
      "way_area": "0.00367051",
      "wikidata": "Q1132074",
      "name:ja_rm": "Chūō-ku",
      "admin_level": "8",
      "name:ja_kana": "ちゅうおうく",
      "is_in:prefecture": "神奈川県"
    }
  },
  {
    "osm_id": -2689447,
    "boundary": "administrative",
    "admin_level": 8,
    "parents": "-2689487,-9456066,-382313",
    "name": "Naka Ward",
    "local_name": "中区",
    "name_en": "Naka Ward",
    "all_tags": {
      "name": "中区",
      "place": "suburb",
      "name:en": "Naka Ward",
      "name:es": "Barrio Naka",
      "name:ja": "中区",
      "name:ru": "Нака",
      "boundary": "administrative",
      "way_area": "0.00887226",
      "wikidata": "Q1141068",
      "name:ja_rm": "Naka-ku",
      "admin_level": "8",
      "name:ja_kana": "なかく",
      "is_in:prefecture": "神奈川県"
    }
  },
  {
    "osm_id": -2679955,
    "boundary": "administrative",
    "admin_level": 8,
    "parents": "-2679956,-2679957,-9456066,-382313",
    "name": "Wakaba Ward",
    "local_name": "若葉区",
    "name_en": "Wakaba Ward",
    "all_tags": {
      "name": "若葉区",
      "name:en": "Wakaba Ward",
      "name:ja": "若葉区",
      "website": "http://www.city.chiba.jp/wakaba/",
      "boundary": "administrative",
      "way_area": "0.00837414",
      "wikidata": "Q1075889",
      "wikipedia": "ja:若葉区",
      "name:ja_rm": "Wakaba-ku",
      "admin_level": "8",
      "name:ja_kana": "わかばく",
      "is_in:prefecture": "千葉県"
    }
  },
  {
    "osm_id": -2679954,
    "boundary": "administrative",
    "admin_level": 8,
    "parents": "-2679956,-2679957,-9456066,-382313",
    "name": "Hanamigawa Ward",
    "local_name": "花見川区",
    "name_en": "Hanamigawa Ward",
    "all_tags": {
      "name": "花見川区",
      "name:en": "Hanamigawa Ward",
      "name:ja": "花見川区",
      "website": "http://www.city.chiba.jp/hanamigawa/",
      "boundary": "administrative",
      "way_area": "0.00340727",
      "wikidata": "Q1075882",
      "wikipedia": "ja:花見川区",
      "name:ja_rm": "Hanamigawa-ku",
      "admin_level": "8",
      "name:ja_kana": "はなみがわく",
      "is_in:prefecture": "千葉県"
    }
  },
  {
    "osm_id": -2679953,
    "boundary": "administrative",
    "admin_level": 8,
    "parents": "-2679956,-2679957,-9456066,-382313",
    "name": "Mihama Ward",
    "local_name": "美浜区",
    "name_en": "Mihama Ward",
    "all_tags": {
      "name": "美浜区",
      "name:en": "Mihama Ward",
      "name:ja": "美浜区",
      "website": "http://www.city.chiba.jp/mihama/",
      "boundary": "administrative",
      "way_area": "0.00630359",
      "wikidata": "Q1075859",
      "wikipedia": "ja:美浜区",
      "name:ja_rm": "Mihama-ku",
      "admin_level": "8",
      "name:ja_kana": "みはまく",
      "is_in:prefecture": "千葉県"
    }
  },
  {
    "osm_id": -2679952,
    "boundary": "administrative",
    "admin_level": 8,
    "parents": "-2679956,-2679957,-9456066,-382313",
    "name": "Midori Ward",
    "local_name": "緑区",
    "name_en": "Midori Ward",
    "all_tags": {
      "name": "緑区",
      "name:en": "Midori Ward",
      "name:es": "Midori",
      "name:ja": "緑区",
      "website": "http://www.city.chiba.jp/midori/",
      "boundary": "administrative",
      "way_area": "0.00658507",
      "wikidata": "Q926492",
      "wikipedia": "ja:緑区 (千葉市)",
      "name:ja_rm": "Midori-ku",
      "admin_level": "8",
      "name:ja_kana": "みどりく",
      "is_in:prefecture": "千葉県"
    }
  },
  {
    "osm_id": -2679951,
    "boundary": "administrative",
    "admin_level": 8,
    "parents": "-2679956,-2679957,-9456066,-382313",
    "name": "Inage Ward",
    "local_name": "稲毛区",
    "name_en": "Inage Ward",
    "all_tags": {
      "name": "稲毛区",
      "name:en": "Inage Ward",
      "name:ja": "稲毛区",
      "website": "http://www.city.chiba.jp/inage/",
      "boundary": "administrative",
      "way_area": "0.00210998",
      "wikidata": "Q1075905",
      "wikipedia": "ja:稲毛区",
      "name:ja_rm": "Inage-ku",
      "admin_level": "8",
      "name:ja_kana": "いなげく",
      "is_in:prefecture": "千葉県"
    }
  },
  {
    "osm_id": -2679950,
    "boundary": "administrative",
    "admin_level": 8,
    "parents": "-2679956,-2679957,-9456066,-382313",
    "name": "Chuo",
    "local_name": "中央区",
    "name_en": "Chuo",
    "all_tags": {
      "name": "中央区",
      "name:en": "Chuo",
      "name:es": "Chuo",
      "name:ja": "中央区",
      "website": "http://www.city.chiba.jp/chuo/",
      "boundary": "administrative",
      "way_area": "0.00622144",
      "wikidata": "Q1075869",
      "wikipedia": "ja:中央区 (千葉市)",
      "name:ja_rm": "Chūō-ku",
      "admin_level": "8",
      "name:ja_kana": "ちゅうおうく",
      "is_in:prefecture": "千葉県"
    }
  },
  {
    "osm_id": -1767049,
    "boundary": "administrative",
    "admin_level": 8,
    "parents": "-1767047,-1768185,-9456066,-382313",
    "name": "Iwatsuki Ward",
    "local_name": "岩槻区",
    "name_en": "Iwatsuki Ward",
    "all_tags": {
      "name": "岩槻区",
      "name:en": "Iwatsuki Ward",
      "name:es": "Iwatsuki",
      "name:ja": "岩槻区",
      "boundary": "administrative",
      "way_area": "0.00491266",
      "wikidata": "Q24894436",
      "admin_level": "8"
    }
  },
  {
    "osm_id": -1767048,
    "boundary": "administrative",
    "admin_level": 8,
    "parents": "-1767047,-1768185,-9456066,-382313",
    "name": "Minami Ward",
    "local_name": "南区",
    "name_en": "Minami Ward",
    "all_tags": {
      "name": "南区",
      "name:en": "Minami Ward",
      "name:es": "Minami",
      "name:ja": "南区",
      "boundary": "administrative",
      "way_area": "0.00137682",
      "wikidata": "Q1029251",
      "wikipedia": "ja:南区 (さいたま市)",
      "admin_level": "8"
    }
  },
  {
    "osm_id": -1767018,
    "boundary": "administrative",
    "admin_level": 8,
    "parents": "-1767047,-1768185,-9456066,-382313",
    "name": "Midori Ward",
    "local_name": "緑区",
    "name_en": "Midori Ward",
    "all_tags": {
      "name": "緑区",
      "name:en": "Midori Ward",
      "name:es": "Midori",
      "name:ja": "緑区",
      "boundary": "administrative",
      "way_area": "0.00263739",
      "wikidata": "Q1130733",
      "wikipedia": "ja:緑区 (さいたま市)",
      "name:ja_rm": "Midori-ku",
      "admin_level": "8",
      "name:ja_kana": "みどりく"
    }
  },
  {
    "osm_id": -1767017,
    "boundary": "administrative",
    "admin_level": 8,
    "parents": "-1767047,-1768185,-9456066,-382313",
    "name": "Urawa Ward",
    "local_name": "浦和区",
    "name_en": "Urawa Ward",
    "all_tags": {
      "name": "浦和区",
      "name:en": "Urawa Ward",
      "name:es": "Barrio Urawa",
      "name:ja": "浦和区",
      "boundary": "administrative",
      "way_area": "0.00115147",
      "admin_level": "8"
    }
  },
  {
    "osm_id": -1767016,
    "boundary": "administrative",
    "admin_level": 8,
    "parents": "-1767047,-1768185,-9456066,-382313",
    "name": "Sakura Ward",
    "local_name": "桜区",
    "name_en": "Sakura Ward",
    "all_tags": {
      "name": "桜区",
      "name:en": "Sakura Ward",
      "name:es": "Sakura",
      "name:ja": "桜区",
      "boundary": "administrative",
      "way_area": "0.00185875",
      "wikidata": "Q1062270",
      "wikipedia": "ja:桜区",
      "admin_level": "8"
    }
  },
  {
    "osm_id": -1766994,
    "boundary": "administrative",
    "admin_level": 8,
    "parents": "-1767047,-1768185,-9456066,-382313",
    "name": "Minuma Ward",
    "local_name": "見沼区",
    "name_en": "Minuma Ward",
    "all_tags": {
      "name": "見沼区",
      "name:en": "Minuma Ward",
      "name:es": "Minuma",
      "name:ja": "見沼区",
      "boundary": "administrative",
      "way_area": "0.00306649",
      "wikidata": "Q1154570",
      "wikipedia": "ja:見沼区",
      "admin_level": "8"
    }
  },
  {
    "osm_id": -1766993,
    "boundary": "administrative",
    "admin_level": 8,
    "parents": "-1767047,-1768185,-9456066,-382313",
    "name": "Omiya Ward",
    "local_name": "大宮区",
    "name_en": "Omiya Ward",
    "all_tags": {
      "name": "大宮区",
      "name:en": "Omiya Ward",
      "name:es": "Omiya",
      "name:ja": "大宮区",
      "boundary": "administrative",
      "way_area": "0.00129601",
      "wikidata": "Q1042254",
      "admin_level": "8"
    }
  },
  {
    "osm_id": -1766992,
    "boundary": "administrative",
    "admin_level": 8,
    "parents": "-1767047,-1768185,-9456066,-382313",
    "name": "Chuo Ward",
    "local_name": "中央区",
    "name_en": "Chuo Ward",
    "all_tags": {
      "name": "中央区",
      "name:en": "Chuo Ward",
      "name:es": "Barrio Chūō",
      "name:ja": "中央区",
      "boundary": "administrative",
      "way_area": "0.000832329",
      "wikidata": "Q976945",
      "wikipedia": "ja:中央区 (さいたま市)",
      "admin_level": "8"
    }
  },
  {
    "osm_id": -1766984,
    "boundary": "administrative",
    "admin_level": 8,
    "parents": "-1767047,-1768185,-9456066,-382313",
    "name": "Kita Ward",
    "local_name": "北区",
    "name_en": "Kita Ward",
    "all_tags": {
      "name": "北区",
      "name:en": "Kita Ward",
      "name:es": "Kita",
      "name:ja": "北区",
      "boundary": "administrative",
      "way_area": "0.00166742",
      "wikidata": "Q542542",
      "wikipedia": "ja:北区 (さいたま市)",
      "admin_level": "8"
    }
  },
  {
    "osm_id": -1766971,
    "boundary": "administrative",
    "admin_level": 8,
    "parents": "-1767047,-1768185,-9456066,-382313",
    "name": "Nishi Ward",
    "local_name": "西区",
    "name_en": "Nishi Ward",
    "all_tags": {
      "name": "西区",
      "name:en": "Nishi Ward",
      "name:es": "Nishi",
      "name:ja": "西区",
      "boundary": "administrative",
      "way_area": "0.00289228",
      "wikidata": "Q1075040",
      "wikipedia": "ja:西区 (さいたま市)",
      "admin_level": "8"
    }
  },
  {
    "osm_id": -901519,
    "boundary": "administrative",
    "admin_level": 8,
    "parents": "-900329,-356912,-357113,-382313",
    "name": "Nada Ward",
    "local_name": "灘区",
    "name_en": "Nada Ward",
    "all_tags": {
      "name": "灘区",
      "name:en": "Nada Ward",
      "name:ja": "灘区",
      "boundary": "administrative",
      "way_area": "0.00354793",
      "wikidata": "Q1154555",
      "land_area": "administrative",
      "name:ja_rm": "Nada-ku",
      "admin_level": "8",
      "name:ja_kana": "なだく"
    }
  },
  {
    "osm_id": -901517,
    "boundary": "administrative",
    "admin_level": 8,
    "parents": "-900329,-356912,-357113,-382313",
    "name": "Higashinada Ward",
    "local_name": "東灘区",
    "name_en": "Higashinada Ward",
    "all_tags": {
      "name": "東灘区",
      "name:en": "Higashinada Ward",
      "name:ja": "東灘区",
      "boundary": "administrative",
      "way_area": "0.00679395",
      "wikidata": "Q277434",
      "land_area": "administrative",
      "name:ja_rm": "Higashinada-ku",
      "admin_level": "8",
      "name:ja_kana": "ひがしなだく"
    }
  },
  {
    "osm_id": -900548,
    "boundary": "administrative",
    "admin_level": 8,
    "parents": "-900329,-356912,-357113,-382313",
    "name": "Chuo Ward",
    "local_name": "中央区",
    "name_en": "Chuo Ward",
    "all_tags": {
      "name": "中央区",
      "name:en": "Chuo Ward",
      "name:ja": "中央区",
      "boundary": "administrative",
      "way_area": "0.0182264",
      "wikidata": "Q686802",
      "land_area": "administrative",
      "name:ja_rm": "Chūō-ku",
      "admin_level": "8",
      "name:ja_kana": "ちゅうおうく"
    }
  },
  {
    "osm_id": -900547,
    "boundary": "administrative",
    "admin_level": 8,
    "parents": "-900329,-356912,-357113,-382313",
    "name": "Tarumi Ward",
    "local_name": "垂水区",
    "name_en": "Tarumi Ward",
    "all_tags": {
      "name": "垂水区",
      "name:en": "Tarumi Ward",
      "name:ja": "垂水区",
      "boundary": "administrative",
      "way_area": "0.00613757",
      "wikidata": "Q1078806",
      "land_area": "administrative",
      "name:ja_rm": "Tarumi-ku",
      "admin_level": "8",
      "name:ja_kana": "たるみく"
    }
  },
  {
    "osm_id": -900546,
    "boundary": "administrative",
    "admin_level": 8,
    "parents": "-900329,-356912,-357113,-382313",
    "name": "Nagata Ward",
    "local_name": "長田区",
    "name_en": "Nagata Ward",
    "all_tags": {
      "name": "長田区",
      "name:en": "Nagata Ward",
      "name:ja": "長田区",
      "boundary": "administrative",
      "way_area": "0.00194578",
      "wikidata": "Q1078801",
      "land_area": "administrative",
      "name:ja_rm": "Nagata-ku",
      "admin_level": "8",
      "name:ja_kana": "ながたく"
    }
  },
  {
    "osm_id": -900545,
    "boundary": "administrative",
    "admin_level": 8,
    "parents": "-900329,-356912,-357113,-382313",
    "name": "Hyogo Ward",
    "local_name": "兵庫区",
    "name_en": "Hyogo Ward",
    "all_tags": {
      "name": "兵庫区",
      "name:en": "Hyogo Ward",
      "name:ja": "兵庫区",
      "boundary": "administrative",
      "way_area": "0.00227899",
      "wikidata": "Q1078790",
      "land_area": "administrative",
      "name:ja_rm": "Hyōgo-ku",
      "admin_level": "8",
      "name:ja_kana": "ひょうごく"
    }
  },
  {
    "osm_id": -900536,
    "boundary": "administrative",
    "admin_level": 8,
    "parents": "-900329,-356912,-357113,-382313",
    "name": "Suma Ward",
    "local_name": "須磨区",
    "name_en": "Suma Ward",
    "all_tags": {
      "name": "須磨区",
      "name:en": "Suma Ward",
      "name:ja": "須磨区",
      "boundary": "administrative",
      "way_area": "0.00747934",
      "wikidata": "Q1155010",
      "land_area": "administrative",
      "name:ja_rm": "Suma-ku",
      "admin_level": "8",
      "name:ja_kana": "すまく"
    }
  },
  {
    "osm_id": -900534,
    "boundary": "administrative",
    "admin_level": 8,
    "parents": "-900329,-356912,-357113,-382313",
    "name": "Nishi Ward",
    "local_name": "西区",
    "name_en": "Nishi Ward",
    "all_tags": {
      "name": "西区",
      "name:en": "Nishi Ward",
      "name:ja": "西区",
      "boundary": "administrative",
      "way_area": "0.0135842",
      "wikidata": "Q1154552",
      "land_area": "administrative",
      "name:ja_rm": "Nishi-ku",
      "admin_level": "8",
      "name:ja_kana": "にしく"
    }
  },
  {
    "osm_id": -900313,
    "boundary": "administrative",
    "admin_level": 8,
    "parents": "-900329,-356912,-357113,-382313",
    "name": "Kita Ward",
    "local_name": "北区",
    "name_en": "Kita Ward",
    "all_tags": {
      "name": "北区",
      "name:en": "Kita Ward",
      "name:ja": "北区",
      "boundary": "administrative",
      "way_area": "0.0237322",
      "wikidata": "Q1078814",
      "land_area": "administrative",
      "name:ja_rm": "Kita-ku",
      "admin_level": "8",
      "name:ja_kana": "きたく"
    }
  },
  {
    "osm_id": -358790,
    "boundary": "administrative",
    "admin_level": 8,
    "parents": "-358759,-9450332,-9450387,-382313",
    "name": "Nishi Ward",
    "local_name": "西区",
    "name_en": "Nishi Ward",
    "all_tags": {
      "name": "西区",
      "name:en": "Nishi Ward",
      "name:ja": "西区",
      "boundary": "administrative",
      "way_area": "0.00720147",
      "wikidata": "Q1042499",
      "land_area": "administrative",
      "name:ja_rm": "Nishi-ku",
      "admin_level": "8",
      "name:ja_kana": "にしく"
    }
  },
  {
    "osm_id": -358779,
    "boundary": "administrative",
    "admin_level": 8,
    "parents": "-358759,-9450332,-9450387,-382313",
    "name": "Naka Ward",
    "local_name": "中区",
    "name_en": "Naka Ward",
    "all_tags": {
      "name": "中区",
      "name:en": "Naka Ward",
      "name:ja": "中区",
      "boundary": "administrative",
      "way_area": "0.00178204",
      "wikidata": "Q1042487",
      "land_area": "administrative",
      "name:ja_rm": "Naka-ku",
      "admin_level": "8",
      "name:ja_kana": "なかく"
    }
  },
  {
    "osm_id": -358778,
    "boundary": "administrative",
    "admin_level": 8,
    "parents": "-358759,-9450332,-9450387,-382313",
    "name": "Minami Ward",
    "local_name": "南区",
    "name_en": "Minami Ward",
    "all_tags": {
      "name": "南区",
      "name:en": "Minami Ward",
      "name:ja": "南区",
      "boundary": "administrative",
      "way_area": "0.00394509",
      "wikidata": "Q1041996",
      "land_area": "administrative",
      "name:ja_rm": "Minami-ku",
      "admin_level": "8",
      "name:ja_kana": "みなみく"
    }
  },
  {
    "osm_id": -358767,
    "boundary": "administrative",
    "admin_level": 8,
    "parents": "-358759,-9450332,-9450387,-382313",
    "name": "Higashi Ward",
    "local_name": "東区",
    "name_en": "Higashi Ward",
    "all_tags": {
      "name": "東区",
      "name:en": "Higashi Ward",
      "name:ja": "東区",
      "boundary": "administrative",
      "way_area": "0.00103293",
      "wikidata": "Q1042014",
      "land_area": "administrative",
      "name:ja_rm": "Higashi-ku",
      "admin_level": "8",
      "name:ja_kana": "ひがしく"
    }
  },
  {
    "osm_id": -358766,
    "boundary": "administrative",
    "admin_level": 8,
    "parents": "-358759,-9450332,-9450387,-382313",
    "name": "Mihara Ward",
    "local_name": "美原区",
    "name_en": "Mihara Ward",
    "all_tags": {
      "name": "美原区",
      "name:en": "Mihara Ward",
      "name:ja": "美原区",
      "boundary": "administrative",
      "way_area": "0.00129949",
      "wikidata": "Q1042511",
      "land_area": "administrative",
      "name:ja_rm": "Mihara-ku",
      "admin_level": "8",
      "name:ja_kana": "みはらく"
    }
  },
  {
    "osm_id": -358761,
    "boundary": "administrative",
    "admin_level": 8,
    "parents": "-358759,-9450332,-9450387,-382313",
    "name": "Kita Ward",
    "local_name": "北区",
    "name_en": "Kita Ward",
    "all_tags": {
      "name": "北区",
      "name:en": "Kita Ward",
      "name:ja": "北区",
      "boundary": "administrative",
      "way_area": "0.00153272",
      "wikidata": "Q1042504",
      "land_area": "administrative",
      "name:ja_rm": "Kita-ku",
      "admin_level": "8",
      "name:ja_kana": "きたく"
    }
  },
  {
    "osm_id": -358760,
    "boundary": "administrative",
    "admin_level": 8,
    "parents": "-358759,-9450332,-9450387,-382313",
    "name": "Sakai Ward",
    "local_name": "堺区",
    "name_en": "Sakai Ward",
    "all_tags": {
      "name": "堺区",
      "name:en": "Sakai Ward",
      "name:ja": "堺区",
      "boundary": "administrative",
      "way_area": "0.00298294",
      "wikidata": "Q1042008",
      "land_area": "administrative",
      "name:ja_rm": "Sakai-ku",
      "admin_level": "8",
      "name:ja_kana": "さかいく"
    }
  },
  {
    "osm_id": -358744,
    "boundary": "administrative",
    "admin_level": 8,
    "parents": "-358674,-9450361,-9450387,-382313",
    "name": "Sumiyoshi Ward",
    "local_name": "住吉区",
    "name_en": "Sumiyoshi Ward",
    "all_tags": {
      "name": "住吉区",
      "name:en": "Sumiyoshi Ward",
      "name:ja": "住吉区",
      "boundary": "administrative",
      "way_area": "0.000923142",
      "wikidata": "Q985702",
      "land_area": "administrative",
      "name:ja_rm": "Sumiyoshi-ku",
      "admin_level": "8",
      "name:ja_kana": "すみよしく"
    }
  },
  {
    "osm_id": -358743,
    "boundary": "administrative",
    "admin_level": 8,
    "parents": "-358674,-9450361,-9450387,-382313",
    "name": "Suminoe Ward",
    "local_name": "住之江区",
    "name_en": "Suminoe Ward",
    "all_tags": {
      "name": "住之江区",
      "name:en": "Suminoe Ward",
      "name:ja": "住之江区",
      "boundary": "administrative",
      "way_area": "0.00355623",
      "wikidata": "Q985711",
      "land_area": "administrative",
      "name:ja_rm": "Suminoe-ku",
      "admin_level": "8",
      "name:ja_kana": "すみのえく"
    }
  },
  {
    "osm_id": -358742,
    "boundary": "administrative",
    "admin_level": 8,
    "parents": "-358674,-9450361,-9450387,-382313",
    "name": "Higashisumiyoshi Ward",
    "local_name": "東住吉区",
    "name_en": "Higashisumiyoshi Ward",
    "all_tags": {
      "name": "東住吉区",
      "name:en": "Higashisumiyoshi Ward",
      "name:ja": "東住吉区",
      "boundary": "administrative",
      "way_area": "0.00096259",
      "wikidata": "Q861264",
      "land_area": "administrative",
      "name:ja_rm": "Higashisumiyoshi-ku",
      "admin_level": "8",
      "name:ja_kana": "ひがしすみよしく"
    }
  },
  {
    "osm_id": -358737,
    "boundary": "administrative",
    "admin_level": 8,
    "parents": "-358674,-9450361,-9450387,-382313",
    "name": "Nishinari Ward",
    "local_name": "西成区",
    "name_en": "Nishinari Ward",
    "all_tags": {
      "name": "西成区",
      "name:en": "Nishinari Ward",
      "name:ja": "西成区",
      "boundary": "administrative",
      "way_area": "0.000733737",
      "wikidata": "Q985695",
      "land_area": "administrative",
      "name:ja_rm": "Nishinari-ku",
      "admin_level": "8",
      "name:ja_kana": "にしなりく"
    }
  },
  {
    "osm_id": -358736,
    "boundary": "administrative",
    "admin_level": 8,
    "parents": "-358674,-9450361,-9450387,-382313",
    "name": "Abeno Ward",
    "local_name": "阿倍野区",
    "name_en": "Abeno Ward",
    "all_tags": {
      "name": "阿倍野区",
      "name:en": "Abeno Ward",
      "name:ja": "阿倍野区",
      "boundary": "administrative",
      "way_area": "0.000593159",
      "wikidata": "Q489009",
      "land_area": "administrative",
      "name:ja_rm": "Abeno-ku",
      "admin_level": "8",
      "name:ja_kana": "あべのく"
    }
  },
  {
    "osm_id": -358735,
    "boundary": "administrative",
    "admin_level": 8,
    "parents": "-358674,-9450361,-9450387,-382313",
    "name": "Tennoji Ward",
    "local_name": "天王寺区",
    "name_en": "Tennoji Ward",
    "all_tags": {
      "name": "天王寺区",
      "name:en": "Tennoji Ward",
      "name:ja": "天王寺区",
      "boundary": "administrative",
      "way_area": "0.000458744",
      "wikidata": "Q490592",
      "land_area": "administrative",
      "name:ja_rm": "Tennōji-ku",
      "admin_level": "8",
      "name:ja_kana": "てんのうじく"
    }
  },
  {
    "osm_id": -358734,
    "boundary": "administrative",
    "admin_level": 8,
    "parents": "-358674,-9450361,-9450387,-382313",
    "name": "Naniwa Ward",
    "local_name": "浪速区",
    "name_en": "Naniwa Ward",
    "all_tags": {
      "name": "浪速区",
      "name:en": "Naniwa Ward",
      "name:ja": "浪速区",
      "name:ko": "나니와구",
      "boundary": "administrative",
      "way_area": "0.000424043",
      "wikidata": "Q861618",
      "land_area": "administrative",
      "name:ja_rm": "Naniwa-ku",
      "admin_level": "8",
      "name:ja_kana": "なにわく"
    }
  },
  {
    "osm_id": -358733,
    "boundary": "administrative",
    "admin_level": 8,
    "parents": "-358674,-9450361,-9450387,-382313",
    "name": "Taisho Ward",
    "local_name": "大正区",
    "name_en": "Taisho Ward",
    "all_tags": {
      "name": "大正区",
      "name:en": "Taisho Ward",
      "name:ja": "大正区",
      "boundary": "administrative",
      "way_area": "0.00102906",
      "wikidata": "Q570027",
      "land_area": "administrative",
      "name:ja_rm": "Taishō-ku",
      "admin_level": "8",
      "name:ja_kana": "たいしょうく"
    }
  },
  {
    "osm_id": -358727,
    "boundary": "administrative",
    "admin_level": 8,
    "parents": "-358674,-9450361,-9450387,-382313",
    "name": "Chuo",
    "local_name": "中央区",
    "name_en": "Chuo",
    "all_tags": {
      "name": "中央区",
      "name:en": "Chuo",
      "name:ja": "中央区",
      "boundary": "administrative",
      "way_area": "0.000873232",
      "wikidata": "Q876485",
      "land_area": "administrative",
      "name:ja_rm": "Chuo-Ku",
      "admin_level": "8",
      "name:ja_kana": "ちゅうおうく"
    }
  },
  {
    "osm_id": -358722,
    "boundary": "administrative",
    "admin_level": 8,
    "parents": "-358674,-9450361,-9450387,-382313",
    "name": "Miyakojima Ward",
    "local_name": "都島区",
    "name_en": "Miyakojima Ward",
    "all_tags": {
      "name": "都島区",
      "name:en": "Miyakojima Ward",
      "name:ja": "都島区",
      "boundary": "administrative",
      "way_area": "0.000596673",
      "wikidata": "Q490581",
      "land_area": "administrative",
      "name:ja_rm": "Miyakojima-ku",
      "admin_level": "8",
      "name:ja_kana": "みやこじまく"
    }
  },
  {
    "osm_id": -358710,
    "boundary": "administrative",
    "admin_level": 8,
    "parents": "-358674,-9450361,-9450387,-382313",
    "name": "Hirano Ward",
    "local_name": "平野区",
    "name_en": "Hirano Ward",
    "all_tags": {
      "name": "平野区",
      "name:en": "Hirano Ward",
      "name:ja": "平野区",
      "boundary": "administrative",
      "way_area": "0.00150347",
      "wikidata": "Q861256",
      "land_area": "administrative",
      "name:ja_rm": "Hirano-ku",
      "admin_level": "8",
      "name:ja_kana": "ひらのく"
    }
  },
  {
    "osm_id": -358709,
    "boundary": "administrative",
    "admin_level": 8,
    "parents": "-358674,-9450361,-9450387,-382313",
    "name": "Ikuno Ward",
    "local_name": "生野区",
    "name_en": "Ikuno Ward",
    "all_tags": {
      "name": "生野区",
      "name:en": "Ikuno Ward",
      "name:ja": "生野区",
      "boundary": "administrative",
      "way_area": "0.00081758",
      "wikidata": "Q490520",
      "land_area": "administrative",
      "name:ja_rm": "Ikuno-ku",
      "admin_level": "8",
      "name:ja_kana": "いくのく"
    }
  },
  {
    "osm_id": -358708,
    "boundary": "administrative",
    "admin_level": 8,
    "parents": "-358674,-9450361,-9450387,-382313",
    "name": "Higashinari Ward",
    "local_name": "東成区",
    "name_en": "Higashinari Ward",
    "all_tags": {
      "name": "東成区",
      "name:en": "Higashinari Ward",
      "name:ja": "東成区",
      "boundary": "administrative",
      "way_area": "0.000452906",
      "wikidata": "Q985701",
      "land_area": "administrative",
      "name:ja_rm": "Higashinari-ku",
      "admin_level": "8",
      "name:ja_kana": "ひがしなりく"
    }
  },
  {
    "osm_id": -358707,
    "boundary": "administrative",
    "admin_level": 8,
    "parents": "-358674,-9450361,-9450387,-382313",
    "name": "Joto Ward",
    "local_name": "城東区",
    "name_en": "Joto Ward",
    "all_tags": {
      "name": "城東区",
      "name:en": "Joto Ward",
      "name:ja": "城東区",
      "boundary": "administrative",
      "way_area": "0.000833144",
      "wikidata": "Q490508",
      "land_area": "administrative",
      "name:ja_rm": "Jōtō-ku",
      "admin_level": "8",
      "name:ja_kana": "じょうとうく"
    }
  },
  {
    "osm_id": -358695,
    "boundary": "administrative",
    "admin_level": 8,
    "parents": "-358674,-9450361,-9450387,-382313",
    "name": "Tsurumi Ward",
    "local_name": "鶴見区",
    "name_en": "Tsurumi Ward",
    "all_tags": {
      "name": "鶴見区",
      "name:en": "Tsurumi Ward",
      "name:ja": "鶴見区",
      "boundary": "administrative",
      "way_area": "0.000800799",
      "wikidata": "Q490526",
      "land_area": "administrative",
      "name:ja_rm": "Tsurumi-ku",
      "admin_level": "8",
      "name:ja_kana": "つるみく"
    }
  },
  {
    "osm_id": -358684,
    "boundary": "administrative",
    "admin_level": 8,
    "parents": "-358674,-9450361,-9450387,-382313",
    "name": "Asahi Ward",
    "local_name": "旭区",
    "name_en": "Asahi Ward",
    "all_tags": {
      "name": "旭区",
      "name:en": "Asahi Ward",
      "name:ja": "旭区",
      "boundary": "administrative",
      "way_area": "0.000618467",
      "wikidata": "Q861271",
      "land_area": "administrative",
      "name:ja_rm": "Asahi-ku",
      "admin_level": "8",
      "name:ja_kana": "あさひく"
    }
  },
  {
    "osm_id": -358683,
    "boundary": "administrative",
    "admin_level": 8,
    "parents": "-358674,-9450361,-9450387,-382313",
    "name": "Nishi Ward",
    "local_name": "西区",
    "name_en": "Nishi Ward",
    "all_tags": {
      "name": "西区",
      "name:en": "Nishi Ward",
      "name:ja": "西区",
      "boundary": "administrative",
      "way_area": "0.000512682",
      "wikidata": "Q275123",
      "land_area": "administrative",
      "name:ja_rm": "Nishi-ku",
      "admin_level": "8",
      "name:ja_kana": "にしく"
    }
  },
  {
    "osm_id": -358682,
    "boundary": "administrative",
    "admin_level": 8,
    "parents": "-358674,-9450361,-9450387,-382313",
    "name": "Minato Ward",
    "local_name": "港区",
    "name_en": "Minato Ward",
    "all_tags": {
      "name": "港区",
      "name:en": "Minato Ward",
      "name:ja": "港区",
      "boundary": "administrative",
      "way_area": "0.000868952",
      "wikidata": "Q1365114",
      "land_area": "administrative",
      "name:ja_rm": "Minato-ku",
      "admin_level": "8",
      "name:ja_kana": "みなとく"
    }
  },
  {
    "osm_id": -358681,
    "boundary": "administrative",
    "admin_level": 8,
    "parents": "-358674,-9450361,-9450387,-382313",
    "name": "Kita Ward",
    "local_name": "北区",
    "name_en": "Kita Ward",
    "all_tags": {
      "name": "北区",
      "name:en": "Kita Ward",
      "name:ja": "北区",
      "name:ko": "기타구",
      "boundary": "administrative",
      "way_area": "0.0010169",
      "wikidata": "Q1207746",
      "land_area": "administrative",
      "wikipedia": "ja:北区 (大阪市)",
      "name:ja_rm": "Kita-Ku",
      "admin_level": "8",
      "name:ja_kana": "きたく"
    }
  },
  {
    "osm_id": -358680,
    "boundary": "administrative",
    "admin_level": 8,
    "parents": "-358674,-9450361,-9450387,-382313",
    "name": "Fukushima Ward",
    "local_name": "福島区",
    "name_en": "Fukushima Ward",
    "all_tags": {
      "name": "福島区",
      "name:en": "Fukushima Ward",
      "name:eo": "Fukuŝimo",
      "name:ja": "福島区",
      "boundary": "administrative",
      "way_area": "0.000459155",
      "wikidata": "Q985728",
      "land_area": "administrative",
      "name:ja_rm": "Fukushima-ku",
      "admin_level": "8",
      "name:ja_kana": "ふくしまく"
    }
  },
  {
    "osm_id": -358679,
    "boundary": "administrative",
    "admin_level": 8,
    "parents": "-358674,-9450361,-9450387,-382313",
    "name": "Konohana Ward",
    "local_name": "此花区",
    "name_en": "Konohana Ward",
    "all_tags": {
      "name": "此花区",
      "name:en": "Konohana Ward",
      "name:ja": "此花区",
      "boundary": "administrative",
      "way_area": "0.00626558",
      "wikidata": "Q960258",
      "land_area": "administrative",
      "name:ja_rm": "Konohana-ku",
      "admin_level": "8",
      "name:ja_kana": "このはなく"
    }
  },
  {
    "osm_id": -358678,
    "boundary": "administrative",
    "admin_level": 8,
    "parents": "-358674,-9450361,-9450387,-382313",
    "name": "Nishiyodogawa Ward",
    "local_name": "西淀川区",
    "name_en": "Nishiyodogawa Ward",
    "all_tags": {
      "name": "西淀川区",
      "name:en": "Nishiyodogawa Ward",
      "name:ja": "西淀川区",
      "boundary": "administrative",
      "way_area": "0.00150748",
      "wikidata": "Q985765",
      "land_area": "administrative",
      "name:ja_rm": "Nishiyodogawa-ku",
      "admin_level": "8",
      "name:ja_kana": "にしよどがわく"
    }
  },
  {
    "osm_id": -358676,
    "boundary": "administrative",
    "admin_level": 8,
    "parents": "-358674,-9450361,-9450387,-382313",
    "name": "Higashiyodogawa Ward",
    "local_name": "東淀川区",
    "name_en": "Higashiyodogawa Ward",
    "all_tags": {
      "name": "東淀川区",
      "name:en": "Higashiyodogawa Ward",
      "name:ja": "東淀川区",
      "boundary": "administrative",
      "way_area": "0.00130562",
      "wikidata": "Q490514",
      "land_area": "administrative",
      "name:ja_rm": "Higashiyodogawa-ku",
      "admin_level": "8",
      "name:ja_kana": "ひがしよどがわく"
    }
  },
  {
    "osm_id": -358675,
    "boundary": "administrative",
    "admin_level": 8,
    "parents": "-358674,-9450361,-9450387,-382313",
    "name": "Yodogawa Ward",
    "local_name": "淀川区",
    "name_en": "Yodogawa Ward",
    "all_tags": {
      "name": "淀川区",
      "name:en": "Yodogawa Ward",
      "name:ja": "淀川区",
      "boundary": "administrative",
      "way_area": "0.00125403",
      "wikidata": "Q490594",
      "land_area": "administrative",
      "name:ja_rm": "Yodogawa-ku",
      "admin_level": "8",
      "name:ja_kana": "よどがわく"
    }
  },
  {
    "osm_id": -358601,
    "boundary": "administrative",
    "admin_level": 8,
    "parents": "-357794,-2137477,-357113,-382313",
    "name": "Shimogyo Ward",
    "local_name": "下京区",
    "name_en": "Shimogyo Ward",
    "all_tags": {
      "name": "下京区",
      "name:en": "Shimogyo Ward",
      "name:ja": "下京区",
      "name:ru": "Симогё",
      "boundary": "administrative",
      "way_area": "0.000670236",
      "wikidata": "Q1077022",
      "land_area": "administrative",
      "name:ja_rm": "Shimogyō-ku",
      "admin_level": "8",
      "name:ja_kana": "しもぎょうく"
    }
  },
  {
    "osm_id": -358594,
    "boundary": "administrative",
    "admin_level": 8,
    "parents": "-357794,-2137477,-357113,-382313",
    "name": "Minami Ward",
    "local_name": "南区",
    "name_en": "Minami Ward",
    "all_tags": {
      "name": "南区",
      "name:en": "Minami Ward",
      "name:ja": "南区",
      "name:ru": "Минами",
      "boundary": "administrative",
      "way_area": "0.0015619",
      "wikidata": "Q1154649",
      "land_area": "administrative",
      "name:ja_rm": "Minami-ku",
      "admin_level": "8",
      "name:ja_kana": "みなみく"
    }
  },
  {
    "osm_id": -358575,
    "boundary": "administrative",
    "admin_level": 8,
    "parents": "-357794,-2137477,-357113,-382313",
    "name": "Fushimi Ward",
    "local_name": "伏見区",
    "name_en": "Fushimi Ward",
    "all_tags": {
      "name": "伏見区",
      "name:en": "Fushimi Ward",
      "name:es": "Fushimi",
      "name:ja": "伏見区",
      "name:ru": "Фусими",
      "boundary": "administrative",
      "way_area": "0.00608352",
      "wikidata": "Q1197771",
      "land_area": "administrative",
      "name:ja_rm": "Fushimi-ku",
      "admin_level": "8",
      "name:ja_kana": "ふしみく"
    }
  },
  {
    "osm_id": -357840,
    "boundary": "administrative",
    "admin_level": 8,
    "parents": "-357794,-2137477,-357113,-382313",
    "name": "Higashiyama Ward",
    "local_name": "東山区",
    "name_en": "Higashiyama Ward",
    "all_tags": {
      "name": "東山区",
      "name:en": "Higashiyama Ward",
      "name:ja": "東山区",
      "name:ru": "Хигасияма",
      "boundary": "administrative",
      "way_area": "0.000738517",
      "wikidata": "Q1203862",
      "land_area": "administrative",
      "name:ja_rm": "Higashiyama-ku",
      "admin_level": "8",
      "name:ja_kana": "ひがしやまく"
    }
  },
  {
    "osm_id": -357839,
    "boundary": "administrative",
    "admin_level": 8,
    "parents": "-357794,-2137477,-357113,-382313",
    "name": "Yamashina Ward",
    "local_name": "山科区",
    "name_en": "Yamashina Ward",
    "all_tags": {
      "name": "山科区",
      "name:en": "Yamashina Ward",
      "name:ja": "山科区",
      "name:ru": "Ямасина",
      "boundary": "administrative",
      "way_area": "0.00283328",
      "wikidata": "Q1076993",
      "land_area": "administrative",
      "name:ja_rm": "Yamashina-ku",
      "admin_level": "8",
      "name:ja_kana": "やましなく"
    }
  },
  {
    "osm_id": -357817,
    "boundary": "administrative",
    "admin_level": 8,
    "parents": "-357794,-2137477,-357113,-382313",
    "name": "Kamigyo Ward",
    "local_name": "上京区",
    "name_en": "Kamigyo Ward",
    "all_tags": {
      "name": "上京区",
      "name:en": "Kamigyo Ward",
      "name:ja": "上京区",
      "name:ru": "Камигё",
      "boundary": "administrative",
      "way_area": "0.000696719",
      "wikidata": "Q1321824",
      "land_area": "administrative",
      "name:ja_rm": "Kamigyō-ku",
      "admin_level": "8",
      "name:ja_kana": "かみぎょうく"
    }
  },
  {
    "osm_id": -357816,
    "boundary": "administrative",
    "admin_level": 8,
    "parents": "-357794,-2137477,-357113,-382313",
    "name": "Nakagyo Ward",
    "local_name": "中京区",
    "name_en": "Nakagyo Ward",
    "all_tags": {
      "name": "中京区",
      "name:en": "Nakagyo Ward",
      "name:ja": "中京区",
      "name:ru": "Накагё",
      "boundary": "administrative",
      "way_area": "0.000728468",
      "wikidata": "Q1075455",
      "land_area": "administrative",
      "name:ja_rm": "Nakagyō-ku",
      "admin_level": "8",
      "name:ja_kana": "なかぎょうく"
    }
  },
  {
    "osm_id": -357815,
    "boundary": "administrative",
    "admin_level": 8,
    "parents": "-357794,-2137477,-357113,-382313",
    "name": "Nishikyo Ward",
    "local_name": "西京区",
    "name_en": "Nishikyo Ward",
    "all_tags": {
      "name": "西京区",
      "name:en": "Nishikyo Ward",
      "name:ja": "西京区",
      "name:ru": "Нисикё",
      "boundary": "administrative",
      "way_area": "0.0058464",
      "wikidata": "Q1154588",
      "land_area": "administrative",
      "name:ja_rm": "Nishikyō-ku",
      "admin_level": "8",
      "name:ja_kana": "にしきょうく"
    }
  },
  {
    "osm_id": -357805,
    "boundary": "administrative",
    "admin_level": 8,
    "parents": "-357794,-2137477,-357113,-382313",
    "name": "Kita Ward",
    "local_name": "北区",
    "name_en": "Kita Ward",
    "all_tags": {
      "name": "北区",
      "name:en": "Kita Ward",
      "name:ja": "北区",
      "name:ru": "Кита",
      "boundary": "administrative",
      "way_area": "0.0093802",
      "wikidata": "Q1154970",
      "land_area": "administrative",
      "name:ja_rm": "Kita-ku",
      "admin_level": "8",
      "name:ja_kana": "きたく"
    }
  },
  {
    "osm_id": -357798,
    "boundary": "administrative",
    "admin_level": 8,
    "parents": "-357794,-2137477,-357113,-382313",
    "name": "Sakyo Ward",
    "local_name": "左京区",
    "name_en": "Sakyo Ward",
    "all_tags": {
      "name": "左京区",
      "name:en": "Sakyo Ward",
      "name:ja": "左京区",
      "name:ru": "Сакё",
      "boundary": "administrative",
      "way_area": "0.0244146",
      "wikidata": "Q1321832",
      "land_area": "administrative",
      "name:ja_rm": "Sakyō-ku",
      "admin_level": "8",
      "name:ja_kana": "さきょうく"
    }
  },
  {
    "osm_id": -357795,
    "boundary": "administrative",
    "admin_level": 8,
    "parents": "-357794,-2137477,-357113,-382313",
    "name": "Ukyo Ward",
    "local_name": "右京区",
    "name_en": "Ukyo Ward",
    "all_tags": {
      "name": "右京区",
      "name:en": "Ukyo Ward",
      "name:ja": "右京区",
      "name:ru": "Укё",
      "boundary": "administrative",
      "way_area": "0.0288908",
      "wikidata": "Q580186",
      "land_area": "administrative",
      "name:ja_rm": "Ukyō-ku",
      "admin_level": "8",
      "name:ja_kana": "うきょうく"
    }
  }
]
