[
  {
    "osm_id": -5840987,
    "boundary": "administrative",
    "admin_level": 8,
    "parents": "-5337946,-4630839,-536807",
    "name": "Weligama",
    "local_name": "Weligama",
    "name_en": null,
    "all_tags": {
      "name": "Weligama",
      "place": "town",
      "boundary": "administrative",
      "way_area": "8.07112e-05",
      "population": "20000",
      "admin_level": "8",
      "is_in:country": "Sri Lanka",
      "is_in:continent": "Asia",
      "is_in:country_code": "LK"
    }
  },
  {
    "osm_id": -5477786,
    "boundary": "administrative",
    "admin_level": 8,
    "parents": "-5351777,-4630838,-536807",
    "name": "Moragolla",
    "local_name": "Moragolla",
    "name_en": null,
    "all_tags": {
      "name": "Moragolla",
      "boundary": "administrative",
      "way_area": "4.33496e-06",
      "admin_level": "8"
    }
  },
  {
    "osm_id": -5346083,
    "boundary": "administrative",
    "admin_level": 8,
    "parents": "-5351777,-4630838,-536807",
    "name": "Kongashandiya",
    "local_name": "Kongashandiya",
    "name_en": null,
    "all_tags": {
      "name": "Kongashandiya",
      "boundary": "administrative",
      "way_area": "2.12078e-06",
      "admin_level": "8"
    }
  },
  {
    "osm_id": -5345077,
    "boundary": "administrative",
    "admin_level": 8,
    "parents": "-5337914,-4630839,-536807",
    "name": "Galle",
    "local_name": "Galle",
    "name_en": null,
    "all_tags": {
      "name": "Galle",
      "name:uk": "Ґалле",
      "boundary": "administrative",
      "way_area": "0.00184917",
      "population": "100000",
      "admin_level": "8",
      "is_in:country": "Sri Lanka",
      "is_in:continent": "Asia",
      "is_in:country_code": "LK"
    }
  },
  {
    "osm_id": -5345072,
    "boundary": "administrative",
    "admin_level": 8,
    "parents": "-5337946,-4630839,-536807",
    "name": "Matara",
    "local_name": "Matara",
    "name_en": null,
    "all_tags": {
      "name": "Matara",
      "name:ar": "ماتارا",
      "name:de": "Matara",
      "name:es": "Matara",
      "name:fa": "ماتارا",
      "name:ur": "ماترا",
      "boundary": "administrative",
      "name:arz": "ماتارا",
      "way_area": "0.000453886",
      "population": "100000",
      "admin_level": "8"
    }
  },
  {
    "osm_id": -16132,
    "boundary": "administrative",
    "admin_level": 8,
    "parents": "-5351774,-4630841,-536807",
    "name": "Colombo",
    "local_name": "Colombo",
    "name_en": "Colombo",
    "all_tags": {
      "name": "Colombo",
      "name:af": "Colombo",
      "name:ar": "كولمبو",
      "name:da": "Colombo",
      "name:de": "Colombo",
      "name:en": "Colombo",
      "name:es": "Colombo",
      "name:fi": "Colombo",
      "name:fr": "Colombo",
      "name:he": "קולומבו",
      "name:hr": "Colombo",
      "name:it": "Colombo",
      "name:ja": "コロンボ",
      "name:ko": "콜롬보",
      "name:nl": "Colombo",
      "name:pa": "ਕੋਲੰਬੋ",
      "name:ru": "Коломбо",
      "name:si": "කොළඹ",
      "name:sr": "Коломбо",
      "name:ta": "கொழும்பு",
      "name:te": "కొలంబో",
      "name:tg": "Коломбо",
      "name:th": "โคลัมโบ",
      "name:tr": "Kolombo",
      "name:vi": "Colombo",
      "name:zh": "可倫坡",
      "website": "http://www.cmc.lk/",
      "alt_name": "Kolamba",
      "boundary": "administrative",
      "name:yue": "哥林堡",
      "way_area": "0.00371339",
      "wikidata": "Q35381",
      "wikipedia": "en:Colombo",
      "population": "753000",
      "admin_level": "8",
      "alt_name:si": "කොලඹ",
      "alt_name:ta": "கொலம்பா",
      "is_in:country": "Sri Lanka",
      "is_in:continent": "Asia",
      "is_in:country_code": "LK"
    }
  }
]
