[
  {
    "osm_id": -1357619,
    "boundary": "administrative",
    "admin_level": 8,
    "parents": "-1115797,-2171347",
    "name": "Kiischpelt",
    "local_name": "Kiischpelt",
    "name_en": null,
    "all_tags": {
      "name": "Kiischpelt",
      "name:de": "Kiischpelt",
      "name:fr": "Kiischpelt",
      "name:lb": "Kiischpelt",
      "boundary": "administrative",
      "way_area": "0.00423278",
      "wikidata": "Q1143742",
      "wikipedia": "lb:Gemeng Kiischpelt",
      "admin_level": "8",
      "alt_name:de": "Kirchspiel"
    }
  },
  {
    "osm_id": -1357539,
    "boundary": "administrative",
    "admin_level": 8,
    "parents": "-1115797,-2171347",
    "name": "Winseler",
    "local_name": "Winseler",
    "name_en": null,
    "all_tags": {
      "name": "Winseler",
      "name:de": "Winseler",
      "name:fr": "Winseler",
      "name:lb": "Wanseler",
      "boundary": "administrative",
      "way_area": "0.00383905",
      "wikidata": "Q985385",
      "wikipedia": "lb:Gemeng Wanseler",
      "admin_level": "8"
    }
  },
  {
    "osm_id": -1357531,
    "boundary": "administrative",
    "admin_level": 8,
    "parents": "-1115797,-2171347",
    "name": "Wiltz",
    "local_name": "Wiltz",
    "name_en": null,
    "all_tags": {
      "name": "Wiltz",
      "name:de": "Wiltz",
      "name:fr": "Wiltz",
      "name:lb": "Wolz",
      "boundary": "administrative",
      "way_area": "0.00495139",
      "wikidata": "Q741589",
      "wikipedia": "lb:Gemeng Wolz",
      "admin_level": "8",
      "alt_name:lb": "Woolz"
    }
  },
  {
    "osm_id": -1357248,
    "boundary": "administrative",
    "admin_level": 8,
    "parents": "-1115797,-2171347",
    "name": "Lac de la Haute-Sûre",
    "local_name": "Lac de la Haute-Sûre",
    "name_en": null,
    "all_tags": {
      "name": "Lac de la Haute-Sûre",
      "name:de": "Stauseegemeinde",
      "name:fr": "Lac de la Haute-Sûre",
      "name:lb": "Stauséigemeng",
      "boundary": "administrative",
      "way_area": "0.00609392",
      "wikidata": "Q1133688",
      "wikipedia": "lb:Stauséigemeng",
      "admin_level": "8"
    }
  },
  {
    "osm_id": -1356822,
    "boundary": "administrative",
    "admin_level": 8,
    "parents": "-1115797,-2171347",
    "name": "Goesdorf",
    "local_name": "Goesdorf",
    "name_en": null,
    "all_tags": {
      "name": "Goesdorf",
      "name:de": "Goesdorf",
      "name:fr": "Goesdorf",
      "name:lb": "Géisdref",
      "boundary": "administrative",
      "way_area": "0.00368174",
      "wikidata": "Q985392",
      "wikipedia": "lb:Gemeng Géisdref",
      "admin_level": "8"
    }
  },
  {
    "osm_id": -1356792,
    "boundary": "administrative",
    "admin_level": 8,
    "parents": "-1115797,-2171347",
    "name": "Boulaide",
    "local_name": "Boulaide",
    "name_en": null,
    "all_tags": {
      "name": "Boulaide",
      "name:de": "Bauschleiden",
      "name:fr": "Boulaide",
      "name:lb": "Bauschelt",
      "boundary": "administrative",
      "way_area": "0.00405464",
      "wikidata": "Q811880",
      "wikipedia": "lb:Gemeng Bauschelt",
      "admin_level": "8"
    }
  },
  {
    "osm_id": -1356772,
    "boundary": "administrative",
    "admin_level": 8,
    "parents": "-1115797,-2171347",
    "name": "Esch-sur-Sûre",
    "local_name": "Esch-sur-Sûre",
    "name_en": null,
    "all_tags": {
      "name": "Esch-sur-Sûre",
      "name:de": "Esch an der Sauer",
      "name:fr": "Esch-sur-Sûre",
      "name:lb": "Esch-Sauer",
      "boundary": "administrative",
      "way_area": "0.00643487",
      "wikidata": "Q986392",
      "wikipedia": "lb:Gemeng Esch-Sauer",
      "admin_level": "8",
      "alt_name:lb": "Esch am Lach"
    }
  },
  {
    "osm_id": -1356683,
    "boundary": "administrative",
    "admin_level": 8,
    "parents": "-660245,-2171347",
    "name": "Redange-sur-Attert",
    "local_name": "Redange-sur-Attert",
    "name_en": null,
    "all_tags": {
      "name": "Redange-sur-Attert",
      "name:de": "Redingen",
      "name:fr": "Redange",
      "name:lb": "Réiden",
      "name:lt": "Redanžas prie Aterto",
      "alt_name": "Redange",
      "boundary": "administrative",
      "way_area": "0.00403352",
      "wikidata": "Q687100",
      "wikipedia": "lb:Gemeng Réiden",
      "admin_level": "8",
      "alt_name:de": "Redingen-am-Attert",
      "alt_name:fr": "Redange-sur-Attert",
      "alt_name:lb": "Réiden-Atert"
    }
  },
  {
    "osm_id": -1356679,
    "boundary": "administrative",
    "admin_level": 8,
    "parents": "-660245,-2171347",
    "name": "Rambrouch",
    "local_name": "Rambrouch",
    "name_en": null,
    "all_tags": {
      "name": "Rambrouch",
      "name:de": "Rambruch",
      "name:fr": "Rambrouch",
      "name:lb": "Rammerech",
      "name:lt": "Rambrušas",
      "boundary": "administrative",
      "way_area": "0.00994242",
      "wikidata": "Q986396",
      "wikipedia": "lb:Gemeng Rammerech",
      "admin_level": "8"
    }
  },
  {
    "osm_id": -1355975,
    "boundary": "administrative",
    "admin_level": 8,
    "parents": "-660245,-2171347",
    "name": "Ell",
    "local_name": "Ell",
    "name_en": null,
    "all_tags": {
      "name": "Ell",
      "name:de": "Ell",
      "name:fr": "Ell",
      "name:lb": "Ell",
      "boundary": "administrative",
      "way_area": "0.00270724",
      "wikidata": "Q145727",
      "wikipedia": "lb:Gemeng Ell",
      "admin_level": "8"
    }
  },
  {
    "osm_id": -1355924,
    "boundary": "administrative",
    "admin_level": 8,
    "parents": "-660245,-2171347",
    "name": "Beckerich",
    "local_name": "Beckerich",
    "name_en": null,
    "all_tags": {
      "name": "Beckerich",
      "name:de": "Beckerich",
      "name:fr": "Beckerich",
      "name:lb": "Biekerech",
      "boundary": "administrative",
      "way_area": "0.00356171",
      "wikidata": "Q813727",
      "wikipedia": "lb:Gemeng Biekerech",
      "admin_level": "8"
    }
  },
  {
    "osm_id": -1355855,
    "boundary": "administrative",
    "admin_level": 8,
    "parents": "-660245,-2171347",
    "name": "Saeul",
    "local_name": "Saeul",
    "name_en": null,
    "all_tags": {
      "name": "Saeul",
      "name:de": "Saeul",
      "name:fr": "Saeul",
      "name:lb": "Sëll",
      "boundary": "administrative",
      "way_area": "0.00186425",
      "wikidata": "Q1017421",
      "wikipedia": "lb:Gemeng Sëll",
      "admin_level": "8"
    }
  },
  {
    "osm_id": -1355531,
    "boundary": "administrative",
    "admin_level": 8,
    "parents": "-660245,-2171347",
    "name": "Useldange",
    "local_name": "Useldange",
    "name_en": null,
    "all_tags": {
      "name": "Useldange",
      "name:de": "Useldingen",
      "name:fr": "Useldange",
      "name:lb": "Useldeng",
      "name:lt": "Useldanžas",
      "boundary": "administrative",
      "way_area": "0.00299618",
      "wikidata": "Q985333",
      "wikipedia": "lb:Gemeng Useldeng",
      "admin_level": "8"
    }
  },
  {
    "osm_id": -1355348,
    "boundary": "administrative",
    "admin_level": 8,
    "parents": "-660245,-2171347",
    "name": "Vichten",
    "local_name": "Vichten",
    "name_en": null,
    "all_tags": {
      "name": "Vichten",
      "name:de": "Vichten",
      "name:fr": "Vichten",
      "name:lb": "Viichten",
      "boundary": "administrative",
      "way_area": "0.00155283",
      "wikidata": "Q985473",
      "wikipedia": "lb:Gemeng Viichten",
      "admin_level": "8"
    }
  },
  {
    "osm_id": -1355222,
    "boundary": "administrative",
    "admin_level": 8,
    "parents": "-660245,-2171347",
    "name": "Préizerdaul",
    "local_name": "Préizerdaul",
    "name_en": null,
    "all_tags": {
      "name": "Préizerdaul",
      "name:de": "Préizerdaul",
      "name:fr": "Préizerdaul",
      "name:lb": "Préizerdaul",
      "boundary": "administrative",
      "way_area": "0.00196425",
      "wikidata": "Q1134542",
      "wikipedia": "lb:Gemeng Préizerdaul",
      "admin_level": "8",
      "alt_name:de": "Pratzertal"
    }
  },
  {
    "osm_id": -1354643,
    "boundary": "administrative",
    "admin_level": 8,
    "parents": "-660245,-2171347",
    "name": "Wahl",
    "local_name": "Wahl",
    "name_en": null,
    "all_tags": {
      "name": "Wahl",
      "name:de": "Wahl",
      "name:fr": "Wahl",
      "name:lb": "Wal",
      "boundary": "administrative",
      "way_area": "0.00251193",
      "wikidata": "Q166320",
      "wikipedia": "lb:Gemeng Wal",
      "admin_level": "8"
    }
  },
  {
    "osm_id": -1354531,
    "boundary": "administrative",
    "admin_level": 8,
    "parents": "-660245,-2171347",
    "name": "Grosbous",
    "local_name": "Grosbous",
    "name_en": null,
    "all_tags": {
      "name": "Grosbous",
      "name:de": "Grosbus",
      "name:fr": "Grosbous",
      "name:lb": "Groussbus",
      "boundary": "administrative",
      "way_area": "0.0025433",
      "wikidata": "Q986417",
      "wikipedia": "lb:Gemeng Groussbus",
      "admin_level": "8"
    }
  },
  {
    "osm_id": -1353121,
    "boundary": "administrative",
    "admin_level": 8,
    "parents": "-1115796,-2171347",
    "name": "Clervaux",
    "local_name": "Clervaux",
    "name_en": null,
    "all_tags": {
      "name": "Clervaux",
      "name:de": "Clerf",
      "name:fr": "Clervaux",
      "name:lb": "Klierf",
      "name:lt": "Klervas",
      "boundary": "administrative",
      "way_area": "0.0107485",
      "wikidata": "Q836075",
      "wikipedia": "lb:Gemeng Klierf",
      "admin_level": "8",
      "alt_name:lb": "Cliärref"
    }
  },
  {
    "osm_id": -1353118,
    "boundary": "administrative",
    "admin_level": 8,
    "parents": "-1115796,-2171347",
    "name": "Wincrange",
    "local_name": "Wincrange",
    "name_en": null,
    "all_tags": {
      "name": "Wincrange",
      "name:de": "Wintger",
      "name:fr": "Wincrange",
      "name:lb": "Wëntger",
      "boundary": "administrative",
      "way_area": "0.0142878",
      "wikidata": "Q985404",
      "wikipedia": "lb:Gemeng Wëntger",
      "admin_level": "8"
    }
  },
  {
    "osm_id": -1353113,
    "boundary": "administrative",
    "admin_level": 8,
    "parents": "-1115796,-2171347",
    "name": "Weiswampach",
    "local_name": "Weiswampach",
    "name_en": null,
    "all_tags": {
      "name": "Weiswampach",
      "name:de": "Weiswampach",
      "name:fr": "Weiswampach",
      "name:lb": "Wäiswampech",
      "alt_name": "Wäiswampich",
      "boundary": "administrative",
      "way_area": "0.00442132",
      "wikidata": "Q377847",
      "wikipedia": "lb:Gemeng Wäisswampech",
      "admin_level": "8",
      "wikimedia_commons": "Weiswampach"
    }
  },
  {
    "osm_id": -1353102,
    "boundary": "administrative",
    "admin_level": 8,
    "parents": "-1115796,-2171347",
    "name": "Troisvierges",
    "local_name": "Troisvierges",
    "name_en": null,
    "all_tags": {
      "name": "Troisvierges",
      "name:de": "Ulflingen",
      "name:fr": "Troisvierges",
      "name:lb": "Ëlwen",
      "boundary": "administrative",
      "way_area": "0.00479813",
      "wikidata": "Q24454",
      "wikipedia": "lb:Gemeng Ëlwen",
      "admin_level": "8"
    }
  },
  {
    "osm_id": -1342841,
    "boundary": "administrative",
    "admin_level": 8,
    "parents": "-1115796,-2171347",
    "name": "Parc Hosingen",
    "local_name": "Parc Hosingen",
    "name_en": null,
    "all_tags": {
      "name": "Parc Hosingen",
      "name:de": "Park Hosingen",
      "name:fr": "Parc Hosingen",
      "name:lb": "Parc Housen",
      "boundary": "administrative",
      "way_area": "0.00884374",
      "wikidata": "Q743393",
      "wikipedia": "lb:Gemeng Parc Housen",
      "admin_level": "8"
    }
  },
  {
    "osm_id": -1337085,
    "boundary": "administrative",
    "admin_level": 8,
    "parents": "-1342842,-2171347",
    "name": "Putscheid",
    "local_name": "Putscheid",
    "name_en": null,
    "all_tags": {
      "name": "Putscheid",
      "name:de": "Pütscheid",
      "name:fr": "Putscheid",
      "name:lb": "Pëtscht",
      "name:lt": "Putšeidas",
      "boundary": "administrative",
      "way_area": "0.00338571",
      "wikidata": "Q513740",
      "wikipedia": "lb:Gemeng Pëtscht",
      "admin_level": "8",
      "alt_name:lb": "Pëtschent"
    }
  },
  {
    "osm_id": -1337084,
    "boundary": "administrative",
    "admin_level": 8,
    "parents": "-1342842,-2171347",
    "name": "Vianden",
    "local_name": "Vianden",
    "name_en": null,
    "all_tags": {
      "name": "Vianden",
      "name:de": "Vianden",
      "name:fr": "Vianden",
      "name:lb": "Veianen",
      "name:lt": "Viandenas",
      "boundary": "administrative",
      "way_area": "0.00121153",
      "wikidata": "Q836082",
      "wikipedia": "lb:Gemeng Veianen",
      "admin_level": "8",
      "alt_name:lb": "Veinen"
    }
  },
  {
    "osm_id": -1337083,
    "boundary": "administrative",
    "admin_level": 8,
    "parents": "-1342842,-2171347",
    "name": "Tandel",
    "local_name": "Tandel",
    "name_en": null,
    "all_tags": {
      "name": "Tandel",
      "name:de": "Tandel",
      "name:fr": "Tandel",
      "name:lb": "Tandel",
      "boundary": "administrative",
      "way_area": "0.00522313",
      "wikidata": "Q1365356",
      "wikipedia": "lb:Gemeng Tandel",
      "admin_level": "8"
    }
  },
  {
    "osm_id": -1333122,
    "boundary": "administrative",
    "admin_level": 8,
    "parents": "-407810,-2171347",
    "name": "Helperknapp",
    "local_name": "Helperknapp",
    "name_en": null,
    "all_tags": {
      "name": "Helperknapp",
      "name:de": "Helperknapp",
      "name:fr": "Helperknapp",
      "name:lb": "Helperknapp",
      "name:lt": "Helperknapas",
      "boundary": "administrative",
      "way_area": "0.00470372",
      "wikidata": "Q25583657",
      "wikipedia": "lb:Gemeng Helperknapp",
      "admin_level": "8"
    }
  },
  {
    "osm_id": -1333121,
    "boundary": "administrative",
    "admin_level": 8,
    "parents": "-407810,-2171347",
    "name": "Fischbach",
    "local_name": "Fischbach",
    "name_en": null,
    "all_tags": {
      "name": "Fischbach",
      "name:de": "Fischbach",
      "name:fr": "Fischbach",
      "name:lb": "Fëschbech",
      "boundary": "administrative",
      "way_area": "0.00243517",
      "wikidata": "Q1016233",
      "wikipedia": "lb:Gemeng Fëschbech",
      "admin_level": "8"
    }
  },
  {
    "osm_id": -1333120,
    "boundary": "administrative",
    "admin_level": 8,
    "parents": "-407810,-2171347",
    "name": "Lintgen",
    "local_name": "Lintgen",
    "name_en": null,
    "all_tags": {
      "name": "Lintgen",
      "name:de": "Lintgen",
      "name:fr": "Lintgen",
      "name:lb": "Lëntgen",
      "boundary": "administrative",
      "ref:lau2": "0407",
      "way_area": "0.00192279",
      "wikidata": "Q985395",
      "wikipedia": "lb:Gemeng Lëntgen",
      "admin_level": "8"
    }
  },
  {
    "osm_id": -1333119,
    "boundary": "administrative",
    "admin_level": 8,
    "parents": "-407810,-2171347",
    "name": "Heffingen",
    "local_name": "Heffingen",
    "name_en": null,
    "all_tags": {
      "name": "Heffingen",
      "name:de": "Heffingen",
      "name:fr": "Heffingen",
      "name:lb": "Hiefenech",
      "boundary": "administrative",
      "way_area": "0.00165696",
      "wikidata": "Q742927",
      "wikipedia": "lb:Gemeng Hiefenech",
      "admin_level": "8"
    }
  },
  {
    "osm_id": -1333118,
    "boundary": "administrative",
    "admin_level": 8,
    "parents": "-407810,-2171347",
    "name": "Lorentzweiler",
    "local_name": "Lorentzweiler",
    "name_en": null,
    "all_tags": {
      "name": "Lorentzweiler",
      "name:de": "Lorentzweiler",
      "name:fr": "Lorentzweiler",
      "name:lb": "Luerenzweiler",
      "name:lt": "Lorencveileris",
      "boundary": "administrative",
      "ref:lau2": "0408",
      "way_area": "0.00220006",
      "wikidata": "Q256978",
      "wikipedia": "lb:Gemeng Luerenzweiler",
      "admin_level": "8"
    }
  },
  {
    "osm_id": -1333116,
    "boundary": "administrative",
    "admin_level": 8,
    "parents": "-407810,-2171347",
    "name": "Colmar-Berg",
    "local_name": "Colmar-Berg",
    "name_en": null,
    "all_tags": {
      "name": "Colmar-Berg",
      "name:de": "Colmar-Berg",
      "name:fr": "Colmar-Berg",
      "name:lb": "Colmer-Bierg",
      "website": "https://www.colmar-berg.lu/",
      "boundary": "administrative",
      "old_name": "Berg",
      "way_area": "0.00154166",
      "wikidata": "Q676957",
      "wikipedia": "lb:Gemeng Colmer-Bierg",
      "admin_level": "8",
      "old_name:lb": "Bierg",
      "wikimedia_commons": "Category:Colmar-Berg"
    }
  },
  {
    "osm_id": -1333115,
    "boundary": "administrative",
    "admin_level": 8,
    "parents": "-407810,-2171347",
    "name": "Larochette",
    "local_name": "Larochette",
    "name_en": null,
    "all_tags": {
      "name": "Larochette",
      "name:de": "Fels",
      "name:fr": "Larochette",
      "name:lb": "An der Fiels",
      "boundary": "administrative",
      "way_area": "0.00192511",
      "wikidata": "Q985397",
      "wikipedia": "lb:Gemeng Fiels",
      "admin_level": "8",
      "alt_name:lb": "Fiels"
    }
  },
  {
    "osm_id": -1333114,
    "boundary": "administrative",
    "admin_level": 8,
    "parents": "-407810,-2171347",
    "name": "Bissen",
    "local_name": "Bissen",
    "name_en": null,
    "all_tags": {
      "name": "Bissen",
      "name:de": "Bissen",
      "name:fr": "Bissen",
      "name:lb": "Biissen",
      "name:lt": "Bisenas",
      "boundary": "administrative",
      "way_area": "0.00260074",
      "wikidata": "Q866692",
      "wikipedia": "lb:Gemeng Biissen",
      "admin_level": "8"
    }
  },
  {
    "osm_id": -1333113,
    "boundary": "administrative",
    "admin_level": 8,
    "parents": "-407810,-2171347",
    "name": "Nommern",
    "local_name": "Nommern",
    "name_en": null,
    "all_tags": {
      "name": "Nommern",
      "name:de": "Nommern",
      "name:fr": "Nommern",
      "name:lb": "Noumer",
      "name:lt": "Nomernas",
      "boundary": "administrative",
      "way_area": "0.00283344",
      "wikidata": "Q985393",
      "wikipedia": "lb:Gemeng Noumer",
      "admin_level": "8"
    }
  },
  {
    "osm_id": -1333112,
    "boundary": "administrative",
    "admin_level": 8,
    "parents": "-407810,-2171347",
    "name": "Mersch",
    "local_name": "Mersch",
    "name_en": null,
    "all_tags": {
      "name": "Mersch",
      "name:de": "Mersch",
      "name:fr": "Mersch",
      "name:lb": "Miersch",
      "name:lt": "Meršas",
      "boundary": "administrative",
      "way_area": "0.00617678",
      "wikidata": "Q284855",
      "wikipedia": "lb:Gemeng Miersch",
      "admin_level": "8"
    }
  },
  {
    "osm_id": -1113665,
    "boundary": "administrative",
    "admin_level": 8,
    "parents": "-1113683,-2171347",
    "name": "Schieren",
    "local_name": "Schieren",
    "name_en": null,
    "all_tags": {
      "name": "Schieren",
      "name:de": "Schieren",
      "name:fr": "Schieren",
      "name:lb": "Schieren",
      "boundary": "administrative",
      "way_area": "0.00130113",
      "wikidata": "Q371757",
      "wikipedia": "lb:Gemeng Schieren",
      "admin_level": "8",
      "wikimedia_commons": "Category:Schieren_(Luxembourg)"
    }
  },
  {
    "osm_id": -1113664,
    "boundary": "administrative",
    "admin_level": 8,
    "parents": "-1113683,-2171347",
    "name": "Bettendorf",
    "local_name": "Bettendorf",
    "name_en": null,
    "all_tags": {
      "name": "Bettendorf",
      "name:de": "Bettendorf",
      "name:fr": "Bettendorf",
      "name:lb": "Bettenduerf",
      "boundary": "administrative",
      "way_area": "0.00290788",
      "wikidata": "Q832382",
      "wikipedia": "lb:Gemeng Bettenduerf",
      "admin_level": "8"
    }
  },
  {
    "osm_id": -1113662,
    "boundary": "administrative",
    "admin_level": 8,
    "parents": "-1113683,-2171347",
    "name": "Ettelbruck",
    "local_name": "Ettelbruck",
    "name_en": null,
    "all_tags": {
      "name": "Ettelbruck",
      "name:de": "Ettelbrück",
      "name:fr": "Ettelbruck",
      "name:lb": "Ettelbréck",
      "name:lt": "Etelbriukas",
      "boundary": "administrative",
      "way_area": "0.00190021",
      "wikidata": "Q659351",
      "wikipedia": "lb:Gemeng Ettelbréck",
      "admin_level": "8"
    }
  },
  {
    "osm_id": -1113661,
    "boundary": "administrative",
    "admin_level": 8,
    "parents": "-1113683,-2171347",
    "name": "Bourscheid",
    "local_name": "Bourscheid",
    "name_en": null,
    "all_tags": {
      "name": "Bourscheid",
      "name:de": "Burscheid",
      "name:fr": "Bourscheid",
      "name:lb": "Buerschent",
      "name:lt": "Buršeidas",
      "boundary": "administrative",
      "way_area": "0.0046117",
      "wikidata": "Q641381",
      "wikipedia": "lb:Gemeng Buerschent",
      "admin_level": "8",
      "alt_name:lb": "Buurschent",
      "wikimedia_commons": "Category:Bourscheid"
    }
  },
  {
    "osm_id": -1113660,
    "boundary": "administrative",
    "admin_level": 8,
    "parents": "-1113683,-2171347",
    "name": "Feulen",
    "local_name": "Feulen",
    "name_en": null,
    "all_tags": {
      "name": "Feulen",
      "name:de": "Feulen",
      "name:fr": "Feulen",
      "name:lb": "Feelen",
      "boundary": "administrative",
      "way_area": "0.00285489",
      "wikidata": "Q1143707",
      "wikipedia": "lb:Gemeng Feelen",
      "admin_level": "8"
    }
  },
  {
    "osm_id": -1113659,
    "boundary": "administrative",
    "admin_level": 8,
    "parents": "-1113683,-2171347",
    "name": "Mertzig",
    "local_name": "Mertzig",
    "name_en": null,
    "all_tags": {
      "name": "Mertzig",
      "name:de": "Mertzig",
      "name:fr": "Mertzig",
      "name:lb": "Mäerzeg",
      "name:lt": "Mercigas",
      "boundary": "administrative",
      "way_area": "0.0013866",
      "wikidata": "Q685611",
      "wikipedia": "lb:Gemeng Mäerzeg",
      "admin_level": "8"
    }
  },
  {
    "osm_id": -1113658,
    "boundary": "administrative",
    "admin_level": 8,
    "parents": "-1113683,-2171347",
    "name": "Diekirch",
    "local_name": "Diekirch",
    "name_en": null,
    "all_tags": {
      "name": "Diekirch",
      "name:de": "Diekirch",
      "name:fr": "Diekirch",
      "name:lb": "Dikrech",
      "name:lt": "Dykirchas",
      "boundary": "administrative",
      "way_area": "0.00155938",
      "wikidata": "Q16050",
      "wikipedia": "lb:Gemeng Dikrech",
      "admin_level": "8",
      "alt_name:lb": "Dikkrich"
    }
  },
  {
    "osm_id": -1113657,
    "boundary": "administrative",
    "admin_level": 8,
    "parents": "-1113683,-2171347",
    "name": "Erpeldange-sur-Sûre",
    "local_name": "Erpeldange-sur-Sûre",
    "name_en": null,
    "all_tags": {
      "name": "Erpeldange-sur-Sûre",
      "name:de": "Erpeldingen an der Sauer",
      "name:fr": "Erpeldange-sur-Sûre",
      "name:lb": "Ierpeldeng op der Sauer",
      "name:lt": "Erpeldanžas prie Zauerio",
      "boundary": "administrative",
      "way_area": "0.0022414",
      "wikidata": "Q986403",
      "wikipedia": "lb:Gemeng Ierpeldeng",
      "admin_level": "8"
    }
  },
  {
    "osm_id": -1113599,
    "boundary": "administrative",
    "admin_level": 8,
    "parents": "-1113683,-2171347",
    "name": "Vallée de l'Ernz",
    "local_name": "Vallée de l'Ernz",
    "name_en": null,
    "all_tags": {
      "name": "Vallée de l'Ernz",
      "name:de": "Ernztalgemeinde",
      "name:fr": "Vallée de l'Ernz",
      "name:lb": "Ärenzdallgemeng",
      "boundary": "administrative",
      "way_area": "0.00498553",
      "wikidata": "Q1313580",
      "wikipedia": "lb:Ärenzdallgemeng",
      "admin_level": "8"
    }
  },
  {
    "osm_id": -569742,
    "boundary": "administrative",
    "admin_level": 8,
    "parents": "-407792,-2171347",
    "name": "Waldbillig",
    "local_name": "Waldbillig",
    "name_en": null,
    "all_tags": {
      "name": "Waldbillig",
      "name:de": "Waldbillig",
      "name:fr": "Waldbillig",
      "name:lb": "Waldbëlleg",
      "boundary": "administrative",
      "way_area": "0.00290064",
      "wikidata": "Q1017412",
      "wikipedia": "lb:Gemeng Waldbëlleg",
      "admin_level": "8"
    }
  },
  {
    "osm_id": -569741,
    "boundary": "administrative",
    "admin_level": 8,
    "parents": "-407792,-2171347",
    "name": "Echternach",
    "local_name": "Echternach",
    "name_en": null,
    "all_tags": {
      "name": "Echternach",
      "name:de": "Echternach",
      "name:fr": "Echternach",
      "name:lb": "Iechternach",
      "boundary": "administrative",
      "way_area": "0.00255028",
      "wikidata": "Q204317",
      "wikipedia": "lb:Gemeng Iechternach",
      "admin_level": "8"
    }
  },
  {
    "osm_id": -569739,
    "boundary": "administrative",
    "admin_level": 8,
    "parents": "-407792,-2171347",
    "name": "Rosport-Mompach",
    "local_name": "Rosport-Mompach",
    "name_en": null,
    "all_tags": {
      "name": "Rosport-Mompach",
      "name:de": "Rosport-Mompach",
      "name:fr": "Rosport-Mompach",
      "name:lb": "Rouspert-Mompech",
      "boundary": "administrative",
      "way_area": "0.00707192",
      "wikidata": "Q31734921",
      "wikipedia": "lb:Gemeng Rouspert-Mompech",
      "admin_level": "8"
    }
  },
  {
    "osm_id": -569738,
    "boundary": "administrative",
    "admin_level": 8,
    "parents": "-1113683,-2171347",
    "name": "Reisdorf",
    "local_name": "Reisdorf",
    "name_en": null,
    "all_tags": {
      "name": "Reisdorf",
      "name:de": "Reisdorf",
      "name:fr": "Reisdorf",
      "name:lb": "Reisduerf",
      "boundary": "administrative",
      "way_area": "0.00184587",
      "wikidata": "Q985196",
      "wikipedia": "lb:Gemeng Reisduerf",
      "admin_level": "8"
    }
  },
  {
    "osm_id": -569737,
    "boundary": "administrative",
    "admin_level": 8,
    "parents": "-407792,-2171347",
    "name": "Berdorf",
    "local_name": "Berdorf",
    "name_en": null,
    "all_tags": {
      "name": "Berdorf",
      "name:de": "Berdorf",
      "name:fr": "Berdorf",
      "name:lb": "Bäerdref",
      "boundary": "administrative",
      "way_area": "0.00273967",
      "wikidata": "Q818891",
      "wikipedia": "lb:Gemeng Bäerdref",
      "admin_level": "8"
    }
  },
  {
    "osm_id": -569736,
    "boundary": "administrative",
    "admin_level": 8,
    "parents": "-407792,-2171347",
    "name": "Bech",
    "local_name": "Bech",
    "name_en": null,
    "all_tags": {
      "name": "Bech",
      "name:de": "Bech",
      "name:fr": "Bech",
      "name:lb": "Bech",
      "boundary": "administrative",
      "ref:lau2": "1002",
      "way_area": "0.00292325",
      "wikidata": "Q813593",
      "wikipedia": "lb:Gemeng Bech",
      "admin_level": "8"
    }
  },
  {
    "osm_id": -569735,
    "boundary": "administrative",
    "admin_level": 8,
    "parents": "-407792,-2171347",
    "name": "Consdorf",
    "local_name": "Consdorf",
    "name_en": null,
    "all_tags": {
      "name": "Consdorf",
      "name:de": "Consdorf",
      "name:fr": "Consdorf",
      "name:lb": "Konsdref",
      "boundary": "administrative",
      "way_area": "0.00323966",
      "wikidata": "Q660217",
      "wikipedia": "lb:Gemeng Konsdref",
      "admin_level": "8"
    }
  },
  {
    "osm_id": -569734,
    "boundary": "administrative",
    "admin_level": 8,
    "parents": "-407792,-2171347",
    "name": "Beaufort",
    "local_name": "Beaufort",
    "name_en": null,
    "all_tags": {
      "name": "Beaufort",
      "name:de": "Befort",
      "name:fr": "Beaufort",
      "name:lb": "Befort",
      "boundary": "administrative",
      "way_area": "0.00171929",
      "wikidata": "Q18693153",
      "wikipedia": "lb:Gemeng Beefort",
      "admin_level": "8"
    }
  },
  {
    "osm_id": -532178,
    "boundary": "administrative",
    "admin_level": 8,
    "parents": "-407796,-2171347",
    "name": "Mertert",
    "local_name": "Mertert",
    "name_en": null,
    "all_tags": {
      "name": "Mertert",
      "name:de": "Mertert",
      "name:fr": "Mertert",
      "name:lb": "Mäertert",
      "boundary": "administrative",
      "way_area": "0.00187755",
      "wikidata": "Q985387",
      "wikipedia": "lb:Gemeng Mäertert",
      "admin_level": "8"
    }
  },
  {
    "osm_id": -532177,
    "boundary": "administrative",
    "admin_level": 8,
    "parents": "-407796,-2171347",
    "name": "Manternach",
    "local_name": "Manternach",
    "name_en": null,
    "all_tags": {
      "name": "Manternach",
      "name:de": "Manternach",
      "name:fr": "Manternach",
      "name:lb": "Manternach",
      "boundary": "administrative",
      "way_area": "0.00347282",
      "wikidata": "Q985479",
      "wikipedia": "lb:Gemeng Manternach",
      "admin_level": "8"
    }
  },
  {
    "osm_id": -532144,
    "boundary": "administrative",
    "admin_level": 8,
    "parents": "-407796,-2171347",
    "name": "Biwer",
    "local_name": "Biwer",
    "name_en": null,
    "all_tags": {
      "name": "Biwer",
      "name:de": "Biwer",
      "name:fr": "Biwer",
      "name:lb": "Biwer",
      "name:lt": "Biveris",
      "boundary": "administrative",
      "way_area": "0.00287101",
      "wikidata": "Q376454",
      "wikipedia": "lb:Gemeng Biwer",
      "admin_level": "8"
    }
  },
  {
    "osm_id": -532143,
    "boundary": "administrative",
    "admin_level": 8,
    "parents": "-407796,-2171347",
    "name": "Junglinster",
    "local_name": "Junglinster",
    "name_en": null,
    "all_tags": {
      "name": "Junglinster",
      "name:de": "Junglinster",
      "name:fr": "Junglinster",
      "name:lb": "Jonglënster",
      "boundary": "administrative",
      "way_area": "0.00694564",
      "wikidata": "Q1017404",
      "wikipedia": "lb:Gemeng Jonglënster",
      "admin_level": "8"
    }
  },
  {
    "osm_id": -532142,
    "boundary": "administrative",
    "admin_level": 8,
    "parents": "-407796,-2171347",
    "name": "Betzdorf",
    "local_name": "Betzdorf",
    "name_en": null,
    "all_tags": {
      "name": "Betzdorf",
      "name:de": "Betzdorf",
      "name:fr": "Betzdorf",
      "name:lb": "Betzder",
      "boundary": "administrative",
      "way_area": "0.00326271",
      "wikidata": "Q850734",
      "wikipedia": "lb:Gemeng Betzder",
      "admin_level": "8"
    }
  },
  {
    "osm_id": -532141,
    "boundary": "administrative",
    "admin_level": 8,
    "parents": "-407796,-2171347",
    "name": "Grevenmacher",
    "local_name": "Grevenmacher",
    "name_en": null,
    "all_tags": {
      "name": "Grevenmacher",
      "name:de": "Grevenmacher",
      "name:fr": "Grevenmacher",
      "name:lb": "Gréiwemaacher",
      "boundary": "administrative",
      "ref:lau2": "1104",
      "way_area": "0.00203592",
      "wikidata": "Q215826",
      "wikipedia": "lb:Gemeng Gréiwemaacher",
      "admin_level": "8"
    }
  },
  {
    "osm_id": -532140,
    "boundary": "administrative",
    "admin_level": 8,
    "parents": "-407796,-2171347",
    "name": "Flaxweiler",
    "local_name": "Flaxweiler",
    "name_en": null,
    "all_tags": {
      "name": "Flaxweiler",
      "name:de": "Flaxweiler",
      "name:fr": "Flaxweiler",
      "name:lb": "Fluessweiler",
      "name:lt": "Flaksvaileris",
      "boundary": "administrative",
      "ref:lau2": "1103",
      "way_area": "0.00375632",
      "wikidata": "Q1017425",
      "wikipedia": "lb:Gemeng Fluessweiler",
      "admin_level": "8",
      "wikimedia_commons": "Category:Flaxweiler"
    }
  },
  {
    "osm_id": -532139,
    "boundary": "administrative",
    "admin_level": 8,
    "parents": "-407796,-2171347",
    "name": "Wormeldange",
    "local_name": "Wormeldange",
    "name_en": null,
    "all_tags": {
      "name": "Wormeldange",
      "name:de": "Wormeldingen",
      "name:fr": "Wormeldange",
      "name:lb": "Wuermeldeng",
      "name:lt": "Vormeldanžas",
      "boundary": "administrative",
      "ref:lau2": "1108",
      "way_area": "0.00207815",
      "wikidata": "Q985399",
      "wikipedia": "lb:Gemeng Wuermeldeng",
      "admin_level": "8",
      "alt_name:lb": "Wormer"
    }
  },
  {
    "osm_id": -411392,
    "boundary": "administrative",
    "admin_level": 8,
    "parents": "-407824,-2171347",
    "name": "Walferdange",
    "local_name": "Walferdange",
    "name_en": null,
    "all_tags": {
      "name": "Walferdange",
      "name:de": "Walferdingen",
      "name:fr": "Walferdange",
      "name:lb": "Walfer",
      "name:lt": "Valferdanžas",
      "boundary": "administrative",
      "ref:lau2": "0310",
      "way_area": "0.00087785",
      "wikidata": "Q917508",
      "wikipedia": "lb:Gemeng Walfer",
      "admin_level": "8"
    }
  },
  {
    "osm_id": -411391,
    "boundary": "administrative",
    "admin_level": 8,
    "parents": "-407824,-2171347",
    "name": "Steinsel",
    "local_name": "Steinsel",
    "name_en": null,
    "all_tags": {
      "name": "Steinsel",
      "name:de": "Steinsel",
      "name:fr": "Steinsel",
      "name:lb": "Steesel",
      "boundary": "administrative",
      "ref:lau2": "0308",
      "way_area": "0.00272739",
      "wikidata": "Q985149",
      "wikipedia": "lb:Gemeng Steesel",
      "admin_level": "8"
    }
  },
  {
    "osm_id": -411375,
    "boundary": "administrative",
    "admin_level": 8,
    "parents": "-407824,-2171347",
    "name": "Niederanven",
    "local_name": "Niederanven",
    "name_en": null,
    "all_tags": {
      "name": "Niederanven",
      "name:de": "Niederanwen",
      "name:fr": "Niederanven",
      "name:lb": "Nidderanven",
      "name:lt": "Nyderanvenas",
      "boundary": "administrative",
      "ref:lau2": "0305",
      "way_area": "0.00516814",
      "wikidata": "Q985402",
      "wikipedia": "lb:Gemeng Nidderaanwen",
      "admin_level": "8"
    }
  },
  {
    "osm_id": -411374,
    "boundary": "administrative",
    "admin_level": 8,
    "parents": "-407824,-2171347",
    "name": "Schuttrange",
    "local_name": "Schuttrange",
    "name_en": null,
    "all_tags": {
      "name": "Schuttrange",
      "name:de": "Schüttringen",
      "name:fr": "Schuttrange",
      "name:lb": "Schëtter",
      "name:lt": "Šutranžas",
      "boundary": "administrative",
      "ref:lau2": "0307",
      "way_area": "0.00201185",
      "wikidata": "Q956489",
      "wikipedia": "lb:Gemeng Schëtter",
      "admin_level": "8"
    }
  },
  {
    "osm_id": -411354,
    "boundary": "administrative",
    "admin_level": 8,
    "parents": "-407824,-2171347",
    "name": "Contern",
    "local_name": "Contern",
    "name_en": null,
    "all_tags": {
      "name": "Contern",
      "name:de": "Contern",
      "name:fr": "Contern",
      "name:lb": "Conter",
      "boundary": "administrative",
      "way_area": "0.00258734",
      "wikidata": "Q596040",
      "wikipedia": "lb:Gemeng Conter",
      "admin_level": "8",
      "wikimedia_commons": "Category:Contern"
    }
  },
  {
    "osm_id": -411344,
    "boundary": "administrative",
    "admin_level": 8,
    "parents": "-407824,-2171347",
    "name": "Sandweiler",
    "local_name": "Sandweiler",
    "name_en": null,
    "all_tags": {
      "name": "Sandweiler",
      "name:de": "Sandweiler",
      "name:fr": "Sandweiler",
      "name:lb": "Sandweiler",
      "boundary": "administrative",
      "ref:lau2": "0306",
      "way_area": "0.000964827",
      "wikidata": "Q985476",
      "wikipedia": "lb:Gemeng Sandweiler",
      "admin_level": "8",
      "wikimedia_commons": "Category:Sandweiler"
    }
  },
  {
    "osm_id": -410954,
    "boundary": "administrative",
    "admin_level": 8,
    "parents": "-407824,-2171347",
    "name": "Weiler-la-Tour",
    "local_name": "Weiler-la-Tour",
    "name_en": null,
    "all_tags": {
      "name": "Weiler-la-Tour",
      "name:de": "Weiler zum Turm",
      "name:fr": "Weiler-la-Tour",
      "name:lb": "Weiler zum Tuer",
      "boundary": "administrative",
      "way_area": "0.00212612",
      "wikidata": "Q985390",
      "wikipedia": "lb:Gemeng Weiler zum Tuer",
      "admin_level": "8",
      "wikimedia_commons": "Category:Weiler-la-Tour"
    }
  },
  {
    "osm_id": -410953,
    "boundary": "administrative",
    "admin_level": 8,
    "parents": "-407824,-2171347",
    "name": "Hesperange",
    "local_name": "Hesperange",
    "name_en": null,
    "all_tags": {
      "name": "Hesperange",
      "name:de": "Hesperingen",
      "name:fr": "Hesperange",
      "name:lb": "Hesper",
      "name:lt": "Hesperanžas",
      "boundary": "administrative",
      "way_area": "0.00340453",
      "wikidata": "Q921321",
      "wikipedia": "lb:Gemeng Hesper",
      "admin_level": "8"
    }
  },
  {
    "osm_id": -407950,
    "boundary": "administrative",
    "admin_level": 8,
    "parents": "-407824,-2171347",
    "name": "Bertrange",
    "local_name": "Bertrange",
    "name_en": null,
    "all_tags": {
      "name": "Bertrange",
      "name:de": "Bartringen",
      "name:fr": "Bertrange",
      "name:lb": "Bartreng",
      "name:lt": "Bertranžas",
      "boundary": "administrative",
      "ref:lau2": "0301",
      "way_area": "0.00214714",
      "wikidata": "Q809603",
      "wikipedia": "lb:Gemeng Bartreng",
      "admin_level": "8"
    }
  },
  {
    "osm_id": -407944,
    "boundary": "administrative",
    "admin_level": 8,
    "parents": "-407824,-2171347",
    "name": "Strassen",
    "local_name": "Strassen",
    "name_en": null,
    "all_tags": {
      "name": "Strassen",
      "name:de": "Strassen",
      "name:fr": "Strassen",
      "name:lb": "Stroossen",
      "name:lt": "Štrasenas",
      "boundary": "administrative",
      "ref:lau2": "0309",
      "way_area": "0.00131988",
      "wikidata": "Q986400",
      "wikipedia": "lb:Stroossen",
      "admin_level": "8"
    }
  },
  {
    "osm_id": -407937,
    "boundary": "administrative",
    "admin_level": 8,
    "parents": "-407813,-2171347",
    "name": "Mamer",
    "local_name": "Mamer",
    "name_en": null,
    "all_tags": {
      "name": "Mamer",
      "name:de": "Mamer",
      "name:fr": "Mamer",
      "name:lb": "Mamer",
      "boundary": "administrative",
      "way_area": "0.00346155",
      "wikidata": "Q921291",
      "wikipedia": "lb:Gemeng Mamer",
      "admin_level": "8"
    }
  },
  {
    "osm_id": -407931,
    "boundary": "administrative",
    "admin_level": 8,
    "parents": "-407813,-2171347",
    "name": "Kopstal",
    "local_name": "Kopstal",
    "name_en": null,
    "all_tags": {
      "name": "Kopstal",
      "name:de": "Kopstal",
      "name:fr": "Kopstal",
      "name:lb": "Koplescht",
      "boundary": "administrative",
      "ref:lau2": "0107",
      "way_area": "0.000999555",
      "wikidata": "Q985477",
      "wikipedia": "lb:Gemeng Koplescht",
      "admin_level": "8"
    }
  },
  {
    "osm_id": -407924,
    "boundary": "administrative",
    "admin_level": 8,
    "parents": "-407813,-2171347",
    "name": "Kehlen",
    "local_name": "Kehlen",
    "name_en": null,
    "all_tags": {
      "name": "Kehlen",
      "name:de": "Kehlen",
      "name:fr": "Kehlen",
      "name:lb": "Kielen",
      "boundary": "administrative",
      "way_area": "0.00355561",
      "wikidata": "Q432495",
      "wikipedia": "lb:Gemeng Kielen",
      "admin_level": "8"
    }
  },
  {
    "osm_id": -407913,
    "boundary": "administrative",
    "admin_level": 8,
    "parents": "-1113898,-2171347",
    "name": "Roeser",
    "local_name": "Roeser",
    "name_en": null,
    "all_tags": {
      "name": "Roeser",
      "name:de": "Roeser",
      "name:fr": "Roeser",
      "name:lb": "Réiser",
      "boundary": "administrative",
      "way_area": "0.00298932",
      "wikidata": "Q683922",
      "wikipedia": "lb:Gemeng Réiser",
      "admin_level": "8"
    }
  },
  {
    "osm_id": -407896,
    "boundary": "administrative",
    "admin_level": 8,
    "parents": "-1113898,-2171347",
    "name": "Bettembourg",
    "local_name": "Bettembourg",
    "name_en": null,
    "all_tags": {
      "name": "Bettembourg",
      "name:de": "Bettemburg",
      "name:fr": "Bettembourg",
      "name:lb": "Beetebuerg",
      "name:lt": "Betembūras",
      "boundary": "administrative",
      "way_area": "0.00268216",
      "wikidata": "Q832342",
      "wikipedia": "lb:Gemeng Beetebuerg",
      "admin_level": "8"
    }
  },
  {
    "osm_id": -407895,
    "boundary": "administrative",
    "admin_level": 8,
    "parents": "-407813,-2171347",
    "name": "Dippach",
    "local_name": "Dippach",
    "name_en": null,
    "all_tags": {
      "name": "Dippach",
      "name:de": "Dippach",
      "name:fr": "Dippach",
      "name:lb": "Dippech",
      "boundary": "administrative",
      "way_area": "0.00214619",
      "wikidata": "Q426998",
      "wikipedia": "lb:Gemeng Dippech",
      "admin_level": "8"
    }
  },
  {
    "osm_id": -407885,
    "boundary": "administrative",
    "admin_level": 8,
    "parents": "-407813,-2171347",
    "name": "Käerjeng",
    "local_name": "Käerjeng",
    "name_en": null,
    "all_tags": {
      "name": "Käerjeng",
      "name:fr": "Käerjeng",
      "name:lb": "Käerjeng",
      "name:lt": "Kaeržengas",
      "name:ru": "Кэрьенг",
      "boundary": "administrative",
      "way_area": "0.00418996",
      "wikidata": "Q776642",
      "wikipedia": "lb:Gemeng Käerjeng",
      "admin_level": "8"
    }
  },
  {
    "osm_id": -407865,
    "boundary": "administrative",
    "admin_level": 8,
    "parents": "-407813,-2171347",
    "name": "Garnich",
    "local_name": "Garnich",
    "name_en": null,
    "all_tags": {
      "name": "Garnich",
      "name:de": "Garnich",
      "name:fr": "Garnich",
      "name:lb": "Garnech",
      "name:ru": "Гарних",
      "boundary": "administrative",
      "way_area": "0.00260425",
      "wikidata": "Q985388",
      "wikipedia": "lb:Gemeng Garnech",
      "admin_level": "8"
    }
  },
  {
    "osm_id": -407858,
    "boundary": "administrative",
    "admin_level": 8,
    "parents": "-407813,-2171347",
    "name": "Koerich",
    "local_name": "Koerich",
    "name_en": null,
    "all_tags": {
      "name": "Koerich",
      "name:de": "Koerich",
      "name:fr": "Koerich",
      "name:lb": "Käerch",
      "boundary": "administrative",
      "way_area": "0.00236624",
      "wikidata": "Q985471",
      "wikipedia": "lb:Gemeng Käerch",
      "admin_level": "8"
    }
  },
  {
    "osm_id": -407857,
    "boundary": "administrative",
    "admin_level": 8,
    "parents": "-407813,-2171347",
    "name": "Steinfort",
    "local_name": "Steinfort",
    "name_en": null,
    "all_tags": {
      "name": "Steinfort",
      "name:de": "Steinfort",
      "name:fr": "Steinfort",
      "name:lb": "Stengefort",
      "name:lt": "Šteinfortas",
      "name:ru": "Штайнфорт",
      "boundary": "administrative",
      "way_area": "0.00151663",
      "wikidata": "Q985478",
      "wikipedia": "lb:Gemeng Stengefort",
      "admin_level": "8"
    }
  },
  {
    "osm_id": -407841,
    "boundary": "administrative",
    "admin_level": 8,
    "parents": "-407813,-2171347",
    "name": "Habscht",
    "local_name": "Habscht",
    "name_en": null,
    "all_tags": {
      "name": "Habscht",
      "name:de": "Habscht",
      "name:fr": "Habscht",
      "name:lb": "Habscht",
      "name:lt": "Hobšeidas",
      "boundary": "administrative",
      "way_area": "0.00405987",
      "wikidata": "Q958682",
      "wikipedia": "lb:Gemeng Habscht",
      "admin_level": "8"
    }
  },
  {
    "osm_id": -407778,
    "boundary": "administrative",
    "admin_level": 8,
    "parents": "-407799,-2171347",
    "name": "Lenningen",
    "local_name": "Lenningen",
    "name_en": null,
    "all_tags": {
      "name": "Lenningen",
      "name:de": "Lenningen",
      "name:fr": "Lenningen",
      "name:lb": "Lenneng",
      "name:lt": "Leningenas",
      "boundary": "administrative",
      "ref:lau2": "1203",
      "way_area": "0.00255145",
      "wikidata": "Q1017410",
      "wikipedia": "lb:Gemeng Lenneng",
      "admin_level": "8"
    }
  },
  {
    "osm_id": -407741,
    "boundary": "administrative",
    "admin_level": 8,
    "parents": "-407799,-2171347",
    "name": "Schengen",
    "local_name": "Schengen",
    "name_en": null,
    "all_tags": {
      "name": "Schengen",
      "name:ar": "شنغن",
      "name:de": "Schengen",
      "name:fr": "Schengen",
      "name:lb": "Schengen",
      "name:lt": "Šengenas",
      "boundary": "administrative",
      "way_area": "0.00387369",
      "wikidata": "Q183841",
      "wikipedia": "lb:Gemeng Schengen",
      "admin_level": "8"
    }
  },
  {
    "osm_id": -407732,
    "boundary": "administrative",
    "admin_level": 8,
    "parents": "-407799,-2171347",
    "name": "Mondorf-les-Bains",
    "local_name": "Mondorf-les-Bains",
    "name_en": null,
    "all_tags": {
      "name": "Mondorf-les-Bains",
      "name:de": "Bad Mondorf",
      "name:fr": "Mondorf-les-Bains",
      "name:lb": "Munneref",
      "name:lt": "Mondorf le Benas",
      "boundary": "administrative",
      "way_area": "0.00168733",
      "wikidata": "Q798747",
      "wikipedia": "lb:Gemeng Munneref",
      "admin_level": "8"
    }
  },
  {
    "osm_id": -407503,
    "boundary": "administrative",
    "admin_level": 8,
    "parents": "-407799,-2171347",
    "name": "Remich",
    "local_name": "Remich",
    "name_en": null,
    "all_tags": {
      "name": "Remich",
      "name:de": "Remich",
      "name:fr": "Remich",
      "name:lb": "Réimech",
      "name:lt": "Rėmichas",
      "boundary": "administrative",
      "way_area": "0.000634853",
      "wikidata": "Q734284",
      "wikipedia": "lb:Gemeng Réimech",
      "admin_level": "8"
    }
  },
  {
    "osm_id": -407502,
    "boundary": "administrative",
    "admin_level": 8,
    "parents": "-407799,-2171347",
    "name": "Stadtbredimus",
    "local_name": "Stadtbredimus",
    "name_en": null,
    "all_tags": {
      "name": "Stadtbredimus",
      "name:de": "Stadtbredimus",
      "name:fr": "Stadtbredimus",
      "name:lb": "Briedemes",
      "boundary": "administrative",
      "way_area": "0.00122608",
      "wikidata": "Q1017400",
      "wikipedia": "lb:Gemeng Stadbriedemes",
      "admin_level": "8",
      "alt_name:lb": "Stadbriedemes"
    }
  },
  {
    "osm_id": -407501,
    "boundary": "administrative",
    "admin_level": 8,
    "parents": "-407799,-2171347",
    "name": "Bous",
    "local_name": "Bous",
    "name_en": null,
    "all_tags": {
      "name": "Bous",
      "name:de": "Bous",
      "name:fr": "Bous",
      "name:lb": "Bus",
      "boundary": "administrative",
      "way_area": "0.00191211",
      "wikidata": "Q895269",
      "wikipedia": "lb:Gemeng Bus",
      "admin_level": "8"
    }
  },
  {
    "osm_id": -407500,
    "boundary": "administrative",
    "admin_level": 8,
    "parents": "-407799,-2171347",
    "name": "Waldbredimus",
    "local_name": "Waldbredimus",
    "name_en": null,
    "all_tags": {
      "name": "Waldbredimus",
      "name:de": "Waldbredimus",
      "name:fr": "Waldbredimus",
      "name:lb": "Waldbriedemes",
      "boundary": "administrative",
      "way_area": "0.00156611",
      "wikidata": "Q1017407",
      "wikipedia": "lb:Gemeng Waldbriedemes",
      "admin_level": "8"
    }
  },
  {
    "osm_id": -407499,
    "boundary": "administrative",
    "admin_level": 8,
    "parents": "-407799,-2171347",
    "name": "Dalheim",
    "local_name": "Dalheim",
    "name_en": null,
    "all_tags": {
      "name": "Dalheim",
      "name:de": "Dalheim",
      "name:fr": "Dalheim",
      "name:la": "Ricciacum",
      "name:lb": "Duelem",
      "boundary": "administrative",
      "way_area": "0.00238184",
      "wikidata": "Q986412",
      "wikipedia": "lb:Gemeng Duelem",
      "admin_level": "8"
    }
  },
  {
    "osm_id": -407489,
    "boundary": "administrative",
    "admin_level": 8,
    "parents": "-407824,-2171347",
    "name": "Luxembourg",
    "local_name": "Luxembourg",
    "name_en": "Luxembourg",
    "all_tags": {
      "name": "Luxembourg",
      "name:de": "Luxemburg",
      "name:en": "Luxembourg",
      "name:es": "Luxemburgo",
      "name:fr": "Luxembourg",
      "name:lb": "Lëtzebuerg",
      "name:lt": "Liuksemburgas",
      "boundary": "administrative",
      "ref:lau2": "0304",
      "way_area": "0.00643586",
      "wikidata": "Q1842",
      "wikipedia": "lb:Lëtzebuerg (Stad)",
      "admin_level": "8"
    }
  },
  {
    "osm_id": -407475,
    "boundary": "administrative",
    "admin_level": 8,
    "parents": "-1113898,-2171347",
    "name": "Pétange",
    "local_name": "Pétange",
    "name_en": null,
    "all_tags": {
      "name": "Pétange",
      "name:de": "Petingen",
      "name:fr": "Pétange",
      "name:lb": "Péiteng",
      "name:lt": "Petanžas",
      "name:ru": "Петанж",
      "boundary": "administrative",
      "way_area": "0.00148638",
      "wikidata": "Q602441",
      "wikipedia": "lb:Gemeng Péiteng",
      "admin_level": "8"
    }
  },
  {
    "osm_id": -407474,
    "boundary": "administrative",
    "admin_level": 8,
    "parents": "-1113898,-2171347",
    "name": "Differdange",
    "local_name": "Differdange",
    "name_en": null,
    "all_tags": {
      "name": "Differdange",
      "name:de": "Differdingen",
      "name:fr": "Differdange",
      "name:lb": "Déifferdeng",
      "name:lt": "Diferdanžas",
      "boundary": "administrative",
      "way_area": "0.00275938",
      "wikidata": "Q16012",
      "wikipedia": "lb:Gemeng Déifferdeng",
      "admin_level": "8",
      "alt_name:lb": "Déifferdang",
      "wikimedia_commons": "Category:Differdange"
    }
  },
  {
    "osm_id": -407473,
    "boundary": "administrative",
    "admin_level": 8,
    "parents": "-1113898,-2171347",
    "name": "Sanem",
    "local_name": "Sanem",
    "name_en": null,
    "all_tags": {
      "name": "Sanem",
      "name:de": "Sassenheim",
      "name:fr": "Sanem",
      "name:lb": "Suessem",
      "name:lt": "Sanemas",
      "boundary": "administrative",
      "way_area": "0.00304145",
      "wikidata": "Q677804",
      "wikipedia": "lb:Gemeng Suessem",
      "admin_level": "8"
    }
  },
  {
    "osm_id": -407468,
    "boundary": "administrative",
    "admin_level": 8,
    "parents": "-1113898,-2171347",
    "name": "Reckange-sur-Mess",
    "local_name": "Reckange-sur-Mess",
    "name_en": null,
    "all_tags": {
      "name": "Reckange-sur-Mess",
      "name:de": "Reckingen/Mess",
      "name:fr": "Reckange-sur-Mess",
      "name:lb": "Recken op der Mess",
      "name:lt": "Rekanžas prie Meso",
      "boundary": "administrative",
      "ref:lau2": "0210",
      "way_area": "0.00255297",
      "wikidata": "Q783026",
      "wikipedia": "lb:Gemeng Reckeng op der Mess",
      "admin_level": "8"
    }
  },
  {
    "osm_id": -407467,
    "boundary": "administrative",
    "admin_level": 8,
    "parents": "-1113898,-2171347",
    "name": "Leudelange",
    "local_name": "Leudelange",
    "name_en": null,
    "all_tags": {
      "name": "Leudelange",
      "name:de": "Leudelingen",
      "name:fr": "Leudelange",
      "name:lb": "Leideleng",
      "boundary": "administrative",
      "ref:lau2": "0207",
      "way_area": "0.00169878",
      "wikidata": "Q985382",
      "wikipedia": "lb:Gemeng Leideleng",
      "admin_level": "8"
    }
  },
  {
    "osm_id": -407465,
    "boundary": "administrative",
    "admin_level": 8,
    "parents": "-1113898,-2171347",
    "name": "Frisange",
    "local_name": "Frisange",
    "name_en": null,
    "all_tags": {
      "name": "Frisange",
      "name:de": "Frisingen",
      "name:fr": "Frisange",
      "name:lb": "Fréiseng",
      "name:lt": "Frisanžas",
      "boundary": "administrative",
      "way_area": "0.00227983",
      "wikidata": "Q1017402",
      "wikipedia": "lb:Gemeng Fréiseng",
      "admin_level": "8"
    }
  },
  {
    "osm_id": -407453,
    "boundary": "administrative",
    "admin_level": 8,
    "parents": "-1113898,-2171347",
    "name": "Dudelange",
    "local_name": "Dudelange",
    "name_en": null,
    "all_tags": {
      "name": "Dudelange",
      "name:de": "Düdelingen",
      "name:fr": "Dudelange",
      "name:it": "Dudelange",
      "name:lb": "Diddeleng",
      "name:lt": "Diudelanžas",
      "boundary": "administrative",
      "way_area": "0.00265684",
      "wikidata": "Q16014",
      "wikipedia": "lb:Gemeng Diddeleng",
      "admin_level": "8"
    }
  },
  {
    "osm_id": -407452,
    "boundary": "administrative",
    "admin_level": 8,
    "parents": "-1113898,-2171347",
    "name": "Kayl",
    "local_name": "Kayl",
    "name_en": null,
    "all_tags": {
      "name": "Kayl",
      "name:de": "Kayl",
      "name:fr": "Kayl",
      "name:lb": "Keel",
      "name:lt": "Kelis",
      "boundary": "administrative",
      "way_area": "0.00184487",
      "wikidata": "Q939625",
      "wikipedia": "lb:Gemeng Keel",
      "admin_level": "8",
      "alt_name:lb": "Käl",
      "wikimedia_commons": "Category:Kayl"
    }
  },
  {
    "osm_id": -407448,
    "boundary": "administrative",
    "admin_level": 8,
    "parents": "-1113898,-2171347",
    "name": "Rumelange",
    "local_name": "Rumelange",
    "name_en": null,
    "all_tags": {
      "name": "Rumelange",
      "name:de": "Rümelingen",
      "name:fr": "Rumelange",
      "name:lb": "Rëmeleng",
      "name:lt": "Riumelanžas",
      "boundary": "administrative",
      "way_area": "0.000848565",
      "wikidata": "Q914847",
      "wikipedia": "lb:Gemeng Rëmeleng",
      "admin_level": "8"
    }
  },
  {
    "osm_id": -407434,
    "boundary": "administrative",
    "admin_level": 8,
    "parents": "-1113898,-2171347",
    "name": "Schifflange",
    "local_name": "Schifflange",
    "name_en": null,
    "all_tags": {
      "name": "Schifflange",
      "name:de": "Schifflingen",
      "name:fr": "Schifflange",
      "name:lb": "Schëffleng",
      "name:lt": "Šiflanžas",
      "boundary": "administrative",
      "way_area": "0.000963345",
      "wikidata": "Q669155",
      "wikipedia": "lb:Gemeng Schëffleng",
      "admin_level": "8"
    }
  },
  {
    "osm_id": -407433,
    "boundary": "administrative",
    "admin_level": 8,
    "parents": "-1113898,-2171347",
    "name": "Mondercange",
    "local_name": "Mondercange",
    "name_en": null,
    "all_tags": {
      "name": "Mondercange",
      "name:de": "Monnerich",
      "name:fr": "Mondercange",
      "name:lb": "Monnerech",
      "name:lt": "Monderkanžas",
      "boundary": "administrative",
      "ref:lau2": "0208",
      "way_area": "0.00265856",
      "wikidata": "Q939598",
      "wikipedia": "lb:Gemeng Monnerech",
      "admin_level": "8"
    }
  },
  {
    "osm_id": -407419,
    "boundary": "administrative",
    "admin_level": 8,
    "parents": "-1113898,-2171347",
    "name": "Esch-sur-Alzette",
    "local_name": "Esch-sur-Alzette",
    "name_en": null,
    "all_tags": {
      "name": "Esch-sur-Alzette",
      "name:de": "Esch an der Alzette",
      "name:fr": "Esch-sur-Alzette",
      "name:lb": "Esch-Uelzecht",
      "name:lt": "Ešas prie Alzeto",
      "boundary": "administrative",
      "way_area": "0.00178725",
      "wikidata": "Q16010",
      "wikipedia": "lb:Gemeng Esch-Uelzecht",
      "admin_level": "8"
    }
  }
]
