[
  {
    "osm_id": -7510596,
    "boundary": "administrative",
    "admin_level": 8,
    "parents": "-10563355,-365307",
    "name": "Saint Paul's Bay",
    "local_name": "San Pawl il-Baħar",
    "name_en": "Saint Paul's Bay",
    "all_tags": {
      "name": "San Pawl il-Baħar",
      "name:ar": "البحر القديس بولس",
      "name:cs": "Záliv Sv. Pavla",
      "name:en": "Saint Paul's Bay",
      "name:es": "Bahía de San Pablo",
      "name:it": "Baia di San Paolo",
      "name:mt": "San Pawl il-Baħar",
      "name:ru": "Сент-Полс-Бэй",
      "boundary": "administrative",
      "way_area": "0.00144402",
      "wikidata": "Q39521",
      "ISO3166-2": "MT-51",
      "admin_level": "8"
    }
  },
  {
    "osm_id": -7510595,
    "boundary": "administrative",
    "admin_level": 8,
    "parents": "-10563355,-365307",
    "name": "Naxxar",
    "local_name": "In-Naxxar",
    "name_en": "Naxxar",
    "all_tags": {
      "name": "In-Naxxar",
      "name:ar": "الناشار",
      "name:en": "Naxxar",
      "name:it": "Nasciaro",
      "name:lt": "Našaras",
      "boundary": "administrative",
      "way_area": "0.00116898",
      "wikidata": "Q44397",
      "ISO3166-2": "MT-38",
      "admin_level": "8",
      "alt_name:ar": "ناكسار",
      "alt_name:it": "Naxaro;Casal Naxaro"
    }
  },
  {
    "osm_id": -7510594,
    "boundary": "administrative",
    "admin_level": 8,
    "parents": "-10563355,-365307",
    "name": "Mosta",
    "local_name": "Il-Mosta",
    "name_en": "Mosta",
    "all_tags": {
      "name": "Il-Mosta",
      "name:ar": "موستا",
      "name:en": "Mosta",
      "name:it": "Musta",
      "alt_name": "Mosta",
      "boundary": "administrative",
      "way_area": "0.000675633",
      "wikidata": "Q39520",
      "ISO3166-2": "MT-32",
      "admin_level": "8",
      "alt_name:it": "Casal Musta"
    }
  },
  {
    "osm_id": -7510593,
    "boundary": "administrative",
    "admin_level": 8,
    "parents": "-10567984,-365307",
    "name": "Lija",
    "local_name": "Ħal Lija",
    "name_en": "Lija",
    "all_tags": {
      "name": "Ħal Lija",
      "name:en": "Lija",
      "name:it": "Lia",
      "boundary": "administrative",
      "way_area": "0.000109591",
      "ISO3166-2": "MT-24",
      "admin_level": "8",
      "alt_name:it": "Casal Lia"
    }
  },
  {
    "osm_id": -7510592,
    "boundary": "administrative",
    "admin_level": 8,
    "parents": "-10563355,-365307",
    "name": "Gharghur",
    "local_name": "Ħal Għargħur",
    "name_en": "Gharghur",
    "all_tags": {
      "name": "Ħal Għargħur",
      "name:en": "Gharghur",
      "name:it": "Gargur",
      "alt_name": "Għargħur",
      "boundary": "administrative",
      "way_area": "0.000201315",
      "wikidata": "Q1018111",
      "ISO3166-2": "MT-15",
      "admin_level": "8",
      "alt_name:it": "Casal Gargur"
    }
  },
  {
    "osm_id": -7510591,
    "boundary": "administrative",
    "admin_level": 8,
    "parents": "-10563355,-365307",
    "name": "Swieqi",
    "local_name": "Is-Swieqi",
    "name_en": "Swieqi",
    "all_tags": {
      "name": "Is-Swieqi",
      "name:en": "Swieqi",
      "name:it": "Suiechi",
      "name:ru": "Свийи",
      "boundary": "administrative",
      "way_area": "0.000305964",
      "wikidata": "Q220667",
      "ISO3166-2": "MT-57",
      "admin_level": "8"
    }
  },
  {
    "osm_id": -7510590,
    "boundary": "administrative",
    "admin_level": 8,
    "parents": "-10563355,-365307",
    "name": "Pembroke",
    "local_name": "Pembroke",
    "name_en": null,
    "all_tags": {
      "name": "Pembroke",
      "name:ar": "بيمبروك",
      "name:it": "Pembroke",
      "boundary": "administrative",
      "way_area": "0.000228508",
      "wikidata": "Q775756",
      "ISO3166-2": "MT-40",
      "admin_level": "8"
    }
  },
  {
    "osm_id": -7510589,
    "boundary": "administrative",
    "admin_level": 8,
    "parents": "-10567984,-365307",
    "name": "Saint Julian's",
    "local_name": "San Ġiljan",
    "name_en": "Saint Julian's",
    "all_tags": {
      "name": "San Ġiljan",
      "name:en": "Saint Julian's",
      "name:es": "San Julián",
      "name:it": "San Giuliano",
      "name:mt": "San Ġiljan",
      "boundary": "administrative",
      "way_area": "0.000160205",
      "ISO3166-2": "MT-48",
      "admin_level": "8"
    }
  },
  {
    "osm_id": -7510588,
    "boundary": "administrative",
    "admin_level": 8,
    "parents": "-10567984,-365307",
    "name": "Gżira",
    "local_name": "Il-Gżira",
    "name_en": "Gżira",
    "all_tags": {
      "name": "Il-Gżira",
      "name:en": "Gżira",
      "name:it": "Gezira",
      "alt_name": "Gżira",
      "boundary": "administrative",
      "way_area": "9.73599e-05",
      "wikidata": "Q632097",
      "ISO3166-2": "MT-12",
      "admin_level": "8",
      "alt_name:en": "Gzira"
    }
  },
  {
    "osm_id": -7510587,
    "boundary": "administrative",
    "admin_level": 8,
    "parents": "-10567984,-365307",
    "name": "Saint John",
    "local_name": "San Ġwann",
    "name_en": "Saint John",
    "all_tags": {
      "name": "San Ġwann",
      "name:en": "Saint John",
      "name:it": "San Giovanni",
      "boundary": "administrative",
      "way_area": "0.000261762",
      "wikidata": "Q39507",
      "ISO3166-2": "MT-49",
      "admin_level": "8",
      "alt_name:it": "San Giovanni a Malta"
    }
  },
  {
    "osm_id": -7510586,
    "boundary": "administrative",
    "admin_level": 8,
    "parents": "-10567984,-365307",
    "name": "Iklin",
    "local_name": "L-Iklin",
    "name_en": "Iklin",
    "all_tags": {
      "name": "L-Iklin",
      "name:en": "Iklin",
      "name:it": "L'Iclin",
      "boundary": "administrative",
      "way_area": "0.000171923",
      "wikidata": "Q304589",
      "ISO3166-2": "MT-19",
      "admin_level": "8"
    }
  },
  {
    "osm_id": -7510585,
    "boundary": "administrative",
    "admin_level": 8,
    "parents": "-10567984,-365307",
    "name": "Birkirkara",
    "local_name": "Birkirkara",
    "name_en": null,
    "all_tags": {
      "name": "Birkirkara",
      "name:ar": "بئر كيركرة",
      "name:it": "Birchircara",
      "boundary": "administrative",
      "way_area": "0.000272875",
      "wikidata": "Q23059095",
      "ISO3166-2": "MT-04",
      "admin_level": "8",
      "alt_name:ar": "بيركيركارا",
      "alt_name:en": "B'Kara"
    }
  },
  {
    "osm_id": -7510584,
    "boundary": "administrative",
    "admin_level": 8,
    "parents": "-10567984,-365307",
    "name": "Msida",
    "local_name": "L-Imsida",
    "name_en": "Msida",
    "all_tags": {
      "name": "L-Imsida",
      "name:en": "Msida",
      "name:it": "Misida",
      "boundary": "administrative",
      "way_area": "0.000170615",
      "wikidata": "Q585187",
      "ISO3166-2": "MT-34",
      "admin_level": "8"
    }
  },
  {
    "osm_id": -7510583,
    "boundary": "administrative",
    "admin_level": 8,
    "parents": "-10567984,-365307",
    "name": "Ta' Xbiex",
    "local_name": "Ta' Xbiex",
    "name_en": null,
    "all_tags": {
      "name": "Ta' Xbiex",
      "boundary": "administrative",
      "way_area": "2.90635e-05",
      "wikidata": "Q1017348",
      "ISO3166-2": "MT-58",
      "admin_level": "8"
    }
  },
  {
    "osm_id": -7510582,
    "boundary": "administrative",
    "admin_level": 8,
    "parents": "-10567984,-365307",
    "name": "Pietà",
    "local_name": "Tal-Pietà",
    "name_en": "Pietà",
    "all_tags": {
      "name": "Tal-Pietà",
      "name:en": "Pietà",
      "name:it": "Pietà",
      "boundary": "administrative",
      "way_area": "4.52092e-05",
      "wikidata": "Q744070",
      "ISO3166-2": "MT-41",
      "admin_level": "8"
    }
  },
  {
    "osm_id": -7510581,
    "boundary": "administrative",
    "admin_level": 8,
    "parents": "-10558977,-365307",
    "name": "Floriana",
    "local_name": "Il-Furjana",
    "name_en": "Floriana",
    "all_tags": {
      "name": "Il-Furjana",
      "name:en": "Floriana",
      "name:it": "Floriana",
      "name:mt": "Il-Furjana",
      "alt_name": "Il-Floriana;Borgo Vilhena",
      "boundary": "administrative",
      "way_area": "9.48922e-05",
      "wikidata": "Q832807",
      "ISO3166-2": "MT-09",
      "admin_level": "8"
    }
  },
  {
    "osm_id": -7510580,
    "boundary": "administrative",
    "admin_level": 8,
    "parents": "-10558977,-365307",
    "name": "Valletta",
    "local_name": "Valletta",
    "name_en": "Valletta",
    "all_tags": {
      "name": "Valletta",
      "name:ar": "فاليتا",
      "name:en": "Valletta",
      "name:eo": "La-Valeto",
      "name:it": "La Valletta",
      "name:pt": "Valeta",
      "alt_name": "Il-Belt",
      "boundary": "administrative",
      "old_name": "Humilissima Civitas Valletta",
      "way_area": "8.38505e-05",
      "wikidata": "Q23800",
      "ISO3166-2": "MT-60",
      "admin_level": "8",
      "alt_name:ar": "فالتة;لا فاليتا",
      "old_name:it": "Città Umilissima"
    }
  },
  {
    "osm_id": -7510579,
    "boundary": "administrative",
    "admin_level": 8,
    "parents": "-10558977,-365307",
    "name": "Marsa",
    "local_name": "Il-Marsa",
    "name_en": "Marsa",
    "all_tags": {
      "name": "Il-Marsa",
      "name:ar": "المرسى",
      "name:en": "Marsa",
      "name:it": "Marsa",
      "boundary": "administrative",
      "way_area": "0.000278171",
      "ISO3166-2": "MT-26",
      "admin_level": "8",
      "alt_name:ar": "مرسى"
    }
  },
  {
    "osm_id": -7510578,
    "boundary": "administrative",
    "admin_level": 8,
    "parents": "-10558977,-365307",
    "name": "Senglea",
    "local_name": "L-Isla",
    "name_en": "Senglea",
    "all_tags": {
      "name": "L-Isla",
      "name:en": "Senglea",
      "name:it": "Senglea",
      "alt_name": "Isla;Città Invicta",
      "boundary": "administrative",
      "way_area": "1.62082e-05",
      "wikidata": "Q846593",
      "ISO3166-2": "MT-20",
      "admin_level": "8",
      "alt_name:en": "Città Invicta;Civitas Invicta",
      "alt_name:it": "Città Senglea"
    }
  },
  {
    "osm_id": -7510577,
    "boundary": "administrative",
    "admin_level": 8,
    "parents": "-10558977,-365307",
    "name": "Raħal Ġdid",
    "local_name": "Raħal Ġdid",
    "name_en": null,
    "all_tags": {
      "name": "Raħal Ġdid",
      "name:it": "Paola",
      "alt_name": "Pawla;Paola",
      "boundary": "administrative",
      "way_area": "0.000248497",
      "wikidata": "Q846589",
      "ISO3166-2": "MT-39",
      "admin_level": "8",
      "alt_name:it": "Casal Paola;Casal Nuovo"
    }
  },
  {
    "osm_id": -7510576,
    "boundary": "administrative",
    "admin_level": 8,
    "parents": "-10558977,-365307",
    "name": "Cospicua",
    "local_name": "Bormla",
    "name_en": "Cospicua",
    "all_tags": {
      "name": "Bormla",
      "name:en": "Cospicua",
      "name:it": "Cospicua",
      "boundary": "administrative",
      "way_area": "9.48333e-05",
      "wikidata": "Q757225",
      "ISO3166-2": "MT-06",
      "admin_level": "8",
      "alt_name:en": "Bir Mula;Burmola;Bormola;Città Cospicua;Città Cottonera;Civitas Cottonera",
      "alt_name:it": "Burmola"
    }
  },
  {
    "osm_id": -7510575,
    "boundary": "administrative",
    "admin_level": 8,
    "parents": "-10558977,-365307",
    "name": "Kalkara",
    "local_name": "Il-Kalkara",
    "name_en": "Kalkara",
    "all_tags": {
      "name": "Il-Kalkara",
      "name:en": "Kalkara",
      "name:it": "Calcara",
      "boundary": "administrative",
      "way_area": "0.000173654",
      "wikidata": "Q533257",
      "ISO3166-2": "MT-21",
      "admin_level": "8"
    }
  },
  {
    "osm_id": -7510574,
    "boundary": "administrative",
    "admin_level": 8,
    "parents": "-10558977,-365307",
    "name": "Xgħajra",
    "local_name": "Ix-Xgħajra",
    "name_en": "Xgħajra",
    "all_tags": {
      "name": "Ix-Xgħajra",
      "name:en": "Xgħajra",
      "name:it": "Sciaira",
      "name:lt": "Šgaira",
      "boundary": "administrative",
      "way_area": "9.54204e-05",
      "wikidata": "Q520962",
      "ISO3166-2": "MT-63",
      "admin_level": "8"
    }
  },
  {
    "osm_id": -7510573,
    "boundary": "administrative",
    "admin_level": 8,
    "parents": "-10558977,-365307",
    "name": "Zabbar",
    "local_name": "Ħaż-Żabbar",
    "name_en": "Zabbar",
    "all_tags": {
      "name": "Ħaż-Żabbar",
      "name:ar": "الصبار",
      "name:en": "Zabbar",
      "name:it": "Zabbar",
      "alt_name": "Città Hompesch;Casal Zabbar",
      "boundary": "administrative",
      "way_area": "0.000533929",
      "wikidata": "Q39518",
      "ISO3166-2": "MT-64",
      "admin_level": "8",
      "alt_name:ar": "جبار",
      "old_name:it": "Zabbaria"
    }
  },
  {
    "osm_id": -7510572,
    "boundary": "administrative",
    "admin_level": 8,
    "parents": "-10558977,-365307",
    "name": "Marsascala",
    "local_name": "Wied il-Għajn",
    "name_en": "Marsascala",
    "all_tags": {
      "name": "Wied il-Għajn",
      "name:ar": "وادي العين",
      "name:en": "Marsascala",
      "name:it": "Marsascala",
      "alt_name": "Marsaskala",
      "boundary": "administrative",
      "way_area": "0.000537347",
      "ISO3166-2": "MT-27",
      "short_name": "M'Skala",
      "admin_level": "8",
      "alt_name:ar": "مارساسكالا"
    }
  },
  {
    "osm_id": -7510571,
    "boundary": "administrative",
    "admin_level": 8,
    "parents": "-10558977,-365307",
    "name": "Marsaxlokk",
    "local_name": "Marsaxlokk",
    "name_en": null,
    "all_tags": {
      "name": "Marsaxlokk",
      "name:it": "Marsa Scirocco",
      "boundary": "administrative",
      "way_area": "0.000471323",
      "ISO3166-2": "MT-28",
      "admin_level": "8",
      "alt_name:it": "Marsaslocca"
    }
  },
  {
    "osm_id": -7510570,
    "boundary": "administrative",
    "admin_level": 8,
    "parents": "-1711219,-365307",
    "name": "Birżebbuġa",
    "local_name": "Birżebbuġa",
    "name_en": null,
    "all_tags": {
      "name": "Birżebbuġa",
      "boundary": "administrative",
      "way_area": "0.000922778",
      "ISO3166-2": "MT-05",
      "admin_level": "8"
    }
  },
  {
    "osm_id": -7510569,
    "boundary": "administrative",
    "admin_level": 8,
    "parents": "-1711219,-365307",
    "name": "Żurrieq",
    "local_name": "Iż-Żurrieq",
    "name_en": "Żurrieq",
    "all_tags": {
      "name": "Iż-Żurrieq",
      "name:ar": "الزرياق",
      "name:en": "Żurrieq",
      "name:it": "Zurrico",
      "boundary": "administrative",
      "way_area": "0.000849392",
      "wikidata": "Q44417",
      "ISO3166-2": "MT-68",
      "admin_level": "8",
      "alt_name:ar": "زرياق",
      "alt_name:en": "Zurrieq"
    }
  },
  {
    "osm_id": -7510568,
    "boundary": "administrative",
    "admin_level": 8,
    "parents": "-1711219,-365307",
    "name": "Qrendi",
    "local_name": "Il-Qrendi",
    "name_en": "Qrendi",
    "all_tags": {
      "name": "Il-Qrendi",
      "name:en": "Qrendi",
      "name:it": "Crendi",
      "boundary": "administrative",
      "way_area": "0.000490193",
      "ISO3166-2": "MT-44",
      "admin_level": "8"
    }
  },
  {
    "osm_id": -7510567,
    "boundary": "administrative",
    "admin_level": 8,
    "parents": "-1711219,-365307",
    "name": "Siġġiewi",
    "local_name": "Is-Siġġiewi",
    "name_en": "Siġġiewi",
    "all_tags": {
      "name": "Is-Siġġiewi",
      "name:en": "Siġġiewi",
      "name:it": "Suggeui",
      "boundary": "administrative",
      "way_area": "0.00199042",
      "wikidata": "Q919908",
      "ISO3166-2": "MT-55",
      "admin_level": "8",
      "alt_name:en": "Siggiewi;Città Ferdinand"
    }
  },
  {
    "osm_id": -7510566,
    "boundary": "administrative",
    "admin_level": 8,
    "parents": "-10563355,-365307",
    "name": "Dingli",
    "local_name": "Ħad-Dingli",
    "name_en": "Dingli",
    "all_tags": {
      "name": "Ħad-Dingli",
      "name:el": "Ντίνγκλι",
      "name:en": "Dingli",
      "name:it": "Dingli",
      "name:zh": "丁利",
      "boundary": "administrative",
      "way_area": "0.000570031",
      "wikidata": "Q905641",
      "ISO3166-2": "MT-07",
      "wikipedia": "en:Dingli",
      "admin_level": "8"
    }
  },
  {
    "osm_id": -7510565,
    "boundary": "administrative",
    "admin_level": 8,
    "parents": "-10563355,-365307",
    "name": "Rabat",
    "local_name": "Ir-Rabat",
    "name_en": "Rabat",
    "all_tags": {
      "name": "Ir-Rabat",
      "name:ar": "الرباط",
      "name:en": "Rabat",
      "name:it": "Rabat",
      "boundary": "administrative",
      "way_area": "0.00266249",
      "wikidata": "Q44381",
      "ISO3166-2": "MT-46",
      "admin_level": "8",
      "alt_name:ar": "الرابات",
      "alt_name:it": "Rabato della Notabile"
    }
  },
  {
    "osm_id": -7510564,
    "boundary": "administrative",
    "admin_level": 8,
    "parents": "-10563355,-365307",
    "name": "Mtarfa",
    "local_name": "L-Imtarfa",
    "name_en": "Mtarfa",
    "all_tags": {
      "name": "L-Imtarfa",
      "name:ar": "المطرفة",
      "name:en": "Mtarfa",
      "name:it": "Marfa",
      "alt_name": "Mtarfa",
      "boundary": "administrative",
      "way_area": "7.30294e-05",
      "ISO3166-2": "MT-35",
      "admin_level": "8",
      "alt_name:ar": "مطرفة"
    }
  },
  {
    "osm_id": -7510563,
    "boundary": "administrative",
    "admin_level": 8,
    "parents": "-1711219,-365307",
    "name": "Luqa",
    "local_name": "Ħal Luqa",
    "name_en": "Luqa",
    "all_tags": {
      "name": "Ħal Luqa",
      "name:en": "Luqa",
      "name:it": "Luca",
      "boundary": "administrative",
      "way_area": "0.000671568",
      "wikidata": "Q475585",
      "ISO3166-2": "MT-25",
      "admin_level": "8"
    }
  },
  {
    "osm_id": -7510562,
    "boundary": "administrative",
    "admin_level": 8,
    "parents": "-1711219,-365307",
    "name": "Għaxaq",
    "local_name": "Ħal Għaxaq",
    "name_en": "Għaxaq",
    "all_tags": {
      "name": "Ħal Għaxaq",
      "name:en": "Għaxaq",
      "name:it": "Asciach",
      "boundary": "administrative",
      "way_area": "0.000384775",
      "wikidata": "Q426385",
      "ISO3166-2": "MT-17",
      "admin_level": "8",
      "alt_name:it": "Casal Asciach"
    }
  },
  {
    "osm_id": -7510561,
    "boundary": "administrative",
    "admin_level": 8,
    "parents": "-10558977,-365307",
    "name": "Żejtun",
    "local_name": "Iż-Żejtun",
    "name_en": "Żejtun",
    "all_tags": {
      "name": "Iż-Żejtun",
      "name:ar": "الزيتون",
      "name:en": "Żejtun",
      "name:it": "Zeitun",
      "boundary": "administrative",
      "way_area": "0.000535679",
      "wikidata": "Q44392",
      "ISO3166-2": "MT-67",
      "admin_level": "8",
      "alt_name:en": "Zejtun"
    }
  },
  {
    "osm_id": -7510560,
    "boundary": "administrative",
    "admin_level": 8,
    "parents": "-10558977,-365307",
    "name": "Il-Fgura",
    "local_name": "Il-Fgura",
    "name_en": null,
    "all_tags": {
      "name": "Il-Fgura",
      "name:it": "Figura",
      "alt_name": "Fgura",
      "boundary": "administrative",
      "way_area": "0.000113366",
      "wikidata": "Q44388",
      "ISO3166-2": "MT-08",
      "admin_level": "8"
    }
  },
  {
    "osm_id": -7510559,
    "boundary": "administrative",
    "admin_level": 8,
    "parents": "-10558977,-365307",
    "name": "Tarxien",
    "local_name": "Ħal Tarxien",
    "name_en": "Tarxien",
    "all_tags": {
      "name": "Ħal Tarxien",
      "name:en": "Tarxien",
      "name:it": "Tarscen",
      "boundary": "administrative",
      "way_area": "8.77533e-05",
      "wikidata": "Q744001",
      "ISO3166-2": "MT-59",
      "admin_level": "8",
      "alt_name:it": "Tarxen;Casal Tarxen"
    }
  },
  {
    "osm_id": -7510558,
    "boundary": "administrative",
    "admin_level": 8,
    "parents": "-1711219,-365307",
    "name": "Santa Luċija",
    "local_name": "Santa Luċija",
    "name_en": null,
    "all_tags": {
      "name": "Santa Luċija",
      "name:it": "Santa Lucia",
      "boundary": "administrative",
      "way_area": "7.28985e-05",
      "wikidata": "Q1087776",
      "ISO3166-2": "MT-53",
      "admin_level": "8"
    }
  },
  {
    "osm_id": -7510557,
    "boundary": "administrative",
    "admin_level": 8,
    "parents": "-1711219,-365307",
    "name": "Gudja",
    "local_name": "Il-Gudja",
    "name_en": "Gudja",
    "all_tags": {
      "name": "Il-Gudja",
      "name:en": "Gudja",
      "name:it": "Gudia",
      "boundary": "administrative",
      "way_area": "0.000225635",
      "ISO3166-2": "MT-11",
      "admin_level": "8",
      "alt_name:it": "Casal Gudia"
    }
  },
  {
    "osm_id": -7510556,
    "boundary": "administrative",
    "admin_level": 8,
    "parents": "-1711219,-365307",
    "name": "Qormi",
    "local_name": "Ħal Qormi",
    "name_en": "Qormi",
    "all_tags": {
      "name": "Ħal Qormi",
      "name:el": "Όρμι",
      "name:en": "Qormi",
      "name:it": "Curmi",
      "name:lt": "Kormis",
      "name:ru": "Корми",
      "boundary": "administrative",
      "way_area": "0.000503204",
      "wikidata": "Q39578",
      "ISO3166-2": "MT-43",
      "admin_level": "8"
    }
  },
  {
    "osm_id": -7510555,
    "boundary": "administrative",
    "admin_level": 8,
    "parents": "-1711219,-365307",
    "name": "Mqabba",
    "local_name": "L-Imqabba",
    "name_en": "Mqabba",
    "all_tags": {
      "name": "L-Imqabba",
      "name:en": "Mqabba",
      "name:it": "Micabba",
      "boundary": "administrative",
      "way_area": "0.000260126",
      "wikidata": "Q1017953",
      "ISO3166-2": "MT-33",
      "admin_level": "8",
      "alt_name:en": "Micabbiba",
      "alt_name:it": "Casal Micabiba"
    }
  },
  {
    "osm_id": -7510554,
    "boundary": "administrative",
    "admin_level": 8,
    "parents": "-1711219,-365307",
    "name": "Ħal Kirkop",
    "local_name": "Ħal Kirkop",
    "name_en": null,
    "all_tags": {
      "name": "Ħal Kirkop",
      "name:it": "Chircop",
      "boundary": "administrative",
      "way_area": "0.000113847",
      "wikidata": "Q597464",
      "ISO3166-2": "MT-23",
      "admin_level": "8"
    }
  },
  {
    "osm_id": -7510553,
    "boundary": "administrative",
    "admin_level": 8,
    "parents": "-1711219,-365307",
    "name": "Safi",
    "local_name": "Ħal Safi",
    "name_en": "Safi",
    "all_tags": {
      "name": "Ħal Safi",
      "name:en": "Safi",
      "name:it": "Safi",
      "boundary": "administrative",
      "way_area": "0.000228497",
      "wikidata": "Q658903",
      "ISO3166-2": "MT-47",
      "admin_level": "8"
    }
  },
  {
    "osm_id": -7510552,
    "boundary": "administrative",
    "admin_level": 8,
    "parents": "-1711219,-365307",
    "name": "Zebbug",
    "local_name": "Haż-Żebbuġ",
    "name_en": "Zebbug",
    "all_tags": {
      "name": "Haż-Żebbuġ",
      "name:ar": "الزبوج",
      "name:en": "Zebbug",
      "name:it": "Zebbug",
      "boundary": "administrative",
      "way_area": "0.000863732",
      "wikidata": "Q44573",
      "ISO3166-2": "MT-66",
      "admin_level": "8",
      "alt_name:ar": "زيباغ",
      "alt_name:it": "Casal Zebbugi",
      "old_name:it": "Città Rohan"
    }
  },
  {
    "osm_id": -7510551,
    "boundary": "administrative",
    "admin_level": 8,
    "parents": "-10567984,-365307",
    "name": "Attard",
    "local_name": "Ħ'Attard",
    "name_en": "Attard",
    "all_tags": {
      "name": "Ħ'Attard",
      "name:ar": "عطارد",
      "name:en": "Attard",
      "name:it": "Attard",
      "boundary": "administrative",
      "way_area": "0.000663203",
      "ISO3166-2": "MT-01",
      "admin_level": "8",
      "alt_name:ar": "عطار;أتارد",
      "alt_name:it": "Casal Attard"
    }
  },
  {
    "osm_id": -7510550,
    "boundary": "administrative",
    "admin_level": 8,
    "parents": "-10567984,-365307",
    "name": "Balzan",
    "local_name": "Ħal Balzan",
    "name_en": "Balzan",
    "all_tags": {
      "name": "Ħal Balzan",
      "name:en": "Balzan",
      "name:it": "Balzan",
      "boundary": "administrative",
      "way_area": "5.94349e-05",
      "wikidata": "Q789794",
      "ISO3166-2": "MT-02",
      "admin_level": "8",
      "alt_name:it": "Casal Balzan"
    }
  },
  {
    "osm_id": -7510549,
    "boundary": "administrative",
    "admin_level": 8,
    "parents": "-10563355,-365307",
    "name": "Mdina",
    "local_name": "L-Imdina",
    "name_en": "Mdina",
    "all_tags": {
      "name": "L-Imdina",
      "name:ar": "المدينة",
      "name:en": "Mdina",
      "name:it": "Medina",
      "boundary": "administrative",
      "way_area": "8.9584e-05",
      "ISO3166-2": "MT-29",
      "admin_level": "8",
      "alt_name:ar": "مدينة",
      "alt_name:en": "Città Notabile;Città Vecchia Maleth;Melite;Melita",
      "alt_name:it": "Città Vecchia;Città Notabile"
    }
  },
  {
    "osm_id": -7510548,
    "boundary": "administrative",
    "admin_level": 8,
    "parents": "-10567984,-365307",
    "name": "Santa Venera",
    "local_name": "Santa Venera",
    "name_en": null,
    "all_tags": {
      "name": "Santa Venera",
      "boundary": "administrative",
      "way_area": "8.97206e-05",
      "ISO3166-2": "MT-54",
      "admin_level": "8"
    }
  },
  {
    "osm_id": -7510547,
    "boundary": "administrative",
    "admin_level": 8,
    "parents": "-1711219,-365307",
    "name": "Hamrun",
    "local_name": "Il-Ħamrun",
    "name_en": "Hamrun",
    "all_tags": {
      "name": "Il-Ħamrun",
      "name:en": "Hamrun",
      "name:it": "Ħamrun",
      "boundary": "administrative",
      "way_area": "0.000105505",
      "wikidata": "Q343001",
      "ISO3166-2": "MT-18",
      "admin_level": "8",
      "alt_name:it": "Hamrun",
      "old_name:it": "Casale San Giuseppe"
    }
  },
  {
    "osm_id": -7508590,
    "boundary": "administrative",
    "admin_level": 8,
    "parents": "-2101121,-365307",
    "name": "Sannat",
    "local_name": "Ta' Sannat",
    "name_en": "Sannat",
    "all_tags": {
      "name": "Ta' Sannat",
      "name:en": "Sannat",
      "name:it": "Sannat",
      "boundary": "administrative",
      "way_area": "0.000390355",
      "wikidata": "Q602037",
      "ISO3166-2": "MT-52",
      "admin_level": "8",
      "alt_name:it": "Casal Sannat"
    }
  },
  {
    "osm_id": -7508589,
    "boundary": "administrative",
    "admin_level": 8,
    "parents": "-2101121,-365307",
    "name": "Munxar",
    "local_name": "Il-Munxar",
    "name_en": "Munxar",
    "all_tags": {
      "name": "Il-Munxar",
      "name:en": "Munxar",
      "name:it": "Monsciar",
      "name:mt": "Il-Munxar",
      "alt_name": "Munxar",
      "boundary": "administrative",
      "way_area": "0.00028596",
      "wikidata": "Q587462",
      "ISO3166-2": "MT-36",
      "admin_level": "8"
    }
  },
  {
    "osm_id": -7508588,
    "boundary": "administrative",
    "admin_level": 8,
    "parents": "-2101121,-365307",
    "name": "Xewkija",
    "local_name": "Ix-Xewkija",
    "name_en": "Xewkija",
    "all_tags": {
      "name": "Ix-Xewkija",
      "name:en": "Xewkija",
      "name:it": "Xeuchia",
      "boundary": "administrative",
      "way_area": "0.000453461",
      "wikidata": "Q919921",
      "ISO3166-2": "MT-62",
      "admin_level": "8",
      "alt_name:it": "Casal Xeuchia"
    }
  },
  {
    "osm_id": -7508587,
    "boundary": "administrative",
    "admin_level": 8,
    "parents": "-2101121,-365307",
    "name": "Nadur",
    "local_name": "In-Nadur",
    "name_en": "Nadur",
    "all_tags": {
      "name": "In-Nadur",
      "name:ar": "المنظر",
      "name:en": "Nadur",
      "name:it": "Nadur",
      "boundary": "administrative",
      "way_area": "0.000716006",
      "wikidata": "Q929969",
      "ISO3166-2": "MT-37",
      "admin_level": "8"
    }
  },
  {
    "osm_id": -7508586,
    "boundary": "administrative",
    "admin_level": 8,
    "parents": "-2101121,-365307",
    "name": "Qala",
    "local_name": "Il-Qala",
    "name_en": "Qala",
    "all_tags": {
      "name": "Il-Qala",
      "name:en": "Qala",
      "name:it": "La Cala",
      "boundary": "administrative",
      "way_area": "0.000588425",
      "wikidata": "Q1088033",
      "ISO3166-2": "MT-42",
      "admin_level": "8"
    }
  },
  {
    "osm_id": -7508585,
    "boundary": "administrative",
    "admin_level": 8,
    "parents": "-2101121,-365307",
    "name": "Xaghra",
    "local_name": "Ix-Xagħra",
    "name_en": "Xaghra",
    "all_tags": {
      "name": "Ix-Xagħra",
      "name:en": "Xaghra",
      "name:it": "Caccia",
      "alt_name": "Xagħra",
      "boundary": "administrative",
      "way_area": "0.000762307",
      "wikidata": "Q605343",
      "ISO3166-2": "MT-61",
      "admin_level": "8",
      "alt_name:it": "Casal Caccia"
    }
  },
  {
    "osm_id": -7508584,
    "boundary": "administrative",
    "admin_level": 8,
    "parents": "-2101121,-365307",
    "name": "Żebbuġ",
    "local_name": "Iż-Żebbuġ",
    "name_en": "Żebbuġ",
    "all_tags": {
      "name": "Iż-Żebbuġ",
      "name:en": "Żebbuġ",
      "name:it": "Zebbug",
      "boundary": "administrative",
      "way_area": "0.000754967",
      "wikidata": "Q179243",
      "ISO3166-2": "MT-65",
      "admin_level": "8",
      "alt_name:it": "Casal Zebbug"
    }
  },
  {
    "osm_id": -7508583,
    "boundary": "administrative",
    "admin_level": 8,
    "parents": "-2101121,-365307",
    "name": "Victoria",
    "local_name": "Ir-Rabat",
    "name_en": "Victoria",
    "all_tags": {
      "name": "Ir-Rabat",
      "name:ar": "الرباط",
      "name:en": "Victoria",
      "name:it": "Rabat",
      "alt_name": "Rabat;Il-Belt Victoria",
      "boundary": "administrative",
      "nat_name": "Rabat",
      "way_area": "0.00029054",
      "wikidata": "Q752348",
      "ISO3166-2": "MT-45",
      "admin_level": "8",
      "old_name:it": "Rabato del Castello"
    }
  },
  {
    "osm_id": -7508582,
    "boundary": "administrative",
    "admin_level": 8,
    "parents": "-2101121,-365307",
    "name": "Għasri",
    "local_name": "L-Għasri",
    "name_en": "Għasri",
    "all_tags": {
      "name": "L-Għasri",
      "name:en": "Għasri",
      "name:it": "Ghasri",
      "boundary": "administrative",
      "way_area": "0.000497655",
      "wikidata": "Q1017339",
      "ISO3166-2": "MT-16",
      "admin_level": "8",
      "alt_name:en": "Ghasri"
    }
  },
  {
    "osm_id": -7508581,
    "boundary": "administrative",
    "admin_level": 8,
    "parents": "-2101121,-365307",
    "name": "Għarb",
    "local_name": "L-Għarb",
    "name_en": "Għarb",
    "all_tags": {
      "name": "L-Għarb",
      "name:ar": "الغرب",
      "name:en": "Għarb",
      "name:it": "Garbo",
      "boundary": "administrative",
      "way_area": "0.0004681",
      "wikidata": "Q1026487",
      "ISO3166-2": "MT-14",
      "admin_level": "8",
      "alt_name:en": "Gharb",
      "alt_name:it": "Casal Garbo"
    }
  },
  {
    "osm_id": -7508580,
    "boundary": "administrative",
    "admin_level": 8,
    "parents": "-2101121,-365307",
    "name": "Saint Lawrence",
    "local_name": "San Lawrenz",
    "name_en": "Saint Lawrence",
    "all_tags": {
      "name": "San Lawrenz",
      "name:en": "Saint Lawrence",
      "name:it": "San Lorenzo",
      "name:ru": "Сан Лоренц",
      "boundary": "administrative",
      "way_area": "0.000361861",
      "wikidata": "Q537308",
      "ISO3166-2": "MT-50",
      "admin_level": "8"
    }
  },
  {
    "osm_id": -7508579,
    "boundary": "administrative",
    "admin_level": 8,
    "parents": "-2101121,-365307",
    "name": "Kerċem",
    "local_name": "Ta' Kerċem",
    "name_en": "Kerċem",
    "all_tags": {
      "name": "Ta' Kerċem",
      "name:en": "Kerċem",
      "name:it": "Chercem",
      "boundary": "administrative",
      "way_area": "0.000553644",
      "wikidata": "Q674679",
      "ISO3166-2": "MT-22",
      "admin_level": "8",
      "alt_name:en": "Kercem"
    }
  },
  {
    "osm_id": -7508578,
    "boundary": "administrative",
    "admin_level": 8,
    "parents": "-2101121,-365307",
    "name": "Fontana",
    "local_name": "Il-Fontana",
    "name_en": "Fontana",
    "all_tags": {
      "name": "Il-Fontana",
      "name:en": "Fontana",
      "name:it": "Fontana",
      "alt_name": "Fontana;It-Triq Tal-Għajn",
      "boundary": "administrative",
      "way_area": "4.74831e-05",
      "wikidata": "Q1002742",
      "ISO3166-2": "MT-10",
      "admin_level": "8",
      "alt_name:it": "La via della sorgente"
    }
  },
  {
    "osm_id": -6311965,
    "boundary": "administrative",
    "admin_level": 8,
    "parents": "-2101121,-365307",
    "name": "Għajnsielem",
    "local_name": "Għajnsielem",
    "name_en": "Għajnsielem",
    "all_tags": {
      "name": "Għajnsielem",
      "name:ar": "عين السلام",
      "name:en": "Għajnsielem",
      "name:it": "Ghain Sielem",
      "boundary": "administrative",
      "way_area": "0.000723209",
      "wikidata": "Q761675",
      "ISO3166-2": "MT-13",
      "admin_level": "8",
      "alt_name:ar": "غاينسييليم",
      "alt_name:it": "Casale Ghain Sielem"
    }
  },
  {
    "osm_id": -6181422,
    "boundary": "administrative",
    "admin_level": 8,
    "parents": "-10563355,-365307",
    "name": "Mellieha",
    "local_name": "Il-Mellieħa",
    "name_en": "Mellieha",
    "all_tags": {
      "name": "Il-Mellieħa",
      "name:en": "Mellieha",
      "name:it": "Mellea",
      "name:ru": "Меллиха",
      "alt_name": "Mellieħa",
      "boundary": "administrative",
      "way_area": "0.00227647",
      "wikidata": "Q755979",
      "ISO3166-2": "MT-30",
      "admin_level": "8",
      "alt_name:it": "Casal Melleha"
    }
  },
  {
    "osm_id": -6172218,
    "boundary": "administrative",
    "admin_level": 8,
    "parents": "-10563355,-365307",
    "name": "L-Imġarr",
    "local_name": "L-Imġarr",
    "name_en": null,
    "all_tags": {
      "name": "L-Imġarr",
      "name:it": "Mugiarro",
      "name:ru": "Мджарр",
      "alt_name": "Mġarr",
      "boundary": "administrative",
      "old_name": "Mgiarro",
      "way_area": "0.00160442",
      "wikidata": "Q691220",
      "ISO3166-2": "MT-31",
      "admin_level": "8"
    }
  },
  {
    "osm_id": -6172199,
    "boundary": "administrative",
    "admin_level": 8,
    "parents": "-10567984,-365307",
    "name": "Sliema",
    "local_name": "Tas-Sliema",
    "name_en": "Sliema",
    "all_tags": {
      "name": "Tas-Sliema",
      "name:ar": "سليمة",
      "name:en": "Sliema",
      "name:it": "Sliema",
      "name:ru": "Слима",
      "name:zh": "斯利馬",
      "boundary": "administrative",
      "way_area": "0.000129284",
      "wikidata": "Q39526",
      "ISO3166-2": "MT-56",
      "population": "16854",
      "admin_level": "8"
    }
  },
  {
    "osm_id": -6172198,
    "boundary": "administrative",
    "admin_level": 8,
    "parents": "-10558977,-365307",
    "name": "Birgu",
    "local_name": "Il-Birgu",
    "name_en": "Birgu",
    "all_tags": {
      "name": "Il-Birgu",
      "name:en": "Birgu",
      "name:it": "Vittoriosa",
      "alt_name": "Vittoriosa;Città Vittoriosa",
      "boundary": "administrative",
      "way_area": "5.30886e-05",
      "wikidata": "Q752346",
      "ISO3166-2": "MT-03",
      "admin_level": "8",
      "alt_name:it": "Città Vittoriosa"
    }
  }
]
