[
  {
    "osm_id": -8210751,
    "boundary": "administrative",
    "admin_level": 8,
    "parents": "-8295062,-307573",
    "name": "Saddar",
    "local_name": "صدر",
    "name_en": "Saddar",
    "all_tags": {
      "name": "صدر",
      "name:ar": "صدر",
      "name:en": "Saddar",
      "name:ks": "صدر",
      "name:ur": "صدر",
      "boundary": "administrative",
      "way_area": "0.000412072",
      "admin_level": "8"
    }
  },
  {
    "osm_id": -8210740,
    "boundary": "administrative",
    "admin_level": 8,
    "parents": "-8295062,-307573",
    "name": "Shalley Valley",
    "local_name": "شہلی ویلی",
    "name_en": "Shalley Valley",
    "all_tags": {
      "name": "شہلی ویلی",
      "name:en": "Shalley Valley",
      "name:ur": "شہلی ویلی",
      "boundary": "administrative",
      "way_area": "0.000114157",
      "admin_level": "8"
    }
  },
  {
    "osm_id": -8210737,
    "boundary": "administrative",
    "admin_level": 8,
    "parents": "-8295062,-307573",
    "name": "Westridge",
    "local_name": "ویسٹریج",
    "name_en": "Westridge",
    "all_tags": {
      "name": "ویسٹریج",
      "name:ar": "وسترج",
      "name:en": "Westridge",
      "name:ur": "ویسٹریج",
      "boundary": "administrative",
      "way_area": "0.000471346",
      "admin_level": "8"
    }
  },
  {
    "osm_id": -8210733,
    "boundary": "administrative",
    "admin_level": 8,
    "parents": "-8295062,-307573",
    "name": "Askari 11",
    "local_name": "عسکری 11",
    "name_en": "Askari 11",
    "all_tags": {
      "name": "عسکری 11",
      "name:ar": "عسكري 11",
      "name:en": "Askari 11",
      "name:ur": "عسکری 11",
      "boundary": "administrative",
      "way_area": "1.59012e-05",
      "admin_level": "8"
    }
  },
  {
    "osm_id": -8210214,
    "boundary": "administrative",
    "admin_level": 8,
    "parents": "-8295062,-307573",
    "name": "New Awan Town",
    "local_name": "نیو اعوان ٹاؤن",
    "name_en": "New Awan Town",
    "all_tags": {
      "name": "نیو اعوان ٹاؤن",
      "name:ar": "نيو أعوان تون",
      "name:en": "New Awan Town",
      "name:ur": "نیو اعوان ٹاؤن",
      "boundary": "administrative",
      "way_area": "0.000148645",
      "admin_level": "8"
    }
  },
  {
    "osm_id": -6109509,
    "boundary": "administrative",
    "admin_level": 8,
    "parents": "-6109503,-357981,-307573",
    "name": "Nagar Parkar",
    "local_name": "نگر پارکر",
    "name_en": "Nagar Parkar",
    "all_tags": {
      "name": "نگر پارکر",
      "name:ar": "نكر باركر",
      "name:en": "Nagar Parkar",
      "name:fa": "نگرپارکر",
      "name:ks": "نگر پارکر",
      "name:sd": "ننگرپارڪر",
      "name:ur": "نگر پارکر",
      "boundary": "administrative",
      "name:pnb": "نگر پارکر",
      "way_area": "0.288231",
      "admin_level": "8",
      "postal_code": "69260"
    }
  },
  {
    "osm_id": -6109508,
    "boundary": "administrative",
    "admin_level": 8,
    "parents": "-6109503,-357981,-307573",
    "name": "Mithi",
    "local_name": "مٹھی",
    "name_en": "Mithi",
    "all_tags": {
      "name": "مٹھی",
      "name:de": "Mithi",
      "name:en": "Mithi",
      "name:es": "Mithi",
      "name:fa": "متهی",
      "name:ks": "مِٹّھی‎",
      "name:pa": "ਮੀਠੀ",
      "name:ru": "Митхи",
      "name:sd": "مٺي",
      "name:ur": "مٹھی",
      "boundary": "administrative",
      "name:azb": "متهی",
      "name:pnb": "مٹھی",
      "way_area": "0.221791",
      "wikidata": "Q3246442",
      "wikipedia": "ur:مٹھی",
      "admin_level": "8",
      "postal_code": "69230",
      "name:az-Arab": "متهی"
    }
  },
  {
    "osm_id": -6109507,
    "boundary": "administrative",
    "admin_level": 8,
    "parents": "-6109503,-357981,-307573",
    "name": "Islamkot",
    "local_name": "اسلام کوٹ",
    "name_en": "Islamkot",
    "all_tags": {
      "name": "اسلام کوٹ",
      "name:ar": "إسلام كوت",
      "name:en": "Islamkot",
      "name:fa": "اسلام‌کوت",
      "name:ks": "اِسلامكوٹ",
      "name:sd": "اسلام ڪوٽ",
      "name:ur": "اسلام کوٹ",
      "boundary": "administrative",
      "name:pnb": "اسلام کوٹ",
      "way_area": "0.318435",
      "wikidata": "Q2607187",
      "wikipedia": "ur:اسلام کوٹ",
      "admin_level": "8",
      "postal_code": "69240",
      "wikipedia:sd": "اسلام ڪوٽ",
      "wikipedia:ur": "اسلام کوٹ",
      "wikipedia:pnb": "اسلام کوٹ"
    }
  },
  {
    "osm_id": -6109506,
    "boundary": "administrative",
    "admin_level": 8,
    "parents": "-6109503,-357981,-307573",
    "name": "Diplo",
    "local_name": "Diplo",
    "name_en": "Diplo",
    "all_tags": {
      "name": "Diplo",
      "name:en": "Diplo",
      "boundary": "administrative",
      "way_area": "0.356613",
      "admin_level": "8",
      "postal_code": "69280",
      "is_in:country": "Pakistan",
      "is_in:continent": "Asia",
      "is_in:country_code": "PK"
    }
  },
  {
    "osm_id": -6109505,
    "boundary": "administrative",
    "admin_level": 8,
    "parents": "-6109503,-357981,-307573",
    "name": "Dali",
    "local_name": "Dali",
    "name_en": "Dali",
    "all_tags": {
      "name": "Dali",
      "is_in": "Tharparkar District, Sindh, Pakistan, Asia",
      "name:en": "Dali",
      "boundary": "administrative",
      "way_area": "0.189959",
      "admin_level": "8",
      "postal_code": "67321",
      "is_in:country": "Pakistan",
      "is_in:continent": "Asia",
      "is_in:country_code": "PK"
    }
  },
  {
    "osm_id": -6109504,
    "boundary": "administrative",
    "admin_level": 8,
    "parents": "-6109503,-357981,-307573",
    "name": "Chachro",
    "local_name": "Chhachhro",
    "name_en": "Chachro",
    "all_tags": {
      "name": "Chhachhro",
      "is_in": "Tharparkar District, Sindh, Pakistan, Asia",
      "name:en": "Chachro",
      "boundary": "administrative",
      "way_area": "0.374054",
      "admin_level": "8",
      "postal_code": "69170",
      "is_in:country": "Pakistan",
      "is_in:continent": "Asia",
      "is_in:country_code": "PK"
    }
  },
  {
    "osm_id": -6104689,
    "boundary": "administrative",
    "admin_level": 8,
    "parents": "-357981,-307573",
    "name": "Badin",
    "local_name": "بدين",
    "name_en": "Badin",
    "all_tags": {
      "name": "بدين",
      "name:ar": "بدين",
      "name:en": "Badin",
      "boundary": "administrative",
      "way_area": "0.605911",
      "admin_level": "8",
      "postal_code": "72200",
      "is_in:country": "Pakistan",
      "is_in:continent": "Asia",
      "is_in:country_code": "PK"
    }
  },
  {
    "osm_id": -6087721,
    "boundary": "administrative",
    "admin_level": 8,
    "parents": "-357981,-307573",
    "name": "Sujawal",
    "local_name": "Sujāwal",
    "name_en": "Sujawal",
    "all_tags": {
      "name": "Sujāwal",
      "is_in": "Thatta District, Sindh, Pakistan, Asia",
      "name:de": "Sujawal",
      "name:en": "Sujawal",
      "boundary": "administrative",
      "way_area": "0.0880658",
      "admin_level": "8",
      "is_in:country": "Pakistan",
      "is_in:continent": "Asia",
      "is_in:country_code": "PK"
    }
  },
  {
    "osm_id": -6087711,
    "boundary": "administrative",
    "admin_level": 8,
    "parents": "-357981,-307573",
    "name": "Shah Bander",
    "local_name": "Shāhbandar",
    "name_en": "Shah Bander",
    "all_tags": {
      "name": "Shāhbandar",
      "name:en": "Shah Bander",
      "boundary": "administrative",
      "way_area": "0.42033",
      "admin_level": "8",
      "postal_code": "73070",
      "is_in:country": "Pakistan",
      "is_in:continent": "Asia",
      "is_in:country_code": "PK"
    }
  },
  {
    "osm_id": -6087710,
    "boundary": "administrative",
    "admin_level": 8,
    "parents": "-357981,-307573",
    "name": "Mīrpur Batoro",
    "local_name": "Mīrpur Batoro",
    "name_en": null,
    "all_tags": {
      "name": "Mīrpur Batoro",
      "is_in": "Thatta District, Sindh, Pakistan, Asia",
      "boundary": "administrative",
      "way_area": "0.0602246",
      "admin_level": "8",
      "postal_code": "73030",
      "is_in:country": "Pakistan",
      "is_in:continent": "Asia",
      "is_in:country_code": "PK"
    }
  },
  {
    "osm_id": -6087709,
    "boundary": "administrative",
    "admin_level": 8,
    "parents": "-357981,-307573",
    "name": "Mirpur Sakro",
    "local_name": "میرپورساکرو",
    "name_en": "Mirpur Sakro",
    "all_tags": {
      "name": "میرپورساکرو",
      "is_in": "Thatta District, Sindh, Pakistan, Asia",
      "name:ar": "ميربور ساكرو",
      "name:en": "Mirpur Sakro",
      "name:sd": "ميرپور ساڪرو",
      "name:ur": "میرپورساکرو",
      "boundary": "administrative",
      "way_area": "0.417944",
      "admin_level": "8",
      "postal_code": "73240",
      "is_in:country": "Pakistan",
      "is_in:continent": "Asia",
      "is_in:country_code": "PK"
    }
  },
  {
    "osm_id": -6087708,
    "boundary": "administrative",
    "admin_level": 8,
    "parents": "-357981,-307573",
    "name": "Kharochan",
    "local_name": "Kharochan",
    "name_en": "Kharochan",
    "all_tags": {
      "name": "Kharochan",
      "is_in": "Thatta District, Sindh, Pakistan, Asia",
      "name:en": "Kharochan",
      "boundary": "administrative",
      "way_area": "0.137553",
      "admin_level": "8",
      "postal_code": "82204",
      "is_in:country": "Pakistan",
      "is_in:continent": "Asia",
      "is_in:country_code": "PK"
    }
  },
  {
    "osm_id": -6087707,
    "boundary": "administrative",
    "admin_level": 8,
    "parents": "-357981,-307573",
    "name": "Keti Bandar",
    "local_name": "Keti Bandar",
    "name_en": "Keti Bandar",
    "all_tags": {
      "name": "Keti Bandar",
      "is_in": "Thatta District, Sindh, Pakistan, Asia",
      "name:en": "Keti Bandar",
      "boundary": "administrative",
      "way_area": "0.101842",
      "admin_level": "8",
      "postal_code": "73241",
      "is_in:country": "Pakistan",
      "is_in:continent": "Asia",
      "is_in:country_code": "PK"
    }
  },
  {
    "osm_id": -6087706,
    "boundary": "administrative",
    "admin_level": 8,
    "parents": "-357981,-307573",
    "name": "Jati",
    "local_name": "Jāti",
    "name_en": "Jati",
    "all_tags": {
      "name": "Jāti",
      "name:en": "Jati",
      "boundary": "administrative",
      "way_area": "0.304135",
      "admin_level": "8",
      "postal_code": "73060",
      "is_in:country": "Pakistan",
      "is_in:continent": "Asia",
      "is_in:country_code": "PK"
    }
  },
  {
    "osm_id": -6087705,
    "boundary": "administrative",
    "admin_level": 8,
    "parents": "-357981,-307573",
    "name": "Ghorabari",
    "local_name": "Ghorābāri",
    "name_en": "Ghorabari",
    "all_tags": {
      "name": "Ghorābāri",
      "is_in": "Thatta District, Sindh, Pakistan, Asia",
      "name:en": "Ghorabari",
      "boundary": "administrative",
      "way_area": "0.148585",
      "admin_level": "8",
      "postal_code": "73131",
      "is_in:country": "Pakistan",
      "is_in:continent": "Asia",
      "is_in:country_code": "PK"
    }
  },
  {
    "osm_id": -6080948,
    "boundary": "administrative",
    "admin_level": 8,
    "parents": "-357981,-307573",
    "name": "Karachi",
    "local_name": "کراچی",
    "name_en": "Karachi",
    "all_tags": {
      "name": "کراچی",
      "name:ar": "كراتشي",
      "name:cs": "Karáčí",
      "name:de": "Karatschi",
      "name:en": "Karachi",
      "name:eo": "Karaĉio",
      "name:fa": "کراچی",
      "name:ks": "کَرٲچی",
      "name:pa": "ਕਰਾਚੀ",
      "name:pl": "Karaczi",
      "name:ps": "کراچۍ",
      "name:sd": "ڪراچي",
      "name:ug": "كاراچى",
      "name:ur": "کراچی",
      "name:zh": "卡拉奇",
      "boundary": "administrative",
      "name:azb": "کراچی",
      "name:mzn": "کراچی",
      "name:pnb": "کراچی",
      "way_area": "0.520788",
      "wikidata": "Q8660",
      "wikipedia": "ur:کراچی",
      "admin_level": "8"
    }
  }
]
