[
  {
    "osm_id": -11627512,
    "boundary": "administrative",
    "admin_level": 8,
    "parents": "-2872863,-2114084,-2959530,-1658166,-1741311",
    "name": "Градска општина Ужице",
    "local_name": "Градска општина Ужице",
    "name_en": null,
    "all_tags": {
      "name": "Градска општина Ужице",
      "place": "municipality",
      "name:sr": "Градска општина Ужице",
      "boundary": "administrative",
      "way_area": "0.072461",
      "wikidata": "Q59473",
      "wikipedia": "sr:Градска општина Ужице",
      "admin_level": "8",
      "name:sr-Latn": "Gradska opština Užice",
      "official_name": "Градска општина Ужице",
      "ref:RS:opstina": "71145"
    }
  },
  {
    "osm_id": -10276595,
    "boundary": "administrative",
    "admin_level": 8,
    "parents": "-2867621,-2117179,-2959529,-1658166,-1741311",
    "name": "Градска општина Пантелеј",
    "local_name": "Градска општина Пантелеј",
    "name_en": null,
    "all_tags": {
      "name": "Градска општина Пантелеј",
      "name:sr": "Градска општина Пантелеј",
      "boundary": "administrative",
      "way_area": "0.015656",
      "wikidata": "Q2590698",
      "wikipedia": "sr:Градска општина Пантелеј",
      "population": "53486",
      "admin_level": "8",
      "name:sr-Latn": "Gradska opština Pantelej",
      "ref:RS:opstina": "71307"
    }
  },
  {
    "osm_id": -10276594,
    "boundary": "administrative",
    "admin_level": 8,
    "parents": "-2867621,-2117179,-2959529,-1658166,-1741311",
    "name": "Градска општина Нишка Бања",
    "local_name": "Градска општина Нишка Бања",
    "name_en": null,
    "all_tags": {
      "name": "Градска општина Нишка Бања",
      "name:sr": "Градска општина Нишка Бања",
      "boundary": "administrative",
      "way_area": "0.0162262",
      "wikidata": "Q1250045",
      "wikipedia": "sr:Градска општина Нишка Бања",
      "population": "14680",
      "admin_level": "8",
      "name:sr-Latn": "Gradska opština Niška Banja",
      "ref:RS:opstina": "71285"
    }
  },
  {
    "osm_id": -10276545,
    "boundary": "administrative",
    "admin_level": 8,
    "parents": "-2867621,-2117179,-2959529,-1658166,-1741311",
    "name": "Градска општина Палилула",
    "local_name": "Градска општина Палилула",
    "name_en": null,
    "all_tags": {
      "name": "Градска општина Палилула",
      "name:sr": "Градска општина Палилула",
      "boundary": "administrative",
      "way_area": "0.0129515",
      "wikidata": "Q1287258",
      "wikipedia": "sr:Градска општина Палилула (Ниш)",
      "population": "73801",
      "admin_level": "8",
      "name:sr-Latn": "Gradska opština Palilula",
      "ref:RS:opstina": "71323"
    }
  },
  {
    "osm_id": -10276511,
    "boundary": "administrative",
    "admin_level": 8,
    "parents": "-2867621,-2117179,-2959529,-1658166,-1741311",
    "name": "Градска општина Медијана",
    "local_name": "Градска општина Медијана",
    "name_en": null,
    "all_tags": {
      "name": "Градска општина Медијана",
      "name:sr": "Градска општина Медијана",
      "boundary": "administrative",
      "way_area": "0.00119615",
      "wikidata": "Q1275211",
      "wikipedia": "sr:Градска општина Медијана",
      "population": "85969",
      "admin_level": "8",
      "name:sr-Latn": "Gradska opština Medijana",
      "ref:RS:opstina": "71331"
    }
  },
  {
    "osm_id": -10276201,
    "boundary": "administrative",
    "admin_level": 8,
    "parents": "-2867621,-2117179,-2959529,-1658166,-1741311",
    "name": "Градска општина Црвени Крст",
    "local_name": "Градска општина Црвени Крст",
    "name_en": null,
    "all_tags": {
      "name": "Градска општина Црвени Крст",
      "name:sr": "Градска општина Црвени Крст",
      "boundary": "administrative",
      "way_area": "0.0201925",
      "wikidata": "Q636831",
      "wikipedia": "sr:Градска општина Црвени крст",
      "population": "32301",
      "admin_level": "8",
      "name:sr-Latn": "Gradska opština Crveni Krst",
      "ref:RS:opstina": "71315"
    }
  },
  {
    "osm_id": -10275950,
    "boundary": "administrative",
    "admin_level": 8,
    "parents": "-2190516,-2015385,-2959529,-1658166,-1741311",
    "name": "Градска општина Врањска Бања",
    "local_name": "Градска општина Врањска Бања",
    "name_en": null,
    "all_tags": {
      "name": "Градска општина Врањска Бања",
      "name:sr": "Градска општина Врањска Бања",
      "boundary": "administrative",
      "way_area": "0.0283119",
      "wikidata": "Q2491407",
      "wikipedia": "sr:Градска општина Врањска Бања",
      "population": "9580",
      "admin_level": "8",
      "name:sr-Latn": "Gradska opština Vranjska Banja",
      "ref:RS:opstina": "71358"
    }
  },
  {
    "osm_id": -10275949,
    "boundary": "administrative",
    "admin_level": 8,
    "parents": "-2190516,-2015385,-2959529,-1658166,-1741311",
    "name": "Градска општина Врање",
    "local_name": "Градска општина Врање",
    "name_en": null,
    "all_tags": {
      "name": "Градска општина Врање",
      "name:sr": "Градска општина Врање",
      "boundary": "administrative",
      "way_area": "0.0657899",
      "wikidata": "Q211645",
      "wikipedia": "sr:Врање",
      "population": "73944",
      "admin_level": "8",
      "name:sr-Latn": "Gradska opština Vranje",
      "ref:RS:opstina": "70432"
    }
  },
  {
    "osm_id": -8916459,
    "boundary": "administrative",
    "admin_level": 8,
    "parents": "-2870055,-2109236,-2959529,-1658166,-1741311",
    "name": "Pozarevac Urban Municipality",
    "local_name": "Градска општина Пожаревац",
    "name_en": "Pozarevac Urban Municipality",
    "all_tags": {
      "name": "Градска општина Пожаревац",
      "name:en": "Pozarevac Urban Municipality",
      "name:sr": "Градска општина Пожаревац",
      "boundary": "administrative",
      "way_area": "0.0429464",
      "wikidata": "Q20501199",
      "wikipedia": "en:City municipality of Požarevac",
      "population": "46697",
      "admin_level": "8",
      "name:sr-Latn": "Gradska opština Požarevac",
      "ref:RS:opstina": "70947",
      "population:date": "2011"
    }
  },
  {
    "osm_id": -8031757,
    "boundary": "administrative",
    "admin_level": 8,
    "parents": "-2872863,-2114084,-2959530,-1658166,-1741311",
    "name": "Gradska opština Sevojno",
    "local_name": "Градска општина Севојно",
    "name_en": "Gradska opština Sevojno",
    "all_tags": {
      "name": "Градска општина Севојно",
      "place": "municipality",
      "name:en": "Gradska opština Sevojno",
      "name:sr": "Градска општина Севојно",
      "boundary": "administrative",
      "way_area": "0.00219201",
      "wikidata": "Q1200027",
      "wikipedia": "sr:Градска општина Севојно",
      "admin_level": "8",
      "name:sr-Latn": "Gradska opština Sevojno",
      "official_name": "Градска општина Севојно",
      "ref:RS:opstina": "71366"
    }
  },
  {
    "osm_id": -7737269,
    "boundary": "administrative",
    "admin_level": 8,
    "parents": "-13022323,-1677007,-1658166,-1741311",
    "name": "Palilula Urban Municipality",
    "local_name": "Градска општина Палилула",
    "name_en": "Palilula Urban Municipality",
    "all_tags": {
      "name": "Градска општина Палилула",
      "name:de": "Stadtbezirk Palilula",
      "name:en": "Palilula Urban Municipality",
      "name:hr": "Gradska općina Palilula",
      "name:sr": "Градска општина Палилула",
      "website": "http://www.palilula.org.rs/",
      "boundary": "administrative",
      "way_area": "0.0513696",
      "wikidata": "Q973673",
      "wikipedia": "sr:Градска општина Палилула (Београд)",
      "population": "170593",
      "admin_level": "8",
      "postal_code": "11000",
      "name:sr-Latn": "Gradska opština Palilula",
      "ref:RS:opstina": "70203"
    }
  },
  {
    "osm_id": -7737268,
    "boundary": "administrative",
    "admin_level": 8,
    "parents": "-13022323,-1677007,-1658166,-1741311",
    "name": "Vozdovac Urban Municipality",
    "local_name": "Градска општина Вождовац",
    "name_en": "Vozdovac Urban Municipality",
    "all_tags": {
      "name": "Градска општина Вождовац",
      "name:de": "Stadtbezirk Voždovac",
      "name:en": "Vozdovac Urban Municipality",
      "name:sr": "Градска општина Вождовац",
      "website": "http://www.vozdovac.org.rs/",
      "boundary": "administrative",
      "way_area": "0.0168398",
      "wikidata": "Q1813743",
      "wikipedia": "sr:Градска општина Вождовац",
      "population": "158213",
      "admin_level": "8",
      "postal_code": "11040",
      "name:sr-Latn": "Gradska opština Voždovac",
      "ref:RS:opstina": "70106"
    }
  },
  {
    "osm_id": -7728561,
    "boundary": "administrative",
    "admin_level": 8,
    "parents": "-13022323,-1677007,-1658166,-1741311",
    "name": "Rakovica Urban Municipality",
    "local_name": "Градска општина Раковица",
    "name_en": "Rakovica Urban Municipality",
    "all_tags": {
      "name": "Градска општина Раковица",
      "name:de": "Stadtbezirk Rakovica",
      "name:en": "Rakovica Urban Municipality",
      "name:sr": "Градска општина Раковица",
      "website": "http://www.rakovica.rs/",
      "boundary": "administrative",
      "way_area": "0.00341311",
      "wikidata": "Q936767",
      "wikipedia": "sr:Градска општина Раковица",
      "admin_level": "8",
      "name:sr-Latn": "Gradska opština Rakovica",
      "ref:RS:opstina": "70211"
    }
  },
  {
    "osm_id": -7727516,
    "boundary": "administrative",
    "admin_level": 8,
    "parents": "-13022323,-1677007,-1658166,-1741311",
    "name": "Cukarica Urban Municipality",
    "local_name": "Градска општина Чукарица",
    "name_en": "Cukarica Urban Municipality",
    "all_tags": {
      "name": "Градска општина Чукарица",
      "name:de": "Stadtbezirk Čukarica",
      "name:en": "Cukarica Urban Municipality",
      "name:sr": "Градска општина Чукарица",
      "website": "http://www.cukarica.rs/",
      "boundary": "administrative",
      "way_area": "0.0178305",
      "wikidata": "Q341728",
      "wikipedia": "sr:Градска општина Чукарица",
      "admin_level": "8",
      "name:sr-Latn": "Gradska opština Čukarica",
      "ref:RS:opstina": "70254"
    }
  },
  {
    "osm_id": -6930224,
    "boundary": "administrative",
    "admin_level": 8,
    "parents": "-13022323,-1677007,-1658166,-1741311",
    "name": "Zvezdara Urban Municipality",
    "local_name": "Градска општина Звездара",
    "name_en": "Zvezdara Urban Municipality",
    "all_tags": {
      "name": "Градска општина Звездара",
      "name:de": "Stadtbezirk Zvezdara",
      "name:en": "Zvezdara Urban Municipality",
      "name:sr": "Градска општина Звездара",
      "website": "http://www.zvezdara.org.rs/",
      "boundary": "administrative",
      "way_area": "0.00353696",
      "wikidata": "Q231352",
      "wikipedia": "sr:Градска општина Звездара",
      "admin_level": "8",
      "postal_code": "11050",
      "name:sr-Latn": "Gradska opština Zvezdara",
      "ref:RS:opstina": "70149"
    }
  },
  {
    "osm_id": -6665948,
    "boundary": "administrative",
    "admin_level": 8,
    "parents": "-2870055,-2109236,-2959529,-1658166,-1741311",
    "name": "Kostolac Urban Municipality",
    "local_name": "Градска општина Костолац",
    "name_en": "Kostolac Urban Municipality",
    "all_tags": {
      "name": "Градска општина Костолац",
      "name:en": "Kostolac Urban Municipality",
      "name:sr": "Градска општина Костолац",
      "boundary": "administrative",
      "way_area": "0.0115195",
      "wikidata": "Q13566391",
      "wikipedia": "sr:Градска општина Костолац",
      "population": "13604",
      "admin_level": "8",
      "name:sr-Latn": "Gradska opština Kostolac",
      "ref:RS:opstina": "71340",
      "population:date": "2011"
    }
  },
  {
    "osm_id": -5892891,
    "boundary": "administrative",
    "admin_level": 8,
    "parents": "-13022323,-1677007,-1658166,-1741311",
    "name": "Savski Venac Urban Municipality",
    "local_name": "Градска општина Савски венац",
    "name_en": "Savski Venac Urban Municipality",
    "all_tags": {
      "name": "Градска општина Савски венац",
      "name:de": "Stadtbezirk Savski Venac",
      "name:en": "Savski Venac Urban Municipality",
      "name:sr": "Градска општина Савски венац",
      "website": "https://www.savskivenac.rs/",
      "boundary": "administrative",
      "way_area": "0.00160242",
      "wikidata": "Q2083624",
      "wikipedia": "sr:Градска општина Савски венац",
      "population": "38660",
      "admin_level": "8",
      "name:sr-Latn": "Gradska opština Savski venac",
      "ref:RS:opstina": "70220"
    }
  },
  {
    "osm_id": -5731335,
    "boundary": "administrative",
    "admin_level": 8,
    "parents": "-13022323,-1677007,-1658166,-1741311",
    "name": "Vracar Urban Municipality",
    "local_name": "Градска општина Врачар",
    "name_en": "Vracar Urban Municipality",
    "all_tags": {
      "name": "Градска општина Врачар",
      "name:de": "Stadtbezirk Vračar",
      "name:en": "Vracar Urban Municipality",
      "name:sr": "Градска општина Врачар",
      "website": "https://www.vracar.org.rs/",
      "boundary": "administrative",
      "way_area": "0.000331318",
      "wikidata": "Q1006522",
      "wikipedia": "sr:Градска општина Врачар",
      "admin_level": "8",
      "name:prefix": "Градска општина",
      "postal_code": "11000",
      "name:sr-Latn": "Gradska opština Vračar",
      "name:prefix:de": "Stadtbezirk",
      "name:prefix:sr": "Градска општина",
      "name:suffix:en": "Urban Municipality",
      "ref:RS:opstina": "70114",
      "name:prefix:sr-Latn": "Gradska opština"
    }
  },
  {
    "osm_id": -3129939,
    "boundary": "administrative",
    "admin_level": 8,
    "parents": "-1765275,-2959530,-1658166,-1741311",
    "name": "Mali Zvornik Municipality",
    "local_name": "Општина Мали Зворник",
    "name_en": "Mali Zvornik Municipality",
    "all_tags": {
      "name": "Општина Мали Зворник",
      "name:de": "Gemeinde Mali Zvornik",
      "name:en": "Mali Zvornik Municipality",
      "name:sr": "Општина Мали Зворник",
      "boundary": "administrative",
      "way_area": "0.0207619",
      "wikidata": "Q1282903",
      "wikipedia": "sr:Општина Мали Зворник",
      "admin_level": "8",
      "name:sr-Latn": "Opština Mali Zvornik",
      "ref:RS:opstina": "70793"
    }
  },
  {
    "osm_id": -3085750,
    "boundary": "administrative",
    "admin_level": 8,
    "parents": "-13022323,-1677007,-1658166,-1741311",
    "name": "Zemun Urban Municipality",
    "local_name": "Градска општина Земун",
    "name_en": "Zemun Urban Municipality",
    "all_tags": {
      "name": "Градска општина Земун",
      "name:de": "Stadtbezirk Semlin",
      "name:en": "Zemun Urban Municipality",
      "name:sr": "Градска општина Земун",
      "website": "http://www.zemun.rs/",
      "boundary": "administrative",
      "way_area": "0.0170588",
      "wikidata": "Q4191285",
      "wikipedia": "sr:Градска општина Земун",
      "admin_level": "8",
      "name:sr-Latn": "Gradska opština Zemun",
      "ref:RS:opstina": "70157"
    }
  },
  {
    "osm_id": -3085749,
    "boundary": "administrative",
    "admin_level": 8,
    "parents": "-13022323,-1677007,-1658166,-1741311",
    "name": "New Belgrade Urban Municipality",
    "local_name": "Градска општина Нови Београд",
    "name_en": "New Belgrade Urban Municipality",
    "all_tags": {
      "name": "Градска општина Нови Београд",
      "name:de": "Stadtbezirk Neu-Belgrad",
      "name:en": "New Belgrade Urban Municipality",
      "name:sr": "Градска општина Нови Београд",
      "website": "http://www.novibeograd.rs/",
      "boundary": "administrative",
      "way_area": "0.00462826",
      "wikidata": "Q252098",
      "wikipedia": "sr:Градска општина Нови Београд",
      "admin_level": "8",
      "name:sr-Latn": "Gradska opština Novi Beograd",
      "ref:RS:opstina": "70181"
    }
  },
  {
    "osm_id": -3085424,
    "boundary": "administrative",
    "admin_level": 8,
    "parents": "-13022323,-1677007,-1658166,-1741311",
    "name": "Surcin Urban Municipality",
    "local_name": "Градска општина Сурчин",
    "name_en": "Surcin Urban Municipality",
    "all_tags": {
      "name": "Градска општина Сурчин",
      "name:de": "Stadtbezirk Surčin",
      "name:en": "Surcin Urban Municipality",
      "name:sr": "Градска општина Сурчин",
      "website": "http://www.surcin.rs/",
      "boundary": "administrative",
      "way_area": "0.0328047",
      "wikidata": "Q594610",
      "wikipedia": "sr:Градска општина Сурчин",
      "admin_level": "8",
      "name:sr-Latn": "Gradska opština Surčin",
      "ref:RS:opstina": "71293"
    }
  },
  {
    "osm_id": -3065612,
    "boundary": "administrative",
    "admin_level": 8,
    "parents": "-13022323,-1677007,-1658166,-1741311",
    "name": "Sopot Urban Municipality",
    "local_name": "Градска општина Сопот",
    "name_en": "Sopot Urban Municipality",
    "all_tags": {
      "name": "Градска општина Сопот",
      "name:de": "Stadtbezirk Sopot",
      "name:en": "Sopot Urban Municipality",
      "name:sr": "Градска општина Сопот",
      "website": "http://www.sopot.org.rs/",
      "boundary": "administrative",
      "way_area": "0.0306419",
      "wikidata": "Q3657458",
      "wikipedia": "sr:Градска општина Сопот",
      "admin_level": "8",
      "name:sr-Latn": "Gradska opština Sopot",
      "ref:RS:opstina": "70238"
    }
  },
  {
    "osm_id": -3065611,
    "boundary": "administrative",
    "admin_level": 8,
    "parents": "-13022323,-1677007,-1658166,-1741311",
    "name": "Grocka Urban Municipality",
    "local_name": "Градска општина Гроцка",
    "name_en": "Grocka Urban Municipality",
    "all_tags": {
      "name": "Градска општина Гроцка",
      "name:de": "Stadtbezirk Grocka",
      "name:en": "Grocka Urban Municipality",
      "name:sr": "Градска општина Гроцка",
      "website": "http://www.grocka.org.rs/",
      "boundary": "administrative",
      "way_area": "0.0340065",
      "wikidata": "Q691992",
      "wikipedia": "sr:Градска општина Гроцка",
      "admin_level": "8",
      "name:sr-Latn": "Gradska opština Grocka",
      "ref:RS:opstina": "70122"
    }
  },
  {
    "osm_id": -3065610,
    "boundary": "administrative",
    "admin_level": 8,
    "parents": "-13022323,-1677007,-1658166,-1741311",
    "name": "Barajevo Urban Municipality",
    "local_name": "Градска општина Барајево",
    "name_en": "Barajevo Urban Municipality",
    "all_tags": {
      "name": "Градска општина Барајево",
      "name:de": "Stadtbezirk Barajevo",
      "name:en": "Barajevo Urban Municipality",
      "name:sr": "Градска општина Барајево",
      "website": "http://www.barajevo.org.rs/",
      "boundary": "administrative",
      "way_area": "0.0241381",
      "wikidata": "Q12750432",
      "wikipedia": "sr:Градска општина Барајево",
      "admin_level": "8",
      "name:sr-Latn": "Gradska opština Barajevo",
      "ref:RS:opstina": "70092"
    }
  },
  {
    "osm_id": -3059655,
    "boundary": "administrative",
    "admin_level": 8,
    "parents": "-13022323,-1677007,-1658166,-1741311",
    "name": "Obrenovac Urban Municipality",
    "local_name": "Градска општина Обреновац",
    "name_en": "Obrenovac Urban Municipality",
    "all_tags": {
      "name": "Градска општина Обреновац",
      "name:de": "Stadtbezirk Obrenowatz",
      "name:en": "Obrenovac Urban Municipality",
      "name:sr": "Градска општина Обреновац",
      "website": "http://www.obrenovac.rs/",
      "boundary": "administrative",
      "way_area": "0.0465128",
      "wikidata": "Q4329866",
      "wikipedia": "sr:Градска општина Обреновац",
      "admin_level": "8",
      "name:sr-Latn": "Gradska opština Obrenovac",
      "ref:RS:opstina": "70190"
    }
  },
  {
    "osm_id": -3059654,
    "boundary": "administrative",
    "admin_level": 8,
    "parents": "-13022323,-1677007,-1658166,-1741311",
    "name": "Lazarevac Urban Municipality",
    "local_name": "Градска општина Лазаревац",
    "name_en": "Lazarevac Urban Municipality",
    "all_tags": {
      "name": "Градска општина Лазаревац",
      "name:de": "Stadtbezirk Lazarevac",
      "name:en": "Lazarevac Urban Municipality",
      "name:sr": "Градска општина Лазаревац",
      "website": "http://www.lazarevac.rs/",
      "boundary": "administrative",
      "way_area": "0.0432549",
      "wikidata": "Q3471112",
      "wikipedia": "sr:Градска општина Лазаревац",
      "admin_level": "8",
      "name:sr-Latn": "Gradska opština Lazarevac",
      "ref:RS:opstina": "70165"
    }
  },
  {
    "osm_id": -2872872,
    "boundary": "administrative",
    "admin_level": 8,
    "parents": "-2114084,-2959530,-1658166,-1741311",
    "name": "Sjenica Municipality",
    "local_name": "Општина Сјеница",
    "name_en": "Sjenica Municipality",
    "all_tags": {
      "name": "Општина Сјеница",
      "name:en": "Sjenica Municipality",
      "name:sr": "Општина Сјеница",
      "boundary": "administrative",
      "way_area": "0.117276",
      "wikidata": "Q2500661",
      "wikipedia": "sr:Општина Сјеница",
      "admin_level": "8",
      "name:sr-Latn": "Opština Sjenica",
      "ref:RS:opstina": "71072"
    }
  },
  {
    "osm_id": -2872871,
    "boundary": "administrative",
    "admin_level": 8,
    "parents": "-2114084,-2959530,-1658166,-1741311",
    "name": "Prijepolje Municipality",
    "local_name": "Општина Пријепоље",
    "name_en": "Prijepolje Municipality",
    "all_tags": {
      "name": "Општина Пријепоље",
      "name:en": "Prijepolje Municipality",
      "name:ru": "Община Приеполье",
      "name:sr": "Општина Пријепоље",
      "boundary": "administrative",
      "way_area": "0.0918253",
      "wikidata": "Q2500681",
      "wikipedia": "sr:Општина Пријепоље",
      "admin_level": "8",
      "name:sr-Latn": "Opština Prijepolje",
      "ref:RS:opstina": "70980"
    }
  },
  {
    "osm_id": -2872870,
    "boundary": "administrative",
    "admin_level": 8,
    "parents": "-2114084,-2959530,-1658166,-1741311",
    "name": "Priboj Municipality",
    "local_name": "Општина Прибој",
    "name_en": "Priboj Municipality",
    "all_tags": {
      "name": "Општина Прибој",
      "name:en": "Priboj Municipality",
      "name:ru": "Община Прибой",
      "name:sr": "Општина Прибој",
      "boundary": "administrative",
      "way_area": "0.061551",
      "wikidata": "Q464053",
      "wikipedia": "sr:Општина Прибој",
      "admin_level": "8",
      "name:sr-Latn": "Opština Priboj",
      "ref:RS:opstina": "70971"
    }
  },
  {
    "osm_id": -2872869,
    "boundary": "administrative",
    "admin_level": 8,
    "parents": "-2114084,-2959530,-1658166,-1741311",
    "name": "Pozega Municipality",
    "local_name": "Општина Пожега",
    "name_en": "Pozega Municipality",
    "all_tags": {
      "name": "Општина Пожега",
      "name:en": "Pozega Municipality",
      "name:sr": "Општина Пожега",
      "boundary": "administrative",
      "way_area": "0.0477432",
      "wikidata": "Q2500701",
      "wikipedia": "sr:Општина Пожега",
      "admin_level": "8",
      "name:sr-Latn": "Opština Požega",
      "ref:RS:opstina": "70955"
    }
  },
  {
    "osm_id": -2872868,
    "boundary": "administrative",
    "admin_level": 8,
    "parents": "-2114084,-2959530,-1658166,-1741311",
    "name": "Nova Varos Municipality",
    "local_name": "Општина Нова Варош",
    "name_en": "Nova Varos Municipality",
    "all_tags": {
      "name": "Општина Нова Варош",
      "name:en": "Nova Varos Municipality",
      "name:sr": "Општина Нова Варош",
      "boundary": "administrative",
      "way_area": "0.0646944",
      "wikidata": "Q2041713",
      "wikipedia": "sr:Општина Нова Варош",
      "admin_level": "8",
      "name:sr-Latn": "Opština Nova Varoš",
      "ref:RS:opstina": "70866"
    }
  },
  {
    "osm_id": -2872867,
    "boundary": "administrative",
    "admin_level": 8,
    "parents": "-2114084,-2959530,-1658166,-1741311",
    "name": "Kosjeric Municipality",
    "local_name": "Општина Косјерић",
    "name_en": "Kosjeric Municipality",
    "all_tags": {
      "name": "Општина Косјерић",
      "name:en": "Kosjeric Municipality",
      "name:sr": "Општина Косјерић",
      "boundary": "administrative",
      "way_area": "0.040271",
      "wikidata": "Q2500654",
      "wikipedia": "sr:Општина Косјерић",
      "admin_level": "8",
      "name:sr-Latn": "Opština Kosjerić",
      "ref:RS:opstina": "70629"
    }
  },
  {
    "osm_id": -2872866,
    "boundary": "administrative",
    "admin_level": 8,
    "parents": "-2114084,-2959530,-1658166,-1741311",
    "name": "Cajetina Municipality",
    "local_name": "Општина Чајетина",
    "name_en": "Cajetina Municipality",
    "all_tags": {
      "name": "Општина Чајетина",
      "name:en": "Cajetina Municipality",
      "name:sr": "Општина Чајетина",
      "boundary": "administrative",
      "way_area": "0.0721994",
      "wikidata": "Q1250050",
      "wikipedia": "sr:Општина Чајетина",
      "admin_level": "8",
      "name:sr-Latn": "Opština Čajetina",
      "ref:RS:opstina": "71234"
    }
  },
  {
    "osm_id": -2872865,
    "boundary": "administrative",
    "admin_level": 8,
    "parents": "-2114084,-2959530,-1658166,-1741311",
    "name": "Bajina Basta Municipality",
    "local_name": "Општина Бајина Башта",
    "name_en": "Bajina Basta Municipality",
    "all_tags": {
      "name": "Општина Бајина Башта",
      "name:en": "Bajina Basta Municipality",
      "name:sr": "Општина Бајина Башта",
      "boundary": "administrative",
      "way_area": "0.0755166",
      "wikidata": "Q1811753",
      "wikipedia": "sr:Општина Бајина Башта",
      "admin_level": "8",
      "name:sr-Latn": "Opština Bajina Bašta",
      "ref:RS:opstina": "70068"
    }
  },
  {
    "osm_id": -2872864,
    "boundary": "administrative",
    "admin_level": 8,
    "parents": "-2114084,-2959530,-1658166,-1741311",
    "name": "Arilje Municipality",
    "local_name": "Општина Ариље",
    "name_en": "Arilje Municipality",
    "all_tags": {
      "name": "Општина Ариље",
      "name:en": "Arilje Municipality",
      "name:sr": "Општина Ариље",
      "boundary": "administrative",
      "way_area": "0.0389644",
      "wikidata": "Q2041757",
      "wikipedia": "sr:Општина Ариље",
      "admin_level": "8",
      "name:sr-Latn": "Opština Arilje",
      "ref:RS:opstina": "70041"
    }
  },
  {
    "osm_id": -2871518,
    "boundary": "administrative",
    "admin_level": 8,
    "parents": "-2107511,-2959530,-1658166,-1741311",
    "name": "Ub Municipality",
    "local_name": "Општина Уб",
    "name_en": "Ub Municipality",
    "all_tags": {
      "name": "Општина Уб",
      "name:en": "Ub Municipality",
      "name:sr": "Општина Уб",
      "boundary": "administrative",
      "way_area": "0.0516027",
      "wikidata": "Q12756688",
      "wikipedia": "sr:Општина Уб",
      "admin_level": "8",
      "name:sr-Latn": "Opština Ub",
      "ref:RS:opstina": "71218"
    }
  },
  {
    "osm_id": -2871517,
    "boundary": "administrative",
    "admin_level": 8,
    "parents": "-2107511,-2959530,-1658166,-1741311",
    "name": "Osecina Municipality",
    "local_name": "Општина Осечина",
    "name_en": "Osecina Municipality",
    "all_tags": {
      "name": "Општина Осечина",
      "name:en": "Osecina Municipality",
      "name:sr": "Општина Осечина",
      "boundary": "administrative",
      "way_area": "0.0359527",
      "wikidata": "Q15629061",
      "wikipedia": "sr:Општина Осечина",
      "admin_level": "8",
      "name:sr-Latn": "Opština Osečina",
      "ref:RS:opstina": "70882"
    }
  },
  {
    "osm_id": -2871516,
    "boundary": "administrative",
    "admin_level": 8,
    "parents": "-2107511,-2959530,-1658166,-1741311",
    "name": "Mionica Municipality",
    "local_name": "Општина Мионица",
    "name_en": "Mionica Municipality",
    "all_tags": {
      "name": "Општина Мионица",
      "name:en": "Mionica Municipality",
      "name:sr": "Општина Мионица",
      "boundary": "administrative",
      "way_area": "0.0371122",
      "wikidata": "Q2047412",
      "wikipedia": "sr:Општина Мионица",
      "admin_level": "8",
      "name:sr-Latn": "Opština Mionica",
      "ref:RS:opstina": "70831"
    }
  },
  {
    "osm_id": -2871515,
    "boundary": "administrative",
    "admin_level": 8,
    "parents": "-2107511,-2959530,-1658166,-1741311",
    "name": "Ljig Municipality",
    "local_name": "Општина Љиг",
    "name_en": "Ljig Municipality",
    "all_tags": {
      "name": "Општина Љиг",
      "name:en": "Ljig Municipality",
      "name:sr": "Општина Љиг",
      "boundary": "administrative",
      "way_area": "0.0313921",
      "wikidata": "Q2360583",
      "wikipedia": "sr:Општина Љиг",
      "admin_level": "8",
      "name:sr-Latn": "Opština Ljig",
      "ref:RS:opstina": "70769"
    }
  },
  {
    "osm_id": -2871514,
    "boundary": "administrative",
    "admin_level": 8,
    "parents": "-2107511,-2959530,-1658166,-1741311",
    "name": "Lajkovac Municipality",
    "local_name": "Општина Лајковац",
    "name_en": "Lajkovac Municipality",
    "all_tags": {
      "name": "Општина Лајковац",
      "name:en": "Lajkovac Municipality",
      "name:sr": "Општина Лајковац",
      "boundary": "administrative",
      "way_area": "0.0209093",
      "wikidata": "Q2048243",
      "wikipedia": "sr:Општина Лајковац",
      "admin_level": "8",
      "name:sr-Latn": "Opština Lajkovac",
      "ref:RS:opstina": "70700"
    }
  },
  {
    "osm_id": -2870956,
    "boundary": "administrative",
    "admin_level": 8,
    "parents": "-2114082,-2959530,-1658166,-1741311",
    "name": "Lucani Municipality",
    "local_name": "Општина Лучани",
    "name_en": "Lucani Municipality",
    "all_tags": {
      "name": "Општина Лучани",
      "name:en": "Lucani Municipality",
      "name:sr": "Општина Лучани",
      "boundary": "administrative",
      "way_area": "0.0508216",
      "wikidata": "Q1252566",
      "wikipedia": "sr:Општина Лучани",
      "admin_level": "8",
      "name:sr-Latn": "Opština Lučani",
      "ref:RS:opstina": "70742"
    }
  },
  {
    "osm_id": -2870955,
    "boundary": "administrative",
    "admin_level": 8,
    "parents": "-2114082,-2959530,-1658166,-1741311",
    "name": "Ivanjica Municipality",
    "local_name": "Општина Ивањица",
    "name_en": "Ivanjica Municipality",
    "all_tags": {
      "name": "Општина Ивањица",
      "name:en": "Ivanjica Municipality",
      "name:sr": "Општина Ивањица",
      "boundary": "administrative",
      "way_area": "0.121256",
      "wikidata": "Q4195757",
      "wikipedia": "sr:Општина Ивањица",
      "admin_level": "8",
      "name:sr-Latn": "Opština Ivanjica",
      "ref:RS:opstina": "70564"
    }
  },
  {
    "osm_id": -2870954,
    "boundary": "administrative",
    "admin_level": 8,
    "parents": "-2114082,-2959530,-1658166,-1741311",
    "name": "Gornji Milanovac Municipality",
    "local_name": "Општина Горњи Милановац",
    "name_en": "Gornji Milanovac Municipality",
    "all_tags": {
      "name": "Општина Горњи Милановац",
      "name:en": "Gornji Milanovac Municipality",
      "name:sr": "Општина Горњи Милановац",
      "boundary": "administrative",
      "way_area": "0.0939604",
      "wikidata": "Q4856130",
      "wikipedia": "sr:Општина Горњи Милановац",
      "admin_level": "8",
      "name:sr-Latn": "Opština Gornji Milanovac",
      "ref:RS:opstina": "70483"
    }
  },
  {
    "osm_id": -2870906,
    "boundary": "administrative",
    "admin_level": 8,
    "parents": "-2109264,-2959530,-1658166,-1741311",
    "name": "Topola Municipality",
    "local_name": "Општина Топола",
    "name_en": "Topola Municipality",
    "all_tags": {
      "name": "Општина Топола",
      "name:en": "Topola Municipality",
      "name:sr": "Општина Топола",
      "boundary": "administrative",
      "way_area": "0.0401775",
      "wikidata": "Q2047435",
      "wikipedia": "sr:Општина Топола",
      "admin_level": "8",
      "name:sr-Latn": "Opština Topola",
      "ref:RS:opstina": "71153"
    }
  },
  {
    "osm_id": -2870905,
    "boundary": "administrative",
    "admin_level": 8,
    "parents": "-2109264,-2959530,-1658166,-1741311",
    "name": "Raca Municipality",
    "local_name": "Општина Рача",
    "name_en": "Raca Municipality",
    "all_tags": {
      "name": "Општина Рача",
      "name:en": "Raca Municipality",
      "name:sr": "Општина Рача",
      "boundary": "administrative",
      "way_area": "0.0242786",
      "wikidata": "Q1288101",
      "wikipedia": "sr:Општина Рача",
      "admin_level": "8",
      "name:sr-Latn": "Opština Rača",
      "ref:RS:opstina": "71013"
    }
  },
  {
    "osm_id": -2870904,
    "boundary": "administrative",
    "admin_level": 8,
    "parents": "-2109264,-2959530,-1658166,-1741311",
    "name": "Lapovo Municipality",
    "local_name": "Општина Лапово",
    "name_en": "Lapovo Municipality",
    "all_tags": {
      "name": "Општина Лапово",
      "name:en": "Lapovo Municipality",
      "name:sr": "Општина Лапово",
      "boundary": "administrative",
      "way_area": "0.00617744",
      "wikidata": "Q2041698",
      "wikipedia": "sr:Општина Лапово",
      "admin_level": "8",
      "name:sr-Latn": "Opština Lapovo",
      "ref:RS:opstina": "71277"
    }
  },
  {
    "osm_id": -2870903,
    "boundary": "administrative",
    "admin_level": 8,
    "parents": "-2109264,-2959530,-1658166,-1741311",
    "name": "Knic Municipality",
    "local_name": "Општина Кнић",
    "name_en": "Knic Municipality",
    "all_tags": {
      "name": "Општина Кнић",
      "name:en": "Knic Municipality",
      "name:sr": "Општина Кнић",
      "boundary": "administrative",
      "way_area": "0.0463089",
      "wikidata": "Q18376128",
      "wikipedia": "sr:Општина Кнић",
      "admin_level": "8",
      "name:sr-Latn": "Opština Knić",
      "ref:RS:opstina": "70599"
    }
  },
  {
    "osm_id": -2870902,
    "boundary": "administrative",
    "admin_level": 8,
    "parents": "-2109264,-2959530,-1658166,-1741311",
    "name": "Batocina Municipality",
    "local_name": "Општина Баточина",
    "name_en": "Batocina Municipality",
    "all_tags": {
      "name": "Општина Баточина",
      "name:en": "Batocina Municipality",
      "name:sr": "Општина Баточина",
      "boundary": "administrative",
      "way_area": "0.0152596",
      "wikidata": "Q17613911",
      "wikipedia": "sr:Општина Баточина",
      "admin_level": "8",
      "name:sr-Latn": "Opština Batočina",
      "ref:RS:opstina": "70076"
    }
  },
  {
    "osm_id": -2870901,
    "boundary": "administrative",
    "admin_level": 8,
    "parents": "-2109264,-2959530,-1658166,-1741311",
    "name": "Arandjelovac Municipality",
    "local_name": "Општина Аранђеловац",
    "name_en": "Arandjelovac Municipality",
    "all_tags": {
      "name": "Општина Аранђеловац",
      "name:en": "Arandjelovac Municipality",
      "name:sr": "Општина Аранђеловац",
      "boundary": "administrative",
      "int_name": "Opstina Arandjelovac",
      "way_area": "0.0423873",
      "wikidata": "Q2041745",
      "wikipedia": "sr:Општина Аранђеловац",
      "admin_level": "8",
      "name:sr-Latn": "Opština Aranđelovac",
      "ref:RS:opstina": "70033"
    }
  },
  {
    "osm_id": -2870060,
    "boundary": "administrative",
    "admin_level": 8,
    "parents": "-2109236,-2959529,-1658166,-1741311",
    "name": "Veliko Gradiste Municipality",
    "local_name": "Општина Велико Градиште",
    "name_en": "Veliko Gradiste Municipality",
    "all_tags": {
      "name": "Општина Велико Градиште",
      "name:en": "Veliko Gradiste Municipality",
      "name:sr": "Општина Велико Градиште",
      "boundary": "administrative",
      "way_area": "0.0389374",
      "wikidata": "Q2041692",
      "wikipedia": "sr:Општина Велико Градиште",
      "admin_level": "8",
      "name:sr-Latn": "Opština Veliko Gradište",
      "ref:RS:opstina": "70394"
    }
  },
  {
    "osm_id": -2870059,
    "boundary": "administrative",
    "admin_level": 8,
    "parents": "-2109236,-2959529,-1658166,-1741311",
    "name": "Petrovac-na-Mlavi Municipality",
    "local_name": "Општина Петровац на Млави",
    "name_en": "Petrovac-na-Mlavi Municipality",
    "all_tags": {
      "name": "Општина Петровац на Млави",
      "name:en": "Petrovac-na-Mlavi Municipality",
      "name:sr": "Општина Петровац на Млави",
      "boundary": "administrative",
      "way_area": "0.0739505",
      "wikidata": "Q2047406",
      "wikipedia": "sr:Општина Петровац на Млави",
      "admin_level": "8",
      "name:sr-Latn": "Opština Petrovac na Mlavi",
      "ref:RS:opstina": "70912"
    }
  },
  {
    "osm_id": -2870058,
    "boundary": "administrative",
    "admin_level": 8,
    "parents": "-2109236,-2959529,-1658166,-1741311",
    "name": "Malo Crnice Municipality",
    "local_name": "Општина Мало Црниће",
    "name_en": "Malo Crnice Municipality",
    "all_tags": {
      "name": "Општина Мало Црниће",
      "name:en": "Malo Crnice Municipality",
      "name:sr": "Општина Мало Црниће",
      "boundary": "administrative",
      "way_area": "0.0305194",
      "wikidata": "Q2047453",
      "wikipedia": "sr:Општина Мало Црниће",
      "admin_level": "8",
      "name:sr-Latn": "Opština Malo Crniće",
      "ref:RS:opstina": "70807"
    }
  },
  {
    "osm_id": -2870057,
    "boundary": "administrative",
    "admin_level": 8,
    "parents": "-2109236,-2959529,-1658166,-1741311",
    "name": "Kucevo Municipality",
    "local_name": "Општина Кучево",
    "name_en": "Kucevo Municipality",
    "all_tags": {
      "name": "Општина Кучево",
      "name:en": "Kucevo Municipality",
      "name:sr": "Општина Кучево",
      "boundary": "administrative",
      "way_area": "0.0815816",
      "wikidata": "Q1486117",
      "wikipedia": "sr:Општина Кучево",
      "admin_level": "8",
      "name:sr-Latn": "Opština Kučevo",
      "ref:RS:opstina": "70696"
    }
  },
  {
    "osm_id": -2870056,
    "boundary": "administrative",
    "admin_level": 8,
    "parents": "-2109236,-2959529,-1658166,-1741311",
    "name": "Golubac Municipality",
    "local_name": "Општина Голубац",
    "name_en": "Golubac Municipality",
    "all_tags": {
      "name": "Општина Голубац",
      "name:en": "Golubac Municipality",
      "name:sr": "Општина Голубац",
      "boundary": "administrative",
      "way_area": "0.0416077",
      "wikidata": "Q2047467",
      "wikipedia": "sr:Општина Голубац",
      "admin_level": "8",
      "name:sr-Latn": "Opština Golubac",
      "ref:RS:opstina": "70475"
    }
  },
  {
    "osm_id": -2869912,
    "boundary": "administrative",
    "admin_level": 8,
    "parents": "-2109236,-2959529,-1658166,-1741311",
    "name": "Zagubica Municipality",
    "local_name": "Општина Жагубица",
    "name_en": "Zagubica Municipality",
    "all_tags": {
      "name": "Општина Жагубица",
      "name:en": "Zagubica Municipality",
      "name:sr": "Општина Жагубица",
      "boundary": "administrative",
      "way_area": "0.0856007",
      "wikidata": "Q393335",
      "wikipedia": "sr:Општина Жагубица",
      "admin_level": "8",
      "name:sr-Latn": "Opština Žagubica",
      "ref:RS:opstina": "70530"
    }
  },
  {
    "osm_id": -2869911,
    "boundary": "administrative",
    "admin_level": 8,
    "parents": "-2109236,-2959529,-1658166,-1741311",
    "name": "Zabari Municipality",
    "local_name": "Општина Жабари",
    "name_en": "Zabari Municipality",
    "all_tags": {
      "name": "Општина Жабари",
      "name:en": "Zabari Municipality",
      "name:sr": "Општина Жабари",
      "boundary": "administrative",
      "way_area": "0.0297537",
      "wikidata": "Q2019035",
      "wikipedia": "sr:Општина Жабари",
      "admin_level": "8",
      "name:sr-Latn": "Opština Žabari",
      "ref:RS:opstina": "70521"
    }
  },
  {
    "osm_id": -2869910,
    "boundary": "administrative",
    "admin_level": 8,
    "parents": "-2107619,-2959529,-1658166,-1741311",
    "name": "Velika Plana Municipality",
    "local_name": "Општина Велика Плана",
    "name_en": "Velika Plana Municipality",
    "all_tags": {
      "name": "Општина Велика Плана",
      "name:en": "Velika Plana Municipality",
      "name:sr": "Општина Велика Плана",
      "boundary": "administrative",
      "way_area": "0.0390055",
      "wikidata": "Q2047388",
      "wikipedia": "sr:Општина Велика Плана",
      "admin_level": "8",
      "name:sr-Latn": "Opština Velika Plana",
      "ref:RS:opstina": "70386"
    }
  },
  {
    "osm_id": -2869909,
    "boundary": "administrative",
    "admin_level": 8,
    "parents": "-2107619,-2959529,-1658166,-1741311",
    "name": "Smederevska Palanka Municipality",
    "local_name": "Општина Смедеревска Паланка",
    "name_en": "Smederevska Palanka Municipality",
    "all_tags": {
      "name": "Општина Смедеревска Паланка",
      "name:en": "Smederevska Palanka Municipality",
      "name:sr": "Општина Смедеревска Паланка",
      "boundary": "administrative",
      "way_area": "0.0475912",
      "wikidata": "Q2041674",
      "wikipedia": "sr:Општина Смедеревска Паланка",
      "admin_level": "8",
      "name:sr-Latn": "Opština Smederevska Palanka",
      "ref:RS:opstina": "71102"
    }
  },
  {
    "osm_id": -2869338,
    "boundary": "administrative",
    "admin_level": 8,
    "parents": "-2109306,-2959530,-1658166,-1741311",
    "name": "Svilajnac Municipality",
    "local_name": "Општина Свилајнац",
    "name_en": "Svilajnac Municipality",
    "all_tags": {
      "name": "Општина Свилајнац",
      "name:en": "Svilajnac Municipality",
      "name:sr": "Општина Свилајнац",
      "boundary": "administrative",
      "way_area": "0.0367155",
      "wikidata": "Q737497",
      "wikipedia": "sr:Општина Свилајнац",
      "admin_level": "8",
      "name:sr-Latn": "Opština Svilajnac",
      "ref:RS:opstina": "71056"
    }
  },
  {
    "osm_id": -2869337,
    "boundary": "administrative",
    "admin_level": 8,
    "parents": "-2109306,-2959530,-1658166,-1741311",
    "name": "Rekovac Municipality",
    "local_name": "Општина Рековац",
    "name_en": "Rekovac Municipality",
    "all_tags": {
      "name": "Општина Рековац",
      "name:en": "Rekovac Municipality",
      "name:sr": "Општина Рековац",
      "boundary": "administrative",
      "way_area": "0.0409509",
      "wikidata": "Q441278",
      "wikipedia": "sr:Општина Рековац",
      "admin_level": "8",
      "name:sr-Latn": "Opština Rekovac",
      "ref:RS:opstina": "71030"
    }
  },
  {
    "osm_id": -2869336,
    "boundary": "administrative",
    "admin_level": 8,
    "parents": "-2109306,-2959530,-1658166,-1741311",
    "name": "Paracin Municipality",
    "local_name": "Општина Параћин",
    "name_en": "Paracin Municipality",
    "all_tags": {
      "name": "Општина Параћин",
      "name:en": "Paracin Municipality",
      "name:sr": "Општина Параћин",
      "boundary": "administrative",
      "way_area": "0.0606029",
      "wikidata": "Q3503630",
      "wikipedia": "sr:Општина Параћин",
      "admin_level": "8",
      "name:sr-Latn": "Opština Paraćin",
      "ref:RS:opstina": "70904"
    }
  },
  {
    "osm_id": -2869335,
    "boundary": "administrative",
    "admin_level": 8,
    "parents": "-2109306,-2959530,-1658166,-1741311",
    "name": "Despotovac Municipality",
    "local_name": "Општина Деспотовац",
    "name_en": "Despotovac Municipality",
    "all_tags": {
      "name": "Општина Деспотовац",
      "name:en": "Despotovac Municipality",
      "name:sr": "Општина Деспотовац",
      "boundary": "administrative",
      "way_area": "0.0700307",
      "wikidata": "Q1250081",
      "wikipedia": "sr:Општина Деспотовац",
      "admin_level": "8",
      "name:sr-Latn": "Opština Despotovac",
      "ref:RS:opstina": "70491"
    }
  },
  {
    "osm_id": -2869334,
    "boundary": "administrative",
    "admin_level": 8,
    "parents": "-2109306,-2959530,-1658166,-1741311",
    "name": "Cuprija Municipality",
    "local_name": "Општина Ћуприја",
    "name_en": "Cuprija Municipality",
    "all_tags": {
      "name": "Општина Ћуприја",
      "name:en": "Cuprija Municipality",
      "name:sr": "Општина Ћуприја",
      "boundary": "administrative",
      "way_area": "0.0323007",
      "wikidata": "Q1475280",
      "wikipedia": "sr:Општина Ћуприја",
      "admin_level": "8",
      "name:sr-Latn": "Opština Ćuprija",
      "ref:RS:opstina": "71200"
    }
  },
  {
    "osm_id": -2869102,
    "boundary": "administrative",
    "admin_level": 8,
    "parents": "-2114083,-2959529,-1658166,-1741311",
    "name": "Sokobanja Municipality",
    "local_name": "Општина Сокобања",
    "name_en": "Sokobanja Municipality",
    "all_tags": {
      "name": "Општина Сокобања",
      "name:en": "Sokobanja Municipality",
      "name:sr": "Општина Сокобања",
      "boundary": "administrative",
      "way_area": "0.0586282",
      "wikidata": "Q838616",
      "wikipedia": "sr:Општина Сокобања",
      "admin_level": "8",
      "name:sr-Latn": "Opština Sokobanja",
      "ref:RS:opstina": "71129"
    }
  },
  {
    "osm_id": -2869101,
    "boundary": "administrative",
    "admin_level": 8,
    "parents": "-2114083,-2959529,-1658166,-1741311",
    "name": "Knjazevac Municipality",
    "local_name": "Општина Књажевац",
    "name_en": "Knjazevac Municipality",
    "all_tags": {
      "name": "Општина Књажевац",
      "name:en": "Knjazevac Municipality",
      "name:sr": "Општина Књажевац",
      "boundary": "administrative",
      "way_area": "0.133885",
      "wikidata": "Q1348256",
      "wikipedia": "sr:Општина Књажевац",
      "admin_level": "8",
      "name:sr-Latn": "Opština Knjaževac",
      "ref:RS:opstina": "70602"
    }
  },
  {
    "osm_id": -2869100,
    "boundary": "administrative",
    "admin_level": 8,
    "parents": "-2114083,-2959529,-1658166,-1741311",
    "name": "Boljevac Municipality",
    "local_name": "Општина Бољевац",
    "name_en": "Boljevac Municipality",
    "all_tags": {
      "name": "Општина Бољевац",
      "name:en": "Boljevac Municipality",
      "name:sr": "Општина Бољевац",
      "boundary": "administrative",
      "way_area": "0.0926659",
      "wikidata": "Q2047431",
      "wikipedia": "sr:Општина Бољевац",
      "admin_level": "8",
      "name:sr-Latn": "Opština Boljevac",
      "ref:RS:opstina": "70319"
    }
  },
  {
    "osm_id": -2867627,
    "boundary": "administrative",
    "admin_level": 8,
    "parents": "-2117179,-2959529,-1658166,-1741311",
    "name": "Svrljig Municipality",
    "local_name": "Општина Сврљиг",
    "name_en": "Svrljig Municipality",
    "all_tags": {
      "name": "Општина Сврљиг",
      "name:en": "Svrljig Municipality",
      "name:sr": "Општина Сврљиг",
      "boundary": "administrative",
      "way_area": "0.0552782",
      "wikidata": "Q1250074",
      "wikipedia": "sr:Општина Сврљиг",
      "admin_level": "8",
      "name:sr-Latn": "Opština Svrljig",
      "ref:RS:opstina": "71064"
    }
  },
  {
    "osm_id": -2867626,
    "boundary": "administrative",
    "admin_level": 8,
    "parents": "-2117179,-2959529,-1658166,-1741311",
    "name": "Razanj Municipality",
    "local_name": "Општина Ражањ",
    "name_en": "Razanj Municipality",
    "all_tags": {
      "name": "Општина Ражањ",
      "name:en": "Razanj Municipality",
      "name:sr": "Општина Ражањ",
      "boundary": "administrative",
      "way_area": "0.0322452",
      "wikidata": "Q2041705",
      "wikipedia": "sr:Општина Ражањ",
      "admin_level": "8",
      "name:sr-Latn": "Opština Ražanj",
      "ref:RS:opstina": "71005"
    }
  },
  {
    "osm_id": -2867625,
    "boundary": "administrative",
    "admin_level": 8,
    "parents": "-2117179,-2959529,-1658166,-1741311",
    "name": "Merosina Municipality",
    "local_name": "Општина Мерошина",
    "name_en": "Merosina Municipality",
    "all_tags": {
      "name": "Општина Мерошина",
      "name:en": "Merosina Municipality",
      "name:sr": "Општина Мерошина",
      "boundary": "administrative",
      "way_area": "0.0214283",
      "wikidata": "Q2041788",
      "wikipedia": "sr:Општина Мерошина",
      "admin_level": "8",
      "name:sr-Latn": "Opština Merošina",
      "ref:RS:opstina": "70823"
    }
  },
  {
    "osm_id": -2867624,
    "boundary": "administrative",
    "admin_level": 8,
    "parents": "-2117179,-2959529,-1658166,-1741311",
    "name": "Gadzin Han Municipality",
    "local_name": "Општина Гаџин Хан",
    "name_en": "Gadzin Han Municipality",
    "all_tags": {
      "name": "Општина Гаџин Хан",
      "name:en": "Gadzin Han Municipality",
      "name:sr": "Општина Гаџин Хан",
      "boundary": "administrative",
      "way_area": "0.0359483",
      "wikidata": "Q2535004",
      "wikipedia": "sr:Општина Гаџин Хан",
      "admin_level": "8",
      "name:sr-Latn": "Opština Gadžin Han",
      "ref:RS:opstina": "70467"
    }
  },
  {
    "osm_id": -2867623,
    "boundary": "administrative",
    "admin_level": 8,
    "parents": "-2117179,-2959529,-1658166,-1741311",
    "name": "Doljevac Municipality",
    "local_name": "Општина Дољевац",
    "name_en": "Doljevac Municipality",
    "all_tags": {
      "name": "Општина Дољевац",
      "name:en": "Doljevac Municipality",
      "name:sr": "Општина Дољевац",
      "boundary": "administrative",
      "way_area": "0.0134334",
      "wikidata": "Q1235642",
      "wikipedia": "sr:Општина Дољевац",
      "admin_level": "8",
      "name:sr-Latn": "Opština Doljevac",
      "ref:RS:opstina": "70513"
    }
  },
  {
    "osm_id": -2867622,
    "boundary": "administrative",
    "admin_level": 8,
    "parents": "-2117179,-2959529,-1658166,-1741311",
    "name": "Aleksinac Municipality",
    "local_name": "Општина Алексинац",
    "name_en": "Aleksinac Municipality",
    "all_tags": {
      "name": "Општина Алексинац",
      "name:en": "Aleksinac Municipality",
      "name:sr": "Општина Алексинац",
      "boundary": "administrative",
      "way_area": "0.0787018",
      "wikidata": "Q1270290",
      "wikipedia": "sr:Општина Алексинац",
      "admin_level": "8",
      "name:sr-Latn": "Opština Aleksinac",
      "ref:RS:opstina": "70025"
    }
  },
  {
    "osm_id": -2867386,
    "boundary": "administrative",
    "admin_level": 8,
    "parents": "-2116926,-2959530,-1658166,-1741311",
    "name": "Vrnjacka Banja Municipality",
    "local_name": "Општина Врњачка Бања",
    "name_en": "Vrnjacka Banja Municipality",
    "all_tags": {
      "name": "Општина Врњачка Бања",
      "name:en": "Vrnjacka Banja Municipality",
      "name:sr": "Општина Врњачка Бања",
      "boundary": "administrative",
      "way_area": "0.026597",
      "wikidata": "Q2047443",
      "wikipedia": "sr:Општина Врњачка Бања",
      "admin_level": "8",
      "name:sr-Latn": "Opština Vrnjačka Banja",
      "ref:RS:opstina": "70459"
    }
  },
  {
    "osm_id": -2867385,
    "boundary": "administrative",
    "admin_level": 8,
    "parents": "-2116926,-2959530,-1658166,-1741311",
    "name": "Tutin Municipality",
    "local_name": "Општина Тутин",
    "name_en": "Tutin Municipality",
    "all_tags": {
      "name": "Општина Тутин",
      "name:en": "Tutin Municipality",
      "name:sr": "Општина Тутин",
      "boundary": "administrative",
      "way_area": "0.0818873",
      "wikidata": "Q2043118",
      "wikipedia": "sr:Општина Тутин",
      "admin_level": "8",
      "name:sr-Latn": "Opština Tutin",
      "ref:RS:opstina": "71188"
    }
  },
  {
    "osm_id": -2867384,
    "boundary": "administrative",
    "admin_level": 8,
    "parents": "-2116926,-2959530,-1658166,-1741311",
    "name": "Raska Municipality",
    "local_name": "Општина Рашка",
    "name_en": "Raska Municipality",
    "all_tags": {
      "name": "Општина Рашка",
      "name:en": "Raska Municipality",
      "name:sr": "Општина Рашка",
      "boundary": "administrative",
      "way_area": "0.0743806",
      "wikidata": "Q2500624",
      "wikipedia": "sr:Општина Рашка",
      "admin_level": "8",
      "name:sr-Latn": "Opština Raška",
      "ref:RS:opstina": "71021"
    }
  },
  {
    "osm_id": -2867203,
    "boundary": "administrative",
    "admin_level": 8,
    "parents": "-2117182,-2959530,-1658166,-1741311",
    "name": "Varvarin Municipality",
    "local_name": "Општина Варварин",
    "name_en": "Varvarin Municipality",
    "all_tags": {
      "name": "Општина Варварин",
      "name:en": "Varvarin Municipality",
      "name:sr": "Општина Варварин",
      "boundary": "administrative",
      "way_area": "0.0278589",
      "wikidata": "Q2041738",
      "wikipedia": "sr:Општина Варварин",
      "admin_level": "8",
      "name:sr-Latn": "Opština Varvarin",
      "ref:RS:opstina": "70378"
    }
  },
  {
    "osm_id": -2867202,
    "boundary": "administrative",
    "admin_level": 8,
    "parents": "-2117182,-2959530,-1658166,-1741311",
    "name": "Trstenik Municipality",
    "local_name": "Општина Трстеник",
    "name_en": "Trstenik Municipality",
    "all_tags": {
      "name": "Општина Трстеник",
      "name:en": "Trstenik Municipality",
      "name:sr": "Општина Трстеник",
      "boundary": "administrative",
      "way_area": "0.0499803",
      "wikidata": "Q4464110",
      "wikipedia": "sr:Општина Трстеник",
      "admin_level": "8",
      "name:sr-Latn": "Opština Trstenik",
      "ref:RS:opstina": "71170"
    }
  },
  {
    "osm_id": -2867201,
    "boundary": "administrative",
    "admin_level": 8,
    "parents": "-2117182,-2959530,-1658166,-1741311",
    "name": "Cicevac Municipality",
    "local_name": "Општина Ћићевац",
    "name_en": "Cicevac Municipality",
    "all_tags": {
      "name": "Општина Ћићевац",
      "name:en": "Cicevac Municipality",
      "name:sr": "Општина Ћићевац",
      "boundary": "administrative",
      "way_area": "0.0138018",
      "wikidata": "Q2041779",
      "wikipedia": "sr:Општина Ћићевац",
      "admin_level": "8",
      "name:sr-Latn": "Opština Ćićevac",
      "ref:RS:opstina": "71196"
    }
  },
  {
    "osm_id": -2867200,
    "boundary": "administrative",
    "admin_level": 8,
    "parents": "-2117182,-2959530,-1658166,-1741311",
    "name": "Brus Municipality",
    "local_name": "Општина Брус",
    "name_en": "Brus Municipality",
    "all_tags": {
      "name": "Општина Брус",
      "name:en": "Brus Municipality",
      "name:sr": "Општина Брус",
      "boundary": "administrative",
      "way_area": "0.0672354",
      "wikidata": "Q1263153",
      "wikipedia": "sr:Општина Брус",
      "admin_level": "8",
      "name:sr-Latn": "Opština Brus",
      "ref:RS:opstina": "70343"
    }
  },
  {
    "osm_id": -2867199,
    "boundary": "administrative",
    "admin_level": 8,
    "parents": "-2117182,-2959530,-1658166,-1741311",
    "name": "Aleksandrovac Municipality",
    "local_name": "Општина Александровац",
    "name_en": "Aleksandrovac Municipality",
    "all_tags": {
      "name": "Општина Александровац",
      "name:en": "Aleksandrovac Municipality",
      "name:sr": "Општина Александровац",
      "boundary": "administrative",
      "way_area": "0.0430019",
      "wikidata": "Q1579510",
      "wikipedia": "sr:Општина Александровац",
      "admin_level": "8",
      "name:sr-Latn": "Opština Aleksandrovac",
      "ref:RS:opstina": "70017"
    }
  },
  {
    "osm_id": -2863768,
    "boundary": "administrative",
    "admin_level": 8,
    "parents": "-2117109,-2959529,-1658166,-1741311",
    "name": "Kursumlija Municipality",
    "local_name": "Општина Куршумлија",
    "name_en": "Kursumlija Municipality",
    "all_tags": {
      "name": "Општина Куршумлија",
      "name:el": "Δήμος Κουρσούμλια",
      "name:en": "Kursumlija Municipality",
      "name:sr": "Општина Куршумлија",
      "boundary": "administrative",
      "way_area": "0.105197",
      "wikidata": "Q2047381",
      "wikipedia": "sr:Општина Куршумлија",
      "admin_level": "8",
      "name:sr-Latn": "Opština Kuršumlija",
      "ref:RS:opstina": "70688"
    }
  },
  {
    "osm_id": -2863767,
    "boundary": "administrative",
    "admin_level": 8,
    "parents": "-2117109,-2959529,-1658166,-1741311",
    "name": "Blace Municipality",
    "local_name": "Општина Блаце",
    "name_en": "Blace Municipality",
    "all_tags": {
      "name": "Општина Блаце",
      "name:en": "Blace Municipality",
      "name:sr": "Општина Блаце",
      "boundary": "administrative",
      "way_area": "0.0339631",
      "wikidata": "Q2041665",
      "wikipedia": "sr:Општина Блаце",
      "admin_level": "8",
      "name:sr-Latn": "Opština Blace",
      "ref:RS:opstina": "70262"
    }
  },
  {
    "osm_id": -2862820,
    "boundary": "administrative",
    "admin_level": 8,
    "parents": "-2117109,-2959529,-1658166,-1741311",
    "name": "Zitoradja Municipality",
    "local_name": "Општина Житорађа",
    "name_en": "Zitoradja Municipality",
    "all_tags": {
      "name": "Општина Житорађа",
      "name:en": "Zitoradja Municipality",
      "name:sr": "Општина Житорађа",
      "boundary": "administrative",
      "int_name": "Opstina Zitoradja",
      "way_area": "0.0236926",
      "wikidata": "Q2047474",
      "wikipedia": "sr:Општина Житорађа",
      "admin_level": "8",
      "name:sr-Latn": "Opština Žitorađa",
      "ref:RS:opstina": "70548"
    }
  },
  {
    "osm_id": -2860574,
    "boundary": "administrative",
    "admin_level": 8,
    "parents": "-2117003,-2959529,-1658166,-1741311",
    "name": "Dimitrovgrad Municipality",
    "local_name": "Општина Димитровград",
    "name_en": "Dimitrovgrad Municipality",
    "all_tags": {
      "name": "Општина Димитровград",
      "name:en": "Dimitrovgrad Municipality",
      "name:ru": "община Димитровград",
      "name:sr": "Општина Димитровград",
      "boundary": "administrative",
      "way_area": "0.0533673",
      "wikidata": "Q4161724",
      "wikipedia": "sr:Општина Димитровград",
      "admin_level": "8",
      "name:sr-Latn": "Opština Dimitrovgrad",
      "ref:RS:opstina": "70505"
    }
  },
  {
    "osm_id": -2860573,
    "boundary": "administrative",
    "admin_level": 8,
    "parents": "-2117003,-2959529,-1658166,-1741311",
    "name": "Bela Palanka Municipality",
    "local_name": "Општина Бела Паланка",
    "name_en": "Bela Palanka Municipality",
    "all_tags": {
      "name": "Општина Бела Паланка",
      "name:en": "Bela Palanka Municipality",
      "name:sr": "Општина Бела Паланка",
      "boundary": "administrative",
      "way_area": "0.0572899",
      "wikidata": "Q1264591",
      "wikipedia": "sr:Општина Бела Паланка",
      "admin_level": "8",
      "name:sr-Latn": "Opština Bela Palanka",
      "ref:RS:opstina": "70084"
    }
  },
  {
    "osm_id": -2860572,
    "boundary": "administrative",
    "admin_level": 8,
    "parents": "-2117003,-2959529,-1658166,-1741311",
    "name": "Babusnica Municipality",
    "local_name": "Општина Бабушница",
    "name_en": "Babusnica Municipality",
    "all_tags": {
      "name": "Општина Бабушница",
      "name:en": "Babusnica Municipality",
      "name:ru": "община Бабушница",
      "name:sr": "Општина Бабушница",
      "boundary": "administrative",
      "way_area": "0.0583684",
      "wikidata": "Q15093698",
      "wikipedia": "sr:Општина Бабушница",
      "admin_level": "8",
      "name:sr-Latn": "Opština Babušnica",
      "ref:RS:opstina": "70050"
    }
  },
  {
    "osm_id": -2860306,
    "boundary": "administrative",
    "admin_level": 8,
    "parents": "-2117027,-2959529,-1658166,-1741311",
    "name": "Medvedja Municipality",
    "local_name": "Општина Медвеђа",
    "name_en": "Medvedja Municipality",
    "all_tags": {
      "name": "Општина Медвеђа",
      "name:en": "Medvedja Municipality",
      "name:sq": "Komuna e Medvegjёs",
      "name:sr": "Општина Медвеђа",
      "boundary": "administrative",
      "int_name": "Opstina Medvedja",
      "way_area": "0.057725",
      "wikidata": "Q3448696",
      "wikipedia": "sr:Општина Медвеђа",
      "admin_level": "8",
      "name:sr-Latn": "Opština Medveđa",
      "ref:RS:opstina": "70815"
    }
  },
  {
    "osm_id": -2860305,
    "boundary": "administrative",
    "admin_level": 8,
    "parents": "-2117027,-2959529,-1658166,-1741311",
    "name": "Lebane Municipality",
    "local_name": "Општина Лебане",
    "name_en": "Lebane Municipality",
    "all_tags": {
      "name": "Општина Лебане",
      "name:en": "Lebane Municipality",
      "name:sr": "Општина Лебане",
      "boundary": "administrative",
      "way_area": "0.0371172",
      "wikidata": "Q3448747",
      "wikipedia": "sr:Општина Лебане",
      "admin_level": "8",
      "name:sr-Latn": "Opština Lebane",
      "ref:RS:opstina": "70718"
    }
  },
  {
    "osm_id": -2860304,
    "boundary": "administrative",
    "admin_level": 8,
    "parents": "-2117027,-2959529,-1658166,-1741311",
    "name": "Bojnik Municipality",
    "local_name": "Општина Бојник",
    "name_en": "Bojnik Municipality",
    "all_tags": {
      "name": "Општина Бојник",
      "name:en": "Bojnik Municipality",
      "name:sr": "Општина Бојник",
      "boundary": "administrative",
      "way_area": "0.0291436",
      "wikidata": "Q2041762",
      "wikipedia": "sr:Општина Бојник",
      "admin_level": "8",
      "name:sr-Latn": "Opština Bojnik",
      "ref:RS:opstina": "70297"
    }
  },
  {
    "osm_id": -2860204,
    "boundary": "administrative",
    "admin_level": 8,
    "parents": "-2117027,-2959529,-1658166,-1741311",
    "name": "Vlasotince Municipality",
    "local_name": "Општина Власотинце",
    "name_en": "Vlasotince Municipality",
    "all_tags": {
      "name": "Општина Власотинце",
      "name:en": "Vlasotince Municipality",
      "name:sr": "Општина Власотинце",
      "boundary": "administrative",
      "way_area": "0.0339766",
      "wikidata": "Q3441142",
      "wikipedia": "sr:Општина Власотинце",
      "admin_level": "8",
      "name:sr-Latn": "Opština Vlasotince",
      "ref:RS:opstina": "70424"
    }
  },
  {
    "osm_id": -2860203,
    "boundary": "administrative",
    "admin_level": 8,
    "parents": "-2117027,-2959529,-1658166,-1741311",
    "name": "Crna Trava Municipality",
    "local_name": "Општина Црна Трава",
    "name_en": "Crna Trava Municipality",
    "all_tags": {
      "name": "Општина Црна Трава",
      "name:en": "Crna Trava Municipality",
      "name:sr": "Општина Црна Трава",
      "boundary": "administrative",
      "way_area": "0.0343593",
      "wikidata": "Q573651",
      "wikipedia": "sr:Општина Црна Трава",
      "admin_level": "8",
      "name:sr-Latn": "Opština Crna Trava",
      "ref:RS:opstina": "71226"
    }
  },
  {
    "osm_id": -2223784,
    "boundary": "administrative",
    "admin_level": 8,
    "parents": "-13022323,-1677007,-1658166,-1741311",
    "name": "Mladenovac Urban Municipality",
    "local_name": "Градска општина Младеновац",
    "name_en": "Mladenovac Urban Municipality",
    "all_tags": {
      "name": "Градска општина Младеновац",
      "name:de": "Stadtbezirk Mladenovac",
      "name:en": "Mladenovac Urban Municipality",
      "name:sr": "Градска општина Младеновац",
      "website": "http://www.mladenovac.rs/",
      "boundary": "administrative",
      "way_area": "0.0383289",
      "wikidata": "Q167858",
      "wikipedia": "sr:Градска општина Младеновац",
      "admin_level": "8",
      "name:sr-Latn": "Gradska opština Mladenovac",
      "ref:RS:opstina": "70173"
    }
  },
  {
    "osm_id": -2190517,
    "boundary": "administrative",
    "admin_level": 8,
    "parents": "-2015385,-2959529,-1658166,-1741311",
    "name": "Vladicin Han Municipality",
    "local_name": "Општина Владичин Хан",
    "name_en": "Vladicin Han Municipality",
    "all_tags": {
      "name": "Општина Владичин Хан",
      "name:en": "Vladicin Han Municipality",
      "name:sr": "Општина Владичин Хан",
      "boundary": "administrative",
      "way_area": "0.0402061",
      "wikidata": "Q2500669",
      "wikipedia": "sr:Општина Владичин Хан",
      "admin_level": "8",
      "name:sr-Latn": "Opština Vladičin Han",
      "ref:RS:opstina": "70416"
    }
  },
  {
    "osm_id": -2190449,
    "boundary": "administrative",
    "admin_level": 8,
    "parents": "-2015385,-2959529,-1658166,-1741311",
    "name": "Trgoviste Municipality",
    "local_name": "Општина Трговиште",
    "name_en": "Trgoviste Municipality",
    "all_tags": {
      "name": "Општина Трговиште",
      "name:en": "Trgoviste Municipality",
      "name:sr": "Општина Трговиште",
      "boundary": "administrative",
      "way_area": "0.040515",
      "wikidata": "Q1551657",
      "wikipedia": "sr:Општина Трговиште",
      "admin_level": "8",
      "name:sr-Latn": "Opština Trgovište",
      "ref:RS:opstina": "71161"
    }
  },
  {
    "osm_id": -2190386,
    "boundary": "administrative",
    "admin_level": 8,
    "parents": "-2015385,-2959529,-1658166,-1741311",
    "name": "Bosilegrad Municipality",
    "local_name": "Општина Босилеград",
    "name_en": "Bosilegrad Municipality",
    "all_tags": {
      "name": "Општина Босилеград",
      "name:bg": "Община Босилеград",
      "name:el": "Δήμος Μποσίλεγκραντ",
      "name:en": "Bosilegrad Municipality",
      "name:mk": "Општина Босилеград",
      "name:sr": "Општина Босилеград",
      "boundary": "administrative",
      "way_area": "0.0625247",
      "wikidata": "Q2986161",
      "wikipedia": "sr:Општина Босилеград",
      "admin_level": "8",
      "name:sr-Latn": "Opština Bosilegrad",
      "ref:RS:opstina": "70335"
    }
  },
  {
    "osm_id": -2190332,
    "boundary": "administrative",
    "admin_level": 8,
    "parents": "-2015385,-2959529,-1658166,-1741311",
    "name": "Surdulica Municipality",
    "local_name": "Општина Сурдулица",
    "name_en": "Surdulica Municipality",
    "all_tags": {
      "name": "Општина Сурдулица",
      "name:en": "Surdulica Municipality",
      "name:sr": "Општина Сурдулица",
      "boundary": "administrative",
      "way_area": "0.0690145",
      "wikidata": "Q1264710",
      "wikipedia": "sr:Општина Сурдулица",
      "admin_level": "8",
      "name:sr-Latn": "Opština Surdulica",
      "ref:RS:opstina": "71137"
    }
  },
  {
    "osm_id": -2027114,
    "boundary": "administrative",
    "admin_level": 8,
    "parents": "-13022323,-1677007,-1658166,-1741311",
    "name": "Stari Grad Urban Municipality",
    "local_name": "Градска општина Стари град",
    "name_en": "Stari Grad Urban Municipality",
    "all_tags": {
      "name": "Градска општина Стари град",
      "name:de": "Stadtbezirk Stari Grad",
      "name:en": "Stari Grad Urban Municipality",
      "name:sr": "Градска општина Стари град",
      "website": "http://www.starigrad.org.rs/",
      "boundary": "administrative",
      "way_area": "0.000612086",
      "wikidata": "Q971700",
      "wikipedia": "sr:Градска општина Стари град (Београд)",
      "admin_level": "8",
      "name:sr-Latn": "Gradska opština Stari grad",
      "ref:RS:opstina": "70246"
    }
  },
  {
    "osm_id": -1765277,
    "boundary": "administrative",
    "admin_level": 8,
    "parents": "-1765275,-2959530,-1658166,-1741311",
    "name": "Ljubovija Municipality",
    "local_name": "Општина Љубовија",
    "name_en": "Ljubovija Municipality",
    "all_tags": {
      "name": "Општина Љубовија",
      "name:de": "Gemeinde Ljubovija",
      "name:en": "Ljubovija Municipality",
      "name:sr": "Општина Љубовија",
      "boundary": "administrative",
      "way_area": "0.0401107",
      "wikidata": "Q7232898",
      "wikipedia": "sr:Општина Љубовија",
      "admin_level": "8",
      "name:sr-Latn": "Opština Ljubovija",
      "ref:RS:opstina": "70777"
    }
  },
  {
    "osm_id": -1765276,
    "boundary": "administrative",
    "admin_level": 8,
    "parents": "-1765275,-2959530,-1658166,-1741311",
    "name": "Krupanj Municipality",
    "local_name": "Општина Крупањ",
    "name_en": "Krupanj Municipality",
    "all_tags": {
      "name": "Општина Крупањ",
      "name:en": "Krupanj Municipality",
      "name:sr": "Општина Крупањ",
      "boundary": "administrative",
      "way_area": "0.0386253",
      "wikidata": "Q2041771",
      "wikipedia": "sr:Општина Крупањ",
      "admin_level": "8",
      "name:sr-Latn": "Opština Krupanj",
      "ref:RS:opstina": "70661"
    }
  },
  {
    "osm_id": -1765234,
    "boundary": "administrative",
    "admin_level": 8,
    "parents": "-1765275,-2959530,-1658166,-1741311",
    "name": "Koceljeva Municipality",
    "local_name": "Општина Коцељева",
    "name_en": "Koceljeva Municipality",
    "all_tags": {
      "name": "Општина Коцељева",
      "name:en": "Koceljeva Municipality",
      "name:sr": "Општина Коцељева",
      "boundary": "administrative",
      "way_area": "0.0291259",
      "wikidata": "Q2170006",
      "wikipedia": "sr:Општина Коцељева",
      "admin_level": "8",
      "name:sr-Latn": "Opština Koceljeva",
      "ref:RS:opstina": "70637"
    }
  },
  {
    "osm_id": -1764881,
    "boundary": "administrative",
    "admin_level": 8,
    "parents": "-1765275,-2959530,-1658166,-1741311",
    "name": "Vladimirci Municipality",
    "local_name": "Општина Владимирци",
    "name_en": "Vladimirci Municipality",
    "all_tags": {
      "name": "Општина Владимирци",
      "name:en": "Vladimirci Municipality",
      "name:sr": "Општина Владимирци",
      "boundary": "administrative",
      "way_area": "0.0382727",
      "wikidata": "Q2047458",
      "wikipedia": "sr:Општина Владимирци",
      "admin_level": "8",
      "name:sr-Latn": "Opština Vladimirci",
      "ref:RS:opstina": "70408"
    }
  },
  {
    "osm_id": -1708280,
    "boundary": "administrative",
    "admin_level": 8,
    "parents": "-1708277,-2959529,-1658166,-1741311",
    "name": "Majdanpek Municipality",
    "local_name": "Општина Мајданпек",
    "name_en": "Majdanpek Municipality",
    "all_tags": {
      "name": "Општина Мајданпек",
      "name:en": "Majdanpek Municipality",
      "name:sr": "Општина Мајданпек",
      "boundary": "administrative",
      "way_area": "0.105213",
      "wikidata": "Q1808548",
      "wikipedia": "sr:Општина Мајданпек",
      "admin_level": "8",
      "name:sr-Latn": "Opština Majdanpek",
      "ref:RS:opstina": "70785"
    }
  },
  {
    "osm_id": -1708279,
    "boundary": "administrative",
    "admin_level": 8,
    "parents": "-1708277,-2959529,-1658166,-1741311",
    "name": "Kladovo Municipality",
    "local_name": "Општина Кладово",
    "name_en": "Kladovo Municipality",
    "all_tags": {
      "name": "Општина Кладово",
      "name:en": "Kladovo Municipality",
      "name:sr": "Општина Кладово",
      "boundary": "administrative",
      "way_area": "0.0710154",
      "wikidata": "Q1467253",
      "wikipedia": "sr:Општина Кладово",
      "admin_level": "8",
      "name:sr-Latn": "Opština Kladovo",
      "ref:RS:opstina": "70572"
    }
  },
  {
    "osm_id": -1706478,
    "boundary": "administrative",
    "admin_level": 8,
    "parents": "-1708277,-2959529,-1658166,-1741311",
    "name": "Negotin Municipality",
    "local_name": "Општина Неготин",
    "name_en": "Negotin Municipality",
    "all_tags": {
      "name": "Општина Неготин",
      "name:en": "Negotin Municipality",
      "name:sr": "Општина Неготин",
      "OBJECTID": "44",
      "boundary": "administrative",
      "way_area": "0.122761",
      "wikidata": "Q1572127",
      "wikipedia": "sr:Општина Неготин",
      "LOCAL_COMM": "COMMUNE NEGOTIN",
      "SHAPE_Area": "1085189801.57",
      "SHAPE_Leng": "178343.355644",
      "admin_level": "8",
      "name:sr-Latn": "Opština Negotin",
      "ref:RS:opstina": "70840"
    }
  },
  {
    "osm_id": -1649681,
    "boundary": "administrative",
    "admin_level": 8,
    "parents": "-1649671,-1279074,-1741311",
    "name": "Zabalj Municipality",
    "local_name": "Општина Жабаљ",
    "name_en": "Zabalj Municipality",
    "all_tags": {
      "name": "Општина Жабаљ",
      "name:en": "Zabalj Municipality",
      "name:hu": "Zsablya község",
      "name:sr": "Општина Жабаљ",
      "boundary": "administrative",
      "way_area": "0.0459454",
      "wikidata": "Q897234",
      "wikipedia": "sr:Општина Жабаљ",
      "admin_level": "8",
      "name:sr-Latn": "Opština Žabalj",
      "ref:RS:opstina": "80136"
    }
  },
  {
    "osm_id": -1649680,
    "boundary": "administrative",
    "admin_level": 8,
    "parents": "-1649671,-1279074,-1741311",
    "name": "Vrbas Municipality",
    "local_name": "Општина Врбас",
    "name_en": "Vrbas Municipality",
    "all_tags": {
      "name": "Општина Врбас",
      "name:de": "Gemeinde Werbass",
      "name:en": "Vrbas Municipality",
      "name:hr": "Općina Vrbas",
      "name:hu": "Verbász község",
      "name:sr": "Општина Врбас",
      "boundary": "administrative",
      "way_area": "0.0432427",
      "wikidata": "Q855687",
      "wikipedia": "sr:Општина Врбас",
      "admin_level": "8",
      "name:sr-Latn": "Opština Vrbas",
      "ref:RS:opstina": "80462"
    }
  },
  {
    "osm_id": -1649679,
    "boundary": "administrative",
    "admin_level": 8,
    "parents": "-1649671,-1279074,-1741311",
    "name": "Titel Municipality",
    "local_name": "Општина Тител",
    "name_en": "Titel Municipality",
    "all_tags": {
      "name": "Општина Тител",
      "name:en": "Titel Municipality",
      "name:hu": "Titel község",
      "name:sr": "Општина Тител",
      "boundary": "administrative",
      "way_area": "0.029889",
      "wikidata": "Q855640",
      "wikipedia": "sr:Општина Тител",
      "admin_level": "8",
      "name:sr-Latn": "Opština Titel",
      "ref:RS:opstina": "80454"
    }
  },
  {
    "osm_id": -1649678,
    "boundary": "administrative",
    "admin_level": 8,
    "parents": "-1649671,-1279074,-1741311",
    "name": "Temerin Municipality",
    "local_name": "Општина Темерин",
    "name_en": "Temerin Municipality",
    "all_tags": {
      "name": "Општина Темерин",
      "name:en": "Temerin Municipality",
      "name:hu": "Temerin község",
      "name:sr": "Општина Темерин",
      "boundary": "administrative",
      "way_area": "0.0195022",
      "wikidata": "Q855670",
      "wikipedia": "sr:Општина Темерин",
      "admin_level": "8",
      "name:sr-Latn": "Opština Temerin",
      "ref:RS:opstina": "80446"
    }
  },
  {
    "osm_id": -1649677,
    "boundary": "administrative",
    "admin_level": 8,
    "parents": "-1649671,-1279074,-1741311",
    "name": "Sremski Karlovci Municipality",
    "local_name": "Општина Сремски Карловци",
    "name_en": "Sremski Karlovci Municipality",
    "all_tags": {
      "name": "Општина Сремски Карловци",
      "name:en": "Sremski Karlovci Municipality",
      "name:hu": "Karlóca község",
      "name:sr": "Општина Сремски Карловци",
      "boundary": "administrative",
      "way_area": "0.00578942",
      "wikidata": "Q828274",
      "wikipedia": "sr:Општина Сремски Карловци",
      "admin_level": "8",
      "name:sr-Latn": "Opština Sremski Karlovci",
      "ref:RS:opstina": "80411"
    }
  },
  {
    "osm_id": -1649676,
    "boundary": "administrative",
    "admin_level": 8,
    "parents": "-1649671,-1279074,-1741311",
    "name": "Srbobran Municipality",
    "local_name": "Општина Србобран",
    "name_en": "Srbobran Municipality",
    "all_tags": {
      "name": "Општина Србобран",
      "name:en": "Srbobran Municipality",
      "name:hu": "Szenttamás község",
      "name:sr": "Општина Србобран",
      "boundary": "administrative",
      "way_area": "0.0327515",
      "wikidata": "Q432320",
      "wikipedia": "sr:Општина Србобран",
      "admin_level": "8",
      "name:sr-Latn": "Opština Srbobran",
      "ref:RS:opstina": "80390"
    }
  },
  {
    "osm_id": -1649675,
    "boundary": "administrative",
    "admin_level": 8,
    "parents": "-1649671,-1279074,-1741311",
    "name": "Beocin Municipality",
    "local_name": "Општина Беочин",
    "name_en": "Beocin Municipality",
    "all_tags": {
      "name": "Општина Беочин",
      "name:en": "Beocin Municipality",
      "name:hu": "Belcsény község",
      "name:sr": "Општина Беочин",
      "boundary": "administrative",
      "way_area": "0.0210916",
      "wikidata": "Q792224",
      "wikipedia": "sr:Општина Беочин",
      "admin_level": "8",
      "name:sr-Latn": "Opština Beočin",
      "ref:RS:opstina": "80101"
    }
  },
  {
    "osm_id": -1649674,
    "boundary": "administrative",
    "admin_level": 8,
    "parents": "-1649671,-1279074,-1741311",
    "name": "Backi Petrovac Municipality",
    "local_name": "Општина Бачки Петровац",
    "name_en": "Backi Petrovac Municipality",
    "all_tags": {
      "name": "Општина Бачки Петровац",
      "name:en": "Backi Petrovac Municipality",
      "name:hu": "Petrőc község",
      "name:sk": "Obec Báčsky Petrovec",
      "name:sr": "Општина Бачки Петровац",
      "boundary": "administrative",
      "way_area": "0.0181794",
      "wikidata": "Q924735",
      "wikipedia": "sr:Општина Бачки Петровац",
      "admin_level": "8",
      "name:sr-Latn": "Opština Bački Petrovac",
      "ref:RS:opstina": "80080"
    }
  },
  {
    "osm_id": -1649673,
    "boundary": "administrative",
    "admin_level": 8,
    "parents": "-1649671,-1279074,-1741311",
    "name": "Backa Palanka Municipality",
    "local_name": "Општина Бачка Паланка",
    "name_en": "Backa Palanka Municipality",
    "all_tags": {
      "name": "Општина Бачка Паланка",
      "name:en": "Backa Palanka Municipality",
      "name:hu": "Palánka község",
      "name:sr": "Општина Бачка Паланка",
      "boundary": "administrative",
      "way_area": "0.0676942",
      "wikidata": "Q855709",
      "wikipedia": "sr:Општина Бачка Паланка",
      "admin_level": "8",
      "name:sr-Latn": "Opština Bačka Palanka",
      "ref:RS:opstina": "80063"
    }
  },
  {
    "osm_id": -1642400,
    "boundary": "administrative",
    "admin_level": 8,
    "parents": "-1649671,-1279074,-1741311",
    "name": "Becej Municipality",
    "local_name": "Општина Бечеј",
    "name_en": "Becej Municipality",
    "all_tags": {
      "name": "Општина Бечеј",
      "name:en": "Becej Municipality",
      "name:hr": "Općina Bečej",
      "name:hu": "Óbecse község",
      "name:sr": "Општина Бечеј",
      "boundary": "administrative",
      "way_area": "0.0561534",
      "wikidata": "Q855695",
      "wikipedia": "sr:Општина Бечеј",
      "admin_level": "8",
      "name:sr-Latn": "Opština Bečej",
      "ref:RS:opstina": "80110"
    }
  },
  {
    "osm_id": -1639911,
    "boundary": "administrative",
    "admin_level": 8,
    "parents": "-1649671,-1279074,-1741311",
    "name": "Bac Municipality",
    "local_name": "Општина Бач",
    "name_en": "Bac Municipality",
    "all_tags": {
      "name": "Општина Бач",
      "name:en": "Bac Municipality",
      "name:hu": "Bács község",
      "name:sr": "Општина Бач",
      "boundary": "administrative",
      "way_area": "0.0422102",
      "wikidata": "Q852570",
      "wikipedia": "sr:Општина Бач",
      "admin_level": "8",
      "name:sr-Latn": "Opština Bač",
      "ref:RS:opstina": "80055"
    }
  },
  {
    "osm_id": -1639910,
    "boundary": "administrative",
    "admin_level": 8,
    "parents": "-1639908,-1279074,-1741311",
    "name": "Odzaci Municipality",
    "local_name": "Општина Оџаци",
    "name_en": "Odzaci Municipality",
    "all_tags": {
      "name": "Општина Оџаци",
      "name:en": "Odzaci Municipality",
      "name:hr": "Općina Odžaci",
      "name:hu": "Hódság község",
      "name:sr": "Општина Оџаци",
      "boundary": "administrative",
      "way_area": "0.0473284",
      "wikidata": "Q657427",
      "wikipedia": "sr:Општина Оџаци",
      "admin_level": "8",
      "name:sr-Latn": "Opština Odžaci",
      "ref:RS:opstina": "80306"
    }
  },
  {
    "osm_id": -1639909,
    "boundary": "administrative",
    "admin_level": 8,
    "parents": "-1639908,-1279074,-1741311",
    "name": "Kula Municipality",
    "local_name": "Општина Кула",
    "name_en": "Kula Municipality",
    "all_tags": {
      "name": "Општина Кула",
      "name:en": "Kula Municipality",
      "name:hr": "Općina Kula",
      "name:hu": "Kula község",
      "name:sr": "Општина Кула",
      "boundary": "administrative",
      "way_area": "0.0555681",
      "wikidata": "Q2985970",
      "wikipedia": "sr:Општина Кула",
      "admin_level": "8",
      "name:sr-Latn": "Opština Kula",
      "ref:RS:opstina": "80233"
    }
  },
  {
    "osm_id": -1639825,
    "boundary": "administrative",
    "admin_level": 8,
    "parents": "-1639821,-1279074,-1741311",
    "name": "Zitiste Municipality",
    "local_name": "Општина Житиште",
    "name_en": "Zitiste Municipality",
    "all_tags": {
      "name": "Општина Житиште",
      "name:en": "Zitiste Municipality",
      "name:hu": "Bégaszentgyörgy község",
      "name:sr": "Општина Житиште",
      "boundary": "administrative",
      "way_area": "0.0604856",
      "wikidata": "Q250352",
      "wikipedia": "sr:Општина Житиште",
      "admin_level": "8",
      "name:sr-Latn": "Opština Žitište",
      "ref:RS:opstina": "80144"
    }
  },
  {
    "osm_id": -1639824,
    "boundary": "administrative",
    "admin_level": 8,
    "parents": "-1639821,-1279074,-1741311",
    "name": "Secanj Municipality",
    "local_name": "Општина Сечањ",
    "name_en": "Secanj Municipality",
    "all_tags": {
      "name": "Општина Сечањ",
      "name:en": "Secanj Municipality",
      "name:hu": "Torontálszécsány község",
      "name:sr": "Општина Сечањ",
      "boundary": "administrative",
      "way_area": "0.0600051",
      "wikidata": "Q915045",
      "wikipedia": "sr:Општина Сечањ",
      "admin_level": "8",
      "name:sr-Latn": "Opština Sečanj",
      "ref:RS:opstina": "80373"
    }
  },
  {
    "osm_id": -1639823,
    "boundary": "administrative",
    "admin_level": 8,
    "parents": "-1639821,-1279074,-1741311",
    "name": "Novi Becej Municipality",
    "local_name": "Општина Нови Бечеј",
    "name_en": "Novi Becej Municipality",
    "all_tags": {
      "name": "Општина Нови Бечеј",
      "name:en": "Novi Becej Municipality",
      "name:hu": "Törökbecse község",
      "name:sr": "Општина Нови Бечеј",
      "boundary": "administrative",
      "way_area": "0.070241",
      "wikidata": "Q914463",
      "wikipedia": "sr:Општина Нови Бечеј",
      "admin_level": "8",
      "name:sr-Latn": "Opština Novi Bečej",
      "ref:RS:opstina": "80268"
    }
  },
  {
    "osm_id": -1639822,
    "boundary": "administrative",
    "admin_level": 8,
    "parents": "-1639821,-1279074,-1741311",
    "name": "Nova Crnja Municipality",
    "local_name": "Општина Нова Црња",
    "name_en": "Nova Crnja Municipality",
    "all_tags": {
      "name": "Општина Нова Црња",
      "name:en": "Nova Crnja Municipality",
      "name:hu": "Magyarcsernye község",
      "name:sr": "Општина Нова Црња",
      "boundary": "administrative",
      "way_area": "0.0314877",
      "wikidata": "Q914410",
      "wikipedia": "sr:Општина Нова Црња",
      "admin_level": "8",
      "name:sr-Latn": "Opština Nova Crnja",
      "ref:RS:opstina": "80250"
    }
  },
  {
    "osm_id": -1639629,
    "boundary": "administrative",
    "admin_level": 8,
    "parents": "-1639630,-1279074,-1741311",
    "name": "Mali Idjos Municipality",
    "local_name": "Општина Мали Иђош",
    "name_en": "Mali Idjos Municipality",
    "all_tags": {
      "name": "Општина Мали Иђош",
      "name:en": "Mali Idjos Municipality",
      "name:hr": "Općina Mali Iđoš",
      "name:hu": "Kishegyes község",
      "name:sr": "Општина Мали Иђош",
      "boundary": "administrative",
      "int_name": "Opstina Mali Idjos",
      "way_area": "0.0209275",
      "wikidata": "Q1811772",
      "wikipedia": "sr:Општина Мали Иђош",
      "admin_level": "8",
      "name:sr-Latn": "Opština Mali Iđoš",
      "ref:RS:opstina": "80241"
    }
  },
  {
    "osm_id": -1639619,
    "boundary": "administrative",
    "admin_level": 8,
    "parents": "-1639617,-1279074,-1741311",
    "name": "Coka Municipality",
    "local_name": "Општина Чока",
    "name_en": "Coka Municipality",
    "all_tags": {
      "name": "Општина Чока",
      "name:en": "Coka Municipality",
      "name:hu": "Csóka község",
      "name:sr": "Општина Чока",
      "boundary": "administrative",
      "way_area": "0.0372595",
      "wikidata": "Q876197",
      "wikipedia": "sr:Општина Чока",
      "admin_level": "8",
      "name:sr-Latn": "Opština Čoka",
      "ref:RS:opstina": "80489"
    }
  },
  {
    "osm_id": -1639502,
    "boundary": "administrative",
    "admin_level": 8,
    "parents": "-1639496,-1279074,-1741311",
    "name": "Plandiste Municipality",
    "local_name": "Општина Пландиште",
    "name_en": "Plandiste Municipality",
    "all_tags": {
      "name": "Општина Пландиште",
      "name:en": "Plandiste Municipality",
      "name:hu": "Zichyfalva község",
      "name:sr": "Општина Пландиште",
      "boundary": "administrative",
      "way_area": "0.0439139",
      "wikidata": "Q917286",
      "wikipedia": "sr:Општина Пландиште",
      "admin_level": "8",
      "name:sr-Latn": "Opština Plandište",
      "ref:RS:opstina": "80349"
    }
  },
  {
    "osm_id": -1639501,
    "boundary": "administrative",
    "admin_level": 8,
    "parents": "-1639496,-1279074,-1741311",
    "name": "Opovo Municipality",
    "local_name": "Општина Опово",
    "name_en": "Opovo Municipality",
    "all_tags": {
      "name": "Општина Опово",
      "name:en": "Opovo Municipality",
      "name:hu": "Ópáva község",
      "name:sr": "Општина Опово",
      "boundary": "administrative",
      "way_area": "0.0232311",
      "wikidata": "Q543044",
      "wikipedia": "sr:Општина Опово",
      "admin_level": "8",
      "name:sr-Latn": "Opština Opovo",
      "ref:RS:opstina": "80292"
    }
  },
  {
    "osm_id": -1639500,
    "boundary": "administrative",
    "admin_level": 8,
    "parents": "-1639496,-1279074,-1741311",
    "name": "Kovin Municipality",
    "local_name": "Општина Ковин",
    "name_en": "Kovin Municipality",
    "all_tags": {
      "name": "Општина Ковин",
      "name:en": "Kovin Municipality",
      "name:hu": "Kevevára község",
      "name:sr": "Општина Ковин",
      "boundary": "administrative",
      "way_area": "0.0837467",
      "wikidata": "Q1041926",
      "wikipedia": "sr:Општина Ковин",
      "admin_level": "8",
      "name:sr-Latn": "Opština Kovin",
      "ref:RS:opstina": "80225"
    }
  },
  {
    "osm_id": -1639499,
    "boundary": "administrative",
    "admin_level": 8,
    "parents": "-1639496,-1279074,-1741311",
    "name": "Kovacica Municipality",
    "local_name": "Општина Ковачица",
    "name_en": "Kovacica Municipality",
    "all_tags": {
      "name": "Општина Ковачица",
      "name:en": "Kovacica Municipality",
      "name:hu": "Antalfalva község",
      "name:sr": "Општина Ковачица",
      "boundary": "administrative",
      "way_area": "0.0478606",
      "wikidata": "Q613179",
      "wikipedia": "sr:Општина Ковачица",
      "admin_level": "8",
      "name:sr-Latn": "Opština Kovačica",
      "ref:RS:opstina": "80217"
    }
  },
  {
    "osm_id": -1639498,
    "boundary": "administrative",
    "admin_level": 8,
    "parents": "-1639496,-1279074,-1741311",
    "name": "Bela Crkva Municipality",
    "local_name": "Општина Бела Црква",
    "name_en": "Bela Crkva Municipality",
    "all_tags": {
      "name": "Општина Бела Црква",
      "name:en": "Bela Crkva Municipality",
      "name:hu": "Fehértemplom község",
      "name:sr": "Општина Бела Црква",
      "boundary": "administrative",
      "way_area": "0.0402741",
      "wikidata": "Q914484",
      "wikipedia": "sr:Општина Бела Црква",
      "admin_level": "8",
      "name:sr-Latn": "Opština Bela Crkva",
      "ref:RS:opstina": "80098"
    }
  },
  {
    "osm_id": -1639497,
    "boundary": "administrative",
    "admin_level": 8,
    "parents": "-1639496,-1279074,-1741311",
    "name": "Alibunar Municipality",
    "local_name": "Општина Алибунар",
    "name_en": "Alibunar Municipality",
    "all_tags": {
      "name": "Општина Алибунар",
      "name:en": "Alibunar Municipality",
      "name:hu": "Alibunár község",
      "name:sr": "Општина Алибунар",
      "boundary": "administrative",
      "way_area": "0.0686961",
      "wikidata": "Q590106",
      "wikipedia": "sr:Општина Алибунар",
      "admin_level": "8",
      "name:sr-Latn": "Opština Alibunar",
      "ref:RS:opstina": "80039"
    }
  },
  {
    "osm_id": -1639314,
    "boundary": "administrative",
    "admin_level": 8,
    "parents": "-1639341,-1279074,-1741311",
    "name": "Sid Municipality",
    "local_name": "Општина Шид",
    "name_en": "Sid Municipality",
    "all_tags": {
      "name": "Општина Шид",
      "name:de": "Gemeinde Schid",
      "name:en": "Sid Municipality",
      "name:hu": "Sid község",
      "name:sr": "Општина Шид",
      "boundary": "administrative",
      "way_area": "0.0784607",
      "wikidata": "Q919619",
      "wikipedia": "sr:Општина Шид",
      "admin_level": "8",
      "name:sr-Latn": "Opština Šid",
      "ref:RS:opstina": "80497"
    }
  },
  {
    "osm_id": -1635758,
    "boundary": "administrative",
    "admin_level": 8,
    "parents": "-1639908,-1279074,-1741311",
    "name": "Apatin Municipality",
    "local_name": "Општина Апатин",
    "name_en": "Apatin Municipality",
    "all_tags": {
      "name": "Општина Апатин",
      "name:en": "Apatin Municipality",
      "name:hr": "Općina Apatin",
      "name:hu": "Apatin község",
      "name:sr": "Општина Апатин",
      "boundary": "administrative",
      "way_area": "0.0436244",
      "wikidata": "Q773371",
      "wikipedia": "sr:Општина Апатин",
      "admin_level": "8",
      "name:sr-Latn": "Opština Apatin",
      "ref:RS:opstina": "80047"
    }
  },
  {
    "osm_id": -1635717,
    "boundary": "administrative",
    "admin_level": 8,
    "parents": "-1639341,-1279074,-1741311",
    "name": "Stara Pazova Municipality",
    "local_name": "Општина Стара Пазова",
    "name_en": "Stara Pazova Municipality",
    "all_tags": {
      "name": "Општина Стара Пазова",
      "name:en": "Stara Pazova Municipality",
      "name:hr": "Općina Stara Pazova",
      "name:hu": "Ópazova község",
      "name:sr": "Општина Стара Пазова",
      "boundary": "administrative",
      "way_area": "0.0393058",
      "wikidata": "Q1345447",
      "wikipedia": "sr:Општина Стара Пазова",
      "admin_level": "8",
      "name:sr-Latn": "Opština Stara Pazova",
      "ref:RS:opstina": "80420"
    }
  },
  {
    "osm_id": -1635716,
    "boundary": "administrative",
    "admin_level": 8,
    "parents": "-1639341,-1279074,-1741311",
    "name": "Irig Municipality",
    "local_name": "Општина Ириг",
    "name_en": "Irig Municipality",
    "all_tags": {
      "name": "Општина Ириг",
      "name:en": "Irig Municipality",
      "name:hu": "Ürög község",
      "name:sr": "Општина Ириг",
      "boundary": "administrative",
      "way_area": "0.0262974",
      "wikidata": "Q2041648",
      "wikipedia": "sr:Општина Ириг",
      "admin_level": "8",
      "name:sr-Latn": "Opština Irig",
      "ref:RS:opstina": "80187"
    }
  },
  {
    "osm_id": -1635715,
    "boundary": "administrative",
    "admin_level": 8,
    "parents": "-1639341,-1279074,-1741311",
    "name": "Indjija Municipality",
    "local_name": "Општина Инђија",
    "name_en": "Indjija Municipality",
    "all_tags": {
      "name": "Општина Инђија",
      "name:de": "Gemeinde India",
      "name:en": "Indjija Municipality",
      "name:hu": "Ingyia község",
      "name:sr": "Општина Инђија",
      "boundary": "administrative",
      "int_name": "Opstina Indjija",
      "way_area": "0.0439759",
      "wikidata": "Q740472",
      "wikipedia": "sr:Општина Инђија",
      "admin_level": "8",
      "name:sr-Latn": "Opština Inđija",
      "ref:RS:opstina": "80179"
    }
  },
  {
    "osm_id": -1633271,
    "boundary": "administrative",
    "admin_level": 8,
    "parents": "-1639341,-1279074,-1741311",
    "name": "Ruma Municipality",
    "local_name": "Општина Рума",
    "name_en": "Ruma Municipality",
    "all_tags": {
      "name": "Општина Рума",
      "name:en": "Ruma Municipality",
      "name:hu": "Ruma község",
      "name:sr": "Општина Рума",
      "boundary": "administrative",
      "way_area": "0.0663184",
      "wikidata": "Q2041682",
      "wikipedia": "sr:Општина Рума",
      "admin_level": "8",
      "name:sr-Latn": "Opština Ruma",
      "ref:RS:opstina": "80357"
    }
  },
  {
    "osm_id": -1633270,
    "boundary": "administrative",
    "admin_level": 8,
    "parents": "-1639341,-1279074,-1741311",
    "name": "Pecinci Municipality",
    "local_name": "Општина Пећинци",
    "name_en": "Pecinci Municipality",
    "all_tags": {
      "name": "Општина Пећинци",
      "name:en": "Pecinci Municipality",
      "name:hu": "Pecsince község",
      "name:sr": "Општина Пећинци",
      "boundary": "administrative",
      "way_area": "0.0555896",
      "wikidata": "Q7217782",
      "wikipedia": "sr:Општина Пећинци",
      "admin_level": "8",
      "name:sr-Latn": "Opština Pećinci",
      "ref:RS:opstina": "80322"
    }
  },
  {
    "osm_id": -1631357,
    "boundary": "administrative",
    "admin_level": 8,
    "parents": "-1765275,-2959530,-1658166,-1741311",
    "name": "Bogatic Municipality",
    "local_name": "Општина Богатић",
    "name_en": "Bogatic Municipality",
    "all_tags": {
      "name": "Општина Богатић",
      "name:en": "Bogatic Municipality",
      "name:sr": "Општина Богатић",
      "boundary": "administrative",
      "way_area": "0.0437321",
      "wikidata": "Q2501494",
      "wikipedia": "sr:Општина Богатић",
      "admin_level": "8",
      "name:sr-Latn": "Opština Bogatić",
      "ref:RS:opstina": "70289"
    }
  },
  {
    "osm_id": -1630000,
    "boundary": "administrative",
    "admin_level": 8,
    "parents": "-2015385,-2959529,-1658166,-1741311",
    "name": "Presevo Municipality",
    "local_name": "Општина Прешево",
    "name_en": "Presevo Municipality",
    "all_tags": {
      "name": "Општина Прешево",
      "name:de": "Gemeinde Preševo",
      "name:en": "Presevo Municipality",
      "name:sq": "Komuna e Preshevës",
      "name:sr": "Општина Прешево",
      "boundary": "administrative",
      "way_area": "0.0289072",
      "wikidata": "Q157363",
      "wikipedia": "sr:Општина Прешево",
      "admin_level": "8",
      "name:sr-Latn": "Opština Preševo",
      "ref:RS:opstina": "70963"
    }
  },
  {
    "osm_id": -1629999,
    "boundary": "administrative",
    "admin_level": 8,
    "parents": "-2015385,-2959529,-1658166,-1741311",
    "name": "Bujanovac Municipality",
    "local_name": "Општина Бујановац",
    "name_en": "Bujanovac Municipality",
    "all_tags": {
      "name": "Општина Бујановац",
      "name:de": "Gemeinde Bujanovac",
      "name:en": "Bujanovac Municipality",
      "name:sq": "Komuna e Bujanocit",
      "name:sr": "Општина Бујановац",
      "boundary": "administrative",
      "way_area": "0.0504273",
      "wikidata": "Q2500642",
      "wikipedia": "sr:Општина Бујановац",
      "admin_level": "8",
      "name:sr-Latn": "Opština Bujanovac",
      "ref:RS:opstina": "70351"
    }
  },
  {
    "osm_id": -1280351,
    "boundary": "administrative",
    "admin_level": 8,
    "parents": "-1639617,-1279074,-1741311",
    "name": "Novi Knezevac Municipality",
    "local_name": "Општина Нови Кнежевац",
    "name_en": "Novi Knezevac Municipality",
    "all_tags": {
      "name": "Општина Нови Кнежевац",
      "name:de": "Gemeinde Neu-Kanischa",
      "name:en": "Novi Knezevac Municipality",
      "name:hu": "Törökkanizsa község",
      "name:sr": "Општина Нови Кнежевац",
      "website": "http://www.noviknezevac.rs/",
      "boundary": "administrative",
      "way_area": "0.0355112",
      "wikidata": "Q914451",
      "wikipedia": "sr:Општина Нови Кнежевац",
      "admin_level": "8",
      "name:sr-Latn": "Opština Novi Kneževac",
      "ref:RS:opstina": "80276"
    }
  },
  {
    "osm_id": -1279989,
    "boundary": "administrative",
    "admin_level": 8,
    "parents": "-1639617,-1279074,-1741311",
    "name": "Ada Municipality",
    "local_name": "Општина Ада",
    "name_en": "Ada Municipality",
    "all_tags": {
      "name": "Општина Ада",
      "name:en": "Ada Municipality",
      "name:hr": "Općina Ada",
      "name:hu": "Ada község",
      "name:sr": "Општина Ада",
      "boundary": "administrative",
      "way_area": "0.0262719",
      "wikidata": "Q482146",
      "wikipedia": "sr:Општина Ада",
      "population": "16991",
      "admin_level": "8",
      "name:sr-Latn": "Opština Ada",
      "ref:RS:opstina": "80012"
    }
  },
  {
    "osm_id": -1279959,
    "boundary": "administrative",
    "admin_level": 8,
    "parents": "-1639630,-1279074,-1741311",
    "name": "Backa Topola Municipality",
    "local_name": "Општина Бачка Топола",
    "name_en": "Backa Topola Municipality",
    "all_tags": {
      "name": "Општина Бачка Топола",
      "name:en": "Backa Topola Municipality",
      "name:hu": "Topolya község",
      "name:sr": "Општина Бачка Топола",
      "boundary": "administrative",
      "way_area": "0.0690029",
      "wikidata": "Q2661603",
      "wikipedia": "sr:Општина Бачка Топола",
      "admin_level": "8",
      "name:sr-Latn": "Opština Bačka Topola",
      "ref:RS:opstina": "80071"
    }
  },
  {
    "osm_id": -1279956,
    "boundary": "administrative",
    "admin_level": 8,
    "parents": "-1639617,-1279074,-1741311",
    "name": "Senta Municipality",
    "local_name": "Општина Сента",
    "name_en": "Senta Municipality",
    "all_tags": {
      "name": "Општина Сента",
      "name:en": "Senta Municipality",
      "name:hu": "Zenta község",
      "name:sr": "Општина Сента",
      "boundary": "administrative",
      "way_area": "0.0340142",
      "wikidata": "Q917716",
      "wikipedia": "sr:Општина Сента",
      "admin_level": "8",
      "name:sr-Latn": "Opština Senta",
      "ref:RS:opstina": "80365"
    }
  },
  {
    "osm_id": -1279955,
    "boundary": "administrative",
    "admin_level": 8,
    "parents": "-1639617,-1279074,-1741311",
    "name": "Kanjiza Municipality",
    "local_name": "Општина Кањижа",
    "name_en": "Kanjiza Municipality",
    "all_tags": {
      "name": "Општина Кањижа",
      "name:en": "Kanjiza Municipality",
      "name:hu": "Magyarkanizsa község",
      "name:sr": "Општина Кањижа",
      "boundary": "administrative",
      "way_area": "0.0463282",
      "wikidata": "Q614614",
      "wikipedia": "sr:Општина Кањижа",
      "admin_level": "8",
      "name:sr-Latn": "Opština Kanjiža",
      "ref:RS:opstina": "80195"
    }
  }
]
