[
  {
    "osm_id": -4719434,
    "boundary": "administrative",
    "admin_level": 8,
    "parents": "-3774667,-192789",
    "name": "Ad Dinder",
    "local_name": "الدندر",
    "name_en": "Ad Dinder",
    "all_tags": {
      "name": "الدندر",
      "name:ar": "الدندر",
      "name:de": "Ad Dindar",
      "name:en": "Ad Dinder",
      "boundary": "administrative",
      "int_name": "Ad Dindar",
      "way_area": "1.42251",
      "admin_level": "8"
    }
  },
  {
    "osm_id": -4709724,
    "boundary": "administrative",
    "admin_level": 8,
    "parents": "-3774667,-192789",
    "name": "Singa",
    "local_name": "سنجة",
    "name_en": "Singa",
    "all_tags": {
      "name": "سنجة",
      "name:ar": "سنجة",
      "name:de": "Sindscha",
      "name:en": "Singa",
      "boundary": "administrative",
      "int_name": "Singa",
      "way_area": "1.16581",
      "admin_level": "8",
      "alt_name:ar": "سِنْجَة"
    }
  },
  {
    "osm_id": -4701029,
    "boundary": "administrative",
    "admin_level": 8,
    "parents": "-3774667,-192789",
    "name": "Sennar",
    "local_name": "سنار",
    "name_en": "Sennar",
    "all_tags": {
      "name": "سنار",
      "name:ar": "سنار",
      "name:de": "Sannar",
      "name:en": "Sennar",
      "boundary": "administrative",
      "int_name": "Sennar",
      "way_area": "0.796259",
      "wikipedia": "ar:سنار",
      "admin_level": "8"
    }
  },
  {
    "osm_id": -4680124,
    "boundary": "administrative",
    "admin_level": 8,
    "parents": "-3774677,-192789",
    "name": "AD Damazin",
    "local_name": "الدمازين",
    "name_en": "AD Damazin",
    "all_tags": {
      "name": "الدمازين",
      "name:de": "ad Damazin",
      "name:en": "AD Damazin",
      "boundary": "administrative",
      "int_name": "AD Damazin",
      "way_area": "0.860308",
      "admin_level": "8"
    }
  },
  {
    "osm_id": -4680123,
    "boundary": "administrative",
    "admin_level": 8,
    "parents": "-3774677,-192789",
    "name": "Er Roseires",
    "local_name": "الروصيرص",
    "name_en": "Er Roseires",
    "all_tags": {
      "name": "الروصيرص",
      "name:de": "Er Roseires",
      "name:en": "Er Roseires",
      "boundary": "administrative",
      "int_name": "ER Roseires",
      "way_area": "0.656575",
      "admin_level": "8"
    }
  },
  {
    "osm_id": -4679967,
    "boundary": "administrative",
    "admin_level": 8,
    "parents": "-3774677,-192789",
    "name": "Baw",
    "local_name": "الباو",
    "name_en": "Baw",
    "all_tags": {
      "name": "الباو",
      "name:de": "Baw",
      "name:en": "Baw",
      "boundary": "administrative",
      "int_name": "Baw",
      "way_area": "0.535025",
      "admin_level": "8"
    }
  },
  {
    "osm_id": -4677354,
    "boundary": "administrative",
    "admin_level": 8,
    "parents": "-3774677,-192789",
    "name": "Gaissan",
    "local_name": "قيسان",
    "name_en": "Gaissan",
    "all_tags": {
      "name": "قيسان",
      "name:de": "Gaissan",
      "name:en": "Gaissan",
      "boundary": "administrative",
      "int_name": "Geissan",
      "way_area": "0.50757",
      "admin_level": "8"
    }
  },
  {
    "osm_id": -4677316,
    "boundary": "administrative",
    "admin_level": 8,
    "parents": "-3774677,-192789",
    "name": "Al Kurumuk",
    "local_name": "الكرمك",
    "name_en": "Al Kurumuk",
    "all_tags": {
      "name": "الكرمك",
      "name:de": "Al Kurumuk",
      "name:en": "Al Kurumuk",
      "boundary": "administrative",
      "int_name": "Al Kurumuk",
      "way_area": "0.444353",
      "admin_level": "8"
    }
  },
  {
    "osm_id": -4677252,
    "boundary": "administrative",
    "admin_level": 8,
    "parents": "-3774675,-192789",
    "name": "Al Galabat",
    "local_name": "القلابات",
    "name_en": "Al Galabat",
    "all_tags": {
      "name": "القلابات",
      "name:ar": "القلابات",
      "name:de": "Al Galabat",
      "name:en": "Al Galabat",
      "alt_name": "قلابات",
      "boundary": "administrative",
      "way_area": "1.09572",
      "admin_level": "8",
      "alt_name:ar": "قلابات"
    }
  },
  {
    "osm_id": -4674985,
    "boundary": "administrative",
    "admin_level": 8,
    "parents": "-3774675,-192789",
    "name": "Al Qadarif",
    "local_name": "القضارفي",
    "name_en": "Al Qadarif",
    "all_tags": {
      "name": "القضارفي",
      "name:de": "Al Qadarif",
      "name:en": "Al Qadarif",
      "boundary": "administrative",
      "int_name": "Al Quadarif",
      "way_area": "1.06104",
      "admin_level": "8"
    }
  },
  {
    "osm_id": -4671551,
    "boundary": "administrative",
    "admin_level": 8,
    "parents": "-3774675,-192789",
    "name": "Al Fushqa",
    "local_name": "الفشقة",
    "name_en": "Al Fushqa",
    "all_tags": {
      "name": "الفشقة",
      "name:de": "al Fuschqa",
      "name:en": "Al Fushqa",
      "boundary": "administrative",
      "int_name": "Al Fushqa",
      "way_area": "0.281041",
      "admin_level": "8"
    }
  },
  {
    "osm_id": -4670700,
    "boundary": "administrative",
    "admin_level": 8,
    "parents": "-3774675,-192789",
    "name": "al Faw",
    "local_name": "الفاو",
    "name_en": "al Faw",
    "all_tags": {
      "name": "الفاو",
      "name:ar": "الفاو",
      "name:de": "al Faw",
      "name:en": "al Faw",
      "boundary": "administrative",
      "way_area": "1.97648",
      "wikidata": "Q12190832",
      "wikipedia": "ar:الفاو (السودان)",
      "admin_level": "8"
    }
  },
  {
    "osm_id": -4669991,
    "boundary": "administrative",
    "admin_level": 8,
    "parents": "-3774665,-192789",
    "name": "Nahr Atbara",
    "local_name": "نهر عطبرة",
    "name_en": "Nahr Atbara",
    "all_tags": {
      "name": "نهر عطبرة",
      "name:ar": "نهر عطبرة",
      "name:de": "Nahr Atbara",
      "name:en": "Nahr Atbara",
      "boundary": "administrative",
      "int_name": "Nahr Atbara",
      "way_area": "0.624007",
      "admin_level": "8"
    }
  },
  {
    "osm_id": -4669990,
    "boundary": "administrative",
    "admin_level": 8,
    "parents": "-3774665,-192789",
    "name": "Butana",
    "local_name": "البطانة",
    "name_en": "Butana",
    "all_tags": {
      "name": "البطانة",
      "name:ar": "البطانة",
      "name:de": "Butana",
      "name:en": "Butana",
      "boundary": "administrative",
      "int_name": "Butana",
      "way_area": "1.29205",
      "admin_level": "8"
    }
  },
  {
    "osm_id": -4669951,
    "boundary": "administrative",
    "admin_level": 8,
    "parents": "-3774665,-192789",
    "name": "Al Gash",
    "local_name": "القاش",
    "name_en": "Al Gash",
    "all_tags": {
      "name": "القاش",
      "name:ar": "القاش",
      "name:de": "al Gasch",
      "name:en": "Al Gash",
      "boundary": "administrative",
      "way_area": "1.27126",
      "admin_level": "8"
    }
  },
  {
    "osm_id": -4669808,
    "boundary": "administrative",
    "admin_level": 8,
    "parents": "-3774665,-192789",
    "name": "Kassala",
    "local_name": "كسلا",
    "name_en": "Kassala",
    "all_tags": {
      "name": "كسلا",
      "name:ar": "كسلا",
      "name:de": "Kassala",
      "name:en": "Kassala",
      "name:fa": "کسلا",
      "name:ks": "کسلا",
      "name:ur": "کسلا",
      "boundary": "administrative",
      "name:azb": "کسلا",
      "way_area": "0.202273",
      "wikidata": "Q686813",
      "wikipedia": "ar:كسلا",
      "admin_level": "8"
    }
  },
  {
    "osm_id": -4669807,
    "boundary": "administrative",
    "admin_level": 8,
    "parents": "-3774665,-192789",
    "name": "Hamashkorieb",
    "local_name": "همشكوريب",
    "name_en": "Hamashkorieb",
    "all_tags": {
      "name": "همشكوريب",
      "name:ar": "همشكوريب",
      "name:de": "Hamaschkorieb",
      "name:en": "Hamashkorieb",
      "boundary": "administrative",
      "way_area": "0.501379",
      "admin_level": "8"
    }
  },
  {
    "osm_id": -4668059,
    "boundary": "administrative",
    "admin_level": 8,
    "parents": "-3774666,-192789",
    "name": "Al Matamma",
    "local_name": "المتمة",
    "name_en": "Al Matamma",
    "all_tags": {
      "name": "المتمة",
      "name:ar": "المتمة",
      "name:de": "Al Matamma",
      "name:en": "Al Matamma",
      "alt_name": "مطمّة;المتمّ;المتمّة",
      "boundary": "administrative",
      "way_area": "1.30926",
      "wikidata": "Q54900535",
      "wikipedia": "ar:المتمة (السودان)",
      "admin_level": "8",
      "alt_name:ar": "مطمّة;المتمّ;المتمّة",
      "wikipedia:ar": "المتمة (السودان)"
    }
  },
  {
    "osm_id": -4667997,
    "boundary": "administrative",
    "admin_level": 8,
    "parents": "-3774666,-192789",
    "name": "Shendi",
    "local_name": "شندي",
    "name_en": "Shendi",
    "all_tags": {
      "name": "شندي",
      "name:ar": "شندي",
      "name:de": "Schandi",
      "name:en": "Shendi",
      "name:fa": "شندی",
      "name:ks": "شندی",
      "name:ur": "شندی",
      "boundary": "administrative",
      "name:azb": "شندی",
      "name:ota": "شندی",
      "way_area": "1.65283",
      "wikidata": "Q997838",
      "wikipedia": "ar:شندي",
      "admin_level": "8",
      "wikipedia:ar": "شندي"
    }
  },
  {
    "osm_id": -4667777,
    "boundary": "administrative",
    "admin_level": 8,
    "parents": "-3774666,-192789",
    "name": "Atbarah",
    "local_name": "عطبرة",
    "name_en": "Atbarah",
    "all_tags": {
      "name": "عطبرة",
      "name:ar": "عطبرة",
      "name:de": "Atbarah",
      "name:en": "Atbarah",
      "boundary": "administrative",
      "way_area": "1.13784",
      "admin_level": "8"
    }
  },
  {
    "osm_id": -4664616,
    "boundary": "administrative",
    "admin_level": 8,
    "parents": "-3774666,-192789",
    "name": "ad-Damer",
    "local_name": "ad-Damir",
    "name_en": "ad-Damer",
    "all_tags": {
      "name": "ad-Damir",
      "name:ar": "الدامر",
      "name:en": "ad-Damer",
      "boundary": "administrative",
      "int_name": "ad-Damir",
      "way_area": "1.06672",
      "admin_level": "8"
    }
  },
  {
    "osm_id": -4421085,
    "boundary": "administrative",
    "admin_level": 8,
    "parents": "-3774675,-192789",
    "name": "Al-Qadarif",
    "local_name": "القضارفي /Al-Qadarif",
    "name_en": "Al-Qadarif",
    "all_tags": {
      "name": "القضارفي /Al-Qadarif",
      "place": "city",
      "name:ar": "القضارف",
      "name:en": "Al-Qadarif",
      "name:fr": "Al-Qadarif",
      "name:ru": "Гедареф",
      "alt_name": "Gedaref",
      "boundary": "administrative",
      "way_area": "0.00534725",
      "wikidata": "Q311199",
      "wikipedia": "en:Al Qadarif",
      "population": "354598",
      "admin_level": "8"
    }
  },
  {
    "osm_id": -3924783,
    "boundary": "administrative",
    "admin_level": 8,
    "parents": "-3774666,-192789",
    "name": "Abu Hamad",
    "local_name": "أبو حمد",
    "name_en": "Abu Hamad",
    "all_tags": {
      "name": "أبو حمد",
      "name:ar": "أبو حمد",
      "name:de": "Abu Hamad",
      "name:en": "Abu Hamad",
      "name:es": "Abu Hamad",
      "name:fa": "ابو حمد",
      "name:fr": "Abu Hamad",
      "name:ur": "ابو حمد",
      "boundary": "administrative",
      "name:azb": "ابو حمد",
      "way_area": "4.29515",
      "wikidata": "Q2439710",
      "wikipedia": "ar:أبو حمد",
      "admin_level": "8",
      "name:az-Arab": "ابو حمد",
      "wikipedia:ar": "أبو حمد"
    }
  },
  {
    "osm_id": -3922875,
    "boundary": "administrative",
    "admin_level": 8,
    "parents": "-3774672,-192789",
    "name": "Halayeb Distrikt",
    "local_name": "حلايب",
    "name_en": "Halayeb Distrikt",
    "all_tags": {
      "name": "حلايب",
      "name:ar": "حلايب",
      "name:de": "Hala'ib Landkreis",
      "name:en": "Halayeb Distrikt",
      "name:fr": "Hala'ib",
      "boundary": "administrative",
      "int_name": "Halayeb",
      "way_area": "4.04037",
      "admin_level": "8"
    }
  },
  {
    "osm_id": -3922867,
    "boundary": "administrative",
    "admin_level": 8,
    "parents": "-3774672,-192789",
    "name": "Tokar",
    "local_name": "طوكر",
    "name_en": "Tokar",
    "all_tags": {
      "name": "طوكر",
      "name:ar": "طوكر",
      "name:de": "Tawkar",
      "name:en": "Tokar",
      "boundary": "administrative",
      "way_area": "3.23006",
      "admin_level": "8",
      "official_name": "محلية طوكر",
      "official_name:ar": "محلية طوكر",
      "official_name:de": "Landkreis Tawkar",
      "official_name:en": "Tokar Distrikt"
    }
  },
  {
    "osm_id": -3922866,
    "boundary": "administrative",
    "admin_level": 8,
    "parents": "-3774672,-192789",
    "name": "Sinkat District",
    "local_name": "سنكات",
    "name_en": "Sinkat District",
    "all_tags": {
      "name": "سنكات",
      "name:ar": "سنكات",
      "name:de": "Sinkat Landkreis",
      "name:en": "Sinkat District",
      "boundary": "administrative",
      "int_name": "Sinkat District",
      "way_area": "5.32587",
      "admin_level": "8"
    }
  },
  {
    "osm_id": -3922829,
    "boundary": "administrative",
    "admin_level": 8,
    "parents": "-3774672,-192789",
    "name": "بورتسودان",
    "local_name": "بورتسودان",
    "name_en": null,
    "all_tags": {
      "name": "بورتسودان",
      "name:ar": "بورتسودان",
      "name:fa": "بور سودان",
      "name:ur": "پورٹ سوڈان",
      "website": "http://redseaportsudan.gov.sd/",
      "alt_name": "بورسودان;بورت سودان;بور سودان",
      "boundary": "administrative",
      "name:azb": "بور سودان",
      "way_area": "6.73866",
      "wikidata": "Q60488995",
      "admin_level": "8",
      "alt_name:ar": "بورسودان;بورت سودان;بور سودان",
      "official_name": "محلية بورتسودان",
      "official_name:ar": "محلية بورتسودان",
      "official_name:de": "Bur Sudan Landkreis",
      "official_name:en": "Port Sudan Distrikt"
    }
  }
]
