[
  {
    "osm_id": -388263,
    "boundary": "administrative",
    "admin_level": 8,
    "parents": "-388271,-946159,-14296",
    "name": "District of Kežmarok",
    "local_name": "okres Kežmarok",
    "name_en": "District of Kežmarok",
    "all_tags": {
      "ref": "SK0413",
      "name": "okres Kežmarok",
      "name:de": "Bezirk Käsmark",
      "name:en": "District of Kežmarok",
      "name:hu": "Késmárki járás",
      "name:pl": "Powiat Kieżmark",
      "boundary": "administrative",
      "way_area": "0.077709",
      "wikidata": "Q636864",
      "wikipedia": "sk:Kežmarok (okres)",
      "admin_level": "8"
    }
  },
  {
    "osm_id": -388262,
    "boundary": "administrative",
    "admin_level": 8,
    "parents": "-388269,-946158,-14296",
    "name": "District of Ružomberok",
    "local_name": "okres Ružomberok",
    "name_en": "District of Ružomberok",
    "all_tags": {
      "ref": "SK0318",
      "name": "okres Ružomberok",
      "name:de": "Bezirk Rosenberg",
      "name:en": "District of Ružomberok",
      "name:hu": "Rózsahegyi járás",
      "name:pl": "Powiat Rużomberk",
      "boundary": "administrative",
      "way_area": "0.0794045",
      "wikidata": "Q655156",
      "wikipedia": "sk:Ružomberok (okres)",
      "admin_level": "8"
    }
  },
  {
    "osm_id": -388261,
    "boundary": "administrative",
    "admin_level": 8,
    "parents": "-388267,-946157,-14296",
    "name": "District of Partizánske",
    "local_name": "okres Partizánske",
    "name_en": "District of Partizánske",
    "all_tags": {
      "ref": "SK0225",
      "name": "okres Partizánske",
      "name:en": "District of Partizánske",
      "name:hu": "Simonyi járás",
      "boundary": "administrative",
      "way_area": "0.0366934",
      "wikidata": "Q837871",
      "wikipedia": "sk:Partizánske (okres)",
      "admin_level": "8"
    }
  },
  {
    "osm_id": -388260,
    "boundary": "administrative",
    "admin_level": 8,
    "parents": "-388269,-946158,-14296",
    "name": "District of Námestovo",
    "local_name": "okres Námestovo",
    "name_en": "District of Námestovo",
    "all_tags": {
      "ref": "SK0317",
      "name": "okres Námestovo",
      "name:cs": "okres Námestovo",
      "name:en": "District of Námestovo",
      "name:hu": "Námesztói járás",
      "boundary": "administrative",
      "way_area": "0.0855553",
      "wikidata": "Q388888",
      "wikipedia": "sk:Námestovo (okres)",
      "admin_level": "8"
    }
  },
  {
    "osm_id": -388259,
    "boundary": "administrative",
    "admin_level": 8,
    "parents": "-388269,-946158,-14296",
    "name": "District of Turčianske Teplice",
    "local_name": "okres Turčianske Teplice",
    "name_en": "District of Turčianske Teplice",
    "all_tags": {
      "ref": "SK0319",
      "name": "okres Turčianske Teplice",
      "name:de": "Bezirk Bad Stuben",
      "name:en": "District of Turčianske Teplice",
      "name:hu": "Stubnyafürdői járás",
      "name:pl": "Powiat Turcianske Teplice",
      "boundary": "administrative",
      "way_area": "0.0481421",
      "wikidata": "Q548293",
      "wikipedia": "sk:Turčianske Teplice (okres)",
      "admin_level": "8"
    }
  },
  {
    "osm_id": -388258,
    "boundary": "administrative",
    "admin_level": 8,
    "parents": "-388267,-946157,-14296",
    "name": "District of Nové Mesto nad Váhom",
    "local_name": "okres Nové Mesto nad Váhom",
    "name_en": "District of Nové Mesto nad Váhom",
    "all_tags": {
      "ref": "SK0224",
      "name": "okres Nové Mesto nad Váhom",
      "name:de": "Bezirk Neustadt an der Waag",
      "name:en": "District of Nové Mesto nad Váhom",
      "name:hu": "Vágújhelyi járás",
      "name:pl": "Powiat Nowe Miasto nad Wagiem",
      "name:ru": "округ Нове-Место-над-Вагом",
      "name:uk": "округ Нове Место-над-Вагом",
      "boundary": "administrative",
      "way_area": "0.0709379",
      "wikidata": "Q282702",
      "wikipedia": "sk:Nové Mesto nad Váhom (okres)",
      "admin_level": "8"
    }
  },
  {
    "osm_id": -388257,
    "boundary": "administrative",
    "admin_level": 8,
    "parents": "-388267,-946157,-14296",
    "name": "District of Myjava",
    "local_name": "okres Myjava",
    "name_en": "District of Myjava",
    "all_tags": {
      "ref": "SK0223",
      "name": "okres Myjava",
      "name:de": "Bezirk Miawa",
      "name:en": "District of Myjava",
      "name:hu": "Miavai járás",
      "name:pl": "Powiat Myjava",
      "name:sk": "okres Myjava",
      "boundary": "administrative",
      "way_area": "0.0400228",
      "wikidata": "Q733250",
      "wikipedia": "sk:Myjava (okres)",
      "admin_level": "8"
    }
  },
  {
    "osm_id": -388256,
    "boundary": "administrative",
    "admin_level": 8,
    "parents": "-388269,-946158,-14296",
    "name": "District of Žilina",
    "local_name": "okres Žilina",
    "name_en": "District of Žilina",
    "all_tags": {
      "ref": "SK031B",
      "name": "okres Žilina",
      "name:de": "Bezirk Sillein",
      "name:en": "District of Žilina",
      "name:hu": "Zsolnai járás",
      "name:pl": "Powiat Żylina",
      "boundary": "administrative",
      "way_area": "0.1005",
      "wikidata": "Q836201",
      "wikipedia": "sk:Žilina (okres)",
      "admin_level": "8"
    }
  },
  {
    "osm_id": -388255,
    "boundary": "administrative",
    "admin_level": 8,
    "parents": "-388271,-946159,-14296",
    "name": "District of Prešov",
    "local_name": "okres Prešov",
    "name_en": "District of Prešov",
    "all_tags": {
      "ref": "SK0417",
      "name": "okres Prešov",
      "name:de": "Bezirk Preschau",
      "name:en": "District of Prešov",
      "name:hu": "Eperjesi járás",
      "name:pl": "Powiat Preszów",
      "boundary": "administrative",
      "way_area": "0.114761",
      "wikidata": "Q756658",
      "wikipedia": "sk:Prešov (okres)",
      "admin_level": "8"
    }
  },
  {
    "osm_id": -388254,
    "boundary": "administrative",
    "admin_level": 8,
    "parents": "-388269,-946158,-14296",
    "name": "District of Tvrdošín",
    "local_name": "okres Tvrdošín",
    "name_en": "District of Tvrdošín",
    "all_tags": {
      "ref": "SK031A",
      "name": "okres Tvrdošín",
      "name:de": "Bezirk Turdoschin",
      "name:en": "District of Tvrdošín",
      "name:hu": "Turdossini járás",
      "name:pl": "Powiat Twardoszyn",
      "boundary": "administrative",
      "way_area": "0.0591999",
      "wikidata": "Q756899",
      "wikipedia": "sk:Tvrdošín (okres)",
      "admin_level": "8"
    }
  },
  {
    "osm_id": -388253,
    "boundary": "administrative",
    "admin_level": 8,
    "parents": "-388267,-946157,-14296",
    "name": "District of Ilava",
    "local_name": "okres Ilava",
    "name_en": "District of Ilava",
    "all_tags": {
      "ref": "SK0222",
      "name": "okres Ilava",
      "name:de": "Bezirk Illau",
      "name:en": "District of Ilava",
      "name:hu": "Illavai járás",
      "name:pl": "Powiat Ilava",
      "name:uk": "округ Ілава",
      "boundary": "administrative",
      "way_area": "0.0440615",
      "wikidata": "Q373881",
      "wikipedia": "sk:Ilava (okres)",
      "admin_level": "8"
    }
  },
  {
    "osm_id": -388252,
    "boundary": "administrative",
    "admin_level": 8,
    "parents": "-388271,-946159,-14296",
    "name": "District of Levoča",
    "local_name": "okres Levoča",
    "name_en": "District of Levoča",
    "all_tags": {
      "ref": "SK0414",
      "name": "okres Levoča",
      "name:de": "Bezirk Leutschau",
      "name:en": "District of Levoča",
      "name:hu": "Lőcsei járás",
      "name:pl": "Powiat Lewocza",
      "boundary": "administrative",
      "way_area": "0.0517537",
      "wikidata": "Q837877",
      "wikipedia": "sk:Levoča (okres)",
      "admin_level": "8"
    }
  },
  {
    "osm_id": -388251,
    "boundary": "administrative",
    "admin_level": 8,
    "parents": "-388267,-946157,-14296",
    "name": "District of Bánovce nad Bebravou",
    "local_name": "okres Bánovce nad Bebravou",
    "name_en": "District of Bánovce nad Bebravou",
    "all_tags": {
      "ref": "SK0221",
      "name": "okres Bánovce nad Bebravou",
      "name:de": "Bezirk Banowitz",
      "name:en": "District of Bánovce nad Bebravou",
      "name:hu": "Báni járás",
      "boundary": "administrative",
      "way_area": "0.0565031",
      "wikidata": "Q837865",
      "wikipedia": "sk:Bánovce nad Bebravou (okres)",
      "admin_level": "8"
    }
  },
  {
    "osm_id": -388250,
    "boundary": "administrative",
    "admin_level": 8,
    "parents": "-388271,-946159,-14296",
    "name": "District of Poprad",
    "local_name": "okres Poprad",
    "name_en": "District of Poprad",
    "all_tags": {
      "ref": "SK0416",
      "name": "okres Poprad",
      "name:de": "Bezirk Deutschendorf",
      "name:en": "District of Poprad",
      "name:hu": "Poprádi járás",
      "name:pl": "Powiat Poprad",
      "boundary": "administrative",
      "way_area": "0.135966",
      "wikidata": "Q830982",
      "wikipedia": "sk:Poprad (okres)",
      "admin_level": "8"
    }
  },
  {
    "osm_id": -388249,
    "boundary": "administrative",
    "admin_level": 8,
    "parents": "-388271,-946159,-14296",
    "name": "District of Medzilaborce",
    "local_name": "okres Medzilaborce",
    "name_en": "District of Medzilaborce",
    "all_tags": {
      "ref": "SK0415",
      "name": "okres Medzilaborce",
      "name:en": "District of Medzilaborce",
      "name:hu": "Mezőlaborci járás",
      "boundary": "administrative",
      "way_area": "0.052728",
      "wikidata": "Q837884",
      "wikipedia": "sk:Medzilaborce (okres)",
      "admin_level": "8"
    }
  },
  {
    "osm_id": -388248,
    "boundary": "administrative",
    "admin_level": 8,
    "parents": "-388267,-946157,-14296",
    "name": "District of Púchov",
    "local_name": "okres Púchov",
    "name_en": "District of Púchov",
    "all_tags": {
      "ref": "SK0228",
      "name": "okres Púchov",
      "name:de": "Bezirk Puchau",
      "name:en": "District of Púchov",
      "name:hu": "Puhói járás",
      "name:pl": "Powiat Púchov",
      "boundary": "administrative",
      "way_area": "0.0462314",
      "wikidata": "Q768310",
      "wikipedia": "sk:Púchov (okres)",
      "admin_level": "8"
    }
  },
  {
    "osm_id": -388247,
    "boundary": "administrative",
    "admin_level": 8,
    "parents": "-388267,-946157,-14296",
    "name": "District of Trenčín",
    "local_name": "okres Trenčín",
    "name_en": "District of Trenčín",
    "all_tags": {
      "ref": "SK0229",
      "name": "okres Trenčín",
      "name:de": "Bezirk Trentschin",
      "name:en": "District of Trenčín",
      "name:hu": "Trencséni járás",
      "name:pl": "Powiat Trenczyn",
      "boundary": "administrative",
      "way_area": "0.0827593",
      "wikidata": "Q339239",
      "wikipedia": "sk:Trenčín (okres)",
      "admin_level": "8"
    }
  },
  {
    "osm_id": -388246,
    "boundary": "administrative",
    "admin_level": 8,
    "parents": "-388271,-946159,-14296",
    "name": "District of Sabinov",
    "local_name": "okres Sabinov",
    "name_en": "District of Sabinov",
    "all_tags": {
      "ref": "SK0418",
      "name": "okres Sabinov",
      "name:de": "Bezirk Zeben",
      "name:en": "District of Sabinov",
      "name:hu": "Kisszebeni járás",
      "name:pl": "Powiat Sabinov",
      "boundary": "administrative",
      "way_area": "0.0672236",
      "wikidata": "Q747926",
      "wikipedia": "sk:Sabinov (okres)",
      "admin_level": "8"
    }
  },
  {
    "osm_id": -388245,
    "boundary": "administrative",
    "admin_level": 8,
    "parents": "-1702499,-388265,-14296",
    "name": "District of Bratislava IV",
    "local_name": "okres Bratislava IV",
    "name_en": "District of Bratislava IV",
    "all_tags": {
      "ref": "SK0104",
      "name": "okres Bratislava IV",
      "name:de": "Bezirk Bratislava IV",
      "name:en": "District of Bratislava IV",
      "name:hu": "Pozsonyi IV. járás",
      "name:pl": "Powiat Bratysława IV",
      "boundary": "administrative",
      "reg_name": "Bratislava IV",
      "way_area": "0.0116943",
      "wikidata": "Q750416",
      "wikipedia": "sk:Bratislava IV (okres)",
      "admin_level": "8",
      "old_name:de": "Bezirk Pressburg IV"
    }
  },
  {
    "osm_id": -388244,
    "boundary": "administrative",
    "admin_level": 8,
    "parents": "-388271,-946159,-14296",
    "name": "District of Snina",
    "local_name": "okres Snina",
    "name_en": "District of Snina",
    "all_tags": {
      "ref": "SK0419",
      "name": "okres Snina",
      "name:de": "Bezirk Snina",
      "name:en": "District of Snina",
      "name:hu": "Szinnai járás",
      "name:pl": "Powiat Snina",
      "name:ru": "район Снина",
      "name:uk": "округ Сніна",
      "boundary": "administrative",
      "way_area": "0.098943",
      "wikidata": "Q837888",
      "wikipedia": "sk:Snina (okres)",
      "admin_level": "8",
      "alt_name:uk": "округ Снина"
    }
  },
  {
    "osm_id": -388243,
    "boundary": "administrative",
    "admin_level": 8,
    "parents": "-388268,-946157,-14296",
    "name": "District of Levice",
    "local_name": "okres Levice",
    "name_en": "District of Levice",
    "all_tags": {
      "ref": "SK0232",
      "name": "okres Levice",
      "name:de": "Bezirk Lewenz",
      "name:en": "District of Levice",
      "name:hu": "Lévai járás",
      "name:pl": "Powiat Levice",
      "boundary": "administrative",
      "way_area": "0.187457",
      "wikidata": "Q777394",
      "wikipedia": "sk:Levice (okres)",
      "admin_level": "8"
    }
  },
  {
    "osm_id": -388242,
    "boundary": "administrative",
    "admin_level": 8,
    "parents": "-1702499,-388265,-14296",
    "name": "District of Bratislava III",
    "local_name": "okres Bratislava III",
    "name_en": "District of Bratislava III",
    "all_tags": {
      "ref": "SK0103",
      "name": "okres Bratislava III",
      "name:de": "Bezirk Bratislava III",
      "name:en": "District of Bratislava III",
      "name:hu": "Pozsonyi III. járás",
      "name:pl": "Powiat Bratysława III",
      "boundary": "administrative",
      "reg_name": "Bratislava III",
      "way_area": "0.00903502",
      "wikidata": "Q750419",
      "wikipedia": "sk:Bratislava III (okres)",
      "admin_level": "8",
      "old_name:de": "Bezirk Pressburg III"
    }
  },
  {
    "osm_id": -388241,
    "boundary": "administrative",
    "admin_level": 8,
    "parents": "-388270,-946158,-14296",
    "name": "District of Brezno",
    "local_name": "okres Brezno",
    "name_en": "District of Brezno",
    "all_tags": {
      "ref": "SK0323",
      "name": "okres Brezno",
      "name:en": "District of Brezno",
      "name:hu": "Breznóbányai járás",
      "boundary": "administrative",
      "way_area": "0.154938",
      "wikidata": "Q784394",
      "wikipedia": "sk:Brezno (okres)",
      "admin_level": "8"
    }
  },
  {
    "osm_id": -388240,
    "boundary": "administrative",
    "admin_level": 8,
    "parents": "-388270,-946158,-14296",
    "name": "District of Banská Bystrica",
    "local_name": "okres Banská Bystrica",
    "name_en": "District of Banská Bystrica",
    "all_tags": {
      "ref": "SK0321",
      "name": "okres Banská Bystrica",
      "name:de": "Bezirk Neusohl",
      "name:en": "District of Banská Bystrica",
      "name:hu": "Besztercebányai járás",
      "name:pl": "Powiat Bańska Bystrzyca",
      "boundary": "administrative",
      "way_area": "0.0989966",
      "wikidata": "Q539934",
      "wikipedia": "sk:Banská Bystrica (okres)",
      "admin_level": "8"
    }
  },
  {
    "osm_id": -388239,
    "boundary": "administrative",
    "admin_level": 8,
    "parents": "-1702499,-388265,-14296",
    "name": "District of Bratislava II",
    "local_name": "okres Bratislava II",
    "name_en": "District of Bratislava II",
    "all_tags": {
      "ref": "SK0102",
      "name": "okres Bratislava II",
      "name:de": "Bezirk Bratislava II",
      "name:en": "District of Bratislava II",
      "name:hu": "Pozsonyi II. járás",
      "name:pl": "Powiat Bratysława II",
      "boundary": "administrative",
      "reg_name": "Bratislava II",
      "way_area": "0.011174",
      "wikidata": "Q539732",
      "wikipedia": "sk:Bratislava II (okres)",
      "admin_level": "8",
      "old_name:de": "Bezirk Pressburg II"
    }
  },
  {
    "osm_id": -388238,
    "boundary": "administrative",
    "admin_level": 8,
    "parents": "-388271,-946159,-14296",
    "name": "District of Stará Ľubovňa",
    "local_name": "okres Stará Ľubovňa",
    "name_en": "District of Stará Ľubovňa",
    "all_tags": {
      "ref": "SK041A",
      "name": "okres Stará Ľubovňa",
      "name:de": "Bezirk Altlublau",
      "name:en": "District of Stará Ľubovňa",
      "name:hu": "Ólublói járás",
      "name:pl": "Powiat Lubowla",
      "name:sk": "okres Stará Ľubovňa",
      "boundary": "administrative",
      "way_area": "0.0875081",
      "wikidata": "Q831001",
      "wikipedia": "sk:Stará Ľubovňa (okres)",
      "admin_level": "8"
    }
  },
  {
    "osm_id": -388237,
    "boundary": "administrative",
    "admin_level": 8,
    "parents": "-388270,-946158,-14296",
    "name": "District of Banská Štiavnica",
    "local_name": "okres Banská Štiavnica",
    "name_en": "District of Banská Štiavnica",
    "all_tags": {
      "ref": "SK0322",
      "name": "okres Banská Štiavnica",
      "name:de": "Bezirk Schemnitz",
      "name:en": "District of Banská Štiavnica",
      "name:hu": "Selmecbányai járás",
      "name:pl": "Powiat Bańska Szczawnica",
      "boundary": "administrative",
      "way_area": "0.0355145",
      "wikidata": "Q836179",
      "wikipedia": "sk:Banská Štiavnica (okres)",
      "admin_level": "8"
    }
  },
  {
    "osm_id": -388236,
    "boundary": "administrative",
    "admin_level": 8,
    "parents": "-388271,-946159,-14296",
    "name": "District of Stropkov",
    "local_name": "okres Stropkov",
    "name_en": "District of Stropkov",
    "all_tags": {
      "ref": "SK041B",
      "name": "okres Stropkov",
      "name:de": "Bezirk Stroppkau",
      "name:en": "District of Stropkov",
      "name:hu": "Sztropkói járás",
      "name:pl": "Powiat Stropkov",
      "boundary": "administrative",
      "way_area": "0.0479941",
      "wikidata": "Q777963",
      "wikipedia": "sk:Stropkov (okres)",
      "admin_level": "8"
    }
  },
  {
    "osm_id": -388235,
    "boundary": "administrative",
    "admin_level": 8,
    "parents": "-388267,-946157,-14296",
    "name": "District of Prievidza",
    "local_name": "okres Prievidza",
    "name_en": "District of Prievidza",
    "all_tags": {
      "ref": "SK0227",
      "name": "okres Prievidza",
      "name:de": "Bezirk Priwitz",
      "name:en": "District of Prievidza",
      "name:hu": "Privigyei járás",
      "name:pl": "Powiat Prievidza",
      "boundary": "administrative",
      "way_area": "0.11739",
      "wikidata": "Q614140",
      "wikipedia": "sk:Prievidza (okres)",
      "admin_level": "8"
    }
  },
  {
    "osm_id": -388234,
    "boundary": "administrative",
    "admin_level": 8,
    "parents": "-1702499,-388265,-14296",
    "name": "District of Bratislava I",
    "local_name": "okres Bratislava I",
    "name_en": "District of Bratislava I",
    "all_tags": {
      "ref": "SK0101",
      "name": "okres Bratislava I",
      "name:de": "Bezirk Bratislava I",
      "name:en": "District of Bratislava I",
      "name:hu": "Pozsonyi I. járás",
      "name:pl": "Powiat Bratysława I",
      "boundary": "administrative",
      "reg_name": "Bratislava I",
      "way_area": "0.00115894",
      "wikidata": "Q737665",
      "wikipedia": "sk:Bratislava I (okres)",
      "admin_level": "8",
      "old_name:de": "Bezirk Pressburg I"
    }
  },
  {
    "osm_id": -388233,
    "boundary": "administrative",
    "admin_level": 8,
    "parents": "-388268,-946157,-14296",
    "name": "District of Komárno",
    "local_name": "okres Komárno",
    "name_en": "District of Komárno",
    "all_tags": {
      "ref": "SK0231",
      "name": "okres Komárno",
      "name:de": "Bezirk Komorn",
      "name:en": "District of Komárno",
      "name:hu": "Komáromi járás",
      "name:pl": "Powiat Komárno",
      "boundary": "administrative",
      "way_area": "0.132073",
      "wikidata": "Q586056",
      "wikipedia": "sk:Komárno (okres)",
      "admin_level": "8"
    }
  },
  {
    "osm_id": -388232,
    "boundary": "administrative",
    "admin_level": 8,
    "parents": "-388270,-946158,-14296",
    "name": "District of Krupina",
    "local_name": "okres Krupina",
    "name_en": "District of Krupina",
    "all_tags": {
      "ref": "SK0325",
      "name": "okres Krupina",
      "name:de": "Bezirk Karpfen",
      "name:en": "District of Krupina",
      "name:hu": "Korponai járás",
      "name:pl": "Powiat Krupina",
      "boundary": "administrative",
      "way_area": "0.0708853",
      "wikidata": "Q756660",
      "wikipedia": "sk:Krupina (okres)",
      "admin_level": "8"
    }
  },
  {
    "osm_id": -388231,
    "boundary": "administrative",
    "admin_level": 8,
    "parents": "-388270,-946158,-14296",
    "name": "District of Detva",
    "local_name": "okres Detva",
    "name_en": "District of Detva",
    "all_tags": {
      "ref": "SK0324",
      "name": "okres Detva",
      "name:en": "District of Detva",
      "name:hu": "Gyetvai járás",
      "boundary": "administrative",
      "way_area": "0.0547132",
      "wikidata": "Q532137",
      "wikipedia": "sk:Detva (okres)",
      "admin_level": "8"
    }
  },
  {
    "osm_id": -388230,
    "boundary": "administrative",
    "admin_level": 8,
    "parents": "-388270,-946158,-14296",
    "name": "District of Lučenec",
    "local_name": "okres Lučenec",
    "name_en": "District of Lučenec",
    "all_tags": {
      "ref": "SK0326",
      "name": "okres Lučenec",
      "name:de": "Bezirk Lizenz",
      "name:en": "District of Lučenec",
      "name:hu": "Losonci járás",
      "name:pl": "Powiat Łuczeniec",
      "boundary": "administrative",
      "way_area": "0.100151",
      "wikidata": "Q836205",
      "wikipedia": "sk:Lučenec (okres)",
      "admin_level": "8"
    }
  },
  {
    "osm_id": -388229,
    "boundary": "administrative",
    "admin_level": 8,
    "parents": "-388267,-946157,-14296",
    "name": "District of Považská Bystrica",
    "local_name": "okres Považská Bystrica",
    "name_en": "District of Považská Bystrica",
    "all_tags": {
      "ref": "SK0226",
      "name": "okres Považská Bystrica",
      "name:en": "District of Považská Bystrica",
      "name:hu": "Vágbesztercei járás",
      "boundary": "administrative",
      "way_area": "0.0570777",
      "wikidata": "Q837891",
      "wikipedia": "sk:Považská Bystrica (okres)",
      "admin_level": "8"
    }
  },
  {
    "osm_id": -388228,
    "boundary": "administrative",
    "admin_level": 8,
    "parents": "-388270,-946158,-14296",
    "name": "District of Revúca",
    "local_name": "okres Revúca",
    "name_en": "District of Revúca",
    "all_tags": {
      "ref": "SK0328",
      "name": "okres Revúca",
      "name:de": "Bezirk Großrauschenbach",
      "name:en": "District of Revúca",
      "name:hu": "Nagyrőcei járás",
      "name:pl": "Powiat Revúca",
      "name:uk": "округ Ревуца",
      "boundary": "administrative",
      "way_area": "0.0890401",
      "wikidata": "Q651878",
      "wikipedia": "sk:Revúca (okres)",
      "admin_level": "8"
    }
  },
  {
    "osm_id": -388227,
    "boundary": "administrative",
    "admin_level": 8,
    "parents": "-388271,-946159,-14296",
    "name": "District of Vranov nad Topľou",
    "local_name": "okres Vranov nad Topľou",
    "name_en": "District of Vranov nad Topľou",
    "all_tags": {
      "ref": "SK041D",
      "name": "okres Vranov nad Topľou",
      "name:en": "District of Vranov nad Topľou",
      "name:hu": "Varannói járás",
      "boundary": "administrative",
      "way_area": "0.09439",
      "wikidata": "Q837874",
      "wikipedia": "sk:Vranov nad Topľou",
      "admin_level": "8"
    }
  },
  {
    "osm_id": -388226,
    "boundary": "administrative",
    "admin_level": 8,
    "parents": "-388271,-946159,-14296",
    "name": "District of Svidník",
    "local_name": "okres Svidník",
    "name_en": "District of Svidník",
    "all_tags": {
      "ref": "SK041C",
      "name": "okres Svidník",
      "name:de": "Bezirk Oberswidnik",
      "name:en": "District of Svidník",
      "name:hu": "Felsővízközi járás",
      "name:pl": "Powiat Svidník",
      "boundary": "administrative",
      "way_area": "0.0678929",
      "wikidata": "Q385823",
      "wikipedia": "sk:Svidník (okres)",
      "admin_level": "8"
    }
  },
  {
    "osm_id": -388225,
    "boundary": "administrative",
    "admin_level": 8,
    "parents": "-388266,-946157,-14296",
    "name": "District of Dunajská Streda",
    "local_name": "okres Dunajská Streda",
    "name_en": "District of Dunajská Streda",
    "all_tags": {
      "ref": "SK0211",
      "name": "okres Dunajská Streda",
      "name:de": "Bezirk Niedermarkt",
      "name:en": "District of Dunajská Streda",
      "name:hu": "Dunaszerdahelyi járás",
      "name:sk": "okres Dunajská Streda",
      "boundary": "administrative",
      "way_area": "0.129408",
      "wikidata": "Q756662",
      "wikipedia": "sk:Dunajská Streda (okres)",
      "admin_level": "8"
    }
  },
  {
    "osm_id": -388224,
    "boundary": "administrative",
    "admin_level": 8,
    "parents": "-388268,-946157,-14296",
    "name": "District of Topoľčany",
    "local_name": "okres Topoľčany",
    "name_en": "District of Topoľčany",
    "all_tags": {
      "ref": "SK0236",
      "name": "okres Topoľčany",
      "name:de": "Bezirk Topoltschan",
      "name:en": "District of Topoľčany",
      "name:hu": "Nagytapolcsányi járás",
      "name:pl": "Powiat Topolczany",
      "boundary": "administrative",
      "way_area": "0.0727951",
      "wikidata": "Q599361",
      "wikipedia": "sk:Topoľčany (okres)",
      "admin_level": "8"
    }
  },
  {
    "osm_id": -388223,
    "boundary": "administrative",
    "admin_level": 8,
    "parents": "-388265,-14296",
    "name": "District of Senec",
    "local_name": "okres Senec",
    "name_en": "District of Senec",
    "all_tags": {
      "ref": "SK0108",
      "name": "okres Senec",
      "name:de": "Bezirk Wartberg",
      "name:en": "District of Senec",
      "name:hu": "Szenci járás",
      "name:pl": "Powiat Senec",
      "boundary": "administrative",
      "way_area": "0.0435063",
      "wikidata": "Q513989",
      "wikipedia": "sk:Senec (okres)",
      "admin_level": "8"
    }
  },
  {
    "osm_id": -388222,
    "boundary": "administrative",
    "admin_level": 8,
    "parents": "-388268,-946157,-14296",
    "name": "District of Šaľa",
    "local_name": "okres Šaľa",
    "name_en": "District of Šaľa",
    "all_tags": {
      "ref": "SK0235",
      "name": "okres Šaľa",
      "name:de": "Bezirk Schala",
      "name:en": "District of Šaľa",
      "name:hu": "Vágsellyei járás",
      "name:pl": "Powiat Šaľa",
      "boundary": "administrative",
      "way_area": "0.0429859",
      "wikidata": "Q687009",
      "wikipedia": "sk:Šaľa (okres)",
      "admin_level": "8"
    }
  },
  {
    "osm_id": -388221,
    "boundary": "administrative",
    "admin_level": 8,
    "parents": "-388272,-946159,-14296",
    "name": "District of Gelnica",
    "local_name": "okres Gelnica",
    "name_en": "District of Gelnica",
    "all_tags": {
      "ref": "SK0421",
      "name": "okres Gelnica",
      "name:de": "Bezirk Göllnitz",
      "name:en": "District of Gelnica",
      "name:hu": "Gölnicbányai járás",
      "name:pl": "Powiat Gelnica",
      "boundary": "administrative",
      "way_area": "0.0714524",
      "wikidata": "Q220968",
      "wikipedia": "sk:Gelnica (okres)",
      "admin_level": "8"
    }
  },
  {
    "osm_id": -388220,
    "boundary": "administrative",
    "admin_level": 8,
    "parents": "-1690324,-388272,-946159,-14296",
    "name": "District of Košice I",
    "local_name": "okres Košice I",
    "name_en": "District of Košice I",
    "all_tags": {
      "ref": "SK0422",
      "name": "okres Košice I",
      "name:de": "Bezirk Kaschau I",
      "name:en": "District of Košice I",
      "name:hu": "Kassai I. járás",
      "name:pl": "Powiat Koszyce I",
      "name:uk": "Округ Кошиці I",
      "boundary": "administrative",
      "reg_name": "Košice I",
      "way_area": "0.0104501",
      "wikidata": "Q830995",
      "wikipedia": "sk:Košice I (okres)",
      "admin_level": "8"
    }
  },
  {
    "osm_id": -388219,
    "boundary": "administrative",
    "admin_level": 8,
    "parents": "-388265,-14296",
    "name": "District of Malacky",
    "local_name": "okres Malacky",
    "name_en": "District of Malacky",
    "all_tags": {
      "ref": "SK0106",
      "name": "okres Malacky",
      "name:de": "Bezirk Malatzka",
      "name:en": "District of Malacky",
      "name:hu": "Malackai járás",
      "name:pl": "Powiat Malacky",
      "boundary": "administrative",
      "way_area": "0.115307",
      "wikidata": "Q590660",
      "wikipedia": "sk:Malacky (okres)",
      "admin_level": "8"
    }
  },
  {
    "osm_id": -388218,
    "boundary": "administrative",
    "admin_level": 8,
    "parents": "-388270,-946158,-14296",
    "name": "District of Poltár",
    "local_name": "okres Poltár",
    "name_en": "District of Poltár",
    "all_tags": {
      "ref": "SK0327",
      "name": "okres Poltár",
      "name:en": "District of Poltár",
      "name:hu": "Poltári járás",
      "boundary": "administrative",
      "way_area": "0.0579271",
      "wikidata": "Q256846",
      "wikipedia": "sk:Poltár (okres)",
      "admin_level": "8"
    }
  },
  {
    "osm_id": -388217,
    "boundary": "administrative",
    "admin_level": 8,
    "parents": "-388268,-946157,-14296",
    "name": "District of Zlaté Moravce",
    "local_name": "okres Zlaté Moravce",
    "name_en": "District of Zlaté Moravce",
    "all_tags": {
      "ref": "SK0237",
      "name": "okres Zlaté Moravce",
      "name:en": "District of Zlaté Moravce",
      "name:hu": "Aranyosmaróti járás",
      "boundary": "administrative",
      "way_area": "0.063288",
      "wikidata": "Q775875",
      "wikipedia": "sk:Zlaté Moravce (okres)",
      "admin_level": "8"
    }
  },
  {
    "osm_id": -388216,
    "boundary": "administrative",
    "admin_level": 8,
    "parents": "-1690324,-388272,-946159,-14296",
    "name": "District of Košice II",
    "local_name": "okres Košice II",
    "name_en": "District of Košice II",
    "all_tags": {
      "ref": "SK0423",
      "name": "okres Košice II",
      "name:de": "Bezirk Kaschau II",
      "name:en": "District of Košice II",
      "name:hu": "Kassai II. járás",
      "name:pl": "Powiat Koszyce II",
      "name:uk": "Округ Кошиці II",
      "boundary": "administrative",
      "reg_name": "Košice II",
      "way_area": "0.00901256",
      "wikidata": "Q280424",
      "wikipedia": "sk:Košice II (okres)",
      "admin_level": "8"
    }
  },
  {
    "osm_id": -388215,
    "boundary": "administrative",
    "admin_level": 8,
    "parents": "-1690324,-388272,-946159,-14296",
    "name": "District of Košice III",
    "local_name": "okres Košice III",
    "name_en": "District of Košice III",
    "all_tags": {
      "ref": "SK0424",
      "name": "okres Košice III",
      "name:de": "Bezirk Kaschau III",
      "name:en": "District of Košice III",
      "name:hu": "Kassai III. járás",
      "name:pl": "Powiat Koszyce III",
      "name:uk": "Округ Кошиці III",
      "boundary": "administrative",
      "reg_name": "Košice III",
      "way_area": "0.00205752",
      "wikidata": "Q548619",
      "wikipedia": "sk:Košice III (okres)",
      "admin_level": "8"
    }
  },
  {
    "osm_id": -388214,
    "boundary": "administrative",
    "admin_level": 8,
    "parents": "-1690324,-388272,-946159,-14296",
    "name": "District of Košice IV",
    "local_name": "okres Košice IV",
    "name_en": "District of Košice IV",
    "all_tags": {
      "ref": "SK0425",
      "name": "okres Košice IV",
      "name:de": "Bezirk Kaschau IV",
      "name:en": "District of Košice IV",
      "name:hu": "Kassai IV. járás",
      "name:pl": "Powiat Koszyce IV",
      "name:uk": "Округ Кошиці IV",
      "boundary": "administrative",
      "reg_name": "Košice IV",
      "way_area": "0.0074456",
      "wikidata": "Q650575",
      "wikipedia": "sk:Košice IV (okres)",
      "admin_level": "8"
    }
  },
  {
    "osm_id": -388213,
    "boundary": "administrative",
    "admin_level": 8,
    "parents": "-388270,-946158,-14296",
    "name": "District of Veľký Krtíš",
    "local_name": "okres Veľký Krtíš",
    "name_en": "District of Veľký Krtíš",
    "all_tags": {
      "ref": "SK032A",
      "name": "okres Veľký Krtíš",
      "name:en": "District of Veľký Krtíš",
      "name:hu": "Nagykürtösi járás",
      "boundary": "administrative",
      "way_area": "0.102615",
      "wikidata": "Q546630",
      "wikipedia": "sk:Veľký Krtíš (okres)",
      "admin_level": "8"
    }
  },
  {
    "osm_id": -388212,
    "boundary": "administrative",
    "admin_level": 8,
    "parents": "-388268,-946157,-14296",
    "name": "District of Nitra",
    "local_name": "okres Nitra",
    "name_en": "District of Nitra",
    "all_tags": {
      "ref": "SK0233",
      "name": "okres Nitra",
      "name:en": "District of Nitra",
      "name:hu": "Nyitrai járás",
      "boundary": "administrative",
      "way_area": "0.10553",
      "wikidata": "Q761574",
      "wikipedia": "sk:Nitra (okres)",
      "admin_level": "8"
    }
  },
  {
    "osm_id": -388211,
    "boundary": "administrative",
    "admin_level": 8,
    "parents": "-388265,-14296",
    "name": "District of Pezinok",
    "local_name": "okres Pezinok",
    "name_en": "District of Pezinok",
    "all_tags": {
      "ref": "SK0107",
      "name": "okres Pezinok",
      "name:de": "Bezirk Bösing",
      "name:en": "District of Pezinok",
      "name:hu": "Bazini járás",
      "name:pl": "Powiat Pezinok",
      "boundary": "administrative",
      "way_area": "0.0455362",
      "wikidata": "Q791591",
      "wikipedia": "sk:Pezinok (okres)",
      "admin_level": "8"
    }
  },
  {
    "osm_id": -388210,
    "boundary": "administrative",
    "admin_level": 8,
    "parents": "-1702499,-388265,-14296",
    "name": "District of Bratislava V",
    "local_name": "okres Bratislava V",
    "name_en": "District of Bratislava V",
    "all_tags": {
      "ref": "SK0105",
      "name": "okres Bratislava V",
      "name:de": "Bezirk Bratislava V",
      "name:en": "District of Bratislava V",
      "name:hu": "Pozsonyi V. járás",
      "name:pl": "Powiat Bratysława V",
      "boundary": "administrative",
      "reg_name": "Bratislava V",
      "way_area": "0.0113615",
      "wikidata": "Q750439",
      "wikipedia": "sk:Bratislava V (okres)",
      "admin_level": "8",
      "old_name:de": "Bezirk Pressburg V"
    }
  },
  {
    "osm_id": -388209,
    "boundary": "administrative",
    "admin_level": 8,
    "parents": "-388272,-946159,-14296",
    "name": "District of Košice - okolie",
    "local_name": "okres Košice - okolie",
    "name_en": "District of Košice - okolie",
    "all_tags": {
      "ref": "SK0426",
      "name": "okres Košice - okolie",
      "name:de": "Bezirk Kaschau - Umgebung",
      "name:en": "District of Košice - okolie",
      "name:hu": "Kassa-környéki járás",
      "name:pl": "Powiat Koszyce-okolice",
      "boundary": "administrative",
      "reg_name": "Košice - okolie",
      "way_area": "0.188063",
      "wikidata": "Q539979",
      "wikipedia": "sk:Košice-okolie (okres)",
      "admin_level": "8"
    }
  },
  {
    "osm_id": -388208,
    "boundary": "administrative",
    "admin_level": 8,
    "parents": "-388268,-946157,-14296",
    "name": "District of Nové Zámky",
    "local_name": "okres Nové Zámky",
    "name_en": "District of Nové Zámky",
    "all_tags": {
      "ref": "SK0234",
      "name": "okres Nové Zámky",
      "name:de": "Bezirk Neuhäusel",
      "name:en": "District of Nové Zámky",
      "name:hu": "Érsekújvári járás",
      "boundary": "administrative",
      "way_area": "0.162189",
      "wikidata": "Q730722",
      "wikipedia": "sk:Nové Zámky (okres)",
      "admin_level": "8"
    }
  },
  {
    "osm_id": -388207,
    "boundary": "administrative",
    "admin_level": 8,
    "parents": "-388270,-946158,-14296",
    "name": "District of Rimavská Sobota",
    "local_name": "okres Rimavská Sobota",
    "name_en": "District of Rimavská Sobota",
    "all_tags": {
      "ref": "SK0329",
      "name": "okres Rimavská Sobota",
      "name:de": "Bezirk Großsteffelsdorf",
      "name:en": "District of Rimavská Sobota",
      "name:hu": "Rimaszombati járás",
      "name:pl": "Powiat Rymawska Sobota",
      "boundary": "administrative",
      "way_area": "0.178789",
      "wikidata": "Q836188",
      "wikipedia": "sk:Rimavská Sobota (okres)",
      "admin_level": "8"
    }
  },
  {
    "osm_id": -388206,
    "boundary": "administrative",
    "admin_level": 8,
    "parents": "-388266,-946157,-14296",
    "name": "District of Skalica",
    "local_name": "okres Skalica",
    "name_en": "District of Skalica",
    "all_tags": {
      "ref": "SK0216",
      "name": "okres Skalica",
      "name:de": "Bezirk Skalitz",
      "name:en": "District of Skalica",
      "name:hu": "Szakolcai járás",
      "boundary": "administrative",
      "way_area": "0.0436684",
      "wikidata": "Q837894",
      "wikipedia": "sk:Skalica (okres)",
      "admin_level": "8"
    }
  },
  {
    "osm_id": -388205,
    "boundary": "administrative",
    "admin_level": 8,
    "parents": "-388272,-946159,-14296",
    "name": "District of Michalovce",
    "local_name": "okres Michalovce",
    "name_en": "District of Michalovce",
    "all_tags": {
      "ref": "SK0427",
      "name": "okres Michalovce",
      "name:de": "Bezirk Großmichel",
      "name:en": "District of Michalovce",
      "name:hu": "Nagymihályi járás",
      "name:pl": "Powiat Michalovce",
      "name:ru": "район Михаловце",
      "boundary": "administrative",
      "way_area": "0.124646",
      "wikidata": "Q379320",
      "wikipedia": "sk:Michalovce (okres)",
      "admin_level": "8"
    }
  },
  {
    "osm_id": -388204,
    "boundary": "administrative",
    "admin_level": 8,
    "parents": "-388269,-946158,-14296",
    "name": "District of Kysucké Nové Mesto",
    "local_name": "okres Kysucké Nové Mesto",
    "name_en": "District of Kysucké Nové Mesto",
    "all_tags": {
      "ref": "SK0314",
      "name": "okres Kysucké Nové Mesto",
      "name:de": "Bezirk Kischützneustadt",
      "name:en": "District of Kysucké Nové Mesto",
      "name:hu": "Kiszucaújhelyi járás",
      "name:pl": "Powiat Kysucké Nové Mesto",
      "boundary": "administrative",
      "way_area": "0.0214809",
      "wikidata": "Q762646",
      "wikipedia": "sk:Kysucké Nové Mesto (okres)",
      "admin_level": "8"
    }
  },
  {
    "osm_id": -388203,
    "boundary": "administrative",
    "admin_level": 8,
    "parents": "-388270,-946158,-14296",
    "name": "District of Žarnovica",
    "local_name": "okres Žarnovica",
    "name_en": "District of Žarnovica",
    "all_tags": {
      "ref": "SK032C",
      "name": "okres Žarnovica",
      "name:en": "District of Žarnovica",
      "name:hu": "Zsarnócai járás",
      "name:sk": "okres Žarnovica",
      "boundary": "administrative",
      "way_area": "0.0517435",
      "wikidata": "Q633617",
      "wikipedia": "sk:Žarnovica (okres)",
      "admin_level": "8"
    }
  },
  {
    "osm_id": -388202,
    "boundary": "administrative",
    "admin_level": 8,
    "parents": "-388266,-946157,-14296",
    "name": "District of Trnava",
    "local_name": "okres Trnava",
    "name_en": "District of Trnava",
    "all_tags": {
      "ref": "SK0217",
      "name": "okres Trnava",
      "name:de": "Bezirk Tyrnau",
      "name:en": "District of Trnava",
      "name:hu": "Nagyszombati járás",
      "name:pl": "Powiat Trnawa",
      "boundary": "administrative",
      "way_area": "0.0900685",
      "wikidata": "Q775484",
      "wikipedia": "sk:Trnava (okres)",
      "admin_level": "8"
    }
  },
  {
    "osm_id": -388201,
    "boundary": "administrative",
    "admin_level": 8,
    "parents": "-388272,-946159,-14296",
    "name": "District of Rožňava",
    "local_name": "okres Rožňava",
    "name_en": "District of Rožňava",
    "all_tags": {
      "ref": "SK0428",
      "name": "okres Rožňava",
      "name:de": "Bezirk Rosenau",
      "name:en": "District of Rožňava",
      "name:hu": "Rozsnyói járás",
      "name:pl": "Powiat Rożniawa",
      "boundary": "administrative",
      "way_area": "0.143214",
      "wikidata": "Q756075",
      "wikipedia": "sk:Rožňava (okres)",
      "admin_level": "8"
    }
  },
  {
    "osm_id": -388200,
    "boundary": "administrative",
    "admin_level": 8,
    "parents": "-388266,-946157,-14296",
    "name": "District of Senica",
    "local_name": "okres Senica",
    "name_en": "District of Senica",
    "all_tags": {
      "ref": "SK0215",
      "name": "okres Senica",
      "name:de": "Bezirk Senitz",
      "name:en": "District of Senica",
      "name:hu": "Szenicei járás",
      "name:pl": "Powiat Senica",
      "boundary": "administrative",
      "way_area": "0.0833514",
      "wikidata": "Q842557",
      "wikipedia": "sk:Senica (okres)",
      "admin_level": "8"
    }
  },
  {
    "osm_id": -388199,
    "boundary": "administrative",
    "admin_level": 8,
    "parents": "-388269,-946158,-14296",
    "name": "District of Liptovský Mikuláš",
    "local_name": "okres Liptovský Mikuláš",
    "name_en": "District of Liptovský Mikuláš",
    "all_tags": {
      "ref": "SK0315",
      "name": "okres Liptovský Mikuláš",
      "name:en": "District of Liptovský Mikuláš",
      "name:hu": "Liptószentmiklósi járás",
      "name:pl": "Powiat Liptowski Mikułasz",
      "boundary": "administrative",
      "way_area": "0.164971",
      "wikidata": "Q545302",
      "wikipedia": "sk:Okres Liptovský Mikuláš",
      "admin_level": "8"
    }
  },
  {
    "osm_id": -388198,
    "boundary": "administrative",
    "admin_level": 8,
    "parents": "-388270,-946158,-14296",
    "name": "District of Zvolen",
    "local_name": "okres Zvolen",
    "name_en": "District of Zvolen",
    "all_tags": {
      "ref": "SK032B",
      "name": "okres Zvolen",
      "name:de": "Bezirk Altsohl",
      "name:en": "District of Zvolen",
      "name:hu": "Zólyomi járás",
      "name:pl": "Powiat Zwoleń",
      "boundary": "administrative",
      "way_area": "0.0923811",
      "wikidata": "Q370161",
      "wikipedia": "sk:Zvolen (okres)",
      "admin_level": "8"
    }
  },
  {
    "osm_id": -388197,
    "boundary": "administrative",
    "admin_level": 8,
    "parents": "-388269,-946158,-14296",
    "name": "District of Martin",
    "local_name": "okres Martin",
    "name_en": "District of Martin",
    "all_tags": {
      "ref": "SK0316",
      "name": "okres Martin",
      "name:de": "Bezirk Sankt Martin",
      "name:en": "District of Martin",
      "name:hu": "Túrócszentmártoni járás",
      "name:pl": "Powiat Martin",
      "boundary": "administrative",
      "way_area": "0.0904509",
      "wikidata": "Q756665",
      "wikipedia": "sk:Martin (okres)",
      "admin_level": "8"
    }
  },
  {
    "osm_id": -388196,
    "boundary": "administrative",
    "admin_level": 8,
    "parents": "-388272,-946159,-14296",
    "name": "District of Sobrance",
    "local_name": "okres Sobrance",
    "name_en": "District of Sobrance",
    "all_tags": {
      "ref": "SK0429",
      "name": "okres Sobrance",
      "name:de": "Bezirk Sobranz",
      "name:en": "District of Sobrance",
      "name:hu": "Szobránci járás",
      "name:pl": "Powiat Sobrance",
      "name:ru": "район Собранце",
      "name:uk": "округ Собранці",
      "boundary": "administrative",
      "way_area": "0.0658249",
      "wikidata": "Q830991",
      "wikipedia": "sk:Sobrance (okres)",
      "admin_level": "8",
      "alt_name:uk": "округ Собранце"
    }
  },
  {
    "osm_id": -388195,
    "boundary": "administrative",
    "admin_level": 8,
    "parents": "-388269,-946158,-14296",
    "name": "District of Bytča",
    "local_name": "okres Bytča",
    "name_en": "District of Bytča",
    "all_tags": {
      "ref": "SK0311",
      "name": "okres Bytča",
      "name:en": "District of Bytča",
      "name:hu": "Nagybiccsei járás",
      "boundary": "administrative",
      "way_area": "0.0347759",
      "wikidata": "Q668333",
      "wikipedia": "sk:Bytča (okres)",
      "admin_level": "8"
    }
  },
  {
    "osm_id": -388194,
    "boundary": "administrative",
    "admin_level": 8,
    "parents": "-388266,-946157,-14296",
    "name": "District of Hlohovec",
    "local_name": "okres Hlohovec",
    "name_en": "District of Hlohovec",
    "all_tags": {
      "ref": "SK0213",
      "name": "okres Hlohovec",
      "name:en": "District of Hlohovec",
      "name:hu": "Galgóci járás",
      "boundary": "administrative",
      "way_area": "0.0324688",
      "wikidata": "Q550271",
      "wikipedia": "sk:Hlohovec (okres)",
      "admin_level": "8"
    }
  },
  {
    "osm_id": -388193,
    "boundary": "administrative",
    "admin_level": 8,
    "parents": "-388272,-946159,-14296",
    "name": "District of Spišská Nová Ves",
    "local_name": "okres Spišská Nová Ves",
    "name_en": "District of Spišská Nová Ves",
    "all_tags": {
      "ref": "SK042A",
      "name": "okres Spišská Nová Ves",
      "name:de": "Bezirk Zipser Neudorf",
      "name:en": "District of Spišská Nová Ves",
      "name:hu": "Iglói járás",
      "name:pl": "Powiat Nowa Wieś Spiska",
      "boundary": "administrative",
      "way_area": "0.0719715",
      "wikidata": "Q756077",
      "wikipedia": "sk:Spišská Nová Ves (okres)",
      "admin_level": "8"
    }
  },
  {
    "osm_id": -388192,
    "boundary": "administrative",
    "admin_level": 8,
    "parents": "-388271,-946159,-14296",
    "name": "District of Humenné",
    "local_name": "okres Humenné",
    "name_en": "District of Humenné",
    "all_tags": {
      "ref": "SK0412",
      "name": "okres Humenné",
      "name:de": "Bezirk Homenau",
      "name:en": "District of Humenné",
      "name:hu": "Homonnai járás",
      "name:pl": "Powiat Humenné",
      "boundary": "administrative",
      "way_area": "0.0927073",
      "wikidata": "Q837897",
      "wikipedia": "sk:Humenné (okres)",
      "admin_level": "8"
    }
  },
  {
    "osm_id": -388191,
    "boundary": "administrative",
    "admin_level": 8,
    "parents": "-388269,-946158,-14296",
    "name": "District of Čadca",
    "local_name": "okres Čadca",
    "name_en": "District of Čadca",
    "all_tags": {
      "ref": "SK0312",
      "name": "okres Čadca",
      "name:de": "Bezirk Tschadsa",
      "name:en": "District of Čadca",
      "name:hu": "Csacai járás",
      "name:pl": "Powiat Czadca",
      "boundary": "administrative",
      "way_area": "0.0942513",
      "wikidata": "Q836173",
      "wikipedia": "sk:Čadca (okres)",
      "admin_level": "8"
    }
  },
  {
    "osm_id": -388190,
    "boundary": "administrative",
    "admin_level": 8,
    "parents": "-388266,-946157,-14296",
    "name": "District of Piešťany",
    "local_name": "okres Piešťany",
    "name_en": "District of Piešťany",
    "all_tags": {
      "ref": "SK0214",
      "name": "okres Piešťany",
      "name:de": "Bezirk Pistyan",
      "name:en": "District of Piešťany",
      "name:hu": "Pöstyéni járás",
      "name:pl": "Powiat Pieszczany",
      "boundary": "administrative",
      "way_area": "0.0464417",
      "wikidata": "Q837868",
      "wikipedia": "sk:Piešťany (okres)",
      "admin_level": "8"
    }
  },
  {
    "osm_id": -388189,
    "boundary": "administrative",
    "admin_level": 8,
    "parents": "-388270,-946158,-14296",
    "name": "District of Žiar nad Hronom",
    "local_name": "okres Žiar nad Hronom",
    "name_en": "District of Žiar nad Hronom",
    "all_tags": {
      "ref": "SK032D",
      "name": "okres Žiar nad Hronom",
      "name:de": "Bezirk Heiligenkreuz an der Gran",
      "name:en": "District of Žiar nad Hronom",
      "name:hu": "Garamszentkereszti járás",
      "name:pl": "Powiat Żar nad Hronem",
      "boundary": "administrative",
      "way_area": "0.0631564",
      "wikidata": "Q836194",
      "wikipedia": "sk:Žiar nad Hronom (okres)",
      "admin_level": "8"
    }
  },
  {
    "osm_id": -388188,
    "boundary": "administrative",
    "admin_level": 8,
    "parents": "-388266,-946157,-14296",
    "name": "District of Galanta",
    "local_name": "okres Galanta",
    "name_en": "District of Galanta",
    "all_tags": {
      "ref": "SK0212",
      "name": "okres Galanta",
      "name:de": "Bezirk Gallandau",
      "name:en": "District of Galanta",
      "name:hu": "Galántai járás",
      "name:pl": "Powiat Galanta",
      "boundary": "administrative",
      "way_area": "0.077593",
      "wikidata": "Q836182",
      "wikipedia": "sk:Galanta (okres)",
      "admin_level": "8"
    }
  },
  {
    "osm_id": -388187,
    "boundary": "administrative",
    "admin_level": 8,
    "parents": "-388272,-946159,-14296",
    "name": "District of Trebišov",
    "local_name": "okres Trebišov",
    "name_en": "District of Trebišov",
    "all_tags": {
      "ref": "SK042B",
      "name": "okres Trebišov",
      "name:de": "Bezirk Trebischau",
      "name:en": "District of Trebišov",
      "name:hu": "Tőketerebesi járás",
      "name:pl": "Powiat Trzebiszów",
      "name:ru": "район Требишов",
      "boundary": "administrative",
      "way_area": "0.130666",
      "wikidata": "Q301318",
      "wikipedia": "sk:Trebišov (okres)",
      "admin_level": "8"
    }
  },
  {
    "osm_id": -388186,
    "boundary": "administrative",
    "admin_level": 8,
    "parents": "-388269,-946158,-14296",
    "name": "District of Dolný Kubín",
    "local_name": "okres Dolný Kubín",
    "name_en": "District of Dolný Kubín",
    "all_tags": {
      "ref": "SK0313",
      "name": "okres Dolný Kubín",
      "name:de": "Bezirk Unterkubin",
      "name:en": "District of Dolný Kubín",
      "name:hu": "Alsókubini járás",
      "name:pl": "Powiat Dolný Kubín",
      "boundary": "administrative",
      "way_area": "0.0607275",
      "wikidata": "Q665066",
      "wikipedia": "sk:Dolný Kubín (okres)",
      "admin_level": "8"
    }
  },
  {
    "osm_id": -388185,
    "boundary": "administrative",
    "admin_level": 8,
    "parents": "-388271,-946159,-14296",
    "name": "District of Bardejov",
    "local_name": "okres Bardejov",
    "name_en": "District of Bardejov",
    "all_tags": {
      "ref": "SK0411",
      "name": "okres Bardejov",
      "name:de": "Bezirk Bartfeld",
      "name:en": "District of Bardejov",
      "name:hu": "Bártfai járás",
      "name:pl": "Powiat Bardejów",
      "boundary": "administrative",
      "way_area": "0.115658",
      "wikidata": "Q265964",
      "wikipedia": "sk:Bardejov (okres)",
      "admin_level": "8"
    }
  }
]
