[
  {
    "osm_id": -8799386,
    "boundary": "administrative",
    "admin_level": 8,
    "parents": "-223030,-223026",
    "name": "Baýramaly",
    "local_name": "Baýramaly",
    "name_en": null,
    "all_tags": {
      "area": "no",
      "name": "Baýramaly",
      "place": "city",
      "name:ja": "バイラマリ",
      "name:ru": "Байрамали",
      "name:tk": "Baýramaly",
      "boundary": "administrative",
      "way_area": "0.00172245",
      "population": "110545",
      "admin_level": "8"
    }
  },
  {
    "osm_id": -8795632,
    "boundary": "administrative",
    "admin_level": 8,
    "parents": "-223029,-223026",
    "name": "Turkmenabat",
    "local_name": "Türkmenabat",
    "name_en": "Turkmenabat",
    "all_tags": {
      "name": "Türkmenabat",
      "place": "city",
      "name:ar": "تركمان أباد",
      "name:de": "Türkmenabat",
      "name:en": "Turkmenabat",
      "name:es": "Türkmenabat",
      "name:fr": "Türkmenabat",
      "name:ru": "Туркменабад",
      "name:tk": "Türkmenabat",
      "boundary": "administrative",
      "way_area": "0.0164795",
      "addr:city": "Türkmenabat",
      "admin_level": "8",
      "addr:postcode": "746100",
      "is_in:country": "Turkmenistan",
      "is_in:continent": "Asia",
      "is_in:country_code": "TM"
    }
  },
  {
    "osm_id": -2603973,
    "boundary": "administrative",
    "admin_level": 8,
    "parents": "-223032,-223026",
    "name": "Turkmenbashy",
    "local_name": "Türkmenbaşy",
    "name_en": "Turkmenbashy",
    "all_tags": {
      "area": "no",
      "name": "Türkmenbaşy",
      "is_in": "Turkmenistan, Balkan",
      "place": "city",
      "name:de": "Türkmenbaşy",
      "name:en": "Turkmenbashy",
      "name:es": "Turkmenbashi",
      "name:fr": "Türkmenbaşy",
      "name:ja": "トルクメンバシ",
      "name:ko": "투르크멘바시",
      "name:ru": "Туркменбаши",
      "name:tk": "Türkmenbaşy",
      "name:tr": "Türkmenbaşı",
      "name:uk": "Туркменбаші",
      "boundary": "administrative",
      "old_name": "Красноводск",
      "way_area": "0.011476",
      "addr:city": "Turkmenbashy",
      "admin_level": "8",
      "old_name:en": "Krasnovodsk",
      "old_name:ru": "Красноводск",
      "old_name:tk": "Krasnowodsk",
      "addr:country": "TM",
      "is_in:country": "Turkmenistan",
      "is_in:continent": "Asia",
      "is_in:country_code": "TM",
      "old_name:tk:1820-1881": "Şagadam;Шагадам"
    }
  }
]
