[
  {
    "osm_id": -6748671,
    "boundary": "administrative",
    "admin_level": 8,
    "parents": "-2915930,-3777248,-449220",
    "name": "Baozhong Township",
    "local_name": "褒忠鄉",
    "name_en": "Baozhong Township",
    "all_tags": {
      "name": "褒忠鄉",
      "is_in": "臺灣雲林縣",
      "name:en": "Baozhong Township",
      "name:ja": "褒忠郷",
      "name:ko": "바오중 향",
      "name:vi": "Bao Trung",
      "name:zh": "褒忠鄉",
      "nat_ref": "10009150",
      "boundary": "administrative",
      "name:hak": "Pô-chûng-hiông",
      "name:nan": "Po-tiong-hiong",
      "way_area": "0.00315254",
      "wikidata": "Q706707",
      "wikipedia": "zh:褒忠鄉",
      "is_in:city": "雲林縣",
      "admin_level": "8",
      "postal_code": "634",
      "is_in:country": "TW"
    }
  },
  {
    "osm_id": -3630192,
    "boundary": "administrative",
    "admin_level": 8,
    "parents": "-2915930,-3777248,-449220",
    "name": "Xiluo Township",
    "local_name": "西螺鎮",
    "name_en": "Xiluo Township",
    "all_tags": {
      "name": "西螺鎮",
      "is_in": "臺灣雲林縣",
      "name:en": "Xiluo Township",
      "name:ja": "西螺鎮",
      "name:ko": "시뤄 진",
      "name:vi": "Tây Loa",
      "name:zh": "西螺鎮",
      "nat_ref": "10009040",
      "boundary": "administrative",
      "name:hak": "Sî-lô-tsṳ́n",
      "name:nan": "Sai-lê-tìn",
      "way_area": "0.00444081",
      "wikidata": "Q710286",
      "wikipedia": "zh:西螺鎮",
      "is_in:city": "雲林縣",
      "admin_level": "8",
      "is_in:country": "TW"
    }
  },
  {
    "osm_id": -3630191,
    "boundary": "administrative",
    "admin_level": 8,
    "parents": "-2915930,-3777248,-449220",
    "name": "Huwei Township",
    "local_name": "虎尾鎮",
    "name_en": "Huwei Township",
    "all_tags": {
      "name": "虎尾鎮",
      "name:en": "Huwei Township",
      "name:it": "Huwei",
      "name:ja": "虎尾鎮",
      "name:ko": "후웨이 진",
      "name:vi": "Hổ Vĩ",
      "name:zh": "虎尾鎮",
      "nat_ref": "10009030",
      "boundary": "administrative",
      "name:hak": "Fú-mî-chṳ́n",
      "name:nan": "Hó͘-bóe-tìn",
      "way_area": "0.00605248",
      "wikidata": "Q708799",
      "wikipedia": "zh:虎尾鎮",
      "is_in:city": "雲林縣",
      "admin_level": "8",
      "is_in:country": "TW"
    }
  },
  {
    "osm_id": -3630190,
    "boundary": "administrative",
    "admin_level": 8,
    "parents": "-2915930,-3777248,-449220",
    "name": "Citong Township",
    "local_name": "莿桐鄉",
    "name_en": "Citong Township",
    "all_tags": {
      "name": "莿桐鄉",
      "is_in": "臺灣雲林縣",
      "name:en": "Citong Township",
      "name:ja": "シ桐郷",
      "name:ko": "치퉁 향",
      "name:vi": "Thích Đồng",
      "name:zh": "莿桐鄉",
      "nat_ref": "10009090",
      "boundary": "administrative",
      "name:hak": "Tshṳ̀-thùng-hiông",
      "name:nan": "Chhì-tông-hiong",
      "way_area": "0.00505326",
      "wikidata": "Q710249",
      "wikipedia": "zh:莿桐鄉",
      "is_in:city": "雲林縣",
      "admin_level": "8",
      "is_in:country": "TW"
    }
  },
  {
    "osm_id": -3630189,
    "boundary": "administrative",
    "admin_level": 8,
    "parents": "-2915930,-3777248,-449220",
    "name": "Linnei Township",
    "local_name": "林內鄉",
    "name_en": "Linnei Township",
    "all_tags": {
      "name": "林內鄉",
      "is_in": "臺灣雲林縣",
      "name:en": "Linnei Township",
      "name:ja": "林内郷",
      "name:ko": "린네이 향",
      "name:vi": "Lâm Nội",
      "name:zh": "林內鄉",
      "nat_ref": "10009100",
      "boundary": "administrative",
      "name:hak": "Lìm-nui-hiông",
      "name:nan": "Nâ-lāi-hiong",
      "way_area": "0.00462219",
      "wikidata": "Q709970",
      "wikipedia": "zh:林內鄉",
      "is_in:city": "雲林縣",
      "admin_level": "8",
      "is_in:country": "TW"
    }
  },
  {
    "osm_id": -3630188,
    "boundary": "administrative",
    "admin_level": 8,
    "parents": "-2915930,-3777248,-449220",
    "name": "Dounan Township",
    "local_name": "斗南鎮",
    "name_en": "Dounan Township",
    "all_tags": {
      "name": "斗南鎮",
      "is_in": "臺灣雲林縣",
      "name:en": "Dounan Township",
      "name:ja": "斗南鎮",
      "name:ko": "더우난 진",
      "name:vi": "Đấu Nam",
      "name:zh": "斗南鎮",
      "nat_ref": "10009020",
      "boundary": "administrative",
      "name:hak": "Téu-nàm-tsṳ́n",
      "name:nan": "Táu-lâm-tìn",
      "way_area": "0.0042779",
      "wikidata": "Q709980",
      "wikipedia": "zh:斗南鎮",
      "is_in:city": "雲林縣",
      "admin_level": "8",
      "is_in:country": "TW"
    }
  },
  {
    "osm_id": -3630187,
    "boundary": "administrative",
    "admin_level": 8,
    "parents": "-2915930,-3777248,-449220",
    "name": "Douliu City",
    "local_name": "斗六市",
    "name_en": "Douliu City",
    "all_tags": {
      "name": "斗六市",
      "is_in": "臺灣雲林縣",
      "name:de": "Douliu",
      "name:en": "Douliu City",
      "name:fr": "Touliu",
      "name:it": "Douliu",
      "name:ja": "斗六市",
      "name:ko": "더우류 시",
      "name:ru": "Доулю",
      "name:vi": "Đấu Lục",
      "name:zh": "斗六市",
      "nat_ref": "10009010",
      "boundary": "administrative",
      "name:hak": "Téu-liuk-sṳ",
      "name:nan": "Táu-la̍k-chhī",
      "name:yue": "斗六市",
      "way_area": "0.00812736",
      "wikidata": "Q669566",
      "wikipedia": "zh:斗六市",
      "is_in:city": "雲林縣",
      "admin_level": "8",
      "name:zh-Hans": "斗六市",
      "name:zh-Hant": "斗六市",
      "is_in:country": "TW"
    }
  },
  {
    "osm_id": -3630186,
    "boundary": "administrative",
    "admin_level": 8,
    "parents": "-2915930,-3777248,-449220",
    "name": "Lunbei Township",
    "local_name": "崙背鄉",
    "name_en": "Lunbei Township",
    "all_tags": {
      "name": "崙背鄉",
      "is_in": "臺灣雲林縣",
      "name:en": "Lunbei Township",
      "name:ja": "崙背郷",
      "name:ko": "룬베이 향",
      "name:vi": "Luân Bối",
      "name:zh": "崙背鄉",
      "nat_ref": "10009120",
      "boundary": "administrative",
      "name:hak": "Lûn-poi-hiông",
      "name:nan": "Lūn-poè-hiong",
      "way_area": "0.00506092",
      "wikidata": "Q710242",
      "wikipedia": "zh:崙背鄉",
      "is_in:city": "雲林縣",
      "admin_level": "8",
      "is_in:country": "TW"
    }
  },
  {
    "osm_id": -3630185,
    "boundary": "administrative",
    "admin_level": 8,
    "parents": "-2915930,-3777248,-449220",
    "name": "Tuku Township",
    "local_name": "土庫鎮",
    "name_en": "Tuku Township",
    "all_tags": {
      "name": "土庫鎮",
      "is_in": "臺灣雲林縣",
      "name:en": "Tuku Township",
      "name:ja": "土庫鎮",
      "name:ko": "투쿠 진",
      "name:vi": "Thổ Khố",
      "name:zh": "土庫鎮",
      "nat_ref": "10009050",
      "boundary": "administrative",
      "name:hak": "Thú-khù-tsṳ́n",
      "name:nan": "Thô͘-khò͘-tìn",
      "way_area": "0.00426508",
      "wikidata": "Q708809",
      "wikipedia": "zh:土庫鎮",
      "is_in:city": "雲林縣",
      "admin_level": "8",
      "is_in:country": "TW"
    }
  },
  {
    "osm_id": -3630183,
    "boundary": "administrative",
    "admin_level": 8,
    "parents": "-2915930,-3777248,-449220",
    "name": "Erlun Township",
    "local_name": "二崙鄉",
    "name_en": "Erlun Township",
    "all_tags": {
      "name": "二崙鄉",
      "is_in": "臺灣雲林縣",
      "name:en": "Erlun Township",
      "name:ja": "二崙郷",
      "name:ko": "얼룬 향",
      "name:vi": "Nhị Lôn",
      "name:zh": "二崙鄉",
      "nat_ref": "10009110",
      "boundary": "administrative",
      "name:hak": "Ngi-lûn-hiông",
      "name:nan": "Jī-lūn-hiong",
      "way_area": "0.00537353",
      "wikidata": "Q712925",
      "wikipedia": "zh:二崙鄉",
      "is_in:city": "雲林縣",
      "admin_level": "8",
      "is_in:country": "TW"
    }
  },
  {
    "osm_id": -3598271,
    "boundary": "administrative",
    "admin_level": 8,
    "parents": "-2912630,-3777248,-449220",
    "name": "Su'ao Township",
    "local_name": "蘇澳鎮",
    "name_en": "Su'ao Township",
    "all_tags": {
      "name": "蘇澳鎮",
      "name:en": "Su'ao Township",
      "name:es": "Su-ao",
      "name:fr": "Su'ao",
      "name:ja": "蘇澳鎮",
      "name:ko": "쑤아오 진",
      "name:vi": "Tô Áo",
      "name:zh": "蘇澳鎮",
      "nat_ref": "10002030",
      "boundary": "administrative",
      "name:hak": "Sû-o-tsṳ́n",
      "name:nan": "So͘-ò-tìn",
      "way_area": "0.0079493",
      "wikidata": "Q701639",
      "wikipedia": "zh:蘇澳鎮 (台灣)",
      "admin_level": "8",
      "name:nan-HJ": "蘇澳鎮",
      "name:nan-TL": "Soo-ò-tìn",
      "name:nan-POJ": "So͘-ò-tìn",
      "name:zh-Hant": "蘇澳鎮"
    }
  },
  {
    "osm_id": -3511331,
    "boundary": "administrative",
    "admin_level": 8,
    "parents": "-2912613,-3777248,-449220",
    "name": "Qionglin",
    "local_name": "芎林鄉",
    "name_en": "Qionglin",
    "all_tags": {
      "name": "芎林鄉",
      "name:en": "Qionglin",
      "name:ja": "芎林郷",
      "name:ko": "충린 향",
      "name:vi": "Khung Lâm",
      "name:zh": "芎林鄉",
      "nat_ref": "10004070",
      "boundary": "administrative",
      "name:hak": "Khiûng-lìm-hiông",
      "name:nan": "Khiông-nâ-hiong",
      "way_area": "0.00356341",
      "wikidata": "Q713742",
      "wikipedia": "zh:芎林鄉",
      "admin_level": "8"
    }
  },
  {
    "osm_id": -3511330,
    "boundary": "administrative",
    "admin_level": 8,
    "parents": "-2912613,-3777248,-449220",
    "name": "Zhudong",
    "local_name": "竹東鎮",
    "name_en": "Zhudong",
    "all_tags": {
      "name": "竹東鎮",
      "name:en": "Zhudong",
      "name:ja": "竹東鎮",
      "name:ko": "주둥 진",
      "name:vi": "Trúc Đông",
      "name:zh": "竹東鎮",
      "nat_ref": "10004020",
      "boundary": "administrative",
      "name:hak": "Chuk-tûng-chṳ́n",
      "name:nan": "Tek-tang-tìn",
      "way_area": "0.00477578",
      "wikidata": "Q713780",
      "wikipedia": "zh:竹東鎮",
      "admin_level": "8"
    }
  },
  {
    "osm_id": -3511329,
    "boundary": "administrative",
    "admin_level": 8,
    "parents": "-2912613,-3777248,-449220",
    "name": "Xinpu",
    "local_name": "新埔鎮",
    "name_en": "Xinpu",
    "all_tags": {
      "name": "新埔鎮",
      "name:en": "Xinpu",
      "name:ja": "新埔鎮",
      "name:ko": "신푸 진",
      "name:vi": "Tân Phố",
      "name:zh": "新埔鎮",
      "nat_ref": "10004030",
      "boundary": "administrative",
      "name:hak": "Sîn-phû-tsṳ́n",
      "name:nan": "Sin-po͘-tìn",
      "way_area": "0.0064494",
      "wikidata": "Q712837",
      "wikipedia": "zh:新埔鎮",
      "admin_level": "8",
      "postal_code": "305"
    }
  },
  {
    "osm_id": -3509838,
    "boundary": "administrative",
    "admin_level": 8,
    "parents": "-2912613,-3777248,-449220",
    "name": "Emei",
    "local_name": "峨眉鄉",
    "name_en": "Emei",
    "all_tags": {
      "name": "峨眉鄉",
      "name:en": "Emei",
      "name:ja": "峨眉郷",
      "name:ko": "어메이 향",
      "name:vi": "Nga Mi",
      "name:zh": "峨眉鄉",
      "nat_ref": "10004110",
      "boundary": "administrative",
      "name:hak": "Ngô-mì-hiông",
      "name:nan": "Gô-bî-hiong",
      "way_area": "0.00415188",
      "wikidata": "Q709022",
      "wikipedia": "zh:峨眉鄉",
      "admin_level": "8"
    }
  },
  {
    "osm_id": -3509837,
    "boundary": "administrative",
    "admin_level": 8,
    "parents": "-2912613,-3777248,-449220",
    "name": "Baoshan",
    "local_name": "寶山鄉",
    "name_en": "Baoshan",
    "all_tags": {
      "name": "寶山鄉",
      "name:en": "Baoshan",
      "name:ja": "宝山郷",
      "name:ko": "바오산 향",
      "name:vi": "Bảo Sơn",
      "name:zh": "寶山鄉",
      "nat_ref": "10004100",
      "boundary": "administrative",
      "name:hak": "Pó-sân-hiông",
      "name:nan": "Pó-san-hiong",
      "way_area": "0.00574016",
      "wikidata": "Q713764",
      "wikipedia": "zh:寶山鄉 (台灣)",
      "admin_level": "8"
    }
  },
  {
    "osm_id": -3509836,
    "boundary": "administrative",
    "admin_level": 8,
    "parents": "-2912613,-3777248,-449220",
    "name": "Beipu",
    "local_name": "北埔鄉",
    "name_en": "Beipu",
    "all_tags": {
      "name": "北埔鄉",
      "name:en": "Beipu",
      "name:it": "Beipu",
      "name:ja": "北埔郷",
      "name:ko": "베이부 향",
      "name:vi": "Bắc Phố",
      "name:zh": "北埔鄉",
      "nat_ref": "10004090",
      "boundary": "administrative",
      "name:hak": "Pet-phû-hiông",
      "name:nan": "Pak-po͘-hiong",
      "way_area": "0.00476354",
      "wikidata": "Q713556",
      "wikipedia": "zh:北埔鄉",
      "admin_level": "8"
    }
  },
  {
    "osm_id": -3509627,
    "boundary": "administrative",
    "admin_level": 8,
    "parents": "-2912613,-3777248,-449220",
    "name": "Hengshan",
    "local_name": "橫山鄉",
    "name_en": "Hengshan",
    "all_tags": {
      "name": "橫山鄉",
      "name:en": "Hengshan",
      "name:ja": "横山郷",
      "name:ko": "헝산 향",
      "name:vi": "Hoành Sơn",
      "name:zh": "橫山鄉",
      "nat_ref": "10004080",
      "boundary": "administrative",
      "name:hak": "Vàng-sân-hiông",
      "name:nan": "Hoâiⁿ-san-hiong",
      "way_area": "0.00581237",
      "wikidata": "Q713576",
      "wikipedia": "zh:橫山鄉 (臺灣)",
      "admin_level": "8"
    }
  },
  {
    "osm_id": -3509551,
    "boundary": "administrative",
    "admin_level": 8,
    "parents": "-2912613,-3777248,-449220",
    "name": "Guanxi",
    "local_name": "關西鎮",
    "name_en": "Guanxi",
    "all_tags": {
      "name": "關西鎮",
      "name:en": "Guanxi",
      "name:ja": "関西鎮",
      "name:ko": "관시 진",
      "name:vi": "Quan Tây",
      "name:zh": "關西鎮",
      "nat_ref": "10004040",
      "boundary": "administrative",
      "name:hak": "Kuân-sî-chṳ́n",
      "name:nan": "Koan-se-tìn",
      "way_area": "0.0111794",
      "wikidata": "Q713721",
      "wikipedia": "zh:關西鎮 (台灣)",
      "admin_level": "8"
    }
  },
  {
    "osm_id": -3480284,
    "boundary": "administrative",
    "admin_level": 8,
    "parents": "-2912630,-3777248,-449220",
    "name": "Luodong",
    "local_name": "羅東鎮",
    "name_en": "Luodong",
    "all_tags": {
      "name": "羅東鎮",
      "name:en": "Luodong",
      "name:ja": "羅東鎮",
      "name:ko": "뤄둥 진",
      "name:vi": "La Đông",
      "name:zh": "羅東鎮",
      "nat_ref": "10002020",
      "boundary": "administrative",
      "name:hak": "Lò-tûng-tsṳ́n",
      "name:nan": "Lô-tong-tìn",
      "way_area": "0.00100621",
      "wikidata": "Q706261",
      "wikipedia": "zh:羅東鎮 (台灣)",
      "admin_level": "8",
      "postal_code": "265"
    }
  },
  {
    "osm_id": -3480283,
    "boundary": "administrative",
    "admin_level": 8,
    "parents": "-2912630,-3777248,-449220",
    "name": "Dongshan",
    "local_name": "冬山鄉",
    "name_en": "Dongshan",
    "all_tags": {
      "name": "冬山鄉",
      "name:de": "Dongshan",
      "name:en": "Dongshan",
      "name:ja": "冬山郷",
      "name:ko": "둥산 향",
      "name:vi": "Đông Sơn",
      "name:zh": "冬山鄉",
      "nat_ref": "10002080",
      "boundary": "administrative",
      "name:hak": "Tûng-sân-hiông",
      "name:nan": "Tang-soaⁿ-hiong",
      "way_area": "0.00669794",
      "wikidata": "Q706284",
      "wikipedia": "zh:冬山鄉",
      "admin_level": "8",
      "postal_code": "269"
    }
  },
  {
    "osm_id": -3476824,
    "boundary": "administrative",
    "admin_level": 8,
    "parents": "-2912630,-3777248,-449220",
    "name": "Sanxing",
    "local_name": "三星鄉",
    "name_en": "Sanxing",
    "all_tags": {
      "name": "三星鄉",
      "name:en": "Sanxing",
      "name:it": "Sanxing",
      "name:ja": "三星郷",
      "name:ko": "싼싱 향",
      "name:vi": "Tam Tinh",
      "name:zh": "三星鄉",
      "nat_ref": "10002100",
      "boundary": "administrative",
      "name:hak": "Sâm-sên-hiông",
      "name:nan": "Sam-seng-hiong",
      "way_area": "0.00785525",
      "wikidata": "Q706522",
      "wikipedia": "zh:三星鄉 (台灣)",
      "admin_level": "8",
      "postal_code": "266"
    }
  },
  {
    "osm_id": -3476768,
    "boundary": "administrative",
    "admin_level": 8,
    "parents": "-2912630,-3777248,-449220",
    "name": "Datong",
    "local_name": "大同鄉",
    "name_en": "Datong",
    "all_tags": {
      "name": "大同鄉",
      "name:en": "Datong",
      "name:ja": "大同郷",
      "name:ko": "다퉁 향",
      "name:vi": "Đại Đồng",
      "name:zh": "大同鄉",
      "nat_ref": "10002110",
      "boundary": "administrative",
      "name:hak": "Thai-thùng-hiông",
      "name:nan": "Tāi-tông-hiong",
      "way_area": "0.068614",
      "wikidata": "Q706556",
      "wikipedia": "zh:大同鄉 (台灣)",
      "admin_level": "8",
      "postal_code": "267"
    }
  },
  {
    "osm_id": -3449050,
    "boundary": "administrative",
    "admin_level": 8,
    "parents": "-2912630,-3777248,-449220",
    "name": "Nan'ao",
    "local_name": "南澳鄉",
    "name_en": "Nan'ao",
    "all_tags": {
      "name": "南澳鄉",
      "name:de": "Nan’ao",
      "name:en": "Nan'ao",
      "name:es": "Nan-ao",
      "name:it": "Nan-ao",
      "name:ja": "南澳郷",
      "name:ko": "난아오 향",
      "name:vi": "Nam Áo",
      "name:zh": "南澳鄉",
      "nat_ref": "10002120",
      "boundary": "administrative",
      "name:hak": "Nàm-o-hiông",
      "name:nan": "Lâm-ò-hiong",
      "way_area": "0.0633816",
      "wikidata": "Q701665",
      "wikipedia": "zh:南澳鄉",
      "admin_level": "8",
      "postal_code": "272"
    }
  },
  {
    "osm_id": -3410980,
    "boundary": "administrative",
    "admin_level": 8,
    "parents": "-2921156,-3777248,-449220",
    "name": "Xincheng",
    "local_name": "新城鄉",
    "name_en": "Xincheng",
    "all_tags": {
      "name": "新城鄉",
      "name:ab": "Xincheng",
      "name:de": "Xincheng",
      "name:en": "Xincheng",
      "name:it": "Xincheng",
      "name:ja": "新城郷",
      "name:ko": "신청 향",
      "name:vi": "Tân Thành",
      "name:zh": "新城鄉",
      "nat_ref": "10015040",
      "boundary": "administrative",
      "name:hak": "Sîn-sàng-hiông",
      "name:nan": "Sin-siâⁿ-hiong",
      "way_area": "0.00255682",
      "wikidata": "Q712969",
      "wikipedia": "zh:新城鄉 (台灣)",
      "admin_level": "8",
      "postal_code": "971"
    }
  },
  {
    "osm_id": -3410979,
    "boundary": "administrative",
    "admin_level": 8,
    "parents": "-2921156,-3777248,-449220",
    "name": "Hualien City",
    "local_name": "花蓮市",
    "name_en": "Hualien City",
    "all_tags": {
      "name": "花蓮市",
      "name:de": "Hualien",
      "name:en": "Hualien City",
      "name:fr": "Hualien",
      "name:it": "Hualien",
      "name:ja": "花蓮市",
      "name:ko": "화롄 시",
      "name:ru": "Хуалянь",
      "name:vi": "Hoa Liên",
      "name:zh": "花蓮市",
      "nat_ref": "10015010",
      "boundary": "administrative",
      "name:ami": "Kalinko",
      "name:hak": "Fâ-lièn-sṳ",
      "name:nan": "Hoa-liân-chhī",
      "name:szy": "Nabakuwan",
      "way_area": "0.00273019",
      "wikidata": "Q713310",
      "wikipedia": "zh:花蓮市",
      "admin_level": "8",
      "postal_code": "970",
      "name:zh-Hans": "花莲市",
      "name:zh-Hant": "花蓮市",
      "name:zh_pinyin": "Huɑ̄liɑ́n Shì"
    }
  },
  {
    "osm_id": -3404924,
    "boundary": "administrative",
    "admin_level": 8,
    "parents": "-2921156,-3777248,-449220",
    "name": "Ji'an",
    "local_name": "吉安鄉",
    "name_en": "Ji'an",
    "all_tags": {
      "name": "吉安鄉",
      "name:de": "Ji’an",
      "name:en": "Ji'an",
      "name:it": "Ji'an",
      "name:ja": "吉安郷",
      "name:ko": "지안 향",
      "name:pl": "Ji’an",
      "name:vi": "Cát An",
      "name:zh": "吉安鄉",
      "nat_ref": "10015050",
      "boundary": "administrative",
      "name:hak": "Kit-ôn-hiông",
      "name:nan": "Kiat-an-hiong",
      "way_area": "0.00555952",
      "wikidata": "Q706505",
      "wikipedia": "zh:吉安鄉",
      "admin_level": "8",
      "postal_code": "973"
    }
  },
  {
    "osm_id": -3397598,
    "boundary": "administrative",
    "admin_level": 8,
    "parents": "-2921156,-3777248,-449220",
    "name": "Fengbin",
    "local_name": "豐濱鄉",
    "name_en": "Fengbin",
    "all_tags": {
      "name": "豐濱鄉",
      "name:de": "Fengbin",
      "name:en": "Fengbin",
      "name:it": "Fengbin",
      "name:ja": "豊浜郷",
      "name:ko": "펑빈 향",
      "name:vi": "Phong Tân",
      "name:zh": "豐濱鄉",
      "nat_ref": "10015080",
      "boundary": "administrative",
      "name:hak": "Fûng-pîn-hiông",
      "name:nan": "Hong-pin-hiong",
      "way_area": "0.0138922",
      "wikidata": "Q708109",
      "wikipedia": "zh:豐濱鄉",
      "admin_level": "8",
      "postal_code": "977"
    }
  },
  {
    "osm_id": -3397597,
    "boundary": "administrative",
    "admin_level": 8,
    "parents": "-2921156,-3777248,-449220",
    "name": "Shoufeng",
    "local_name": "壽豐鄉",
    "name_en": "Shoufeng",
    "all_tags": {
      "name": "壽豐鄉",
      "name:de": "Shoufeng",
      "name:en": "Shoufeng",
      "name:it": "Shoufeng",
      "name:ja": "寿豊郷",
      "name:ko": "서우펑 향",
      "name:pl": "Shoufeng",
      "name:vi": "Thọ Phong",
      "name:zh": "壽豐鄉",
      "nat_ref": "10015060",
      "boundary": "administrative",
      "name:hak": "Su-fûng-hiông",
      "name:nan": "Siū-hong-hiong",
      "name:yue": "壽豐鄉",
      "way_area": "0.0182071",
      "wikidata": "Q707988",
      "wikipedia": "zh:壽豐鄉",
      "admin_level": "8",
      "postal_code": "974"
    }
  },
  {
    "osm_id": -3393144,
    "boundary": "administrative",
    "admin_level": 8,
    "parents": "-2915930,-3777248,-449220",
    "name": "Taixi Township",
    "local_name": "臺西鄉",
    "name_en": "Taixi Township",
    "all_tags": {
      "name": "臺西鄉",
      "is_in": "臺灣雲林縣",
      "name:en": "Taixi Township",
      "name:ja": "台西郷",
      "name:ko": "타이시 향",
      "name:vi": "Đài Tây",
      "name:zh": "臺西鄉",
      "nat_ref": "10009160",
      "boundary": "administrative",
      "name:hak": "Thòi-sî-hiông",
      "name:nan": "Tâi-se-hiong",
      "way_area": "0.00521993",
      "wikidata": "Q710226",
      "wikipedia": "zh:臺西鄉",
      "is_in:city": "雲林縣",
      "admin_level": "8",
      "is_in:country": "TW"
    }
  },
  {
    "osm_id": -3393143,
    "boundary": "administrative",
    "admin_level": 8,
    "parents": "-2915930,-3777248,-449220",
    "name": "Sihu Township",
    "local_name": "四湖鄉",
    "name_en": "Sihu Township",
    "all_tags": {
      "name": "四湖鄉",
      "is_in": "臺灣雲林縣",
      "name:en": "Sihu Township",
      "name:ja": "四湖郷",
      "name:ko": "쓰후 향",
      "name:vi": "Tứ Hồ",
      "name:zh": "四湖鄉",
      "nat_ref": "10009180",
      "boundary": "administrative",
      "name:hak": "Si-fù-hiông",
      "name:nan": "Sì-ô͘-hiong",
      "way_area": "0.00657126",
      "wikidata": "Q710313",
      "wikipedia": "zh:四湖鄉",
      "is_in:city": "雲林縣",
      "admin_level": "8",
      "is_in:country": "TW"
    }
  },
  {
    "osm_id": -3393142,
    "boundary": "administrative",
    "admin_level": 8,
    "parents": "-2915930,-3777248,-449220",
    "name": "Mailiao Township",
    "local_name": "麥寮鄉",
    "name_en": "Mailiao Township",
    "all_tags": {
      "name": "麥寮鄉",
      "is_in": "臺灣雲林縣",
      "name:en": "Mailiao Township",
      "name:ja": "麦寮郷",
      "name:ko": "마이랴오 향",
      "name:vi": "Mạch Liêu",
      "name:zh": "麥寮鄉",
      "nat_ref": "10009130",
      "boundary": "administrative",
      "name:hak": "Ma̍k-liàu-hiông",
      "name:nan": "Be̍h-liâu-hiong",
      "way_area": "0.00979558",
      "wikidata": "Q709989",
      "wikipedia": "zh:麥寮鄉",
      "is_in:city": "雲林縣",
      "admin_level": "8",
      "is_in:country": "TW"
    }
  },
  {
    "osm_id": -3393141,
    "boundary": "administrative",
    "admin_level": 8,
    "parents": "-2915930,-3777248,-449220",
    "name": "Dongshi Township",
    "local_name": "東勢鄉",
    "name_en": "Dongshi Township",
    "all_tags": {
      "name": "東勢鄉",
      "is_in": "臺灣雲林縣",
      "name:en": "Dongshi Township",
      "name:ja": "東勢郷",
      "name:ko": "둥스 향",
      "name:vi": "Đông Thế",
      "name:zh": "東勢鄉",
      "nat_ref": "10009140",
      "boundary": "administrative",
      "name:hak": "Tûng-sṳ-hiông",
      "name:nan": "Tang-sì-hiong",
      "way_area": "0.00411522",
      "wikidata": "Q262471",
      "wikipedia": "zh:東勢鄉",
      "is_in:city": "雲林縣",
      "admin_level": "8",
      "is_in:country": "TW"
    }
  },
  {
    "osm_id": -3393089,
    "boundary": "administrative",
    "admin_level": 8,
    "parents": "-2915930,-3777248,-449220",
    "name": "Gukeng Township",
    "local_name": "古坑鄉",
    "name_en": "Gukeng Township",
    "all_tags": {
      "name": "古坑鄉",
      "is_in": "臺灣雲林縣",
      "name:en": "Gukeng Township",
      "name:ja": "古坑郷",
      "name:ko": "구컹 향",
      "name:vi": "Cổ Khanh",
      "name:zh": "古坑鄉",
      "nat_ref": "10009070",
      "boundary": "administrative",
      "name:hak": "Kú-hâng-hiông",
      "name:nan": "Kó͘-kheⁿ-hiong",
      "way_area": "0.0147147",
      "wikidata": "Q710273",
      "wikipedia": "zh:古坑鄉",
      "is_in:city": "雲林縣",
      "admin_level": "8",
      "is_in:country": "TW"
    }
  },
  {
    "osm_id": -3392775,
    "boundary": "administrative",
    "admin_level": 8,
    "parents": "-2921156,-3777248,-449220",
    "name": "Wanrong",
    "local_name": "萬榮鄉",
    "name_en": "Wanrong",
    "all_tags": {
      "name": "萬榮鄉",
      "name:de": "Wanrong",
      "name:en": "Wanrong",
      "name:ja": "万栄郷",
      "name:ko": "완룽 향",
      "name:pl": "Wanrong",
      "name:vi": "Vạn Vinh",
      "name:zh": "萬榮鄉",
      "nat_ref": "10015120",
      "boundary": "administrative",
      "name:hak": "Van-yùng-hiông",
      "name:nan": "Bān-êng-hiong",
      "way_area": "0.058359",
      "wikidata": "Q707754",
      "wikipedia": "zh:萬榮鄉",
      "admin_level": "8",
      "postal_code": "979"
    }
  },
  {
    "osm_id": -3392731,
    "boundary": "administrative",
    "admin_level": 8,
    "parents": "-2921156,-3777248,-449220",
    "name": "Fenglin",
    "local_name": "鳳林鎮",
    "name_en": "Fenglin",
    "all_tags": {
      "name": "鳳林鎮",
      "name:en": "Fenglin",
      "name:ja": "鳳林鎮",
      "name:ko": "펑린 진",
      "name:vi": "Phượng Lâm",
      "name:zh": "鳳林鎮",
      "nat_ref": "10015020",
      "boundary": "administrative",
      "name:hak": "Fung-lìm-chṳ́n",
      "name:nan": "Hōng-lîm-tìn",
      "way_area": "0.0105436",
      "wikidata": "Q713748",
      "wikipedia": "zh:鳳林鎮 (臺灣)",
      "admin_level": "8",
      "postal_code": "975"
    }
  },
  {
    "osm_id": -3391490,
    "boundary": "administrative",
    "admin_level": 8,
    "parents": "-2921156,-3777248,-449220",
    "name": "Guangfu",
    "local_name": "光復鄉",
    "name_en": "Guangfu",
    "all_tags": {
      "name": "光復鄉",
      "name:de": "Guangfu",
      "name:en": "Guangfu",
      "name:ja": "光復郷",
      "name:ko": "광푸 향",
      "name:pl": "Guangfu",
      "name:vi": "Quang Phục",
      "name:zh": "光復鄉",
      "nat_ref": "10015070",
      "boundary": "administrative",
      "name:hak": "Kông-fu̍k-hiông",
      "name:nan": "Kong-ho̍k-hiong",
      "way_area": "0.0117438",
      "wikidata": "Q708010",
      "wikipedia": "zh:光復鄉",
      "admin_level": "8",
      "postal_code": "976"
    }
  },
  {
    "osm_id": -3391432,
    "boundary": "administrative",
    "admin_level": 8,
    "parents": "-2921156,-3777248,-449220",
    "name": "Zhuoxi",
    "local_name": "卓溪鄉",
    "name_en": "Zhuoxi",
    "all_tags": {
      "name": "卓溪鄉",
      "name:de": "Zhuoxi",
      "name:en": "Zhuoxi",
      "name:it": "Zhuoxi",
      "name:ja": "卓渓郷",
      "name:ko": "줘시향",
      "name:pl": "Zhuoxi",
      "name:vi": "Trác Khê",
      "name:zh": "卓溪鄉",
      "nat_ref": "10015130",
      "boundary": "administrative",
      "name:ceb": "Zhuoxi Xiang",
      "name:hak": "Cho̍k-hâi-hiông",
      "name:nan": "Toh-khe-hiong",
      "name:szy": "Zhuoxi",
      "way_area": "0.0922958",
      "wikidata": "Q708017",
      "wikipedia": "zh:卓溪鄉",
      "admin_level": "8",
      "postal_code": "982"
    }
  },
  {
    "osm_id": -3351540,
    "boundary": "administrative",
    "admin_level": 8,
    "parents": "-2921156,-3777248,-449220",
    "name": "Ruisui",
    "local_name": "瑞穗鄉",
    "name_en": "Ruisui",
    "all_tags": {
      "name": "瑞穗鄉",
      "name:de": "Ruisui",
      "name:en": "Ruisui",
      "name:it": "Ruisui",
      "name:ja": "瑞穂郷",
      "name:ko": "루이수이 향",
      "name:pl": "Ruisui",
      "name:vi": "Thụy Tuệ",
      "name:zh": "瑞穗鄉",
      "nat_ref": "10015090",
      "boundary": "administrative",
      "name:hak": "Lui-sui-hiông",
      "name:nan": "Sūi-sūi-hiong",
      "way_area": "0.0136639",
      "wikidata": "Q712950",
      "wikipedia": "zh:瑞穗鄉",
      "admin_level": "8",
      "postal_code": "978"
    }
  },
  {
    "osm_id": -3351539,
    "boundary": "administrative",
    "admin_level": 8,
    "parents": "-2921156,-3777248,-449220",
    "name": "Yuli",
    "local_name": "玉里鎮",
    "name_en": "Yuli",
    "all_tags": {
      "name": "玉里鎮",
      "name:de": "Yuli",
      "name:en": "Yuli",
      "name:it": "Yuli",
      "name:ja": "玉里鎮",
      "name:ko": "위리 진",
      "name:vi": "Ngọc Lý",
      "name:zh": "玉里鎮",
      "nat_ref": "10015030",
      "boundary": "administrative",
      "name:hak": "Ngiu̍k-lî-chṳ́n",
      "name:nan": "Gio̍k-lí-tìn",
      "way_area": "0.0186529",
      "wikidata": "Q709009",
      "wikipedia": "zh:玉里鎮",
      "admin_level": "8",
      "postal_code": "981"
    }
  },
  {
    "osm_id": -3350558,
    "boundary": "administrative",
    "admin_level": 8,
    "parents": "-2921156,-3777248,-449220",
    "name": "Fuli",
    "local_name": "富里鄉",
    "name_en": "Fuli",
    "all_tags": {
      "name": "富里鄉",
      "name:de": "Fuli",
      "name:en": "Fuli",
      "name:it": "Fuli",
      "name:ja": "富里郷",
      "name:ko": "푸리 향",
      "name:vi": "Phú Lý",
      "name:zh": "富里鄉",
      "nat_ref": "10015100",
      "boundary": "administrative",
      "name:hak": "Fu-lî-hiông",
      "name:nan": "Hù-lí-hiong",
      "way_area": "0.0151789",
      "wikidata": "Q707992",
      "wikipedia": "zh:富里鄉",
      "admin_level": "8",
      "postal_code": "983"
    }
  },
  {
    "osm_id": -3349253,
    "boundary": "administrative",
    "admin_level": 8,
    "parents": "-2921155,-3777248,-449220",
    "name": "Changbin",
    "local_name": "長濱鄉",
    "name_en": "Changbin",
    "all_tags": {
      "name": "長濱鄉",
      "name:de": "Changbin",
      "name:en": "Changbin",
      "name:it": "Changbin",
      "name:ja": "長浜郷",
      "name:ko": "창빈 향",
      "name:vi": "Trường Tân",
      "name:zh": "長濱鄉",
      "nat_ref": "10014080",
      "boundary": "administrative",
      "name:hak": "Tshòng-pîn-hiông",
      "name:nan": "Tiông-pin-hiong",
      "way_area": "0.0131981",
      "wikidata": "Q712769",
      "wikipedia": "zh:長濱鄉",
      "admin_level": "8",
      "postal_code": "962"
    }
  },
  {
    "osm_id": -3349252,
    "boundary": "administrative",
    "admin_level": 8,
    "parents": "-2921155,-3777248,-449220",
    "name": "Chenggong",
    "local_name": "成功鎮",
    "name_en": "Chenggong",
    "all_tags": {
      "name": "成功鎮",
      "name:de": "Chenggong",
      "name:en": "Chenggong",
      "name:it": "Chenggong",
      "name:ja": "成功鎮",
      "name:ko": "청궁진",
      "name:vi": "Thành Công",
      "name:zh": "成功鎮",
      "nat_ref": "10014020",
      "boundary": "administrative",
      "name:ami": "Madawdaw",
      "name:hak": "Sṳ̀n-kûng-tsṳ́n",
      "name:nan": "Sêng-kong-tìn",
      "way_area": "0.0126622",
      "wikidata": "Q708626",
      "wikipedia": "zh:成功鎮",
      "admin_level": "8",
      "postal_code": "961"
    }
  },
  {
    "osm_id": -3345788,
    "boundary": "administrative",
    "admin_level": 8,
    "parents": "-2921155,-3777248,-449220",
    "name": "Donghe",
    "local_name": "東河鄉",
    "name_en": "Donghe",
    "all_tags": {
      "name": "東河鄉",
      "name:en": "Donghe",
      "name:ja": "東河郷",
      "name:ko": "둥허 향",
      "name:vi": "Đông Hà",
      "name:zh": "東河鄉",
      "nat_ref": "10014070",
      "boundary": "administrative",
      "name:hak": "Tûng-hò-hiông",
      "name:nan": "Tong-hô-hiong",
      "way_area": "0.0189555",
      "wikidata": "Q712778",
      "wikipedia": "zh:東河鄉 (台灣)",
      "admin_level": "8",
      "postal_code": "959"
    }
  },
  {
    "osm_id": -3344419,
    "boundary": "administrative",
    "admin_level": 8,
    "parents": "-2921155,-3777248,-449220",
    "name": "Haiduan",
    "local_name": "海端鄉",
    "name_en": "Haiduan",
    "all_tags": {
      "name": "海端鄉",
      "name:de": "Haiduan",
      "name:en": "Haiduan",
      "name:ja": "海端郷",
      "name:ko": "하이돤 향",
      "name:vi": "Hải Đoan",
      "name:zh": "海端鄉",
      "nat_ref": "10014120",
      "boundary": "administrative",
      "name:hak": "Hói-tôn-hiông",
      "name:nan": "Hái-toan-hiong",
      "way_area": "0.0787347",
      "wikidata": "Q713033",
      "wikipedia": "zh:海端鄉",
      "admin_level": "8",
      "postal_code": "957"
    }
  },
  {
    "osm_id": -3344192,
    "boundary": "administrative",
    "admin_level": 8,
    "parents": "-2921155,-3777248,-449220",
    "name": "Chishang",
    "local_name": "池上鄉",
    "name_en": "Chishang",
    "all_tags": {
      "name": "池上鄉",
      "name:de": "Chishang",
      "name:en": "Chishang",
      "name:ja": "池上郷",
      "name:ko": "츠상 향",
      "name:vi": "Trì Thượng",
      "name:zh": "池上鄉",
      "nat_ref": "10014060",
      "boundary": "administrative",
      "name:hak": "Tshṳ̀-song-hiông",
      "name:nan": "Tî-siōng-hiong",
      "way_area": "0.00697937",
      "wikidata": "Q1135297",
      "wikipedia": "zh:池上鄉",
      "admin_level": "8",
      "postal_code": "958"
    }
  },
  {
    "osm_id": -3339758,
    "boundary": "administrative",
    "admin_level": 8,
    "parents": "-3339738,-3777248,-449220",
    "name": "Xiyu Township",
    "local_name": "西嶼鄉",
    "name_en": "Xiyu Township",
    "all_tags": {
      "name": "西嶼鄉",
      "is_in": "臺灣澎湖縣",
      "name:en": "Xiyu Township",
      "name:ja": "西嶼郷",
      "name:ko": "시위 향",
      "name:pl": "Xiyu",
      "name:vi": "Tây Tự",
      "name:zh": "西嶼鄉",
      "nat_ref": "10016040",
      "boundary": "administrative",
      "name:hak": "Sî-yí-hiông",
      "name:nan": "Sai-sū-hiong",
      "name:yue": "西嶼鄉",
      "way_area": "0.00171285",
      "wikidata": "Q709034",
      "wikipedia": "zh:西嶼鄉",
      "is_in:city": "澎湖縣",
      "admin_level": "8",
      "is_in:country": "TW"
    }
  },
  {
    "osm_id": -3339757,
    "boundary": "administrative",
    "admin_level": 8,
    "parents": "-3339738,-3777248,-449220",
    "name": "Baisha Township",
    "local_name": "白沙鄉",
    "name_en": "Baisha Township",
    "all_tags": {
      "name": "白沙鄉",
      "is_in": "臺灣澎湖縣",
      "name:en": "Baisha Township",
      "name:ja": "白沙郷",
      "name:ko": "바이사 향",
      "name:vi": "Bạch Sa",
      "name:zh": "白沙鄉",
      "nat_ref": "10016030",
      "boundary": "administrative",
      "name:hak": "Pha̍k-sâ-hiông",
      "name:nan": "Pe̍h-soa-hiong",
      "name:yue": "白沙鄉",
      "way_area": "0.00186787",
      "wikidata": "Q712753",
      "wikipedia": "zh:白沙鄉 (台灣)",
      "is_in:city": "澎湖縣",
      "admin_level": "8",
      "is_in:country": "TW"
    }
  },
  {
    "osm_id": -3339756,
    "boundary": "administrative",
    "admin_level": 8,
    "parents": "-3339738,-3777248,-449220",
    "name": "Wangan Township",
    "local_name": "望安鄉",
    "name_en": "Wangan Township",
    "all_tags": {
      "name": "望安鄉",
      "is_in": "臺灣澎湖縣",
      "name:en": "Wangan Township",
      "name:es": "Wang-an",
      "name:ja": "望安郷",
      "name:ko": "왕안 향",
      "name:vi": "Vọng An",
      "name:zh": "望安鄉",
      "nat_ref": "10016050",
      "boundary": "administrative",
      "name:hak": "Mong-ôn-hiông",
      "name:nan": "Bāng-oaⁿ-hiong",
      "name:yue": "望安鄉",
      "way_area": "0.00124841",
      "wikidata": "Q706727",
      "wikipedia": "zh:望安鄉",
      "is_in:city": "澎湖縣",
      "admin_level": "8",
      "is_in:country": "TW"
    }
  },
  {
    "osm_id": -3339755,
    "boundary": "administrative",
    "admin_level": 8,
    "parents": "-3339738,-3777248,-449220",
    "name": "Qimei Township",
    "local_name": "七美鄉",
    "name_en": "Qimei Township",
    "all_tags": {
      "name": "七美鄉",
      "is_in": "臺灣澎湖縣",
      "name:en": "Qimei Township",
      "name:es": "Qimei",
      "name:fr": "Qimei",
      "name:ja": "七美郷",
      "name:ko": "치메이 향",
      "name:pl": "Qimei",
      "name:vi": "Thất Mỹ",
      "name:zh": "七美鄉",
      "nat_ref": "10016060",
      "boundary": "administrative",
      "name:hak": "Tshit-mî-hiông",
      "name:nan": "Chhit-bí-hiong",
      "name:yue": "七美鄉",
      "way_area": "0.000629563",
      "wikidata": "Q706494",
      "wikipedia": "zh:七美鄉 (臺灣)",
      "is_in:city": "澎湖縣",
      "admin_level": "8",
      "is_in:country": "TW"
    }
  },
  {
    "osm_id": -3339737,
    "boundary": "administrative",
    "admin_level": 8,
    "parents": "-3339738,-3777248,-449220",
    "name": "Magong City",
    "local_name": "馬公市",
    "name_en": "Magong City",
    "all_tags": {
      "name": "馬公市",
      "is_in": "臺灣澎湖縣",
      "name:de": "Magong",
      "name:en": "Magong City",
      "name:fr": "Magong",
      "name:it": "Magong",
      "name:ja": "馬公市",
      "name:ko": "마궁 시",
      "name:pl": "Magong",
      "name:ru": "Магун",
      "name:vi": "Mã Công",
      "name:zh": "馬公市",
      "nat_ref": "10016010",
      "boundary": "administrative",
      "name:hak": "Mâ-kûng-sṳ",
      "name:nan": "Má-keng-chhī",
      "name:yue": "馬公市",
      "way_area": "0.00316237",
      "wikidata": "Q701428",
      "wikipedia": "zh:馬公市",
      "is_in:city": "澎湖縣",
      "admin_level": "8",
      "name:zh-Hans": "马公市",
      "name:zh-Hant": "馬公市",
      "is_in:country": "TW",
      "name:zh_pinyin": "Mǎgōng Shì"
    }
  },
  {
    "osm_id": -3339736,
    "boundary": "administrative",
    "admin_level": 8,
    "parents": "-3339738,-3777248,-449220",
    "name": "Huxi Township",
    "local_name": "湖西鄉",
    "name_en": "Huxi Township",
    "all_tags": {
      "name": "湖西鄉",
      "is_in": "臺灣澎湖縣",
      "name:en": "Huxi Township",
      "name:ja": "湖西郷",
      "name:ko": "후시 향",
      "name:pl": "Huxi",
      "name:vi": "Hồ Tây",
      "name:zh": "湖西鄉",
      "nat_ref": "10016020",
      "boundary": "administrative",
      "name:hak": "Fù-sî-hiông",
      "name:nan": "Ô͘-sai-hiong",
      "name:yue": "湖西鄉",
      "way_area": "0.00304057",
      "wikidata": "Q709939",
      "wikipedia": "zh:湖西鄉",
      "is_in:city": "澎湖縣",
      "admin_level": "8",
      "is_in:country": "TW"
    }
  },
  {
    "osm_id": -3339731,
    "boundary": "administrative",
    "admin_level": 8,
    "parents": "-3777249,-3777250,-449220",
    "name": "Dongyin Town",
    "local_name": "東引鄉",
    "name_en": "Dongyin Town",
    "all_tags": {
      "name": "東引鄉",
      "name:cs": "Tung-jin",
      "name:en": "Dongyin Town",
      "name:es": "Dongyin",
      "name:fr": "Dongyin",
      "name:it": "Dongyin",
      "name:ja": "東引郷",
      "name:ko": "둥인향",
      "name:vi": "Đông Dẫn",
      "name:zh": "東引鄉",
      "nat_ref": "09007040",
      "website": "http://www.dongyin.gov.tw/",
      "boundary": "administrative",
      "int_name": "Dongyin Township",
      "name:hak": "Tûng-yín-hiông",
      "name:nan": "Tang-ín-hiong",
      "name:yue": "東引鄉",
      "way_area": "0.00040517",
      "wikidata": "Q262171",
      "wikipedia": "zh:東引鄉",
      "admin_level": "8"
    }
  },
  {
    "osm_id": -3339726,
    "boundary": "administrative",
    "admin_level": 8,
    "parents": "-3777249,-3777250,-449220",
    "name": "Juguang",
    "local_name": "莒光鄉",
    "name_en": "Juguang",
    "all_tags": {
      "name": "莒光鄉",
      "name:cs": "Ťü-kuang",
      "name:en": "Juguang",
      "name:fr": "Juguang",
      "name:ja": "キョ光郷",
      "name:ko": "쥐광향",
      "name:vi": "Cử Quang",
      "name:zh": "莒光鄉",
      "nat_ref": "09007030",
      "boundary": "administrative",
      "name:hak": "Kí-kóng-hiông",
      "name:nan": "Kí-kong-hiong",
      "way_area": "0.000433915",
      "wikidata": "Q714903",
      "wikipedia": "zh:莒光鄉",
      "admin_level": "8"
    }
  },
  {
    "osm_id": -3339721,
    "boundary": "administrative",
    "admin_level": 8,
    "parents": "-3777249,-3777250,-449220",
    "name": "Beigan",
    "local_name": "北竿鄉",
    "name_en": "Beigan",
    "all_tags": {
      "name": "北竿鄉",
      "name:cs": "Pej-kan",
      "name:en": "Beigan",
      "name:fr": "Beigan",
      "name:it": "Beigan",
      "name:ja": "北竿郷",
      "name:ko": "베이간향",
      "name:vi": "Bắc Can",
      "name:zh": "北竿鄉",
      "nat_ref": "09007020",
      "boundary": "administrative",
      "name:hak": "Pet-kôn-hiông",
      "name:nan": "Pak-kan-hiong",
      "name:yue": "北竿鄉",
      "way_area": "0.00106706",
      "wikidata": "Q708075",
      "wikipedia": "zh:北竿鄉",
      "admin_level": "8",
      "name:zh_pinyin": "běigān xiāng"
    }
  },
  {
    "osm_id": -3339702,
    "boundary": "administrative",
    "admin_level": 8,
    "parents": "-3339695,-3777250,-449220",
    "name": "Wuqiu",
    "local_name": "烏坵鄉",
    "name_en": "Wuqiu",
    "all_tags": {
      "name": "烏坵鄉",
      "name:cs": "Wu-čchiou",
      "name:de": "Wuqiu",
      "name:en": "Wuqiu",
      "name:es": "Wuqiu",
      "name:fr": "Wuqiu",
      "name:ja": "烏キュウ郷",
      "name:ko": "우추향",
      "name:zh": "烏坵鄉",
      "nat_ref": "09020060",
      "boundary": "administrative",
      "name:hak": "Vû-hiu-hiông",
      "name:nan": "O͘-khiu-hiong",
      "name:yue": "烏坵",
      "way_area": "9.12889e-05",
      "wikidata": "Q706550",
      "wikipedia": "zh:烏坵鄉",
      "admin_level": "8",
      "name:nan-TL": "Oo-khiu-hiong",
      "name:nan-POJ": "O͘-khiu-hiong",
      "name:zh_pinyin": "wūqiū xiāng"
    }
  },
  {
    "osm_id": -3339701,
    "boundary": "administrative",
    "admin_level": 8,
    "parents": "-3339695,-3777250,-449220",
    "name": "Jinhu Town",
    "local_name": "金湖鎮",
    "name_en": "Jinhu Town",
    "all_tags": {
      "name": "金湖鎮",
      "name:ab": "Kim-ô͘-tìn",
      "name:cs": "Ťin-chu",
      "name:en": "Jinhu Town",
      "name:ja": "金湖鎮",
      "name:ko": "진후진",
      "name:vi": "Kim Hồ",
      "name:zh": "金湖鎮",
      "nat_ref": "09020030",
      "boundary": "administrative",
      "name:hak": "Kîm-fù-tsṳ́n",
      "name:nan": "Kim-ô͘-tìn",
      "name:yue": "金湖鎮",
      "way_area": "0.00344647",
      "wikidata": "Q712993",
      "wikipedia": "zh:金湖鎮",
      "admin_level": "8"
    }
  },
  {
    "osm_id": -3339700,
    "boundary": "administrative",
    "admin_level": 8,
    "parents": "-3339695,-3777250,-449220",
    "name": "Jinsha Town",
    "local_name": "金沙鎮",
    "name_en": "Jinsha Town",
    "all_tags": {
      "name": "金沙鎮",
      "name:cs": "Ťin-ša",
      "name:en": "Jinsha Town",
      "name:ja": "金沙鎮",
      "name:ko": "진사진",
      "name:zh": "金沙鎮",
      "nat_ref": "09020020",
      "boundary": "administrative",
      "name:hak": "Kîm-sâ-tsṳ́n",
      "name:nan": "Kim-soa-tìn",
      "way_area": "0.00381827",
      "wikidata": "Q713036",
      "wikipedia": "zh:金沙鎮 (金門縣)",
      "admin_level": "8"
    }
  },
  {
    "osm_id": -3339699,
    "boundary": "administrative",
    "admin_level": 8,
    "parents": "-3339695,-3777250,-449220",
    "name": "Jinning Township",
    "local_name": "金寧鄉",
    "name_en": "Jinning Township",
    "all_tags": {
      "name": "金寧鄉",
      "name:cs": "Ťin-ning",
      "name:en": "Jinning Township",
      "name:ja": "金寧郷",
      "name:ko": "진닝향",
      "name:zh": "金寧鄉",
      "nat_ref": "09020040",
      "boundary": "administrative",
      "name:hak": "Kîm-nèn-hiông",
      "name:nan": "Kim-lêng-hiong",
      "way_area": "0.00302501",
      "wikidata": "Q712843",
      "wikipedia": "zh:金寧鄉",
      "admin_level": "8"
    }
  },
  {
    "osm_id": -3339698,
    "boundary": "administrative",
    "admin_level": 8,
    "parents": "-3339695,-3777250,-449220",
    "name": "Jincheng Township",
    "local_name": "金城鎮",
    "name_en": "Jincheng Township",
    "all_tags": {
      "name": "金城鎮",
      "name:cs": "Ťin-čcheng",
      "name:de": "Jincheng",
      "name:en": "Jincheng Township",
      "name:ja": "金城鎮",
      "name:ko": "진청진",
      "name:zh": "金城鎮",
      "nat_ref": "09020010",
      "boundary": "administrative",
      "name:hak": "Kîm-sàng-tsṳ́n",
      "name:nan": "Kim-siâⁿ-tìn",
      "name:yue": "金城鎮",
      "way_area": "0.00176798",
      "wikidata": "Q706539",
      "wikipedia": "zh:金城鎮 (金門縣)",
      "admin_level": "8",
      "name:zh-Hans": "金城镇",
      "name:zh-Hant": "金城鎮",
      "name:zh_pinyin": "Jīnchéng Zhèn"
    }
  },
  {
    "osm_id": -3339694,
    "boundary": "administrative",
    "admin_level": 8,
    "parents": "-3339695,-3777250,-449220",
    "name": "Lieyu",
    "local_name": "烈嶼鄉",
    "name_en": "Lieyu",
    "all_tags": {
      "name": "烈嶼鄉",
      "name:cs": "Lie-jü",
      "name:en": "Lieyu",
      "name:es": "Pequeña Kinmen",
      "name:fr": "Lieyu",
      "name:ja": "烈嶼郷",
      "name:ko": "례위향",
      "name:zh": "烈嶼鄉",
      "nat_ref": "09020050",
      "boundary": "administrative",
      "name:hak": "Lie̍t-yí-hiông",
      "name:nan": "Lia̍t-sū-hiong",
      "name:yue": "烈嶼",
      "way_area": "0.00141554",
      "wikidata": "Q708080",
      "wikipedia": "zh:烈嶼鄉",
      "admin_level": "8",
      "name:nan-HJ": "烈嶼鄉",
      "name:nan-TL": "Lia̍t-sū-hiong",
      "name:nan-POJ": "Lia̍t-sū-hiong"
    }
  },
  {
    "osm_id": -3333508,
    "boundary": "administrative",
    "admin_level": 8,
    "parents": "-2921156,-3777248,-449220",
    "name": "Xiulin",
    "local_name": "秀林鄉",
    "name_en": "Xiulin",
    "all_tags": {
      "name": "秀林鄉",
      "name:de": "Xiulin",
      "name:en": "Xiulin",
      "name:it": "Xiulin",
      "name:ja": "秀林郷",
      "name:ko": "슈린 향",
      "name:vi": "Tú Lâm",
      "name:zh": "秀林鄉",
      "nat_ref": "10015110",
      "boundary": "administrative",
      "name:hak": "Siu-lìm-hiông",
      "name:nan": "Siù-lîm-hiong",
      "way_area": "0.144147",
      "wikidata": "Q708004",
      "wikipedia": "zh:秀林鄉",
      "admin_level": "8",
      "postal_code": "972"
    }
  },
  {
    "osm_id": -3333270,
    "boundary": "administrative",
    "admin_level": 8,
    "parents": "-2915592,-3777248,-449220",
    "name": "Zhunan Town",
    "local_name": "竹南鎮",
    "name_en": "Zhunan Town",
    "all_tags": {
      "name": "竹南鎮",
      "name:en": "Zhunan Town",
      "name:fr": "Zhunan",
      "name:it": "Zhunan",
      "name:ja": "竹南鎮",
      "name:ko": "주난진",
      "name:vi": "Trúc Nam",
      "name:zh": "竹南鎮",
      "nat_ref": "10005040",
      "boundary": "administrative",
      "name:hak": "Tsuk-nàm-chṳ́n",
      "name:nan": "Tek-lâm-tìn",
      "name:yue": "竹南鎮",
      "way_area": "0.00342536",
      "wikidata": "Q713729",
      "wikipedia": "zh:竹南鎮",
      "admin_level": "8",
      "postal_code": "350",
      "name:zh_pinyin": "Zhúnán"
    }
  },
  {
    "osm_id": -3333268,
    "boundary": "administrative",
    "admin_level": 8,
    "parents": "-2915592,-3777248,-449220",
    "name": "Miaoli City",
    "local_name": "苗栗市",
    "name_en": "Miaoli City",
    "all_tags": {
      "name": "苗栗市",
      "name:en": "Miaoli City",
      "name:it": "Miaoli",
      "name:ja": "苗栗市",
      "name:ko": "먀오리시",
      "name:vi": "Miêu Lật",
      "name:zh": "苗栗市",
      "nat_ref": "10005010",
      "boundary": "administrative",
      "name:hak": "Mèu-li̍t-sṳ",
      "name:nan": "Biâu-le̍k-chhī",
      "way_area": "0.00335611",
      "wikidata": "Q701651",
      "wikipedia": "zh:苗栗市",
      "admin_level": "8",
      "name:zh-Hans": "苗栗市",
      "name:zh-Hant": "苗栗市",
      "name:zh_pinyin": "Miɑ́olÌ Shì"
    }
  },
  {
    "osm_id": -3333267,
    "boundary": "administrative",
    "admin_level": 8,
    "parents": "-2915592,-3777248,-449220",
    "name": "Xihu",
    "local_name": "西湖鄉",
    "name_en": "Xihu",
    "all_tags": {
      "name": "西湖鄉",
      "name:en": "Xihu",
      "name:ja": "西湖郷",
      "name:ko": "시후향",
      "name:vi": "Tây Hồ",
      "name:zh": "西湖鄉",
      "nat_ref": "10005140",
      "boundary": "administrative",
      "name:hak": "Sî-fù-hiông",
      "name:nan": "Se-ô͘-hiong",
      "way_area": "0.00364802",
      "wikidata": "Q713724",
      "wikipedia": "zh:西湖鄉 (台灣)",
      "admin_level": "8"
    }
  },
  {
    "osm_id": -3333253,
    "boundary": "administrative",
    "admin_level": 8,
    "parents": "-2915592,-3777248,-449220",
    "name": "Zaoqiao",
    "local_name": "造橋鄉",
    "name_en": "Zaoqiao",
    "all_tags": {
      "name": "造橋鄉",
      "name:en": "Zaoqiao",
      "name:ja": "造橋郷",
      "name:vi": "Tạo Kiều",
      "name:zh": "造橋鄉",
      "nat_ref": "10005150",
      "boundary": "administrative",
      "name:hak": "Cho-khièu-hiông",
      "name:nan": "Chō-kiô-hiong",
      "name:yue": "造橋鄉",
      "way_area": "0.0043174",
      "wikidata": "Q713767",
      "wikipedia": "zh:造橋鄉",
      "admin_level": "8"
    }
  },
  {
    "osm_id": -3333248,
    "boundary": "administrative",
    "admin_level": 8,
    "parents": "-2915592,-3777248,-449220",
    "name": "Sanwan",
    "local_name": "三灣鄉",
    "name_en": "Sanwan",
    "all_tags": {
      "name": "三灣鄉",
      "name:en": "Sanwan",
      "name:fr": "Sanwan",
      "name:ja": "三湾郷",
      "name:ko": "싼완향",
      "name:vi": "Tam Loan",
      "name:zh": "三灣鄉",
      "nat_ref": "10005160",
      "boundary": "administrative",
      "name:hak": "Sâm-vân-hiông",
      "name:nan": "Sam-oan-hiong",
      "name:yue": "三灣鄉",
      "way_area": "0.0048345",
      "wikidata": "Q713793",
      "wikipedia": "zh:三灣鄉 (台灣)",
      "admin_level": "8"
    }
  },
  {
    "osm_id": -3333240,
    "boundary": "administrative",
    "admin_level": 8,
    "parents": "-2915592,-3777248,-449220",
    "name": "Touwu",
    "local_name": "頭屋鄉",
    "name_en": "Touwu",
    "all_tags": {
      "name": "頭屋鄉",
      "name:en": "Touwu",
      "name:ja": "頭屋郷",
      "name:ko": "터우우향",
      "name:vi": "Đầu Ốc",
      "name:zh": "頭屋鄉",
      "nat_ref": "10005120",
      "boundary": "administrative",
      "name:hak": "Thèu-vuk-hiông",
      "name:nan": "Thâu-ok-hiong",
      "way_area": "0.00459836",
      "wikidata": "Q713751",
      "wikipedia": "zh:頭屋鄉",
      "admin_level": "8"
    }
  },
  {
    "osm_id": -3333234,
    "boundary": "administrative",
    "admin_level": 8,
    "parents": "-2915592,-3777248,-449220",
    "name": "Toufen",
    "local_name": "頭份市",
    "name_en": "Toufen",
    "all_tags": {
      "name": "頭份市",
      "name:de": "Toufen",
      "name:en": "Toufen",
      "name:fr": "Toufen",
      "name:it": "Toufen",
      "name:ja": "頭フン市",
      "name:ko": "터우펀시",
      "name:vi": "Đầu Phần",
      "name:zh": "頭份市",
      "nat_ref": "10005050",
      "boundary": "administrative",
      "name:hak": "Thèu-fun-sṳ",
      "name:nan": "Thâu-hūn-chhī",
      "way_area": "0.00472164",
      "wikidata": "Q713758",
      "wikipedia": "zh:頭份市",
      "admin_level": "8"
    }
  },
  {
    "osm_id": -3333231,
    "boundary": "administrative",
    "admin_level": 8,
    "parents": "-2915592,-3777248,-449220",
    "name": "Yuanli",
    "local_name": "苑裡鎮",
    "name_en": "Yuanli",
    "all_tags": {
      "name": "苑裡鎮",
      "name:en": "Yuanli",
      "name:it": "Yuanli",
      "name:ja": "苑裡鎮",
      "name:ko": "위안리진",
      "name:vi": "Uyển Lý",
      "name:zh": "苑裡鎮",
      "nat_ref": "10005020",
      "boundary": "administrative",
      "name:hak": "Yen-lî-chṳ́n",
      "name:nan": "Oán-lí-tìn",
      "name:yue": "苑裡鎮",
      "way_area": "0.00610047",
      "wikidata": "Q713050",
      "wikipedia": "zh:苑裡鎮",
      "admin_level": "8"
    }
  },
  {
    "osm_id": -3333229,
    "boundary": "administrative",
    "admin_level": 8,
    "parents": "-2915592,-3777248,-449220",
    "name": "Sanyi",
    "local_name": "三義鄉",
    "name_en": "Sanyi",
    "all_tags": {
      "name": "三義鄉",
      "name:en": "Sanyi",
      "name:ja": "三義郷",
      "name:ko": "싼이향",
      "name:vi": "Tam Nghĩa",
      "name:zh": "三義鄉",
      "nat_ref": "10005130",
      "boundary": "administrative",
      "name:hak": "Sâm-ngi-hiông",
      "name:nan": "Sam-gī-hiong",
      "way_area": "0.00602403",
      "wikidata": "Q713806",
      "wikipedia": "zh:三義鄉 (台灣)",
      "admin_level": "8"
    }
  },
  {
    "osm_id": -3333158,
    "boundary": "administrative",
    "admin_level": 8,
    "parents": "-2915592,-3777248,-449220",
    "name": "Gongguan",
    "local_name": "公館鄉",
    "name_en": "Gongguan",
    "all_tags": {
      "name": "公館鄉",
      "name:en": "Gongguan",
      "name:ja": "公館郷",
      "name:ko": "궁관향",
      "name:zh": "公館鄉",
      "nat_ref": "10005090",
      "boundary": "administrative",
      "name:hak": "Kûng-kón-hiông",
      "name:nan": "Kong-koán-hiong",
      "name:yue": "公館鄉",
      "way_area": "0.00638471",
      "wikidata": "Q713582",
      "wikipedia": "zh:公館鄉 (台灣)",
      "admin_level": "8"
    }
  },
  {
    "osm_id": -3333155,
    "boundary": "administrative",
    "admin_level": 8,
    "parents": "-2915592,-3777248,-449220",
    "name": "Zhuolan Township",
    "local_name": "卓蘭鎮",
    "name_en": "Zhuolan Township",
    "all_tags": {
      "name": "卓蘭鎮",
      "name:en": "Zhuolan Township",
      "name:it": "Zhuolan",
      "name:ja": "卓蘭鎮",
      "name:ko": "줘란 진",
      "name:zh": "卓蘭鎮",
      "nat_ref": "10005070",
      "boundary": "administrative",
      "name:hak": "Cho̍k-làn-chṳ́n",
      "name:nan": "Tah-lân-tìn",
      "name:yue": "卓蘭鎮",
      "way_area": "0.00690193",
      "wikidata": "Q713773",
      "wikipedia": "zh:卓蘭鎮",
      "admin_level": "8"
    }
  },
  {
    "osm_id": -3333146,
    "boundary": "administrative",
    "admin_level": 8,
    "parents": "-2915592,-3777248,-449220",
    "name": "Houlong",
    "local_name": "後龍鎮",
    "name_en": "Houlong",
    "all_tags": {
      "name": "後龍鎮",
      "name:en": "Houlong",
      "name:fr": "Houlong",
      "name:it": "Houlong",
      "name:ja": "後龍鎮",
      "name:ko": "허우룽진",
      "name:vi": "Hậu Long",
      "name:zh": "後龍鎮",
      "nat_ref": "10005060",
      "boundary": "administrative",
      "name:hak": "Heu-liùng-chṳ́n",
      "name:nan": "Āu-lâng-tìn",
      "name:yue": "後龍鎮",
      "way_area": "0.00696212",
      "wikidata": "Q713564",
      "wikipedia": "zh:後龍鎮 (台灣)",
      "admin_level": "8"
    }
  },
  {
    "osm_id": -3333142,
    "boundary": "administrative",
    "admin_level": 8,
    "parents": "-2915592,-3777248,-449220",
    "name": "Tongluo",
    "local_name": "銅鑼鄉",
    "name_en": "Tongluo",
    "all_tags": {
      "name": "銅鑼鄉",
      "name:en": "Tongluo",
      "name:ja": "銅鑼郷",
      "name:ko": "퉁뤄향",
      "name:vi": "Đồng La",
      "name:zh": "銅鑼鄉",
      "nat_ref": "10005100",
      "boundary": "administrative",
      "name:hak": "Thùng-lò-hiông",
      "name:nan": "Tâng-lô-hiong",
      "way_area": "0.00695584",
      "wikidata": "Q698050",
      "wikipedia": "zh:銅鑼鄉 (台灣)",
      "admin_level": "8"
    }
  },
  {
    "osm_id": -3333136,
    "boundary": "administrative",
    "admin_level": 8,
    "parents": "-2915592,-3777248,-449220",
    "name": "Shitan",
    "local_name": "獅潭鄉",
    "name_en": "Shitan",
    "all_tags": {
      "name": "獅潭鄉",
      "name:en": "Shitan",
      "name:ja": "獅潭郷",
      "name:ko": "스탄향",
      "name:vi": "Sư Đàm",
      "name:zh": "獅潭鄉",
      "nat_ref": "10005170",
      "boundary": "administrative",
      "name:hak": "Sṳ̂-thàn-hiông",
      "name:nan": "Sai-thâm-hiong",
      "way_area": "0.00707493",
      "wikidata": "Q713736",
      "wikipedia": "zh:獅潭鄉",
      "admin_level": "8"
    }
  },
  {
    "osm_id": -3333119,
    "boundary": "administrative",
    "admin_level": 8,
    "parents": "-2915592,-3777248,-449220",
    "name": "Dahu",
    "local_name": "大湖鄉",
    "name_en": "Dahu",
    "all_tags": {
      "name": "大湖鄉",
      "name:en": "Dahu",
      "name:ja": "大湖郷",
      "name:ko": "다후향",
      "name:vi": "Đại Hồ",
      "name:zh": "大湖鄉",
      "nat_ref": "10005080",
      "boundary": "administrative",
      "name:hak": "Thai-fù-hiông",
      "name:nan": "Tōa-ô͘-hiong",
      "way_area": "0.00809699",
      "wikidata": "Q713784",
      "wikipedia": "zh:大湖鄉 (台灣)",
      "admin_level": "8"
    }
  },
  {
    "osm_id": -3333110,
    "boundary": "administrative",
    "admin_level": 8,
    "parents": "-2915592,-3777248,-449220",
    "name": "Tongxiao",
    "local_name": "通霄鎮",
    "name_en": "Tongxiao",
    "all_tags": {
      "name": "通霄鎮",
      "name:en": "Tongxiao",
      "name:ja": "通霄鎮",
      "name:ko": "퉁샤오진",
      "name:vi": "Thông Tiêu",
      "name:zh": "通霄鎮",
      "nat_ref": "10005030",
      "boundary": "administrative",
      "name:hak": "Thûng-sêu-chṳ́n",
      "name:nan": "Thong-siau-tìn",
      "way_area": "0.00985013",
      "wikidata": "Q713026",
      "wikipedia": "zh:通霄鎮",
      "admin_level": "8"
    }
  },
  {
    "osm_id": -3333100,
    "boundary": "administrative",
    "admin_level": 8,
    "parents": "-2915592,-3777248,-449220",
    "name": "Nanzhuang",
    "local_name": "南庄鄉",
    "name_en": "Nanzhuang",
    "all_tags": {
      "name": "南庄鄉",
      "name:en": "Nanzhuang",
      "name:fr": "Nanzhuang",
      "name:ja": "南庄郷",
      "name:ko": "난좡향",
      "name:vi": "Nam Trang",
      "name:zh": "南庄鄉",
      "nat_ref": "10005110",
      "boundary": "administrative",
      "name:hak": "Nàm-chông-hiông",
      "name:nan": "Lâm-chng-hiong",
      "way_area": "0.0144474",
      "wikidata": "Q713592",
      "wikipedia": "zh:南庄鄉 (台灣)",
      "admin_level": "8"
    }
  },
  {
    "osm_id": -3333010,
    "boundary": "administrative",
    "admin_level": 8,
    "parents": "-2915592,-3777248,-449220",
    "name": "Tai'an",
    "local_name": "泰安鄉",
    "name_en": "Tai'an",
    "all_tags": {
      "name": "泰安鄉",
      "name:en": "Tai'an",
      "name:ja": "泰安郷",
      "name:ko": "타이안향",
      "name:vi": "Thái An",
      "name:zh": "泰安鄉",
      "nat_ref": "10005180",
      "boundary": "administrative",
      "name:hak": "Thai-ôn-hiông",
      "name:nan": "Thài-an-hiong",
      "way_area": "0.0536232",
      "wikidata": "Q713762",
      "wikipedia": "zh:泰安鄉",
      "admin_level": "8"
    }
  },
  {
    "osm_id": -3329800,
    "boundary": "administrative",
    "admin_level": 8,
    "parents": "-2917549,-3777248,-449220",
    "name": "Zhutang Township",
    "local_name": "竹塘鄉",
    "name_en": "Zhutang Township",
    "all_tags": {
      "name": "竹塘鄉",
      "is_in": "臺灣彰化縣",
      "name:en": "Zhutang Township",
      "name:ja": "竹塘郷",
      "name:ko": "주탕향",
      "name:vi": "Trúc Đường, Chương Hóa",
      "name:zh": "竹塘鄉",
      "nat_ref": "10007250",
      "boundary": "administrative",
      "name:hak": "Tsuk-thòng-hiông",
      "name:nan": "Tek-tn̂g-hiong",
      "way_area": "0.00371322",
      "wikidata": "Q718340",
      "wikipedia": "zh:竹塘鄉 (台灣)",
      "is_in:city": "彰化縣",
      "admin_level": "8",
      "is_in:country": "TW"
    }
  },
  {
    "osm_id": -3329799,
    "boundary": "administrative",
    "admin_level": 8,
    "parents": "-2917549,-3777248,-449220",
    "name": "Dacheng Township",
    "local_name": "大城鄉",
    "name_en": "Dacheng Township",
    "all_tags": {
      "name": "大城鄉",
      "is_in": "臺灣彰化縣",
      "name:en": "Dacheng Township",
      "name:it": "Dacheng",
      "name:ja": "大城郷",
      "name:ko": "다청향",
      "name:zh": "大城鄉",
      "nat_ref": "10007240",
      "boundary": "administrative",
      "name:hak": "Thai-sàng-hiông",
      "name:nan": "Toā-siâⁿ-hiong",
      "way_area": "0.00587463",
      "wikidata": "Q718365",
      "wikipedia": "zh:大城鄉",
      "is_in:city": "彰化縣",
      "admin_level": "8",
      "is_in:country": "TW"
    }
  },
  {
    "osm_id": -3329789,
    "boundary": "administrative",
    "admin_level": 8,
    "parents": "-2917549,-3777248,-449220",
    "name": "Xizhou Township",
    "local_name": "溪州鄉",
    "name_en": "Xizhou Township",
    "all_tags": {
      "name": "溪州鄉",
      "is_in": "臺灣彰化縣",
      "name:en": "Xizhou Township",
      "name:ja": "渓州郷",
      "name:ko": "시저우향",
      "name:vi": "Khê Châu, Chương Hóa",
      "name:zh": "溪州鄉",
      "nat_ref": "10007260",
      "boundary": "administrative",
      "name:hak": "Hâi-chû-hiông",
      "name:nan": "Khe-chiu-hiong",
      "way_area": "0.00613969",
      "wikidata": "Q708820",
      "wikipedia": "zh:溪州鄉",
      "is_in:city": "彰化縣",
      "admin_level": "8",
      "is_in:country": "TW"
    }
  },
  {
    "osm_id": -3329788,
    "boundary": "administrative",
    "admin_level": 8,
    "parents": "-2917549,-3777248,-449220",
    "name": "Beidou Township",
    "local_name": "北斗鎮",
    "name_en": "Beidou Township",
    "all_tags": {
      "name": "北斗鎮",
      "is_in": "臺灣彰化縣",
      "name:en": "Beidou Township",
      "name:ja": "北斗鎮",
      "name:ko": "베이더우진",
      "name:vi": "Bắc Đấu, Chương Hóa",
      "name:zh": "北斗鎮",
      "nat_ref": "10007190",
      "boundary": "administrative",
      "name:hak": "Pet-téu-chṳ́n",
      "name:nan": "Pó-táu-tìn",
      "way_area": "0.00175016",
      "wikidata": "Q718417",
      "wikipedia": "zh:北斗鎮",
      "is_in:city": "彰化縣",
      "admin_level": "8",
      "is_in:country": "TW"
    }
  },
  {
    "osm_id": -3329770,
    "boundary": "administrative",
    "admin_level": 8,
    "parents": "-2917549,-3777248,-449220",
    "name": "Ershui Township",
    "local_name": "二水鄉",
    "name_en": "Ershui Township",
    "all_tags": {
      "name": "二水鄉",
      "is_in": "臺灣彰化縣",
      "name:en": "Ershui Township",
      "name:it": "Ershui",
      "name:ja": "二水郷",
      "name:ko": "얼수이향",
      "name:pl": "Ershui",
      "name:zh": "二水鄉",
      "nat_ref": "10007180",
      "boundary": "administrative",
      "name:hak": "Ngi-súi-hiông",
      "name:nan": "Jī-chúi-hiong",
      "way_area": "0.00315022",
      "wikidata": "Q718369",
      "wikipedia": "zh:二水鄉",
      "is_in:city": "彰化縣",
      "admin_level": "8",
      "is_in:country": "TW"
    }
  },
  {
    "osm_id": -3329757,
    "boundary": "administrative",
    "admin_level": 8,
    "parents": "-2917549,-3777248,-449220",
    "name": "Tianzhong",
    "local_name": "田中鎮",
    "name_en": "Tianzhong",
    "all_tags": {
      "name": "田中鎮",
      "is_in": "臺灣彰化縣",
      "name:en": "Tianzhong",
      "name:it": "Tianzhong",
      "name:ja": "田中鎮",
      "name:ko": "톈중진",
      "name:pl": "Tianzhong",
      "name:vi": "Điền Trung",
      "name:zh": "田中鎮",
      "nat_ref": "10007120",
      "boundary": "administrative",
      "name:hak": "Thièn-chûng-chṳ́n",
      "name:nan": "Tiân-tiong-tìn",
      "way_area": "0.00305375",
      "wikidata": "Q718433",
      "wikipedia": "zh:田中鎮",
      "is_in:city": "彰化縣",
      "admin_level": "8",
      "is_in:country": "TW"
    }
  },
  {
    "osm_id": -3329755,
    "boundary": "administrative",
    "admin_level": 8,
    "parents": "-2917549,-3777248,-449220",
    "name": "Shetou",
    "local_name": "社頭鄉",
    "name_en": "Shetou",
    "all_tags": {
      "name": "社頭鄉",
      "is_in": "臺灣彰化縣",
      "name:en": "Shetou",
      "name:it": "Shetou",
      "name:ja": "社頭郷",
      "name:ko": "서터우향",
      "name:pl": "Shetou",
      "name:vi": "Xã Đầu",
      "name:zh": "社頭鄉",
      "nat_ref": "10007170",
      "boundary": "administrative",
      "name:hak": "Sa-thèu-hiông",
      "name:nan": "Siā-thâu-hiong",
      "way_area": "0.00318454",
      "wikidata": "Q715860",
      "wikipedia": "zh:社頭鄉",
      "is_in:city": "彰化縣",
      "admin_level": "8",
      "is_in:country": "TW"
    }
  },
  {
    "osm_id": -3329752,
    "boundary": "administrative",
    "admin_level": 8,
    "parents": "-2917549,-3777248,-449220",
    "name": "Yongjing Township",
    "local_name": "永靖鄉",
    "name_en": "Yongjing Township",
    "all_tags": {
      "name": "永靖鄉",
      "is_in": "臺灣彰化縣",
      "name:en": "Yongjing Township",
      "name:ja": "永靖郷",
      "name:ko": "융징향",
      "name:vi": "Vĩnh Tĩnh, Chương Hóa",
      "name:zh": "永靖鄉",
      "nat_ref": "10007160",
      "boundary": "administrative",
      "name:hak": "Yún-tshìn-hiông",
      "name:nan": "Éng-chēng-hiong",
      "way_area": "0.00179909",
      "wikidata": "Q713817",
      "wikipedia": "zh:永靖鄉",
      "is_in:city": "彰化縣",
      "admin_level": "8",
      "is_in:country": "TW"
    }
  },
  {
    "osm_id": -3329741,
    "boundary": "administrative",
    "admin_level": 8,
    "parents": "-2917549,-3777248,-449220",
    "name": "Tianwei Township",
    "local_name": "田尾鄉",
    "name_en": "Tianwei Township",
    "all_tags": {
      "name": "田尾鄉",
      "is_in": "臺灣彰化縣",
      "name:en": "Tianwei Township",
      "name:ja": "田尾郷",
      "name:ko": "톈웨이향",
      "name:vi": "Điền Vĩ, Chương Hóa",
      "name:zh": "田尾鄉",
      "nat_ref": "10007210",
      "boundary": "administrative",
      "name:hak": "Thièn-mî-hiông",
      "name:nan": "Chhân-boé-hiong",
      "way_area": "0.00219166",
      "wikidata": "Q715660",
      "wikipedia": "zh:田尾鄉",
      "is_in:city": "彰化縣",
      "admin_level": "8",
      "is_in:country": "TW"
    }
  },
  {
    "osm_id": -3329737,
    "boundary": "administrative",
    "admin_level": 8,
    "parents": "-2917549,-3777248,-449220",
    "name": "Bitou Township",
    "local_name": "埤頭鄉",
    "name_en": "Bitou Township",
    "all_tags": {
      "name": "埤頭鄉",
      "is_in": "臺灣彰化縣",
      "name:en": "Bitou Township",
      "name:ja": "ヒ頭郷",
      "name:ko": "피터우향",
      "name:vi": "Bì Đầu, Chương Hóa",
      "name:zh": "埤頭鄉",
      "nat_ref": "10007220",
      "boundary": "administrative",
      "name:hak": "Phî-thèu-hiông",
      "name:nan": "Pi-thâu-hiong",
      "way_area": "0.00376561",
      "wikidata": "Q718388",
      "wikipedia": "zh:埤頭鄉",
      "is_in:city": "彰化縣",
      "admin_level": "8",
      "is_in:country": "TW"
    }
  },
  {
    "osm_id": -3329736,
    "boundary": "administrative",
    "admin_level": 8,
    "parents": "-2917549,-3777248,-449220",
    "name": "Yuanlin City",
    "local_name": "員林市",
    "name_en": "Yuanlin City",
    "all_tags": {
      "name": "員林市",
      "is_in": "臺灣彰化縣",
      "name:en": "Yuanlin City",
      "name:ja": "員林市",
      "name:ko": "위안린시",
      "name:vi": "Viên Lâm, Chương Hóa",
      "name:zh": "員林市",
      "nat_ref": "10007100",
      "boundary": "administrative",
      "name:hak": "Yèn-lìm-chṳ́n",
      "name:nan": "Oân-lîm-chhī",
      "way_area": "0.00349389",
      "wikidata": "Q713331",
      "wikipedia": "zh:員林市",
      "is_in:city": "彰化縣",
      "admin_level": "8",
      "is_in:country": "TW"
    }
  },
  {
    "osm_id": -3329730,
    "boundary": "administrative",
    "admin_level": 8,
    "parents": "-2917549,-3777248,-449220",
    "name": "Puxin Township",
    "local_name": "埔心鄉",
    "name_en": "Puxin Township",
    "all_tags": {
      "name": "埔心鄉",
      "is_in": "臺灣彰化縣",
      "name:en": "Puxin Township",
      "name:ja": "埔心郷",
      "name:ko": "푸신향",
      "name:vi": "Phố Tâm",
      "name:zh": "埔心鄉",
      "nat_ref": "10007150",
      "boundary": "administrative",
      "name:hak": "Phû-sîm-hiông",
      "name:nan": "Po͘-sim-hiong",
      "way_area": "0.00186176",
      "wikidata": "Q713813",
      "wikipedia": "zh:埔心鄉",
      "is_in:city": "彰化縣",
      "admin_level": "8",
      "is_in:country": "TW"
    }
  },
  {
    "osm_id": -3329693,
    "boundary": "administrative",
    "admin_level": 8,
    "parents": "-2917549,-3777248,-449220",
    "name": "Xihu Township",
    "local_name": "溪湖鎮",
    "name_en": "Xihu Township",
    "all_tags": {
      "name": "溪湖鎮",
      "is_in": "臺灣彰化縣",
      "name:en": "Xihu Township",
      "name:ja": "渓湖鎮",
      "name:ko": "시후진",
      "name:vi": "Khê Hồ, Chương Hóa",
      "name:zh": "溪湖鎮",
      "nat_ref": "10007110",
      "boundary": "administrative",
      "name:hak": "Hâi-fù-chṳ́n",
      "name:nan": "Khe-ô͘-tìn",
      "way_area": "0.00275367",
      "wikidata": "Q715864",
      "wikipedia": "zh:溪湖鎮",
      "is_in:city": "彰化縣",
      "admin_level": "8",
      "name:nan-HJ": "溪湖鎮",
      "name:nan-TL": "Khe-ôo-tìn",
      "name:nan-POJ": "Khe-ô͘-tìn",
      "is_in:country": "TW"
    }
  },
  {
    "osm_id": -3329684,
    "boundary": "administrative",
    "admin_level": 8,
    "parents": "-2917549,-3777248,-449220",
    "name": "Erlin Township",
    "local_name": "二林鎮",
    "name_en": "Erlin Township",
    "all_tags": {
      "name": "二林鎮",
      "is_in": "臺灣彰化縣",
      "name:en": "Erlin Township",
      "name:ja": "二林鎮",
      "name:ko": "얼린진",
      "name:vi": "Nhị Lâm",
      "name:zh": "二林鎮",
      "nat_ref": "10007200",
      "boundary": "administrative",
      "name:hak": "Ngi-lìm-chṳ́n",
      "name:nan": "Jī-lîm-tìn",
      "way_area": "0.00817635",
      "wikidata": "Q718428",
      "wikipedia": "zh:二林鎮",
      "is_in:city": "彰化縣",
      "admin_level": "8",
      "is_in:country": "TW"
    }
  },
  {
    "osm_id": -3329677,
    "boundary": "administrative",
    "admin_level": 8,
    "parents": "-2917549,-3777248,-449220",
    "name": "Fangyuan Township",
    "local_name": "芳苑鄉",
    "name_en": "Fangyuan Township",
    "all_tags": {
      "name": "芳苑鄉",
      "is_in": "臺灣彰化縣",
      "name:en": "Fangyuan Township",
      "name:it": "Fangyuan",
      "name:ja": "芳苑郷",
      "name:ko": "팡위안향",
      "name:pl": "Fangyuan",
      "name:vi": "Phương Uyển, Chương Hóa",
      "name:zh": "芳苑鄉",
      "nat_ref": "10007230",
      "boundary": "administrative",
      "name:hak": "Fông-yen-hiông",
      "name:nan": "Hong-oán-hiong",
      "way_area": "0.00873183",
      "wikidata": "Q715654",
      "wikipedia": "zh:芳苑鄉",
      "is_in:city": "彰化縣",
      "admin_level": "8",
      "is_in:country": "TW"
    }
  },
  {
    "osm_id": -3329672,
    "boundary": "administrative",
    "admin_level": 8,
    "parents": "-2917549,-3777248,-449220",
    "name": "Puyan Township",
    "local_name": "埔鹽鄉",
    "name_en": "Puyan Township",
    "all_tags": {
      "name": "埔鹽鄉",
      "is_in": "臺灣彰化縣",
      "name:en": "Puyan Township",
      "name:ja": "埔塩郷",
      "name:ko": "푸옌향",
      "name:vi": "Phố Diêm, Chương Hóa",
      "name:zh": "埔鹽鄉",
      "nat_ref": "10007140",
      "boundary": "administrative",
      "name:hak": "Phû-yàm-hiông",
      "name:nan": "Po͘-iâm-hiong",
      "way_area": "0.00346497",
      "wikidata": "Q718356",
      "wikipedia": "zh:埔鹽鄉",
      "is_in:city": "彰化縣",
      "admin_level": "8",
      "is_in:country": "TW"
    }
  },
  {
    "osm_id": -3329656,
    "boundary": "administrative",
    "admin_level": 8,
    "parents": "-2917549,-3777248,-449220",
    "name": "Dacun Township",
    "local_name": "大村鄉",
    "name_en": "Dacun Township",
    "all_tags": {
      "name": "大村鄉",
      "is_in": "臺灣彰化縣",
      "name:en": "Dacun Township",
      "name:ja": "大村郷",
      "name:ko": "다춘향",
      "name:vi": "Đại Thôn, Chương Hóa",
      "name:zh": "大村鄉",
      "nat_ref": "10007130",
      "boundary": "administrative",
      "name:hak": "Thai-tshûn-hiông",
      "name:nan": "Tāi-chhoan-hiong",
      "way_area": "0.00270264",
      "wikidata": "Q710264",
      "wikipedia": "zh:大村鄉 (台灣)",
      "is_in:city": "彰化縣",
      "admin_level": "8",
      "is_in:country": "TW"
    }
  },
  {
    "osm_id": -3329639,
    "boundary": "administrative",
    "admin_level": 8,
    "parents": "-2917549,-3777248,-449220",
    "name": "Fenyuan Township",
    "local_name": "芬園鄉",
    "name_en": "Fenyuan Township",
    "all_tags": {
      "name": "芬園鄉",
      "is_in": "臺灣彰化縣",
      "name:en": "Fenyuan Township",
      "name:ja": "芬園郷",
      "name:ko": "펀위안향",
      "name:vi": "Phân Viên, Chương Hóa",
      "name:zh": "芬園鄉",
      "nat_ref": "10007090",
      "boundary": "administrative",
      "name:hak": "Fûn-yèn-hiông",
      "name:nan": "Hun-hn̂g-hiong",
      "way_area": "0.00339827",
      "wikidata": "Q718425",
      "wikipedia": "zh:芬園鄉",
      "is_in:city": "彰化縣",
      "admin_level": "8",
      "is_in:country": "TW"
    }
  },
  {
    "osm_id": -3329638,
    "boundary": "administrative",
    "admin_level": 8,
    "parents": "-2917549,-3777248,-449220",
    "name": "Huatan Township",
    "local_name": "花壇鄉",
    "name_en": "Huatan Township",
    "all_tags": {
      "name": "花壇鄉",
      "is_in": "臺灣彰化縣",
      "name:en": "Huatan Township",
      "name:ja": "花壇郷",
      "name:ko": "화탄 향",
      "name:vi": "Hoa Đàn",
      "name:zh": "花壇鄉",
      "nat_ref": "10007080",
      "boundary": "administrative",
      "name:hak": "Fâ-thàn-hiông",
      "name:nan": "Hoe-tôaⁿ-hiong",
      "way_area": "0.00319236",
      "wikidata": "Q718226",
      "wikipedia": "zh:花壇鄉",
      "is_in:city": "彰化縣",
      "admin_level": "8",
      "is_in:country": "TW"
    }
  },
  {
    "osm_id": -3329615,
    "boundary": "administrative",
    "admin_level": 8,
    "parents": "-2917549,-3777248,-449220",
    "name": "Fuxing Township",
    "local_name": "福興鄉",
    "name_en": "Fuxing Township",
    "all_tags": {
      "name": "福興鄉",
      "is_in": "臺灣彰化縣",
      "name:en": "Fuxing Township",
      "name:ja": "福興郷",
      "name:ko": "푸싱향 (장화현)",
      "name:vi": "Phúc Hưng, Chương Hóa",
      "name:zh": "福興鄉",
      "nat_ref": "10007060",
      "boundary": "administrative",
      "name:hak": "Fuk-hîn-hiông (Chông-fa)",
      "name:nan": "Hok-heng-hiong",
      "way_area": "0.00444827",
      "wikidata": "Q718412",
      "wikipedia": "zh:福興鄉 (台灣)",
      "is_in:city": "彰化縣",
      "admin_level": "8",
      "is_in:country": "TW"
    }
  },
  {
    "osm_id": -3329601,
    "boundary": "administrative",
    "admin_level": 8,
    "parents": "-2917549,-3777248,-449220",
    "name": "Xiushui Township",
    "local_name": "秀水鄉",
    "name_en": "Xiushui Township",
    "all_tags": {
      "name": "秀水鄉",
      "is_in": "臺灣彰化縣",
      "name:en": "Xiushui Township",
      "name:ja": "秀水郷",
      "name:ko": "슈수이 향",
      "name:vi": "Tú Thủy, Chương Hóa",
      "name:zh": "秀水鄉",
      "nat_ref": "10007070",
      "boundary": "administrative",
      "name:hak": "Siu-súi-hiông",
      "name:nan": "Siù-chúi-hiong",
      "way_area": "0.00258093",
      "wikidata": "Q718437",
      "wikipedia": "zh:秀水鄉 (台灣)",
      "is_in:city": "彰化縣",
      "admin_level": "8",
      "is_in:country": "TW"
    }
  },
  {
    "osm_id": -3329591,
    "boundary": "administrative",
    "admin_level": 8,
    "parents": "-2917549,-3777248,-449220",
    "name": "Zhanghua City",
    "local_name": "彰化市",
    "name_en": "Zhanghua City",
    "all_tags": {
      "name": "彰化市",
      "is_in": "臺灣彰化縣",
      "name:de": "Zhanghua",
      "name:en": "Zhanghua City",
      "name:fr": "Changhua",
      "name:it": "Changhua",
      "name:ja": "彰化市",
      "name:ko": "장화 시",
      "name:ru": "Чжанхуа",
      "name:vi": "Chương Hóa",
      "name:zh": "彰化市",
      "nat_ref": "10007010",
      "boundary": "administrative",
      "name:hak": "Chông-fa-sṳ",
      "name:nan": "Chiong-hoà-chhī",
      "name:yue": "彰化市",
      "way_area": "0.00584081",
      "wikidata": "Q195215",
      "wikipedia": "zh:彰化市",
      "is_in:city": "彰化縣",
      "admin_level": "8",
      "name:zh-Hant": "彰化市",
      "is_in:country": "TW",
      "name:zh_pinyin": "Zhānghuà Shì"
    }
  },
  {
    "osm_id": -3329582,
    "boundary": "administrative",
    "admin_level": 8,
    "parents": "-2917549,-3777248,-449220",
    "name": "Lugang Township",
    "local_name": "鹿港鎮",
    "name_en": "Lugang Township",
    "all_tags": {
      "name": "鹿港鎮",
      "is_in": "臺灣彰化縣",
      "name:ab": "Lộc Cảng, Chương Hóa",
      "name:en": "Lugang Township",
      "name:ja": "鹿港鎮",
      "name:ko": "루강진",
      "name:ru": "Луган",
      "name:vi": "Lộc Cảng, Chương Hóa",
      "name:zh": "鹿港鎮",
      "nat_ref": "10007020",
      "boundary": "administrative",
      "name:hak": "Lu̍k-kóng-chṳ́n",
      "name:nan": "Lo̍k-káng-tìn",
      "way_area": "0.00556069",
      "wikidata": "Q701693",
      "wikipedia": "zh:鹿港鎮",
      "is_in:city": "彰化縣",
      "admin_level": "8",
      "is_in:country": "TW"
    }
  },
  {
    "osm_id": -3329542,
    "boundary": "administrative",
    "admin_level": 8,
    "parents": "-2917549,-3777248,-449220",
    "name": "Xianxi Township",
    "local_name": "線西鄉",
    "name_en": "Xianxi Township",
    "all_tags": {
      "name": "線西鄉",
      "is_in": "臺灣彰化縣",
      "name:en": "Xianxi Township",
      "name:ja": "線西郷",
      "name:ko": "셴시향",
      "name:vi": "Tuyến Tây, Chương Hóa",
      "name:zh": "線西鄉",
      "nat_ref": "10007040",
      "boundary": "administrative",
      "name:hak": "Sien-sî-hiông",
      "name:nan": "Soàⁿ-sai-hiong",
      "way_area": "0.00189322",
      "wikidata": "Q718205",
      "wikipedia": "zh:線西鄉",
      "is_in:city": "彰化縣",
      "admin_level": "8",
      "is_in:country": "TW"
    }
  },
  {
    "osm_id": -3329530,
    "boundary": "administrative",
    "admin_level": 8,
    "parents": "-2917549,-3777248,-449220",
    "name": "Shengang Township",
    "local_name": "伸港鄉",
    "name_en": "Shengang Township",
    "all_tags": {
      "name": "伸港鄉",
      "name:en": "Shengang Township",
      "name:it": "Shengang",
      "name:ja": "伸港郷",
      "name:ko": "선강 향",
      "name:vi": "Thân Cảng",
      "name:zh": "伸港鄉",
      "nat_ref": "10007050",
      "boundary": "administrative",
      "name:hak": "Tshûn-kóng-hiông",
      "name:nan": "Sin-káng-hiong",
      "way_area": "0.00256164",
      "wikidata": "Q714614",
      "wikipedia": "zh:伸港鄉",
      "admin_level": "8"
    }
  },
  {
    "osm_id": -3326820,
    "boundary": "administrative",
    "admin_level": 8,
    "parents": "-2921155,-3777248,-449220",
    "name": "Guanshan",
    "local_name": "關山鎮",
    "name_en": "Guanshan",
    "all_tags": {
      "name": "關山鎮",
      "name:de": "Guanshan",
      "name:en": "Guanshan",
      "name:it": "Guanshan",
      "name:ja": "関山鎮",
      "name:ko": "관산 진",
      "name:vi": "Quan Sơn",
      "name:zh": "關山鎮",
      "nat_ref": "10014030",
      "boundary": "administrative",
      "name:hak": "Kûan-sân-tsṳ́n",
      "name:nan": "Koan-san-tìn",
      "way_area": "0.00530494",
      "wikidata": "Q708996",
      "wikipedia": "zh:關山鎮 (台灣)",
      "admin_level": "8",
      "postal_code": "956"
    }
  },
  {
    "osm_id": -3326804,
    "boundary": "administrative",
    "admin_level": 8,
    "parents": "-2921155,-3777248,-449220",
    "name": "Luye",
    "local_name": "鹿野鄉",
    "name_en": "Luye",
    "all_tags": {
      "name": "鹿野鄉",
      "name:en": "Luye",
      "name:it": "Luye",
      "name:ja": "鹿野郷",
      "name:ko": "루예 향",
      "name:vi": "Lộc Dã",
      "name:zh": "鹿野鄉",
      "nat_ref": "10014050",
      "boundary": "administrative",
      "name:hak": "Lu̍k-yâ-hiông",
      "name:nan": "Lo̍k-iá-hiong",
      "way_area": "0.00702082",
      "wikidata": "Q712915",
      "wikipedia": "zh:鹿野鄉",
      "admin_level": "8",
      "postal_code": "955"
    }
  },
  {
    "osm_id": -3326761,
    "boundary": "administrative",
    "admin_level": 8,
    "parents": "-2921155,-3777248,-449220",
    "name": "Yanping",
    "local_name": "延平鄉",
    "name_en": "Yanping",
    "all_tags": {
      "name": "延平鄉",
      "name:de": "Yanping",
      "name:en": "Yanping",
      "name:ja": "延平郷",
      "name:ko": "옌핑 향",
      "name:vi": "Diên Bình",
      "name:zh": "延平鄉",
      "nat_ref": "10014130",
      "boundary": "administrative",
      "name:hak": "Yèn-phìn-hiông",
      "name:nan": "Iân-pêng-hiong",
      "way_area": "0.0422863",
      "wikidata": "Q712965",
      "wikipedia": "zh:延平鄉",
      "admin_level": "8",
      "postal_code": "953"
    }
  },
  {
    "osm_id": -3326760,
    "boundary": "administrative",
    "admin_level": 8,
    "parents": "-2921155,-3777248,-449220",
    "name": "Beinan",
    "local_name": "卑南鄉",
    "name_en": "Beinan",
    "all_tags": {
      "name": "卑南鄉",
      "name:de": "Beinan",
      "name:en": "Beinan",
      "name:it": "Beinan",
      "name:ja": "卑南郷",
      "name:ko": "베이난 향",
      "name:vi": "Ti Nam",
      "name:zh": "卑南鄉",
      "nat_ref": "10014040",
      "boundary": "administrative",
      "name:hak": "Pî-nàm-hiông",
      "name:nan": "Pi-lâm-hiong",
      "way_area": "0.0374536",
      "wikidata": "Q712831",
      "wikipedia": "zh:卑南鄉",
      "admin_level": "8",
      "postal_code": "954"
    }
  },
  {
    "osm_id": -3323169,
    "boundary": "administrative",
    "admin_level": 8,
    "parents": "-2921155,-3777248,-449220",
    "name": "Taitung City",
    "local_name": "臺東市",
    "name_en": "Taitung City",
    "all_tags": {
      "name": "臺東市",
      "name:de": "Taitung",
      "name:en": "Taitung City",
      "name:ja": "台東市",
      "name:ko": "타이둥 시",
      "name:ru": "Тайдун",
      "name:vi": "Đài Đông",
      "name:zh": "臺東市",
      "nat_ref": "10014010",
      "boundary": "administrative",
      "name:ami": "Pusung",
      "name:ceb": "Taitung City",
      "name:hak": "Thòi-tûng-sṳ",
      "name:nan": "Tâi-tang-chhī",
      "name:pyu": "Pusung",
      "name:yue": "臺東市",
      "way_area": "0.00979333",
      "wikidata": "Q713381",
      "wikipedia": "zh:臺東市",
      "admin_level": "8",
      "postal_code": "950",
      "name:zh-Hans": "台东市",
      "name:zh-Hant": "臺東市"
    }
  },
  {
    "osm_id": -3323160,
    "boundary": "administrative",
    "admin_level": 8,
    "parents": "-2921155,-3777248,-449220",
    "name": "Taimali",
    "local_name": "太麻里鄉",
    "name_en": "Taimali",
    "all_tags": {
      "name": "太麻里鄉",
      "name:de": "Taimali",
      "name:en": "Taimali",
      "name:ja": "太麻里郷",
      "name:ko": "타이마리 향",
      "name:zh": "太麻里鄉",
      "nat_ref": "10014090",
      "boundary": "administrative",
      "name:hak": "Thai-mà-lî-hiông",
      "name:nan": "Thài-mâ-lí-hiong",
      "way_area": "0.00897998",
      "wikidata": "Q712972",
      "wikipedia": "zh:太麻里鄉",
      "admin_level": "8",
      "postal_code": "963"
    }
  },
  {
    "osm_id": -3229462,
    "boundary": "administrative",
    "admin_level": 8,
    "parents": "-2915930,-3777248,-449220",
    "name": "Dabi Township",
    "local_name": "大埤鄉",
    "name_en": "Dabi Township",
    "all_tags": {
      "name": "大埤鄉",
      "is_in": "臺灣雲林縣",
      "name:en": "Dabi Township",
      "name:ja": "大ヒ郷",
      "name:ko": "다피향",
      "name:vi": "Đại Bì",
      "name:zh": "大埤鄉",
      "nat_ref": "10009080",
      "boundary": "administrative",
      "name:hak": "Thai-phî-hiông",
      "name:nan": "Toā-pi-hiong",
      "way_area": "0.00391932",
      "wikidata": "Q710293",
      "wikipedia": "zh:大埤鄉",
      "is_in:city": "雲林縣",
      "admin_level": "8",
      "is_in:country": "TW"
    }
  },
  {
    "osm_id": -3228055,
    "boundary": "administrative",
    "admin_level": 8,
    "parents": "-2915930,-3777248,-449220",
    "name": "Yuanchang Township",
    "local_name": "元長鄉",
    "name_en": "Yuanchang Township",
    "all_tags": {
      "name": "元長鄉",
      "is_in": "臺灣雲林縣",
      "name:en": "Yuanchang Township",
      "name:ja": "元長郷",
      "name:ko": "위안창 향",
      "name:vi": "Nguyên Trường",
      "name:zh": "元長鄉",
      "nat_ref": "10009170",
      "boundary": "administrative",
      "name:hak": "Ngièn-tshòng-hiông",
      "name:nan": "Goân-chióng-hiong",
      "way_area": "0.00638453",
      "wikidata": "Q710033",
      "wikipedia": "zh:元長鄉",
      "is_in:city": "雲林縣",
      "admin_level": "8",
      "is_in:country": "TW"
    }
  },
  {
    "osm_id": -3227940,
    "boundary": "administrative",
    "admin_level": 8,
    "parents": "-2915930,-3777248,-449220",
    "name": "Shuilin Township",
    "local_name": "水林鄉",
    "name_en": "Shuilin Township",
    "all_tags": {
      "name": "水林鄉",
      "is_in": "臺灣雲林縣",
      "name:en": "Shuilin Township",
      "name:ja": "水林郷",
      "name:ko": "수이린 향",
      "name:vi": "Thủy Lâm",
      "name:zh": "水林鄉",
      "nat_ref": "10009200",
      "boundary": "administrative",
      "name:hak": "Súi-lìm-hiông",
      "name:nan": "Chúi-nâ-hiong",
      "way_area": "0.00643916",
      "wikidata": "Q712929",
      "wikipedia": "zh:水林鄉",
      "is_in:city": "雲林縣",
      "admin_level": "8",
      "is_in:country": "TW"
    }
  },
  {
    "osm_id": -3227939,
    "boundary": "administrative",
    "admin_level": 8,
    "parents": "-2915930,-3777248,-449220",
    "name": "Kouhu Township",
    "local_name": "口湖鄉",
    "name_en": "Kouhu Township",
    "all_tags": {
      "name": "口湖鄉",
      "is_in": "臺灣雲林縣",
      "name:en": "Kouhu Township",
      "name:ja": "口湖郷",
      "name:ko": "커우후 향",
      "name:vi": "Khẩu Hồ",
      "name:zh": "口湖鄉",
      "nat_ref": "10009190",
      "boundary": "administrative",
      "name:hak": "Khiéu-fù-hiông",
      "name:nan": "Kháu-ô͘-hiong",
      "way_area": "0.0144354",
      "wikidata": "Q717437",
      "wikipedia": "zh:口湖鄉",
      "is_in:city": "雲林縣",
      "admin_level": "8",
      "is_in:country": "TW"
    }
  },
  {
    "osm_id": -3227938,
    "boundary": "administrative",
    "admin_level": 8,
    "parents": "-2915930,-3777248,-449220",
    "name": "Beigang Township",
    "local_name": "北港鎮",
    "name_en": "Beigang Township",
    "all_tags": {
      "name": "北港鎮",
      "is_in": "臺灣雲林縣",
      "name:de": "Beigang",
      "name:en": "Beigang Township",
      "name:it": "Beigang",
      "name:ja": "北港鎮",
      "name:ko": "베이강 진",
      "name:pl": "Beigang",
      "name:vi": "Bắc Cảng",
      "name:zh": "北港鎮",
      "nat_ref": "10009060",
      "boundary": "administrative",
      "name:hak": "Pet-kóng-tsṳ́n",
      "name:nan": "Pak-káng-tìn",
      "name:yue": "北港鎮",
      "way_area": "0.00368375",
      "wikidata": "Q473035",
      "wikipedia": "zh:北港鎮 (台灣)",
      "is_in:city": "雲林縣",
      "admin_level": "8",
      "is_in:country": "TW"
    }
  },
  {
    "osm_id": -3178907,
    "boundary": "administrative",
    "admin_level": 8,
    "parents": "-3777249,-3777250,-449220",
    "name": "Nangan",
    "local_name": "南竿鄉",
    "name_en": "Nangan",
    "all_tags": {
      "name": "南竿鄉",
      "name:ar": "نانغان",
      "name:cs": "Nan-kan",
      "name:en": "Nangan",
      "name:es": "Nangan",
      "name:fr": "Nangan",
      "name:it": "Nangan",
      "name:ja": "南竿郷",
      "name:ko": "난간향",
      "name:vi": "Nam Can",
      "name:zh": "南竿鄉",
      "nat_ref": "09007010",
      "boundary": "administrative",
      "name:hak": "Nàm-kôn-hiông",
      "name:nan": "Lâm-kan-hiong",
      "name:yue": "南竿鄉",
      "way_area": "0.000961073",
      "wikidata": "Q702125",
      "wikipedia": "zh:南竿鄉",
      "admin_level": "8",
      "name:nan-HJ": "南竿鄉",
      "name:nan-TL": "Lâm-kan-hiong",
      "name:nan-POJ": "Lâm-kan-hiong",
      "name:zh-Hans": "南竿乡",
      "name:zh-Hant": "南竿鄉",
      "name:zh_pinyin": "Nɑ́ngɑ̄n Xiɑ̄ng"
    }
  },
  {
    "osm_id": -3168157,
    "boundary": "administrative",
    "admin_level": 8,
    "parents": "-2912630,-3777248,-449220",
    "name": "Wujie",
    "local_name": "五結鄉",
    "name_en": "Wujie",
    "all_tags": {
      "name": "五結鄉",
      "name:en": "Wujie",
      "name:it": "Wujie",
      "name:ja": "五結郷",
      "name:ko": "우제 향",
      "name:vi": "Ngũ Kết",
      "name:zh": "五結鄉",
      "nat_ref": "10002090",
      "boundary": "administrative",
      "name:hak": "Ńg-kiet-hiông",
      "name:nan": "Gō͘-kiat-hiong",
      "way_area": "0.00355714",
      "wikidata": "Q708083",
      "wikipedia": "zh:五結鄉",
      "admin_level": "8"
    }
  },
  {
    "osm_id": -3155555,
    "boundary": "administrative",
    "admin_level": 8,
    "parents": "-2912630,-3777248,-449220",
    "name": "Toucheng Township",
    "local_name": "頭城鎮",
    "name_en": "Toucheng Township",
    "all_tags": {
      "name": "頭城鎮",
      "name:de": "Toucheng",
      "name:en": "Toucheng Township",
      "name:fr": "Toucheng",
      "name:it": "Toucheng",
      "name:ja": "頭城鎮",
      "name:ko": "터우청 진",
      "name:vi": "Đầu Thành",
      "name:zh": "頭城鎮",
      "nat_ref": "10002040",
      "website": "https://toucheng.e-land.gov.tw/",
      "boundary": "administrative",
      "name:hak": "Thèu-sàng-tsṳ́n",
      "name:nan": "Thâu-siâⁿ-tìn",
      "name:yue": "頭城鎮",
      "way_area": "0.0085374",
      "wikidata": "Q706299",
      "wikipedia": "zh:頭城鎮",
      "admin_level": "8"
    }
  },
  {
    "osm_id": -3155554,
    "boundary": "administrative",
    "admin_level": 8,
    "parents": "-2912630,-3777248,-449220",
    "name": "Jiaoxi Township",
    "local_name": "礁溪鄉",
    "name_en": "Jiaoxi Township",
    "all_tags": {
      "name": "礁溪鄉",
      "name:en": "Jiaoxi Township",
      "name:it": "Jiaoxi",
      "name:ja": "礁渓郷",
      "name:ko": "자오시 향",
      "name:vi": "Tiêu Khê",
      "name:zh": "礁溪鄉",
      "nat_ref": "10002050",
      "boundary": "administrative",
      "name:hak": "Tsiâu-hâi-hiông",
      "name:nan": "Ta-khe-hiong",
      "way_area": "0.00899068",
      "wikidata": "Q706720",
      "wikipedia": "zh:礁溪鄉",
      "admin_level": "8"
    }
  },
  {
    "osm_id": -3155553,
    "boundary": "administrative",
    "admin_level": 8,
    "parents": "-2912630,-3777248,-449220",
    "name": "Yilan City",
    "local_name": "宜蘭市",
    "name_en": "Yilan City",
    "all_tags": {
      "name": "宜蘭市",
      "name:de": "Yilan",
      "name:en": "Yilan City",
      "name:es": "Ciudad de Yilan",
      "name:fr": "Yilan",
      "name:it": "Yilan",
      "name:ja": "宜蘭市",
      "name:ko": "이란 시",
      "name:ru": "Илань",
      "name:uk": "Їлань",
      "name:ur": "یلن سٹی",
      "name:vi": "Nghi Lan",
      "name:zh": "宜蘭市",
      "nat_ref": "10002010",
      "boundary": "administrative",
      "name:hak": "Ngì-làn-sṳ",
      "name:nan": "Gî-lân-chhī",
      "name:yue": "宜蘭市",
      "way_area": "0.00271682",
      "wikidata": "Q680842",
      "wikipedia": "zh:宜蘭市",
      "admin_level": "8",
      "name:zh_pinyin": "Yílán Shì"
    }
  },
  {
    "osm_id": -3155552,
    "boundary": "administrative",
    "admin_level": 8,
    "parents": "-2912630,-3777248,-449220",
    "name": "Zhuangwei",
    "local_name": "壯圍鄉",
    "name_en": "Zhuangwei",
    "all_tags": {
      "name": "壯圍鄉",
      "name:de": "Zhuangwei",
      "name:en": "Zhuangwei",
      "name:it": "Zhuangwei",
      "name:ja": "壮囲郷",
      "name:ko": "좡웨이 향",
      "name:vi": "Tráng Vi",
      "name:zh": "壯圍鄉",
      "nat_ref": "10002060",
      "boundary": "administrative",
      "name:hak": "Tsong-vì-hiông",
      "name:nan": "Chòng-ûi-hiong",
      "way_area": "0.00351276",
      "wikidata": "Q712947",
      "wikipedia": "zh:壯圍鄉",
      "admin_level": "8",
      "name:nan-HJ": "壯圍鄉",
      "name:nan-TL": "Tsòng-uî-hiong",
      "name:nan-POJ": "Chòng-ûi-hiong"
    }
  },
  {
    "osm_id": -3155551,
    "boundary": "administrative",
    "admin_level": 8,
    "parents": "-2912630,-3777248,-449220",
    "name": "Yuanshan",
    "local_name": "員山鄉",
    "name_en": "Yuanshan",
    "all_tags": {
      "name": "員山鄉",
      "name:de": "Yuanshan",
      "name:en": "Yuanshan",
      "name:it": "Yuanshan",
      "name:ja": "員山郷",
      "name:ko": "위안산 향",
      "name:vi": "Viên Sơn",
      "name:zh": "員山鄉",
      "nat_ref": "10002070",
      "boundary": "administrative",
      "name:hak": "Yèn-sân-hiông",
      "name:nan": "Îⁿ-soaⁿ-hiong",
      "way_area": "0.0126325",
      "wikidata": "Q707892",
      "wikipedia": "zh:員山鄉",
      "admin_level": "8",
      "postal_code": "264"
    }
  },
  {
    "osm_id": -3016285,
    "boundary": "administrative",
    "admin_level": 8,
    "parents": "-2921155,-3777248,-449220",
    "name": "Jinfeng",
    "local_name": "金峰鄉",
    "name_en": "Jinfeng",
    "all_tags": {
      "name": "金峰鄉",
      "name:de": "Jinfeng",
      "name:en": "Jinfeng",
      "name:ja": "金峰郷",
      "name:ko": "진펑 향",
      "name:vi": "Kim Phong",
      "name:zh": "金峰鄉",
      "nat_ref": "10014140",
      "boundary": "administrative",
      "name:hak": "Kîm-fûng-hiông",
      "name:nan": "Kim-hong-hiong",
      "way_area": "0.0340038",
      "wikidata": "Q712982",
      "wikipedia": "zh:金峰鄉 (台灣)",
      "admin_level": "8"
    }
  },
  {
    "osm_id": -2921545,
    "boundary": "administrative",
    "admin_level": 8,
    "parents": "-2921155,-3777248,-449220",
    "name": "Orchid Island",
    "local_name": "蘭嶼鄉 Ponso no Tao",
    "name_en": "Orchid Island",
    "all_tags": {
      "name": "蘭嶼鄉 Ponso no Tao",
      "name:en": "Orchid Island",
      "name:ja": "蘭嶼郷",
      "name:ko": "란위 향",
      "name:ru": "Ланьюй",
      "name:vi": "Lan Tự",
      "name:zh": "蘭嶼鄉",
      "nat_ref": "10014160",
      "boundary": "administrative",
      "name:hak": "Làn-yí-hiông",
      "name:nan": "Lân-sū-hiong",
      "name:tao": "Ponso no Tao",
      "name:yue": "蘭嶼鄉",
      "way_area": "0.00408322",
      "wikidata": "Q709615",
      "wikipedia": "zh:蘭嶼鄉",
      "admin_level": "8"
    }
  },
  {
    "osm_id": -2921544,
    "boundary": "administrative",
    "admin_level": 8,
    "parents": "-2921155,-3777248,-449220",
    "name": "Green Island",
    "local_name": "綠島鄉",
    "name_en": "Green Island",
    "all_tags": {
      "name": "綠島鄉",
      "name:ar": "الجزيرة الخضراء (تايوان)",
      "name:de": "Lü Dao",
      "name:en": "Green Island",
      "name:fr": "Île Verte",
      "name:it": "Green Island",
      "name:ja": "緑島郷",
      "name:ko": "뤼다오 향",
      "name:pl": "Lü Dao",
      "name:vi": "Lục Đảo",
      "name:zh": "綠島鄉",
      "nat_ref": "10014110",
      "boundary": "administrative",
      "name:hak": "Liu̍k-tó-hiông",
      "name:nan": "Le̍k-tó-hiong",
      "name:yue": "綠島",
      "way_area": "0.00133301",
      "wikidata": "Q701689",
      "wikipedia": "zh:綠島鄉",
      "admin_level": "8"
    }
  },
  {
    "osm_id": -2912442,
    "boundary": "administrative",
    "admin_level": 8,
    "parents": "-2912613,-3777248,-449220",
    "name": "Zhubei City",
    "local_name": "竹北市",
    "name_en": "Zhubei City",
    "all_tags": {
      "name": "竹北市",
      "name:de": "Zhubei",
      "name:en": "Zhubei City",
      "name:it": "Zhubei",
      "name:ja": "竹北市",
      "name:ko": "주베이 시",
      "name:vi": "Trúc Bắc",
      "name:zh": "竹北市",
      "nat_ref": "10004010",
      "boundary": "administrative",
      "name:hak": "Chuk-pet-sṳ",
      "name:nan": "Tek-pak-chhī",
      "name:yue": "竹北市",
      "way_area": "0.0043789",
      "wikidata": "Q29624",
      "wikipedia": "zh:竹北市",
      "admin_level": "8",
      "name:zh-Hans": "竹北市",
      "name:zh-Hant": "竹北市",
      "name:zh_pinyin": "Zhúběi Shì"
    }
  },
  {
    "osm_id": -2912441,
    "boundary": "administrative",
    "admin_level": 8,
    "parents": "-2912613,-3777248,-449220",
    "name": "Xinfeng Township",
    "local_name": "新豐鄉",
    "name_en": "Xinfeng Township",
    "all_tags": {
      "name": "新豐鄉",
      "name:en": "Xinfeng Township",
      "name:ja": "新豊郷",
      "name:ko": "신펑향",
      "name:vi": "Tân Phong",
      "name:zh": "新豐鄉",
      "nat_ref": "10004060",
      "boundary": "administrative",
      "name:hak": "Sîn-fûng-hiông",
      "name:nan": "Sin-hong-hiong",
      "way_area": "0.00416026",
      "wikidata": "Q713045",
      "wikipedia": "zh:新豐鄉 (台灣)",
      "admin_level": "8"
    }
  },
  {
    "osm_id": -2912440,
    "boundary": "administrative",
    "admin_level": 8,
    "parents": "-2912613,-3777248,-449220",
    "name": "Hukou",
    "local_name": "湖口鄉",
    "name_en": "Hukou",
    "all_tags": {
      "name": "湖口鄉",
      "name:en": "Hukou",
      "name:ja": "湖口郷",
      "name:ko": "후커우 향",
      "name:vi": "Hồ Khẩu",
      "name:zh": "湖口鄉",
      "nat_ref": "10004050",
      "website": "http://www.hukou.gov.tw/",
      "boundary": "administrative",
      "name:hak": "Fù-khiéu-hiông",
      "name:nan": "Ô͘-kháu-hiong",
      "old_name": "大窩口",
      "way_area": "0.00518238",
      "wikidata": "Q153830",
      "wikipedia": "zh:湖口鄉",
      "admin_level": "8",
      "name:nan-HJ": "湖口鄉",
      "name:nan-TL": "Ôo-kháu-hiong",
      "postal_code": "303",
      "name:nan-POJ": "Ô͘-kháu-hiong"
    }
  },
  {
    "osm_id": -2894898,
    "boundary": "administrative",
    "admin_level": 8,
    "parents": "-2908173,-3777248,-449220",
    "name": "Dongshi Township",
    "local_name": "東石鄉",
    "name_en": "Dongshi Township",
    "all_tags": {
      "name": "東石鄉",
      "is_in": "臺灣嘉義縣",
      "name:en": "Dongshi Township",
      "name:ja": "東石郷",
      "name:ko": "둥스 향",
      "name:vi": "Đông Thạch",
      "name:zh": "東石鄉",
      "nat_ref": "10010090",
      "boundary": "administrative",
      "name:hak": "Tûng-sa̍k-hiông",
      "name:nan": "Tang-chio̍h-hiong",
      "name:yue": "東石鄉",
      "way_area": "0.0108134",
      "wikidata": "Q263915",
      "wikipedia": "zh:東石鄉 (台灣)",
      "is_in:city": "嘉義縣",
      "admin_level": "8",
      "postal_code": "614",
      "is_in:country": "TW"
    }
  },
  {
    "osm_id": -2894897,
    "boundary": "administrative",
    "admin_level": 8,
    "parents": "-2908173,-3777248,-449220",
    "name": "Budai Township",
    "local_name": "布袋鎮",
    "name_en": "Budai Township",
    "all_tags": {
      "name": "布袋鎮",
      "is_in": "臺灣嘉義縣",
      "name:en": "Budai Township",
      "name:it": "Budai",
      "name:ja": "布袋鎮",
      "name:ko": "부다이 진",
      "name:vi": "Bố Đại",
      "name:zh": "布袋鎮",
      "nat_ref": "10010030",
      "boundary": "administrative",
      "name:hak": "Pu-thoi-chṳ́n",
      "name:nan": "Pò͘-tē-tìn",
      "way_area": "0.00771046",
      "wikidata": "Q715867",
      "wikipedia": "zh:布袋鎮",
      "is_in:city": "嘉義縣",
      "admin_level": "8",
      "postal_code": "625",
      "is_in:country": "TW"
    }
  },
  {
    "osm_id": -2862143,
    "boundary": "administrative",
    "admin_level": 8,
    "parents": "-2908173,-3777248,-449220",
    "name": "Yizhu Township",
    "local_name": "義竹鄉",
    "name_en": "Yizhu Township",
    "all_tags": {
      "name": "義竹鄉",
      "is_in": "臺灣嘉義縣",
      "name:en": "Yizhu Township",
      "name:ja": "義竹郷",
      "name:ko": "이주 향",
      "name:vi": "Nghĩa Trúc",
      "name:zh": "義竹鄉",
      "nat_ref": "10010100",
      "boundary": "administrative",
      "name:hak": "Ngi-tsuk-hiông",
      "name:nan": "Gī-tek-hiong",
      "name:yue": "義竹郷",
      "way_area": "0.00695902",
      "wikidata": "Q718371",
      "wikipedia": "zh:義竹鄉",
      "is_in:city": "嘉義縣",
      "admin_level": "8",
      "postal_code": "624",
      "is_in:country": "TW"
    }
  },
  {
    "osm_id": -2861455,
    "boundary": "administrative",
    "admin_level": 8,
    "parents": "-2908173,-3777248,-449220",
    "name": "Liujiao Township",
    "local_name": "六腳鄉",
    "name_en": "Liujiao Township",
    "all_tags": {
      "name": "六腳鄉",
      "is_in": "臺灣嘉義縣",
      "name:en": "Liujiao Township",
      "name:ja": "六脚郷",
      "name:ko": "류자오 향",
      "name:vi": "Lục Cước",
      "name:zh": "六腳鄉",
      "nat_ref": "10010080",
      "boundary": "administrative",
      "name:hak": "Liuk-kiok-hiông",
      "name:nan": "La̍k-kha-hiong",
      "name:yue": "六腳鄉",
      "way_area": "0.00550486",
      "wikidata": "Q713798",
      "wikipedia": "zh:六腳鄉",
      "is_in:city": "嘉義縣",
      "admin_level": "8",
      "postal_code": "615",
      "is_in:country": "TW"
    }
  },
  {
    "osm_id": -2861436,
    "boundary": "administrative",
    "admin_level": 8,
    "parents": "-2908173,-3777248,-449220",
    "name": "Xingang Township",
    "local_name": "新港鄉",
    "name_en": "Xingang Township",
    "all_tags": {
      "name": "新港鄉",
      "is_in": "臺灣嘉義縣",
      "name:en": "Xingang Township",
      "name:ja": "新港郷",
      "name:ko": "신강 향",
      "name:pl": "Xingang",
      "name:vi": "Tân Cảng",
      "name:zh": "新港鄉",
      "nat_ref": "10010070",
      "boundary": "administrative",
      "name:hak": "Sîn-kóng-hiông",
      "name:nan": "Sin-káng-hiong",
      "name:yue": "新港鄉",
      "way_area": "0.0058534",
      "wikidata": "Q718212",
      "wikipedia": "zh:新港鄉",
      "is_in:city": "嘉義縣",
      "admin_level": "8",
      "postal_code": "616",
      "is_in:country": "TW"
    }
  },
  {
    "osm_id": -2850256,
    "boundary": "administrative",
    "admin_level": 8,
    "parents": "-2908173,-3777248,-449220",
    "name": "Puzi City",
    "local_name": "朴子市",
    "name_en": "Puzi City",
    "all_tags": {
      "name": "朴子市",
      "is_in": "臺灣嘉義縣",
      "name:de": "Puzi",
      "name:en": "Puzi City",
      "name:es": "Puzi",
      "name:ja": "朴子市",
      "name:ko": "푸쯔 시",
      "name:ru": "Пуцзы",
      "name:vi": "Phác Tử",
      "name:zh": "朴子市",
      "nat_ref": "10010020",
      "boundary": "administrative",
      "name:hak": "Phú-chṳ́-sṳ",
      "name:nan": "Phoh-chú-chhī",
      "name:yue": "朴子市",
      "way_area": "0.0044215",
      "wikidata": "Q706520",
      "wikipedia": "zh:朴子市",
      "is_in:city": "嘉義縣",
      "admin_level": "8",
      "postal_code": "613",
      "name:zh-Hant": "朴子市",
      "is_in:country": "TW"
    }
  },
  {
    "osm_id": -2848252,
    "boundary": "administrative",
    "admin_level": 8,
    "parents": "-2908173,-3777248,-449220",
    "name": "Xikou Township",
    "local_name": "溪口鄉",
    "name_en": "Xikou Township",
    "all_tags": {
      "name": "溪口鄉",
      "is_in": "臺灣嘉義縣",
      "name:en": "Xikou Township",
      "name:ja": "渓口郷",
      "name:ko": "시커우 향",
      "name:pl": "Xikou",
      "name:vi": "Khê Khẩu",
      "name:zh": "溪口鄉",
      "nat_ref": "10010060",
      "boundary": "administrative",
      "name:hak": "Hâi-khiéu-hiông",
      "name:nan": "Khe-kháu-hiong",
      "name:yue": "溪口鄉",
      "way_area": "0.00286831",
      "wikidata": "Q713791",
      "wikipedia": "zh:溪口鄉 (台灣)",
      "is_in:city": "嘉義縣",
      "admin_level": "8",
      "postal_code": "623",
      "is_in:country": "TW"
    }
  },
  {
    "osm_id": -2848201,
    "boundary": "administrative",
    "admin_level": 8,
    "parents": "-2908173,-3777248,-449220",
    "name": "Lucao Township",
    "local_name": "鹿草鄉",
    "name_en": "Lucao Township",
    "all_tags": {
      "name": "鹿草鄉",
      "is_in": "臺灣嘉義縣",
      "name:en": "Lucao Township",
      "name:ja": "鹿草郷",
      "name:ko": "루차오 향",
      "name:pl": "Lucao",
      "name:vi": "Lộc Thảo",
      "name:zh": "鹿草鄉",
      "nat_ref": "10010110",
      "boundary": "administrative",
      "name:hak": "Lu̍k-tshó-hiông",
      "name:nan": "Lo̍k-chháu-hiong",
      "name:yue": "鹿草鄉",
      "way_area": "0.00481755",
      "wikidata": "Q715873",
      "wikipedia": "zh:鹿草鄉",
      "is_in:city": "嘉義縣",
      "admin_level": "8",
      "postal_code": "611",
      "is_in:country": "TW"
    }
  },
  {
    "osm_id": -2848200,
    "boundary": "administrative",
    "admin_level": 8,
    "parents": "-2908173,-3777248,-449220",
    "name": "Taibao City",
    "local_name": "太保市",
    "name_en": "Taibao City",
    "all_tags": {
      "name": "太保市",
      "is_in": "臺灣嘉義縣",
      "name:de": "Taibao",
      "name:en": "Taibao City",
      "name:es": "Taibao",
      "name:it": "Taibao",
      "name:ja": "太保市",
      "name:ko": "타이바오 시",
      "name:pl": "Taibao",
      "name:vi": "Thái Bảo",
      "name:zh": "太保市",
      "nat_ref": "10010010",
      "boundary": "administrative",
      "name:hak": "Thai-pó-sṳ",
      "name:nan": "Thài-pó-chhī",
      "name:yue": "太保市",
      "way_area": "0.00587309",
      "wikidata": "Q701634",
      "wikipedia": "zh:太保市",
      "is_in:city": "嘉義縣",
      "admin_level": "8",
      "postal_code": "612",
      "name:zh-Hans": "太保市",
      "name:zh-Hant": "太保市",
      "is_in:country": "TW",
      "name:zh_pinyin": "Tàibɑ̌o Shì"
    }
  },
  {
    "osm_id": -2798138,
    "boundary": "administrative",
    "admin_level": 8,
    "parents": "-2908173,-3777248,-449220",
    "name": "Dalin Township",
    "local_name": "大林鎮",
    "name_en": "Dalin Township",
    "all_tags": {
      "name": "大林鎮",
      "is_in": "臺灣嘉義縣",
      "name:en": "Dalin Township",
      "name:ja": "大林鎮",
      "name:ko": "다린 진",
      "name:vi": "Đại Lâm",
      "name:zh": "大林鎮",
      "nat_ref": "10010040",
      "boundary": "administrative",
      "name:hak": "Thai-lìm-chṳ́n",
      "name:nan": "Tōa-nâ-tìn",
      "name:yue": "大林鎮",
      "way_area": "0.0057168",
      "wikidata": "Q718381",
      "wikipedia": "zh:大林鎮 (台灣)",
      "is_in:city": "嘉義縣",
      "admin_level": "8",
      "postal_code": "622",
      "is_in:country": "TW"
    }
  },
  {
    "osm_id": -2797948,
    "boundary": "administrative",
    "admin_level": 8,
    "parents": "-2908173,-3777248,-449220",
    "name": "Minxueng Township",
    "local_name": "民雄鄉",
    "name_en": "Minxueng Township",
    "all_tags": {
      "name": "民雄鄉",
      "is_in": "臺灣嘉義縣",
      "name:de": "Minxiong",
      "name:en": "Minxueng Township",
      "name:ja": "民雄郷",
      "name:ko": "민슝 향",
      "name:vi": "Dân Hùng",
      "name:zh": "民雄鄉",
      "nat_ref": "10010050",
      "boundary": "administrative",
      "name:hak": "Mìn-hiùng-hiông",
      "name:nan": "Bîn-hiông-hiong",
      "name:yue": "民雄鄉",
      "way_area": "0.00750939",
      "wikidata": "Q713803",
      "wikipedia": "zh:民雄鄉",
      "is_in:city": "嘉義縣",
      "admin_level": "8",
      "postal_code": "621",
      "is_in:country": "TW"
    }
  },
  {
    "osm_id": -2794597,
    "boundary": "administrative",
    "admin_level": 8,
    "parents": "-2908173,-3777248,-449220",
    "name": "Meishan Township",
    "local_name": "梅山鄉",
    "name_en": "Meishan Township",
    "all_tags": {
      "name": "梅山鄉",
      "is_in": "臺灣嘉義縣",
      "name:en": "Meishan Township",
      "name:ja": "梅山郷",
      "name:ko": "메이산 향",
      "name:vi": "Mai Sơn",
      "name:zh": "梅山鄉",
      "nat_ref": "10010150",
      "boundary": "administrative",
      "name:hak": "Mòi-sân-hiông",
      "name:nan": "Mûi-san-hiong",
      "name:yue": "梅山鄉",
      "way_area": "0.010561",
      "wikidata": "Q718400",
      "wikipedia": "zh:梅山鄉 (台灣)",
      "is_in:city": "嘉義縣",
      "admin_level": "8",
      "postal_code": "603",
      "is_in:country": "TW"
    }
  },
  {
    "osm_id": -2794566,
    "boundary": "administrative",
    "admin_level": 8,
    "parents": "-2908173,-3777248,-449220",
    "name": "Zhuqi Township",
    "local_name": "竹崎鄉",
    "name_en": "Zhuqi Township",
    "all_tags": {
      "name": "竹崎鄉",
      "is_in": "臺灣嘉義縣",
      "name:en": "Zhuqi Township",
      "name:ja": "竹崎郷",
      "name:ko": "주치 향",
      "name:zh": "竹崎鄉",
      "nat_ref": "10010140",
      "boundary": "administrative",
      "name:hak": "Tsuk-khì-hiông",
      "name:nan": "Tek-kiā-hiong",
      "name:yue": "竹崎鄉",
      "way_area": "0.0138683",
      "wikidata": "Q718362",
      "wikipedia": "zh:竹崎鄉",
      "is_in:city": "嘉義縣",
      "admin_level": "8",
      "postal_code": "604",
      "is_in:country": "TW"
    }
  },
  {
    "osm_id": -2790541,
    "boundary": "administrative",
    "admin_level": 8,
    "parents": "-2908173,-3777248,-449220",
    "name": "Alishan Township",
    "local_name": "阿里山鄉",
    "name_en": "Alishan Township",
    "all_tags": {
      "name": "阿里山鄉",
      "is_in": "臺灣嘉義縣",
      "name:de": "Alishan",
      "name:en": "Alishan Township",
      "name:ja": "阿里山郷",
      "name:ko": "아리산 향",
      "name:vi": "A Lý Sơn, Gia Nghĩa",
      "name:zh": "阿里山鄉",
      "nat_ref": "10010180",
      "boundary": "administrative",
      "name:hak": "Â-lî-sân-hiông",
      "name:map": "Psoseongana",
      "name:nan": "A-lí-san-hiong",
      "name:yue": "阿里山鄉",
      "old_name": "吳鳳鄉",
      "way_area": "0.0413924",
      "wikidata": "Q709917",
      "wikipedia": "zh:阿里山鄉",
      "is_in:city": "嘉義縣",
      "admin_level": "8",
      "postal_code": "605",
      "is_in:country": "TW"
    }
  },
  {
    "osm_id": -2790444,
    "boundary": "administrative",
    "admin_level": 8,
    "parents": "-2908173,-3777248,-449220",
    "name": "Fanlu Township",
    "local_name": "番路鄉",
    "name_en": "Fanlu Township",
    "all_tags": {
      "name": "番路鄉",
      "is_in": "臺灣嘉義縣",
      "name:en": "Fanlu Township",
      "name:ja": "番路郷",
      "name:ko": "판루 향",
      "name:vi": "Phiên Lộ",
      "name:zh": "番路鄉",
      "nat_ref": "10010160",
      "boundary": "administrative",
      "name:hak": "Fân-lu-hiông",
      "name:nan": "Hoan-lō͘-hiong",
      "name:yue": "番路鄉",
      "way_area": "0.0099307",
      "wikidata": "Q718421",
      "wikipedia": "zh:番路鄉",
      "is_in:city": "嘉義縣",
      "admin_level": "8",
      "postal_code": "602",
      "is_in:country": "TW"
    }
  },
  {
    "osm_id": -2790360,
    "boundary": "administrative",
    "admin_level": 8,
    "parents": "-2908173,-3777248,-449220",
    "name": "Shuishang Township",
    "local_name": "水上鄉",
    "name_en": "Shuishang Township",
    "all_tags": {
      "name": "水上鄉",
      "is_in": "臺灣嘉義縣",
      "name:en": "Shuishang Township",
      "name:ja": "水上郷",
      "name:ko": "수이상 향",
      "name:vi": "Thủy Thượng",
      "name:zh": "水上鄉",
      "nat_ref": "10010120",
      "boundary": "administrative",
      "name:hak": "Súi-song-hiông",
      "name:nan": "Chúi-siōng-hiong",
      "name:yue": "水上鄉",
      "way_area": "0.00619339",
      "wikidata": "Q718372",
      "wikipedia": "zh:水上鄉",
      "is_in:city": "嘉義縣",
      "admin_level": "8",
      "postal_code": "608",
      "is_in:country": "TW"
    }
  },
  {
    "osm_id": -2790356,
    "boundary": "administrative",
    "admin_level": 8,
    "parents": "-2908173,-3777248,-449220",
    "name": "Zhongpu Township",
    "local_name": "中埔鄉",
    "name_en": "Zhongpu Township",
    "all_tags": {
      "name": "中埔鄉",
      "is_in": "臺灣嘉義縣",
      "name:en": "Zhongpu Township",
      "name:ja": "中埔郷",
      "name:ko": "중푸 향",
      "name:vi": "Trung Phố",
      "name:zh": "中埔鄉",
      "nat_ref": "10010130",
      "boundary": "administrative",
      "name:hak": "Chûng-phû-hiông",
      "name:nan": "Tiong-po͘-hiong",
      "name:yue": "中埔鄉",
      "way_area": "0.0114973",
      "wikidata": "Q718221",
      "wikipedia": "zh:中埔鄉",
      "is_in:city": "嘉義縣",
      "admin_level": "8",
      "postal_code": "606",
      "is_in:country": "TW"
    }
  },
  {
    "osm_id": -2775814,
    "boundary": "administrative",
    "admin_level": 8,
    "parents": "-2775815,-3777248,-449220",
    "name": "Xiaoliuqiu",
    "local_name": "琉球鄉",
    "name_en": "Xiaoliuqiu",
    "all_tags": {
      "name": "琉球鄉",
      "name:de": "Xiaoliuqiu",
      "name:en": "Xiaoliuqiu",
      "name:fr": "Lamay",
      "name:it": "Xiaoliuqiu",
      "name:ko": "류추 향",
      "name:vi": "Lưu Cầu",
      "name:zh": "琉球鄉",
      "nat_ref": "10013220",
      "boundary": "administrative",
      "name:hak": "Liù-khiù-hiông",
      "name:nan": "Liû-khiû-hiong",
      "name:yue": "琉球鄉",
      "way_area": "0.000602054",
      "wikidata": "Q708227",
      "wikipedia": "zh:琉球鄉",
      "admin_level": "8",
      "postal_code": "929"
    }
  },
  {
    "osm_id": -2766787,
    "boundary": "administrative",
    "admin_level": 8,
    "parents": "-2775815,-3777248,-449220",
    "name": "Xinyuan",
    "local_name": "新園鄉",
    "name_en": "Xinyuan",
    "all_tags": {
      "name": "新園鄉",
      "name:en": "Xinyuan",
      "name:ja": "新園郷",
      "name:ko": "신위안 향",
      "name:vi": "Tân Viên",
      "name:zh": "新園鄉",
      "nat_ref": "10013170",
      "boundary": "administrative",
      "name:hak": "Sîn-yèn-hiông",
      "name:nan": "Sin-hn̂g-hiong",
      "way_area": "0.00398475",
      "wikidata": "Q713611",
      "wikipedia": "zh:新園鄉 (台灣)",
      "admin_level": "8",
      "postal_code": "932"
    }
  },
  {
    "osm_id": -2766783,
    "boundary": "administrative",
    "admin_level": 8,
    "parents": "-2775815,-3777248,-449220",
    "name": "Dongang",
    "local_name": "東港鎮",
    "name_en": "Dongang",
    "all_tags": {
      "name": "東港鎮",
      "name:de": "Donggang",
      "name:en": "Dongang",
      "name:fr": "Donggang",
      "name:ja": "東港鎮",
      "name:ko": "둥강 진",
      "name:vi": "Đông Cảng",
      "name:zh": "東港鎮",
      "nat_ref": "10013030",
      "boundary": "administrative",
      "name:hak": "Tûng-kóng-tsṳ́n",
      "name:nan": "Tang-káng-tìn",
      "name:yue": "東港鎮",
      "way_area": "0.0027055",
      "wikidata": "Q707728",
      "wikipedia": "zh:東港鎮 (台灣)",
      "admin_level": "8",
      "postal_code": "928"
    }
  },
  {
    "osm_id": -2758640,
    "boundary": "administrative",
    "admin_level": 8,
    "parents": "-2921155,-3777248,-449220",
    "name": "Daren",
    "local_name": "達仁鄉",
    "name_en": "Daren",
    "all_tags": {
      "name": "達仁鄉",
      "name:de": "Daren",
      "name:en": "Daren",
      "name:ja": "達仁郷",
      "name:ko": "다런 향",
      "name:vi": "Đạt Nhân",
      "name:zh": "達仁鄉",
      "nat_ref": "10014150",
      "boundary": "administrative",
      "name:hak": "Tha̍t-yìn-hiông",
      "name:nan": "Ta̍t-jîn-hiong",
      "way_area": "0.0281026",
      "wikidata": "Q713771",
      "wikipedia": "zh:達仁鄉",
      "admin_level": "8",
      "postal_code": "966"
    }
  },
  {
    "osm_id": -2758639,
    "boundary": "administrative",
    "admin_level": 8,
    "parents": "-2921155,-3777248,-449220",
    "name": "Dawu",
    "local_name": "大武鄉",
    "name_en": "Dawu",
    "all_tags": {
      "name": "大武鄉",
      "name:de": "Dawu",
      "name:en": "Dawu",
      "name:ja": "大武郷",
      "name:ko": "다우 향",
      "name:vi": "Đại Vũ",
      "name:zh": "大武鄉",
      "nat_ref": "10014100",
      "boundary": "administrative",
      "name:hak": "Thai-vú-hiông",
      "name:nan": "Tāi-bú-hiong",
      "way_area": "0.00548616",
      "wikidata": "Q712988",
      "wikipedia": "zh:大武鄉 (台灣)",
      "admin_level": "8",
      "postal_code": "965"
    }
  },
  {
    "osm_id": -2756710,
    "boundary": "administrative",
    "admin_level": 8,
    "parents": "-2775815,-3777248,-449220",
    "name": "Manzhou",
    "local_name": "滿州鄉",
    "name_en": "Manzhou",
    "all_tags": {
      "name": "滿州鄉",
      "name:de": "Manzhou",
      "name:en": "Manzhou",
      "name:ja": "満州郷",
      "name:ko": "만저우 향",
      "name:vi": "Mãn Châu",
      "name:zh": "滿州鄉",
      "nat_ref": "10013240",
      "boundary": "administrative",
      "name:hak": "Mân-chû-hiông",
      "name:nan": "Boán-chiu-hiong",
      "way_area": "0.0128016",
      "wikidata": "Q708020",
      "wikipedia": "zh:滿州鄉",
      "admin_level": "8",
      "postal_code": "947"
    }
  },
  {
    "osm_id": -2756709,
    "boundary": "administrative",
    "admin_level": 8,
    "parents": "-2775815,-3777248,-449220",
    "name": "Hengchun",
    "local_name": "恆春鎮",
    "name_en": "Hengchun",
    "all_tags": {
      "name": "恆春鎮",
      "name:de": "Hengchun",
      "name:en": "Hengchun",
      "name:it": "Hengchun",
      "name:ja": "恒春鎮",
      "name:ko": "헝춘 진",
      "name:vi": "Hằng Xuân",
      "name:zh": "恆春鎮",
      "nat_ref": "10013040",
      "boundary": "administrative",
      "name:hak": "Hèn-chhûn-chṳ́n",
      "name:nan": "Hêng-chhun-tìn",
      "name:yue": "恆春鎮",
      "way_area": "0.0120494",
      "wikidata": "Q710268",
      "wikipedia": "zh:恆春鎮",
      "admin_level": "8",
      "postal_code": "946"
    }
  },
  {
    "osm_id": -2756699,
    "boundary": "administrative",
    "admin_level": 8,
    "parents": "-2775815,-3777248,-449220",
    "name": "Checheng",
    "local_name": "車城鄉",
    "name_en": "Checheng",
    "all_tags": {
      "name": "車城鄉",
      "name:de": "Checheng",
      "name:en": "Checheng",
      "name:it": "Checheng",
      "name:ja": "車城郷",
      "name:ko": "처청 향",
      "name:vi": "Xa Thành",
      "name:zh": "車城鄉",
      "nat_ref": "10013230",
      "boundary": "administrative",
      "name:hak": "Tshâ-sàng-hiông",
      "name:nan": "Chhâ-siâⁿ-hiong",
      "way_area": "0.00510093",
      "wikidata": "Q712977",
      "wikipedia": "zh:車城鄉 (台灣)",
      "admin_level": "8",
      "postal_code": "944"
    }
  },
  {
    "osm_id": -2756698,
    "boundary": "administrative",
    "admin_level": 8,
    "parents": "-2775815,-3777248,-449220",
    "name": "Mudan",
    "local_name": "牡丹鄉",
    "name_en": "Mudan",
    "all_tags": {
      "name": "牡丹鄉",
      "name:de": "Mudan",
      "name:en": "Mudan",
      "name:ja": "牡丹郷",
      "name:ko": "무단 향",
      "name:vi": "Mẫu Đơn",
      "name:zh": "牡丹鄉",
      "nat_ref": "10013330",
      "boundary": "administrative",
      "name:hak": "Méu-tân-hiông",
      "name:nan": "Bó͘-tan-hiong",
      "way_area": "0.0152376",
      "wikidata": "Q707867",
      "wikipedia": "zh:牡丹鄉",
      "admin_level": "8",
      "postal_code": "945"
    }
  },
  {
    "osm_id": -2755108,
    "boundary": "administrative",
    "admin_level": 8,
    "parents": "-2775815,-3777248,-449220",
    "name": "Fangshan",
    "local_name": "枋山鄉",
    "name_en": "Fangshan",
    "all_tags": {
      "name": "枋山鄉",
      "name:de": "Fangshan",
      "name:en": "Fangshan",
      "name:ja": "枋山郷",
      "name:ko": "팡산 향",
      "name:vi": "Phương Sơn",
      "name:zh": "枋山鄉",
      "nat_ref": "10013250",
      "boundary": "administrative",
      "name:hak": "Piông-sân-hiông",
      "name:nan": "Pang-soaⁿ-hiong",
      "name:yue": "枋山鄉",
      "way_area": "0.00147198",
      "wikidata": "Q707860",
      "wikipedia": "zh:枋山鄉",
      "admin_level": "8",
      "postal_code": "941"
    }
  },
  {
    "osm_id": -2755053,
    "boundary": "administrative",
    "admin_level": 8,
    "parents": "-2775815,-3777248,-449220",
    "name": "Fangliao",
    "local_name": "枋寮鄉",
    "name_en": "Fangliao",
    "all_tags": {
      "name": "枋寮鄉",
      "name:de": "Fangliao",
      "name:en": "Fangliao",
      "name:ja": "枋寮郷",
      "name:ko": "팡랴오 향",
      "name:vi": "Phương Liêu",
      "name:zh": "枋寮鄉",
      "nat_ref": "10013160",
      "boundary": "administrative",
      "name:hak": "Piông-liàu-hiông",
      "name:nan": "Pang-liâu-hiong",
      "way_area": "0.00517042",
      "wikidata": "Q707843",
      "wikipedia": "zh:枋寮鄉",
      "admin_level": "8",
      "postal_code": "940"
    }
  },
  {
    "osm_id": -2755016,
    "boundary": "administrative",
    "admin_level": 8,
    "parents": "-2775815,-3777248,-449220",
    "name": "Jiadong",
    "local_name": "佳冬鄉",
    "name_en": "Jiadong",
    "all_tags": {
      "name": "佳冬鄉",
      "name:de": "Jiadong",
      "name:en": "Jiadong",
      "name:ja": "佳冬郷",
      "name:ko": "자둥 향",
      "name:vi": "Giai Đông",
      "name:zh": "佳冬鄉",
      "nat_ref": "10013210",
      "boundary": "administrative",
      "name:hak": "Kâ-tûng-hiông",
      "name:nan": "Ka-tang-hiong",
      "way_area": "0.00274295",
      "wikidata": "Q708094",
      "wikipedia": "zh:佳冬鄉",
      "admin_level": "8",
      "postal_code": "931"
    }
  },
  {
    "osm_id": -2755008,
    "boundary": "administrative",
    "admin_level": 8,
    "parents": "-2775815,-3777248,-449220",
    "name": "Linbian",
    "local_name": "林邊鄉",
    "name_en": "Linbian",
    "all_tags": {
      "name": "林邊鄉",
      "name:de": "Linbian",
      "name:en": "Linbian",
      "name:ja": "林辺郷",
      "name:ko": "린볜 향",
      "name:vi": "Lâm Biên",
      "name:zh": "林邊鄉",
      "nat_ref": "10013190",
      "boundary": "administrative",
      "name:hak": "Lìm-piên-hiông",
      "name:nan": "Nâ-piⁿ-hiong",
      "way_area": "0.00138501",
      "wikidata": "Q708239",
      "wikipedia": "zh:林邊鄉",
      "admin_level": "8",
      "postal_code": "927"
    }
  },
  {
    "osm_id": -2699299,
    "boundary": "administrative",
    "admin_level": 8,
    "parents": "-2497975,-3777248,-449220",
    "name": "Caotun Township",
    "local_name": "草屯鎮",
    "name_en": "Caotun Township",
    "all_tags": {
      "name": "草屯鎮",
      "is_in": "臺灣南投縣",
      "name:de": "Caotun",
      "name:en": "Caotun Township",
      "name:ja": "草屯鎮",
      "name:ko": "차오툰진",
      "name:pl": "Caotun",
      "name:zh": "草屯鎮",
      "nat_ref": "10008030",
      "boundary": "administrative",
      "name:hak": "Chhó-thùn-tsṳ́n",
      "name:nan": "Chháu-tūn-tìn",
      "way_area": "0.00922403",
      "wikidata": "Q708408",
      "wikipedia": "zh:草屯鎮",
      "is_in:city": "南投縣",
      "admin_level": "8",
      "is_in:country": "TW"
    }
  },
  {
    "osm_id": -2699297,
    "boundary": "administrative",
    "admin_level": 8,
    "parents": "-2497975,-3777248,-449220",
    "name": "Nantou City",
    "local_name": "南投市",
    "name_en": "Nantou City",
    "all_tags": {
      "name": "南投市",
      "is_in": "臺灣南投縣",
      "name:de": "Nantou",
      "name:en": "Nantou City",
      "name:es": "Nantou",
      "name:fr": "Nantou",
      "name:ja": "南投市",
      "name:ko": "난터우시",
      "name:vi": "Nam Đầu",
      "name:zh": "南投市",
      "nat_ref": "10008010",
      "boundary": "administrative",
      "name:ceb": "Nantou",
      "name:hak": "Nàm-thèu-sṳ",
      "name:nan": "Lâm-tâu-chhī",
      "name:yue": "南投市",
      "way_area": "0.00637328",
      "wikidata": "Q715171",
      "wikipedia": "zh:南投市",
      "is_in:city": "南投縣",
      "admin_level": "8",
      "name:zh-Hans": "南投市",
      "name:zh-Hant": "南投市",
      "is_in:country": "TW",
      "name:zh_pinyin": "Nátóu Shì"
    }
  },
  {
    "osm_id": -2697245,
    "boundary": "administrative",
    "admin_level": 8,
    "parents": "-2775815,-3777248,-449220",
    "name": "Shizi",
    "local_name": "獅子鄉",
    "name_en": "Shizi",
    "all_tags": {
      "name": "獅子鄉",
      "name:de": "Shizi",
      "name:en": "Shizi",
      "name:ja": "獅子郷",
      "name:ko": "스쯔 향",
      "name:vi": "Sư Tử",
      "name:zh": "獅子鄉",
      "nat_ref": "10013320",
      "boundary": "administrative",
      "name:hak": "Sṳ̂-é-hiông",
      "name:nan": "Sai-á-hiong",
      "way_area": "0.0274249",
      "wikidata": "Q707741",
      "wikipedia": "zh:獅子鄉 (台灣)",
      "admin_level": "8",
      "postal_code": "943"
    }
  },
  {
    "osm_id": -2697234,
    "boundary": "administrative",
    "admin_level": 8,
    "parents": "-2775815,-3777248,-449220",
    "name": "Chunri",
    "local_name": "春日鄉",
    "name_en": "Chunri",
    "all_tags": {
      "name": "春日鄉",
      "name:de": "Chunri",
      "name:en": "Chunri",
      "name:ja": "春日郷",
      "name:ko": "춘르 향",
      "name:vi": "Xuân Nhật",
      "name:zh": "春日鄉",
      "nat_ref": "10013310",
      "boundary": "administrative",
      "name:hak": "Tshûn-ngit-hiông",
      "name:nan": "Chhun-ji̍t-hiong",
      "way_area": "0.0136489",
      "wikidata": "Q708243",
      "wikipedia": "zh:春日鄉",
      "admin_level": "8",
      "postal_code": "942"
    }
  },
  {
    "osm_id": -2592723,
    "boundary": "administrative",
    "admin_level": 8,
    "parents": "-2775815,-3777248,-449220",
    "name": "Kanding",
    "local_name": "崁頂鄉",
    "name_en": "Kanding",
    "all_tags": {
      "name": "崁頂鄉",
      "name:en": "Kanding",
      "name:ja": "カン頂郷",
      "name:ko": "칸딩 향",
      "name:vi": "Khám Đính",
      "name:zh": "崁頂鄉",
      "nat_ref": "10013180",
      "boundary": "administrative",
      "name:hak": "Kham-táng-hiông",
      "name:nan": "Khàm-téng-hiong",
      "way_area": "0.00222017",
      "wikidata": "Q708025",
      "wikipedia": "zh:崁頂鄉",
      "admin_level": "8",
      "postal_code": "924"
    }
  },
  {
    "osm_id": -2592722,
    "boundary": "administrative",
    "admin_level": 8,
    "parents": "-2775815,-3777248,-449220",
    "name": "Nanzhou",
    "local_name": "南州鄉",
    "name_en": "Nanzhou",
    "all_tags": {
      "name": "南州鄉",
      "name:en": "Nanzhou",
      "name:fr": "Nanzhou",
      "name:ja": "南州郷",
      "name:ko": "난저우 향",
      "name:vi": "Nam Châu",
      "name:zh": "南州鄉",
      "nat_ref": "10013200",
      "boundary": "administrative",
      "name:hak": "Nàm-chû-hiông",
      "name:nan": "Lâm-chiu-hiong",
      "way_area": "0.0016503",
      "wikidata": "Q708013",
      "wikipedia": "zh:南州鄉",
      "admin_level": "8",
      "postal_code": "926"
    }
  },
  {
    "osm_id": -2589306,
    "boundary": "administrative",
    "admin_level": 8,
    "parents": "-2775815,-3777248,-449220",
    "name": "Chaozhou",
    "local_name": "潮州鎮",
    "name_en": "Chaozhou",
    "all_tags": {
      "name": "潮州鎮",
      "name:de": "Chaozhou",
      "name:en": "Chaozhou",
      "name:ja": "潮州鎮",
      "name:ko": "차오저우 진",
      "name:zh": "潮州鎮",
      "nat_ref": "10013020",
      "boundary": "administrative",
      "name:hak": "Tshèu-chû-tsṳ́n",
      "name:nan": "Tiô-chiu-tìn",
      "way_area": "0.00373274",
      "wikidata": "Q708790",
      "wikipedia": "zh:潮州鎮",
      "admin_level": "8",
      "postal_code": "920"
    }
  },
  {
    "osm_id": -2589301,
    "boundary": "administrative",
    "admin_level": 8,
    "parents": "-2775815,-3777248,-449220",
    "name": "Xinpi",
    "local_name": "新埤鄉",
    "name_en": "Xinpi",
    "all_tags": {
      "name": "新埤鄉",
      "name:en": "Xinpi",
      "name:ja": "新ピ郷",
      "name:ko": "신피 향",
      "name:vi": "Tân Bì",
      "name:zh": "新埤鄉",
      "nat_ref": "10013150",
      "boundary": "administrative",
      "name:hak": "Sîn-phî-hiông",
      "name:nan": "Sin-pi-hiong",
      "way_area": "0.0049606",
      "wikidata": "Q710042",
      "wikipedia": "zh:新埤鄉",
      "admin_level": "8",
      "postal_code": "925"
    }
  },
  {
    "osm_id": -2589300,
    "boundary": "administrative",
    "admin_level": 8,
    "parents": "-2775815,-3777248,-449220",
    "name": "Laiyi",
    "local_name": "來義鄉",
    "name_en": "Laiyi",
    "all_tags": {
      "name": "來義鄉",
      "name:en": "Laiyi",
      "name:ja": "来義郷",
      "name:ko": "라이이 향",
      "name:vi": "Lai Nghĩa",
      "name:zh": "來義鄉",
      "nat_ref": "10013300",
      "boundary": "administrative",
      "name:hak": "Lòi-ngi-hiông",
      "name:nan": "Lâi-gī-hiong",
      "way_area": "0.0142684",
      "wikidata": "Q708098",
      "wikipedia": "zh:來義鄉",
      "admin_level": "8",
      "postal_code": "922"
    }
  },
  {
    "osm_id": -2498417,
    "boundary": "administrative",
    "admin_level": 8,
    "parents": "-2497975,-3777248,-449220",
    "name": "Zhongliao Township",
    "local_name": "中寮鄉",
    "name_en": "Zhongliao Township",
    "all_tags": {
      "name": "中寮鄉",
      "is_in": "臺灣南投縣",
      "name:de": "Zhongliao",
      "name:en": "Zhongliao Township",
      "name:it": "Trung Liêu",
      "name:ja": "中寮郷",
      "name:ko": "중랴오 향",
      "name:zh": "中寮鄉",
      "nat_ref": "10008080",
      "boundary": "administrative",
      "name:hak": "Chûng-liàu-hiông",
      "name:nan": "Tiong-liâu-hiong",
      "way_area": "0.0127587",
      "wikidata": "Q713745",
      "wikipedia": "zh:中寮鄉",
      "is_in:city": "南投縣",
      "admin_level": "8",
      "is_in:country": "TW"
    }
  },
  {
    "osm_id": -2498416,
    "boundary": "administrative",
    "admin_level": 8,
    "parents": "-2497975,-3777248,-449220",
    "name": "Yuchi Township",
    "local_name": "魚池鄉",
    "name_en": "Yuchi Township",
    "all_tags": {
      "name": "魚池鄉",
      "is_in": "臺灣南投縣",
      "name:de": "Yuchi",
      "name:en": "Yuchi Township",
      "name:fr": "Yuchi",
      "name:ja": "魚池郷",
      "name:ko": "위츠향",
      "name:pl": "Yuchi",
      "name:vi": "Ngư Trì",
      "name:zh": "魚池鄉",
      "nat_ref": "10008090",
      "boundary": "administrative",
      "name:hak": "Ǹg-tshṳ̀-hiông",
      "name:nan": "Hî-tî-hiong",
      "name:ssf": "Qabizay",
      "name:yue": "魚池鄉",
      "way_area": "0.0110251",
      "wikidata": "Q708696",
      "wikipedia": "zh:魚池鄉 (台灣)",
      "is_in:city": "南投縣",
      "admin_level": "8",
      "is_in:country": "TW"
    }
  },
  {
    "osm_id": -2498415,
    "boundary": "administrative",
    "admin_level": 8,
    "parents": "-2497975,-3777248,-449220",
    "name": "Shuili Township",
    "local_name": "水里鄉",
    "name_en": "Shuili Township",
    "all_tags": {
      "name": "水里鄉",
      "is_in": "臺灣南投縣",
      "name:en": "Shuili Township",
      "name:ja": "水里郷",
      "name:ko": "수이리향",
      "name:pl": "Shuili",
      "name:vi": "Thủy Lý",
      "name:zh": "水里鄉",
      "nat_ref": "10008110",
      "boundary": "administrative",
      "name:hak": "Súi-lî-hiông",
      "name:nan": "Chúi-lí-hiong",
      "way_area": "0.00989897",
      "wikidata": "Q708650",
      "wikipedia": "zh:水里鄉",
      "is_in:city": "南投縣",
      "admin_level": "8",
      "is_in:country": "TW"
    }
  },
  {
    "osm_id": -2498414,
    "boundary": "administrative",
    "admin_level": 8,
    "parents": "-2497975,-3777248,-449220",
    "name": "Renai Township",
    "local_name": "仁愛鄉",
    "name_en": "Renai Township",
    "all_tags": {
      "name": "仁愛鄉",
      "is_in": "臺灣南投縣",
      "name:de": "Ren’ai",
      "name:en": "Renai Township",
      "name:ja": "仁愛郷",
      "name:ko": "런아이 향",
      "name:vi": "Nhân Ái",
      "name:zh": "仁愛鄉",
      "nat_ref": "10008130",
      "boundary": "administrative",
      "name:hak": "Yìn-oi-hiông",
      "name:nan": "Jîn-ài-hiong",
      "way_area": "0.108301",
      "wikidata": "Q708418",
      "wikipedia": "zh:仁愛鄉",
      "is_in:city": "南投縣",
      "admin_level": "8",
      "is_in:country": "TW"
    }
  },
  {
    "osm_id": -2498413,
    "boundary": "administrative",
    "admin_level": 8,
    "parents": "-2497975,-3777248,-449220",
    "name": "Puli Township",
    "local_name": "埔里鎮",
    "name_en": "Puli Township",
    "all_tags": {
      "name": "埔里鎮",
      "is_in": "臺灣南投縣",
      "name:de": "Puli",
      "name:en": "Puli Township",
      "name:ja": "埔里鎮",
      "name:ko": "푸리 진",
      "name:vi": "Phố Lí",
      "name:zh": "埔里鎮",
      "nat_ref": "10008020",
      "boundary": "administrative",
      "name:hak": "Phû-lî-tsṳ́n",
      "name:nan": "Po͘-lí-tìn",
      "name:ssf": "Qariawan",
      "name:uun": "Puri",
      "way_area": "0.0152218",
      "wikidata": "Q706544",
      "wikipedia": "zh:埔里鎮",
      "is_in:city": "南投縣",
      "admin_level": "8",
      "is_in:country": "TW"
    }
  },
  {
    "osm_id": -2498411,
    "boundary": "administrative",
    "admin_level": 8,
    "parents": "-2497975,-3777248,-449220",
    "name": "Mingjian Township",
    "local_name": "名間鄉",
    "name_en": "Mingjian Township",
    "all_tags": {
      "name": "名間鄉",
      "is_in": "臺灣南投縣",
      "name:en": "Mingjian Township",
      "name:ja": "名間郷",
      "name:ko": "밍젠향",
      "name:pl": "Mingjian",
      "name:vi": "Danh Gian",
      "name:zh": "名間鄉",
      "nat_ref": "10008060",
      "boundary": "administrative",
      "name:hak": "Miàng-kiên-hiông",
      "name:nan": "Bêng-kan-hiong",
      "way_area": "0.0070282",
      "wikidata": "Q708728",
      "wikipedia": "zh:名間鄉",
      "is_in:city": "南投縣",
      "admin_level": "8",
      "is_in:country": "TW"
    }
  },
  {
    "osm_id": -2498410,
    "boundary": "administrative",
    "admin_level": 8,
    "parents": "-2497975,-3777248,-449220",
    "name": "Lugu Township",
    "local_name": "鹿谷鄉",
    "name_en": "Lugu Township",
    "all_tags": {
      "name": "鹿谷鄉",
      "is_in": "臺灣南投縣",
      "name:de": "Lugu",
      "name:en": "Lugu Township",
      "name:ja": "鹿谷郷",
      "name:ko": "루구향",
      "name:pl": "Lugu",
      "name:ru": "Лугусян",
      "name:vi": "Lộc Cốc",
      "name:zh": "鹿谷鄉",
      "nat_ref": "10008070",
      "boundary": "administrative",
      "name:hak": "Lu̍k-kuk-hiông",
      "name:nan": "Lo̍k-kok-hiong",
      "way_area": "0.012655",
      "wikidata": "Q712911",
      "wikipedia": "zh:鹿谷鄉",
      "is_in:city": "南投縣",
      "admin_level": "8",
      "is_in:country": "TW"
    }
  },
  {
    "osm_id": -2498409,
    "boundary": "administrative",
    "admin_level": 8,
    "parents": "-2497975,-3777248,-449220",
    "name": "Jiji Township",
    "local_name": "集集鎮",
    "name_en": "Jiji Township",
    "all_tags": {
      "name": "集集鎮",
      "is_in": "臺灣南投縣",
      "name:de": "Jiji",
      "name:en": "Jiji Township",
      "name:ja": "集集鎮",
      "name:ko": "지지진",
      "name:pl": "Jiji",
      "name:vi": "Tập Tập",
      "name:zh": "集集鎮",
      "nat_ref": "10008050",
      "boundary": "administrative",
      "name:ceb": "Jiji Zhen",
      "name:hak": "Si̍p-si̍p-tsṳ́n",
      "name:nan": "Chi̍p-chi̍p-tìn",
      "name:yue": "集集鎮",
      "way_area": "0.00352147",
      "wikidata": "Q708391",
      "wikipedia": "zh:集集鎮",
      "is_in:city": "南投縣",
      "admin_level": "8",
      "is_in:country": "TW"
    }
  },
  {
    "osm_id": -2498408,
    "boundary": "administrative",
    "admin_level": 8,
    "parents": "-2497975,-3777248,-449220",
    "name": "Zhushan Township",
    "local_name": "竹山鎮",
    "name_en": "Zhushan Township",
    "all_tags": {
      "name": "竹山鎮",
      "is_in": "臺灣南投縣",
      "name:de": "Zhushan",
      "name:en": "Zhushan Township",
      "name:ja": "竹山鎮",
      "name:ko": "주산진",
      "name:pl": "Zhushan",
      "name:vi": "Trúc Sơn",
      "name:zh": "竹山鎮",
      "nat_ref": "10008040",
      "boundary": "administrative",
      "name:hak": "Tsuk-sân-tsṳ́n",
      "name:nan": "Tek-san-tìn",
      "way_area": "0.0228986",
      "wikidata": "Q708400",
      "wikipedia": "zh:竹山鎮 (台灣)",
      "is_in:city": "南投縣",
      "admin_level": "8",
      "alt_name:en": "Jhushan",
      "is_in:country": "TW"
    }
  },
  {
    "osm_id": -2498407,
    "boundary": "administrative",
    "admin_level": 8,
    "parents": "-2497975,-3777248,-449220",
    "name": "Guoxing Township",
    "local_name": "國姓鄉",
    "name_en": "Guoxing Township",
    "all_tags": {
      "name": "國姓鄉",
      "is_in": "臺灣南投縣",
      "name:de": "Guoxing",
      "name:en": "Guoxing Township",
      "name:ja": "国姓郷",
      "name:ko": "궈싱 향",
      "name:vi": "Quốc Tính",
      "name:zh": "國姓鄉",
      "nat_ref": "10008100",
      "boundary": "administrative",
      "name:hak": "Koet-siang-hiông",
      "name:nan": "Kok-sèng-hiong",
      "way_area": "0.0182805",
      "wikidata": "Q708664",
      "wikipedia": "zh:國姓鄉",
      "is_in:city": "南投縣",
      "admin_level": "8",
      "is_in:country": "TW"
    }
  },
  {
    "osm_id": -2458770,
    "boundary": "administrative",
    "admin_level": 8,
    "parents": "-2775815,-3777248,-449220",
    "name": "Wutai",
    "local_name": "霧臺鄉",
    "name_en": "Wutai",
    "all_tags": {
      "name": "霧臺鄉",
      "name:de": "Wutai",
      "name:en": "Wutai",
      "name:ja": "霧台郷",
      "name:ko": "우타이 향",
      "name:vi": "Vụ Đài",
      "name:zh": "霧臺鄉",
      "nat_ref": "10013270",
      "boundary": "administrative",
      "name:hak": "Vu-thòi-hiông",
      "name:nan": "Bū-tâi-hiong",
      "way_area": "0.0268215",
      "wikidata": "Q708137",
      "wikipedia": "zh:霧台鄉",
      "admin_level": "8",
      "postal_code": "902"
    }
  },
  {
    "osm_id": -2458769,
    "boundary": "administrative",
    "admin_level": 8,
    "parents": "-2775815,-3777248,-449220",
    "name": "Taiwu",
    "local_name": "泰武鄉",
    "name_en": "Taiwu",
    "all_tags": {
      "name": "泰武鄉",
      "name:de": "Taiwu",
      "name:en": "Taiwu",
      "name:ja": "泰武郷",
      "name:ko": "타이우 향",
      "name:vi": "Thái Vũ",
      "name:zh": "泰武鄉",
      "nat_ref": "10013290",
      "boundary": "administrative",
      "name:hak": "Thai-vú-hiông",
      "name:nan": "Thài-bú-hiong",
      "way_area": "0.0109169",
      "wikidata": "Q708132",
      "wikipedia": "zh:泰武鄉",
      "admin_level": "8",
      "postal_code": "921"
    }
  },
  {
    "osm_id": -2458199,
    "boundary": "administrative",
    "admin_level": 8,
    "parents": "-2775815,-3777248,-449220",
    "name": "Wanluan",
    "local_name": "萬巒鄉",
    "name_en": "Wanluan",
    "all_tags": {
      "name": "萬巒鄉",
      "name:en": "Wanluan",
      "name:ja": "万巒郷",
      "name:ko": "완롼 향",
      "name:vi": "Vạn Loan",
      "name:zh": "萬巒鄉",
      "nat_ref": "10013120",
      "boundary": "administrative",
      "name:hak": "Van-lòng-hiông",
      "name:nan": "Bân-bân-hiong",
      "way_area": "0.00532911",
      "wikidata": "Q708086",
      "wikipedia": "zh:萬巒鄉",
      "admin_level": "8",
      "postal_code": "923"
    }
  },
  {
    "osm_id": -2458198,
    "boundary": "administrative",
    "admin_level": 8,
    "parents": "-2775815,-3777248,-449220",
    "name": "Majia",
    "local_name": "瑪家鄉",
    "name_en": "Majia",
    "all_tags": {
      "name": "瑪家鄉",
      "name:de": "Majia",
      "name:en": "Majia",
      "name:ja": "瑪家郷",
      "name:ko": "마자 향",
      "name:vi": "Mã Gia",
      "name:zh": "瑪家鄉",
      "nat_ref": "10013280",
      "boundary": "administrative",
      "name:hak": "Mâ-kâ-hiông",
      "name:nan": "Má-ka-hiong",
      "way_area": "0.00598289",
      "wikidata": "Q707766",
      "wikipedia": "zh:瑪家鄉",
      "admin_level": "8",
      "postal_code": "903"
    }
  },
  {
    "osm_id": -2458197,
    "boundary": "administrative",
    "admin_level": 8,
    "parents": "-2775815,-3777248,-449220",
    "name": "Sandimen",
    "local_name": "三地門鄉",
    "name_en": "Sandimen",
    "all_tags": {
      "name": "三地門鄉",
      "name:en": "Sandimen",
      "name:ja": "三地門郷",
      "name:ko": "싼디먼 향",
      "name:vi": "Tam Địa Môn",
      "name:zh": "三地門鄉",
      "nat_ref": "10013260",
      "boundary": "administrative",
      "name:hak": "Sâm-thi-mùn-hiông",
      "name:nan": "Soaⁿ-ti-mn̂g-hiong",
      "way_area": "0.0163647",
      "wikidata": "Q713031",
      "wikipedia": "zh:三地門鄉",
      "admin_level": "8",
      "postal_code": "901"
    }
  },
  {
    "osm_id": -2455612,
    "boundary": "administrative",
    "admin_level": 8,
    "parents": "-2775815,-3777248,-449220",
    "name": "Neipu",
    "local_name": "內埔鄉",
    "name_en": "Neipu",
    "all_tags": {
      "name": "內埔鄉",
      "name:en": "Neipu",
      "name:ja": "内埔郷",
      "name:ko": "네이푸 향",
      "name:vi": "Nội Phố",
      "name:zh": "內埔鄉",
      "nat_ref": "10013130",
      "boundary": "administrative",
      "name:hak": "Lui-phû-hiông",
      "name:nan": "Lāi-po͘-hiong",
      "way_area": "0.00649835",
      "wikidata": "Q713755",
      "wikipedia": "zh:內埔鄉",
      "admin_level": "8",
      "postal_code": "912"
    }
  },
  {
    "osm_id": -2446749,
    "boundary": "administrative",
    "admin_level": 8,
    "parents": "-2775815,-3777248,-449220",
    "name": "Zhutian",
    "local_name": "竹田鄉",
    "name_en": "Zhutian",
    "all_tags": {
      "name": "竹田鄉",
      "name:en": "Zhutian",
      "name:ja": "竹田郷",
      "name:ko": "주톈 향",
      "name:vi": "Trúc Điền",
      "name:zh": "竹田鄉",
      "nat_ref": "10013140",
      "boundary": "administrative",
      "name:hak": "Tsuk-thièn-hiông",
      "name:nan": "Tek-chhân-hiong",
      "way_area": "0.00260265",
      "wikidata": "Q707761",
      "wikipedia": "zh:竹田鄉",
      "admin_level": "8",
      "postal_code": "911"
    }
  },
  {
    "osm_id": -2438392,
    "boundary": "administrative",
    "admin_level": 8,
    "parents": "-2775815,-3777248,-449220",
    "name": "Wandan",
    "local_name": "萬丹鄉",
    "name_en": "Wandan",
    "all_tags": {
      "name": "萬丹鄉",
      "name:en": "Wandan",
      "name:ja": "万丹郷",
      "name:ko": "완단 향",
      "name:vi": "Vạn Đan",
      "name:zh": "萬丹鄉",
      "nat_ref": "10013050",
      "boundary": "administrative",
      "name:hak": "Van-tân-hiông",
      "name:nan": "Bān-tan-hiong",
      "way_area": "0.00520664",
      "wikidata": "Q708815",
      "wikipedia": "zh:萬丹鄉",
      "admin_level": "8",
      "postal_code": "913"
    }
  },
  {
    "osm_id": -2431291,
    "boundary": "administrative",
    "admin_level": 8,
    "parents": "-2775815,-3777248,-449220",
    "name": "Linluo",
    "local_name": "麟洛鄉",
    "name_en": "Linluo",
    "all_tags": {
      "name": "麟洛鄉",
      "name:en": "Linluo",
      "name:ja": "麟洛郷",
      "name:ko": "린뤄 향",
      "name:vi": "Lân Lạc",
      "name:zh": "麟洛鄉",
      "nat_ref": "10013070",
      "boundary": "administrative",
      "name:hak": "Lìm-lo̍k-hiông",
      "name:nan": "Lîn-lo̍k-hiong",
      "name:yue": "麟洛鄉",
      "way_area": "0.00122108",
      "wikidata": "Q708120",
      "wikipedia": "zh:麟洛鄉",
      "admin_level": "8",
      "postal_code": "909"
    }
  },
  {
    "osm_id": -2429484,
    "boundary": "administrative",
    "admin_level": 8,
    "parents": "-2775815,-3777248,-449220",
    "name": "Changzhi",
    "local_name": "長治鄉",
    "name_en": "Changzhi",
    "all_tags": {
      "name": "長治鄉",
      "name:en": "Changzhi",
      "name:ja": "長治郷",
      "name:ko": "창즈 향",
      "name:vi": "Trường Trị",
      "name:zh": "長治鄉",
      "nat_ref": "10013060",
      "boundary": "administrative",
      "name:hak": "Tshòng-tshṳ-hiông",
      "name:nan": "Tióng-tī-hiong",
      "name:yue": "長治鄉",
      "way_area": "0.00377881",
      "wikidata": "Q707733",
      "wikipedia": "zh:長治鄉",
      "admin_level": "8",
      "postal_code": "908"
    }
  },
  {
    "osm_id": -2429433,
    "boundary": "administrative",
    "admin_level": 8,
    "parents": "-2775815,-3777248,-449220",
    "name": "Yanpu",
    "local_name": "鹽埔鄉",
    "name_en": "Yanpu",
    "all_tags": {
      "name": "鹽埔鄉",
      "name:en": "Yanpu",
      "name:ja": "塩埔郷",
      "name:ko": "옌푸 향",
      "name:zh": "鹽埔鄉",
      "nat_ref": "10013100",
      "boundary": "administrative",
      "name:hak": "Yâm-phû-hiông",
      "name:nan": "Iâm-po͘-hiong",
      "name:yue": "鹽埔鄉",
      "way_area": "0.00512436",
      "wikidata": "Q708030",
      "wikipedia": "zh:鹽埔鄉",
      "admin_level": "8",
      "postal_code": "907"
    }
  },
  {
    "osm_id": -2427801,
    "boundary": "administrative",
    "admin_level": 8,
    "parents": "-2775815,-3777248,-449220",
    "name": "Gaoshu",
    "local_name": "高樹鄉",
    "name_en": "Gaoshu",
    "all_tags": {
      "name": "高樹鄉",
      "name:en": "Gaoshu",
      "name:ja": "高樹郷",
      "name:ko": "가오수 향",
      "name:vi": "Cao Thụ",
      "name:zh": "高樹鄉",
      "nat_ref": "10013110",
      "boundary": "administrative",
      "name:hak": "Kô-su-hiông",
      "name:nan": "Ko-chhiū-hiong",
      "name:yue": "高樹鄉",
      "way_area": "0.00828904",
      "wikidata": "Q708090",
      "wikipedia": "zh:高樹鄉",
      "admin_level": "8",
      "postal_code": "906"
    }
  },
  {
    "osm_id": -2421953,
    "boundary": "administrative",
    "admin_level": 8,
    "parents": "-2775815,-3777248,-449220",
    "name": "Ligang",
    "local_name": "里港鄉",
    "name_en": "Ligang",
    "all_tags": {
      "name": "里港鄉",
      "name:en": "Ligang",
      "name:ja": "里港郷",
      "name:ko": "리강 향",
      "name:vi": "Lí Cảng",
      "name:zh": "里港鄉",
      "nat_ref": "10013090",
      "boundary": "administrative",
      "name:hak": "Lî-kóng-hiông",
      "name:nan": "Lí-káng-hiong",
      "way_area": "0.00612977",
      "wikidata": "Q708248",
      "wikipedia": "zh:里港鄉",
      "admin_level": "8",
      "postal_code": "905"
    }
  },
  {
    "osm_id": -2420222,
    "boundary": "administrative",
    "admin_level": 8,
    "parents": "-2775815,-3777248,-449220",
    "name": "Jiuru",
    "local_name": "九如鄉",
    "name_en": "Jiuru",
    "all_tags": {
      "name": "九如鄉",
      "name:en": "Jiuru",
      "name:ja": "九如郷",
      "name:ko": "주루 향",
      "name:vi": "Cửu Như",
      "name:zh": "九如鄉",
      "nat_ref": "10013080",
      "boundary": "administrative",
      "name:hak": "Kiú-yì-hiông",
      "name:nan": "Kiú-jû-hiong",
      "name:yue": "九如鄉",
      "way_area": "0.00378915",
      "wikidata": "Q708182",
      "wikipedia": "zh:九如鄉",
      "admin_level": "8",
      "postal_code": "904"
    }
  },
  {
    "osm_id": -2259133,
    "boundary": "administrative",
    "admin_level": 8,
    "parents": "-2908173,-3777248,-449220",
    "name": "Dapu Township",
    "local_name": "大埔鄉",
    "name_en": "Dapu Township",
    "all_tags": {
      "name": "大埔鄉",
      "is_in": "臺灣嘉義縣",
      "name:de": "Dapu",
      "name:en": "Dapu Township",
      "name:ja": "大埔郷",
      "name:ko": "다푸 향",
      "name:zh": "大埔鄉",
      "nat_ref": "10010170",
      "boundary": "administrative",
      "name:hak": "Thai-phû-hiông",
      "name:nan": "Tōa-po͘-hiong",
      "name:yue": "大埔鄉",
      "way_area": "0.0153865",
      "wikidata": "Q713809",
      "wikipedia": "zh:大埔鄉",
      "is_in:city": "嘉義縣",
      "admin_level": "8",
      "postal_code": "607",
      "is_in:country": "TW"
    }
  },
  {
    "osm_id": -2127210,
    "boundary": "administrative",
    "admin_level": 8,
    "parents": "-2775815,-3777248,-449220",
    "name": "Pingtung City",
    "local_name": "屏東市",
    "name_en": "Pingtung City",
    "all_tags": {
      "name": "屏東市",
      "name:de": "Pingtung",
      "name:en": "Pingtung City",
      "name:it": "Pingtung",
      "name:ja": "屏東市",
      "name:ko": "핑둥 시",
      "name:vi": "Bình Đông",
      "name:zh": "屏東市",
      "nat_ref": "10013010",
      "boundary": "administrative",
      "name:hak": "Phìn-tûng-sṳ",
      "name:nan": "Pîn-tong-chhī",
      "way_area": "0.00580107",
      "wikidata": "Q713377",
      "wikipedia": "zh:屏東市",
      "admin_level": "8",
      "postal_code": "900",
      "name:iu-Latn": "Pingtung",
      "name:zh-Hans": "屏东市",
      "name:zh-Hant": "屏東市"
    }
  },
  {
    "osm_id": -2124775,
    "boundary": "administrative",
    "admin_level": 8,
    "parents": "-2497975,-3777248,-449220",
    "name": "Xinyi Township",
    "local_name": "信義鄉",
    "name_en": "Xinyi Township",
    "all_tags": {
      "name": "信義鄉",
      "is_in": "臺灣南投縣",
      "name:de": "Xinyi",
      "name:en": "Xinyi Township",
      "name:ja": "信義郷",
      "name:ko": "신이 향",
      "name:vi": "Tín Nghĩa",
      "name:zh": "信義鄉",
      "nat_ref": "10008120",
      "boundary": "administrative",
      "name:bnn": "Nehunpu-siang",
      "name:hak": "Sin-ngi-hiông",
      "name:nan": "Sìn-gī-hiong",
      "way_area": "0.126058",
      "wikidata": "Q44581",
      "wikipedia": "zh:信義鄉 (台灣)",
      "is_in:city": "南投縣",
      "admin_level": "8",
      "is_in:country": "TW"
    }
  },
  {
    "osm_id": 9208597,
    "boundary": "administrative",
    "admin_level": 8,
    "parents": "-3777249,-3777250,-449220",
    "name": "鐵尖島",
    "local_name": "鐵尖島",
    "name_en": null,
    "all_tags": {
      "area": "yes",
      "name": "鐵尖島",
      "place": "islet",
      "boundary": "administrative",
      "way_area": "8.04971e-07",
      "admin_level": "8"
    }
  },
  {
    "osm_id": 9209101,
    "boundary": "administrative",
    "admin_level": 8,
    "parents": "-3777249,-3777250,-449220",
    "name": "大坵島",
    "local_name": "大坵島",
    "name_en": null,
    "all_tags": {
      "area": "yes",
      "name": "大坵島",
      "place": "island",
      "boundary": "administrative",
      "way_area": "4.9242e-05",
      "admin_level": "8"
    }
  },
  {
    "osm_id": 9213325,
    "boundary": "administrative",
    "admin_level": 8,
    "parents": "-3777249,-3777250,-449220",
    "name": "Huangguan Island",
    "local_name": "黃官嶼",
    "name_en": "Huangguan Island",
    "all_tags": {
      "area": "yes",
      "name": "黃官嶼",
      "place": "island",
      "name:en": "Huangguan Island",
      "name:zh": "黃官嶼",
      "boundary": "administrative",
      "way_area": "1.39198e-05",
      "admin_level": "8"
    }
  },
  {
    "osm_id": 9408594,
    "boundary": "administrative",
    "admin_level": 8,
    "parents": "-3777249,-3777250,-449220",
    "name": "小坵島",
    "local_name": "小坵島",
    "name_en": null,
    "all_tags": {
      "area": "yes",
      "name": "小坵島",
      "place": "islet",
      "boundary": "administrative",
      "way_area": "1.41955e-05",
      "admin_level": "8"
    }
  },
  {
    "osm_id": 9408711,
    "boundary": "administrative",
    "admin_level": 8,
    "parents": "-3777249,-3777250,-449220",
    "name": "Liang Island",
    "local_name": "亮島",
    "name_en": "Liang Island",
    "all_tags": {
      "area": "yes",
      "name": "亮島",
      "place": "islet",
      "name:en": "Liang Island",
      "name:zh": "亮島",
      "boundary": "administrative",
      "name:nan": "Liōng-tó͘",
      "old_name": "浪島",
      "way_area": "3.39518e-05",
      "wikidata": "Q10883341",
      "admin_level": "8",
      "name:nan-HJ": "亮島",
      "name:nan-TL": "Liōng-tóo",
      "name:nan-POJ": "Liōng-tó͘"
    }
  },
  {
    "osm_id": 480646694,
    "boundary": "administrative",
    "admin_level": 8,
    "parents": "-3777249,-3777250,-449220",
    "name": "白廟",
    "local_name": "白廟",
    "name_en": null,
    "all_tags": {
      "area": "yes",
      "name": "白廟",
      "place": "islet",
      "boundary": "administrative",
      "way_area": "5.76881e-07",
      "admin_level": "8"
    }
  },
  {
    "osm_id": 480646697,
    "boundary": "administrative",
    "admin_level": 8,
    "parents": "-3777249,-3777250,-449220",
    "name": "白廟",
    "local_name": "白廟",
    "name_en": null,
    "all_tags": {
      "area": "yes",
      "name": "白廟",
      "place": "islet",
      "boundary": "administrative",
      "way_area": "1.40401e-06",
      "admin_level": "8"
    }
  },
  {
    "osm_id": 480646700,
    "boundary": "administrative",
    "admin_level": 8,
    "parents": "-3777249,-3777250,-449220",
    "name": "白廟",
    "local_name": "白廟",
    "name_en": null,
    "all_tags": {
      "area": "yes",
      "name": "白廟",
      "place": "islet",
      "boundary": "administrative",
      "way_area": "1.43306e-06",
      "admin_level": "8"
    }
  },
  {
    "osm_id": 480646702,
    "boundary": "administrative",
    "admin_level": 8,
    "parents": "-3777249,-3777250,-449220",
    "name": "中島",
    "local_name": "中島",
    "name_en": null,
    "all_tags": {
      "area": "yes",
      "name": "中島",
      "place": "islet",
      "boundary": "administrative",
      "way_area": "9.99505e-07",
      "admin_level": "8"
    }
  }
]
