[
  {
    "osm_id": -13249274,
    "boundary": "administrative",
    "admin_level": 6,
    "parents": "-3766481,-307763",
    "name": "Al Dhafra Region",
    "local_name": "منطقة الظفرة",
    "name_en": "Al Dhafra Region",
    "all_tags": {
      "name": "منطقة الظفرة",
      "name:en": "Al Dhafra Region",
      "boundary": "administrative",
      "way_area": "4.74414",
      "wikidata": "Q4703864",
      "admin_level": "6"
    }
  },
  {
    "osm_id": -13249273,
    "boundary": "administrative",
    "admin_level": 6,
    "parents": "-3766481,-307763",
    "name": "Abu Dhabi",
    "local_name": "أبوظبي",
    "name_en": "Abu Dhabi",
    "all_tags": {
      "name": "أبوظبي",
      "name:en": "Abu Dhabi",
      "boundary": "administrative",
      "way_area": "1.44103",
      "wikidata": "Q12245640",
      "admin_level": "6"
    }
  },
  {
    "osm_id": -13249272,
    "boundary": "administrative",
    "admin_level": 6,
    "parents": "-3766481,-307763",
    "name": "Al Ain",
    "local_name": "العين",
    "name_en": "Al Ain",
    "all_tags": {
      "name": "العين",
      "name:en": "Al Ain",
      "boundary": "administrative",
      "way_area": "1.18898",
      "wikidata": "Q12193915",
      "admin_level": "6"
    }
  },
  {
    "osm_id": -4479763,
    "boundary": "administrative",
    "admin_level": 5,
    "parents": "-3766481,-307763",
    "name": "Abu Dhabi",
    "local_name": "نادي العاصمة للفروسية +971501222551",
    "name_en": "Abu Dhabi",
    "all_tags": {
      "name": "نادي العاصمة للفروسية +971501222551",
      "name:af": "Aboe Dhabi",
      "name:am": "አቡ ዳቢ",
      "name:ar": "أبو ظبي",
      "name:az": "Əbu-Dabi",
      "name:be": "Абу-Дабі",
      "name:bg": "Абу Даби",
      "name:bn": "আবুধাবি",
      "name:bo": "ཨ་པོའུ་དྷ་པེ།",
      "name:bs": "Abu Dabi",
      "name:cs": "Abú Dhabí",
      "name:de": "Abu Dhabi",
      "name:el": "Αμπού Ντάμπι",
      "name:en": "Abu Dhabi",
      "name:eo": "Abu-Dabio",
      "name:es": "Abu Dabi",
      "name:fa": "ابوظبی",
      "name:fr": "Abou Dabi",
      "name:fy": "Abû Daby",
      "name:ga": "Abú Daibí",
      "name:he": "אבו דאבי",
      "name:hi": "अबू धाबी",
      "name:hr": "Abu Dhabi",
      "name:ht": "Abou Dabi",
      "name:hu": "Abu-Dzabi",
      "name:hy": "Աբու Դաբի",
      "name:is": "Abú Dabí",
      "name:ja": "アブダビ",
      "name:ka": "აბუ-ზაბი",
      "name:kk": "Абу-Даби",
      "name:kn": "ಅಬು ಧಾಬಿ",
      "name:ko": "아부다비",
      "name:ku": "Abû Zebî",
      "name:lt": "Abu Dabis",
      "name:lv": "Abū Dabī",
      "name:mk": "Абу Даби",
      "name:ml": "അബുദാബി",
      "name:mn": "Абу Даби",
      "name:mr": "अबु धाबी",
      "name:my": "အဘူဒါဘီမြို့",
      "name:or": "ଆବୁଧାବି",
      "name:os": "Абу-Даби",
      "name:pl": "Abu Zabi",
      "name:ru": "Абу-Даби",
      "name:sh": "Abu Dabi",
      "name:si": "අබුඩාබි",
      "name:sk": "Abú Zabí",
      "name:sl": "Abu Dabi",
      "name:sq": "Abu Dabi",
      "name:sr": "Абу Даби",
      "name:sv": "Abu Dhabi",
      "name:ta": "அபூ ழபீ",
      "name:tg": "Абу Даби",
      "name:th": "อาบูดาบี",
      "name:tr": "Abu Dabi",
      "name:tt": "Әбү-Дәби шәһәре",
      "name:uk": "Абу-Дабі",
      "name:ur": "ابوظہبی",
      "name:vi": "Abu Dhabi",
      "name:vo": "Äbu Saby",
      "name:zh": "阿布扎比",
      "boundary": "administrative",
      "int_name": "Abu Dhabi",
      "name:ckb": "ئەبووزەبی",
      "name:frp": "Abou Dabi",
      "name:nov": "Abu Dabi",
      "name:pnb": "ابوظہبی",
      "name:sah": "Абу Даби",
      "name:vep": "Abu Dabi",
      "way_area": "0.0709651",
      "wikidata": "Q1519",
      "wikipedia": "en:Abu Dhabi",
      "admin_level": "5",
      "name:bat-smg": "Abu Dabis",
      "wikipedia:ar": "ar:أبو ظبي",
      "wikipedia:en": "Abu Dhabi",
      "name:be-tarask": "Абу Дабі"
    }
  },
  {
    "osm_id": -3766487,
    "boundary": "administrative",
    "admin_level": 4,
    "parents": "-307763",
    "name": "Umm al-Quwain",
    "local_name": "أم القيوين",
    "name_en": "Umm al-Quwain",
    "all_tags": {
      "ref": "UQ",
      "name": "أم القيوين",
      "name:ar": "أم القيوين",
      "name:de": "Umm al-Qaiwain",
      "name:en": "Umm al-Quwain",
      "name:es": "Umm al-Qaywayn",
      "name:fr": "Oumm al Qaïwaïn",
      "name:ru": "Умм-эль-Кайвайн",
      "boundary": "administrative",
      "way_area": "0.123186",
      "wikidata": "Q175021",
      "ISO3166-2": "AE-UQ",
      "wikipedia": "en:Emirate of Umm Al Quwain",
      "state_code": "UQ",
      "admin_level": "4",
      "wikipedia:ar": "أم القيوين",
      "official_name": "إمارة أم القيوين",
      "official_name:ar": "إمارة أم القيوين"
    }
  },
  {
    "osm_id": -3766486,
    "boundary": "administrative",
    "admin_level": 4,
    "parents": "-307763",
    "name": "Sharjah Emirate",
    "local_name": "الشارقة",
    "name_en": "Sharjah Emirate",
    "all_tags": {
      "ref": "SH",
      "name": "الشارقة",
      "name:ar": "الشارقة",
      "name:de": "Schardscha",
      "name:en": "Sharjah Emirate",
      "name:es": "Sharjah",
      "name:fr": "Charjah",
      "name:ko": "샤르자",
      "name:ru": "Шарджа",
      "boundary": "administrative",
      "way_area": "0.497943",
      "wikidata": "Q188810",
      "ISO3166-2": "AE-SH",
      "wikipedia": "ar:الشارقة",
      "state_code": "SH",
      "admin_level": "4",
      "is_in:country": "United Arab Emirates",
      "is_in:continent": "Asia",
      "is_in:country_code": "AE"
    }
  },
  {
    "osm_id": -3766485,
    "boundary": "administrative",
    "admin_level": 4,
    "parents": "-307763",
    "name": "Ras al-Khaimah",
    "local_name": "رأس الخيمة",
    "name_en": "Ras al-Khaimah",
    "all_tags": {
      "ref": "RK",
      "name": "رأس الخيمة",
      "name:ar": "رأس الخيمة",
      "name:de": "Ra’s al-Chaima",
      "name:en": "Ras al-Khaimah",
      "name:es": "Ras al-Jaima",
      "name:fa": "رأس‌الخیمه",
      "name:fr": "Ras el Khaïmah",
      "name:ru": "Рас-эль-Хайма",
      "name:ur": "راس الخیمہ",
      "boundary": "administrative",
      "name:pnb": "راس الخیمہ",
      "way_area": "0.339453",
      "wikidata": "Q170024",
      "ISO3166-2": "AE-RK",
      "wikipedia": "ar:رأس الخيمة",
      "state_code": "RK",
      "admin_level": "4",
      "wikipedia:ar": "رأس الخيمة",
      "official_name": "إمارة رأس الخيمة",
      "official_name:ar": "إمارة رأس الخيمة"
    }
  },
  {
    "osm_id": -3766484,
    "boundary": "administrative",
    "admin_level": 4,
    "parents": "-307763",
    "name": "Fujairah Emirate",
    "local_name": "فجيرة",
    "name_en": "Fujairah Emirate",
    "all_tags": {
      "ref": "FU",
      "name": "فجيرة",
      "name:ar": "فجيرة",
      "name:cs": "Fudžajra",
      "name:de": "Fudschaira",
      "name:en": "Fujairah Emirate",
      "name:es": "Fuyaira",
      "name:fr": "Fujaïrah",
      "name:ko": "푸자이라",
      "name:ru": "Фуджейра",
      "boundary": "administrative",
      "way_area": "0.254695",
      "wikidata": "Q4091",
      "ISO3166-2": "AE-FU",
      "wikipedia": "ar:الفجيرة",
      "state_code": "FU",
      "admin_level": "4",
      "is_in:country": "United Arab Emirates",
      "is_in:continent": "Asia",
      "is_in:country_code": "AE"
    }
  },
  {
    "osm_id": -3766483,
    "boundary": "administrative",
    "admin_level": 4,
    "parents": "-307763",
    "name": "Dubai",
    "local_name": "دبي",
    "name_en": "Dubai",
    "all_tags": {
      "ref": "DU",
      "name": "دبي",
      "name:ar": "دبي",
      "name:de": "Dubai",
      "name:el": "Ντουμπάι",
      "name:en": "Dubai",
      "name:eo": "Dubajo",
      "name:es": "Dubái",
      "name:fa": "دبی",
      "name:fr": "Doubaï",
      "name:io": "Dubai",
      "name:ko": "두바이",
      "name:ks": "دبئی",
      "name:pa": "ਦੁਬਈ",
      "name:pl": "Dubaj",
      "name:ps": "دوبۍ",
      "name:ru": "Дубай",
      "name:sd": "دبئي",
      "name:ug": "دۇبائى",
      "name:ur": "دبئی",
      "boundary": "administrative",
      "name:azb": "دوبی",
      "name:ckb": "دوبەی",
      "name:kab": "دبي",
      "name:kmr": "دوبای",
      "name:mzn": "دوبی",
      "name:pnb": "دبئی",
      "way_area": "0.528451",
      "wikidata": "Q613",
      "ISO3166-2": "AE-DU",
      "wikipedia": "ar:إمارة دبي",
      "state_code": "DU",
      "admin_level": "4",
      "alt_name:ar": "دبى",
      "alt_name:en": "Dubayy",
      "alt_name:fr": "Dubaï",
      "alt_name:pa": "ਡੁਬਈ",
      "name:az-Arab": "دوبی",
      "name:kk-Arab": "دۋباي",
      "official_name": "إمارة دبي",
      "official_name:ar": "إمارة دبي",
      "official_name:de": "Emirat Dubai",
      "official_name:fr": "Émirat de Doubaï",
      "official_name:ur": "امارت دبئی"
    }
  },
  {
    "osm_id": -3766482,
    "boundary": "administrative",
    "admin_level": 4,
    "parents": "-307763",
    "name": "Ajman Emirate",
    "local_name": "إمارة عجمان",
    "name_en": "Ajman Emirate",
    "all_tags": {
      "name": "إمارة عجمان",
      "name:ar": "إمارة عجمان",
      "name:de": "Emirat Adschman",
      "name:en": "Ajman Emirate",
      "name:fa": "امارت عجمان",
      "name:fr": "Ajman",
      "name:ru": "Аджман",
      "name:ur": "امارات عجمان",
      "boundary": "administrative",
      "name:pnb": "امارت عجمان",
      "way_area": "0.0420757",
      "wikidata": "Q159477",
      "ISO3166-2": "AE-AJ",
      "wikipedia": "ar:عجمان",
      "admin_level": "4",
      "sorting_name": "عجمان",
      "sorting_name:ar": "عجمان",
      "sorting_name:de": "Adschman",
      "sorting_name:fa": "عجمان",
      "sorting_name:ur": "عجمان",
      "sorting_name:pnb": "عجمان"
    }
  },
  {
    "osm_id": -3766481,
    "boundary": "administrative",
    "admin_level": 4,
    "parents": "-307763",
    "name": "Abu Dhabi Emirate",
    "local_name": "أبو ظبي",
    "name_en": "Abu Dhabi Emirate",
    "all_tags": {
      "ref": "AZ",
      "name": "أبو ظبي",
      "place": "state",
      "name:ar": "أبو ظبي",
      "name:br": "Abu Dhabi",
      "name:de": "Abu Dhabi",
      "name:en": "Abu Dhabi Emirate",
      "name:es": "Abu Dabi",
      "name:fa": "ابوظبی",
      "name:fr": "Abou Dabi",
      "name:ks": "ابوظبی",
      "name:ru": "Абу-Даби",
      "name:ur": "ابوظبی",
      "alt_name": "أبوظبي;إمارة أبوظبي",
      "boundary": "administrative",
      "name:azb": "ابوظبی",
      "way_area": "7.44052",
      "wikidata": "Q187712",
      "ISO3166-2": "AE-AZ",
      "wikipedia": "ar:إمارة أبوظبي",
      "state_code": "AZ",
      "admin_level": "4",
      "alt_name:ar": "أبوظبي;إمارة أبوظبي",
      "official_name": "إمارة أبو ظبي",
      "official_name:ar": "إمارة أبو ظبي",
      "official_name:fa": "امارت ابوظبی",
      "official_name:ur": "امارت ابوظبی",
      "official_name:azb": "ابوظبی امیرلیگی"
    }
  }
]
