[
  {
    "osm_id": -9604138,
    "boundary": "administrative",
    "admin_level": 4,
    "parents": "-536900",
    "name": "Antigua",
    "local_name": "Antigua",
    "name_en": "Antigua",
    "all_tags": {
      "name": "Antigua",
      "name:af": "Antigua",
      "name:ak": "Antigua",
      "name:am": "አንቲጋ",
      "name:an": "Antigua",
      "name:ar": "أنتيغوا",
      "name:as": "এণ্টিগুৱা",
      "name:ay": "Antiwa",
      "name:az": "Antiqua",
      "name:ba": "Антигуа",
      "name:be": "Антыгуа",
      "name:bg": "Антигуа",
      "name:bn": "অ্যান্টিগুয়া",
      "name:br": "Antigua",
      "name:bs": "Antigva",
      "name:ca": "Antigua",
      "name:ce": "Антигуа",
      "name:cs": "Antigua",
      "name:cy": "Antigwa",
      "name:da": "Antigua",
      "name:de": "Antigua",
      "name:dv": "އެންޓިގުއާ",
      "name:dz": "ཨན་ཊི་གུ་ཝ་",
      "name:ee": "Antigua",
      "name:el": "Αντίγκουα",
      "name:en": "Antigua",
      "name:eo": "Antigvo",
      "name:es": "Antigua",
      "name:et": "Antigua",
      "name:eu": "Antigua",
      "name:fa": "آنتیگوآ",
      "name:ff": "Antiguwaa",
      "name:fi": "Antigua",
      "name:fr": "Antigua",
      "name:ga": "Antigua",
      "name:gd": "Antigua",
      "name:gl": "Antiga",
      "name:gn": "Antigua",
      "name:gu": "એન્ટીગુઆ",
      "name:gv": "Antigua",
      "name:ha": "Antigwa",
      "name:he": "אנטיגואה",
      "name:hi": "अण्टीगुआ",
      "name:hr": "Antigva",
      "name:ht": "Antigwa",
      "name:hu": "Antigua",
      "name:hy": "Անտիգուա",
      "name:ia": "Antigua",
      "name:id": "Antigua",
      "name:ie": "Antigua",
      "name:io": "Antigua",
      "name:is": "Antígva",
      "name:it": "Antigua",
      "name:ja": "アンティグア島",
      "name:jv": "Antigua",
      "name:ka": "ანტიგუა",
      "name:ki": "Antigua",
      "name:kk": "Антигуа",
      "name:kl": "Antigua",
      "name:km": "អង់ទីគ័រ",
      "name:kn": "ಆಂಟಿಗುವ",
      "name:ko": "앤티가",
      "name:ks": "اٮ۪نٹِگُوا",
      "name:ku": "Antîgua",
      "name:kw": "Antiga",
      "name:ky": "Антигуа",
      "name:la": "Antiqua",
      "name:lb": "Antigua",
      "name:lg": "Antigwa",
      "name:li": "Antigua",
      "name:ln": "Antigua",
      "name:lo": "ແອນຕີກາວ",
      "name:lt": "Antigva",
      "name:lv": "Antigva",
      "name:mg": "Antigua",
      "name:mk": "Антигва",
      "name:ml": "ആന്റിഗ്വയ",
      "name:mn": "Антигуа",
      "name:mr": "अँटिगा",
      "name:ms": "Antigua",
      "name:mt": "Antigwa",
      "name:my": "အင်တီဂွါနှင့်",
      "name:na": "Antigua",
      "name:nb": "Antigua",
      "name:ne": "एन्टिगुआ",
      "name:nl": "Antigua",
      "name:nn": "Antigua",
      "name:no": "Antigua",
      "name:nv": "Antíígwa",
      "name:oc": "Antigua",
      "name:om": "Antiiguwaa",
      "name:or": "ଆଣ୍ଟିଗୁଆ",
      "name:os": "Антигуæ",
      "name:pa": "ਐਂਟੀਗੁਆ",
      "name:pl": "Antigua",
      "name:pt": "Antígua",
      "name:qu": "Antiwa",
      "name:rm": "Antigua",
      "name:ro": "Antigua",
      "name:ru": "Антигуа",
      "name:rw": "Antigwa",
      "name:sa": "अण्टीग्वा",
      "name:sc": "Antigua",
      "name:se": "Antigua",
      "name:sh": "Antigva",
      "name:si": "ඇන්ටිගුවා",
      "name:sk": "Antigua",
      "name:sl": "Antigva",
      "name:sn": "Antigua",
      "name:so": "Antigua",
      "name:sq": "Antigua",
      "name:sr": "Антигва",
      "name:ss": "Anithikhu",
      "name:su": "Antigua",
      "name:sv": "Antigua",
      "name:sw": "Antigua",
      "name:ta": "அன்டிகுவா",
      "name:te": "ఆంటిగ్వా",
      "name:tg": "Антигуаю",
      "name:th": "แอนติกาแล",
      "name:ti": "አንቲጓ",
      "name:tl": "Antigua",
      "name:to": "Anitikua",
      "name:tr": "Antigua",
      "name:tt": "Анти́гуа",
      "name:ug": "ئانتىگۇئا",
      "name:uk": "Анти́гуа",
      "name:ur": "اینٹیگوا",
      "name:uz": "Antigua",
      "name:vi": "Antigua",
      "name:vo": "Lantigeän",
      "name:wo": "Antigua",
      "name:yo": "Ántígúà",
      "name:za": "Antigua",
      "name:zh": "安提瓜和",
      "boundary": "administrative",
      "int_name": "Antigua",
      "maritime": "yes",
      "name:ace": "Antigua",
      "name:ang": "Antigua",
      "name:arz": "أنتيجا",
      "name:ast": "Antigua",
      "name:azb": "آنتیگوآ",
      "name:bar": "Antigua",
      "name:bcl": "Antigwa",
      "name:bpy": "এন্টিগুয়া",
      "name:bxr": "Антигуа",
      "name:cdo": "Antigua",
      "name:ceb": "Antigwa",
      "name:chr": "ᎤᏪᏘ",
      "name:ckb": "ئانتیگوا",
      "name:crh": "Antigua",
      "name:dsb": "Antigua",
      "name:dty": "एन्टिगुवा",
      "name:ext": "Antígua",
      "name:frp": "Antigoa",
      "name:frr": "Antiigua",
      "name:fur": "Antigua",
      "name:gag": "Antigua",
      "name:gom": "अँटिगा",
      "name:hak": "Antigua",
      "name:hif": "Antigua",
      "name:hsb": "Antigua",
      "name:ilo": "Antigua",
      "name:jam": "Antiiga",
      "name:jbo": "ntiguas",
      "name:kaa": "Antigua",
      "name:kab": "Antigua",
      "name:kbd": "Антигуэрэ",
      "name:ksh": "Antigwa",
      "name:lad": "Antigua",
      "name:lij": "Antigua",
      "name:lmo": "Antigua",
      "name:mai": "एन्टिगुआ",
      "name:min": "Antigua",
      "name:mrj": "Антигуа",
      "name:nah": "Antigua",
      "name:nan": "Antigua",
      "name:nds": "Antigua",
      "name:new": "एन्टिगुवा",
      "name:nov": "Antigua",
      "name:olo": "Antigua",
      "name:pam": "Antigua",
      "name:pap": "Antigua",
      "name:pih": "Antigua",
      "name:pms": "Antigua",
      "name:rue": "Антіґуа",
      "name:rup": "Antigua",
      "name:sah": "Антигуа",
      "name:scn": "Antigua",
      "name:sco": "Antigua",
      "name:smg": "Antėgva",
      "name:szl": "Antigua",
      "name:tet": "Antígua",
      "name:vec": "Antigua",
      "name:vep": "Antigua",
      "name:war": "Antigua",
      "name:xal": "Антигуд",
      "name:xmf": "ანტიგუა",
      "name:yue": "安提瓜達",
      "name:zea": "Antigua",
      "way_area": "0.349663",
      "admin_level": "4",
      "alt_name:ceb": "Antigua",
      "name:zh-Hans": "安提瓜和",
      "name:zh-Hant": "安提瓜達",
      "admin_type:AG": "territorial",
      "name:be-tarask": "Антыгуа"
    }
  },
  {
    "osm_id": -7742427,
    "boundary": "administrative",
    "admin_level": 4,
    "parents": "-536900",
    "name": "Redonda",
    "local_name": "Redonda",
    "name_en": "Redonda",
    "all_tags": {
      "name": "Redonda",
      "name:be": "Рэдо́нда",
      "name:br": "Redonda",
      "name:ca": "Redonda",
      "name:cs": "Redonda",
      "name:de": "Redonda",
      "name:el": "Ρεντόντα",
      "name:en": "Redonda",
      "name:eo": "Redondo",
      "name:es": "Redonda",
      "name:et": "Redonda",
      "name:eu": "Redonda",
      "name:fi": "Redonda",
      "name:fr": "Redonda",
      "name:ga": "Redonda",
      "name:gl": "Redonda",
      "name:he": "רדונדה",
      "name:hi": "रेडोन्डा",
      "name:hu": "Redonda",
      "name:it": "Redonda",
      "name:ja": "レドンダ島",
      "name:kk": "Редонда",
      "name:ko": "레돈다 섬",
      "name:la": "Redonda",
      "name:lt": "Redonda",
      "name:mk": "Редонда",
      "name:nl": "Redonda",
      "name:no": "Redonda",
      "name:pl": "Redonda",
      "name:pt": "Redonda",
      "name:ro": "Redonda",
      "name:ru": "Редо́нда",
      "name:sr": "Редонда",
      "name:sv": "Redonda",
      "name:tl": "Redonda",
      "name:uk": "Редо́нда",
      "name:ur": "ریدوندا",
      "name:vi": "Redonda",
      "name:zh": "雷东达岛 / 雷東達島",
      "boundary": "administrative",
      "maritime": "yes",
      "name:ast": "Redonda",
      "name:ceb": "Redonda",
      "way_area": "0.1458",
      "wikidata": "Q457261",
      "ISO3166-2": "AG-11",
      "wikipedia": "en:Redonda",
      "admin_level": "4",
      "name:zh-Hans": "雷东达岛",
      "name:zh-Hant": "雷東達島",
      "admin_type:AG": "territorial"
    }
  },
  {
    "osm_id": -7742426,
    "boundary": "administrative",
    "admin_level": 4,
    "parents": "-536900",
    "name": "Barbuda",
    "local_name": "Barbuda",
    "name_en": "Barbuda",
    "all_tags": {
      "name": "Barbuda",
      "name:ar": "باربودا",
      "name:be": "Барбу́да",
      "name:br": "Barbuda",
      "name:ca": "Barbuda",
      "name:cs": "Barbuda",
      "name:cy": "Barbiwda",
      "name:de": "Barbuda",
      "name:el": "Μπαρμπούντα",
      "name:en": "Barbuda",
      "name:eo": "Barbudo",
      "name:es": "Barbuda",
      "name:et": "Barbuda",
      "name:eu": "Barbuda",
      "name:fa": "بارابودا",
      "name:fi": "Barbuda",
      "name:fr": "Barbuda",
      "name:gl": "Barbuda",
      "name:he": "ברבודה",
      "name:hi": "बारबूडा",
      "name:hu": "Barbuda",
      "name:id": "Barbuda",
      "name:it": "Barbuda",
      "name:ja": "バーブーダ島",
      "name:kn": "ಬರ್ಬುಡಾ",
      "name:ko": "바부다 섬",
      "name:ku": "Berbûda",
      "name:la": "Barbuda",
      "name:lt": "Barbuda",
      "name:mk": "Барбуда",
      "name:ml": "ബാർബുഡ",
      "name:mr": "बार्बुडा",
      "name:nl": "Barbuda",
      "name:no": "Barbuda",
      "name:oc": "Barbuda",
      "name:pl": "Barbuda",
      "name:pt": "Barbuda",
      "name:ro": "Barbuda",
      "name:ru": "Барбу́да",
      "name:si": "බර්බුඩා",
      "name:sr": "Барбуда",
      "name:sv": "Barbuda",
      "name:ta": "பர்புடா",
      "name:te": "బార్బుడా",
      "name:th": "บาร์บูดา",
      "name:tl": "Barbuda",
      "name:tr": "Barbuda",
      "name:uk": "Барбу́да",
      "name:ur": "باربوڈا",
      "name:vi": "Barbuda",
      "name:yo": "Bàrbúdà",
      "name:zh": "巴布达岛 / 巴布達島",
      "boundary": "administrative",
      "maritime": "yes",
      "name:ceb": "Barbuda",
      "name:lmo": "Barbuda",
      "name:nov": "Barbuda",
      "name:pms": "Barbuda",
      "name:sco": "Barbuda",
      "name:xmf": "ბარბუდა",
      "name:yue": "巴布達島",
      "way_area": "0.374766",
      "wikidata": "Q238752",
      "ISO3166-2": "AG-10",
      "wikipedia": "en:Barbuda",
      "admin_level": "4",
      "alt_name:ta": "பார்புடா",
      "alt_name:yo": "Barbuda",
      "alt_name:zh": "巴布達島",
      "name:zh-Hans": "巴布达岛",
      "name:zh-Hant": "巴布達島",
      "admin_type:AG": "territorial"
    }
  }
]
