[
  {
    "osm_id": -7739254,
    "boundary": "administrative",
    "admin_level": 4,
    "parents": "-53292",
    "name": "Northern Albania",
    "local_name": "Shqipëria veriore",
    "name_en": "Northern Albania",
    "all_tags": {
      "ref": "AL01",
      "name": "Shqipëria veriore",
      "name:de": "Nord-Albanien",
      "name:en": "Northern Albania",
      "name:fr": "Albanie du Nord",
      "name:hr": "Sjeverna Albanija",
      "name:ja": "アルバニア北部",
      "name:mk": "Северна Албанија",
      "name:nl": "Noord-Albanië",
      "name:sq": "Shqipëria veriore",
      "name:sr": "Северна Албанија",
      "name:tr": "Kuzey Arnavutluk",
      "name:zh": "阿爾巴尼亞北部",
      "boundary": "administrative",
      "ref:nuts": "AL01",
      "way_area": "1.17349",
      "wikidata": "Q4412051",
      "wikipedia": "en:Northern Albania",
      "ref:nuts:2": "AL01",
      "admin_level": "4",
      "name:zh-Hans": "阿尔巴尼亚北部"
    }
  },
  {
    "osm_id": -7739253,
    "boundary": "administrative",
    "admin_level": 4,
    "parents": "-53292",
    "name": "Central Albania",
    "local_name": "Shqipëria qendrore",
    "name_en": "Central Albania",
    "all_tags": {
      "ref": "AL02",
      "name": "Shqipëria qendrore",
      "name:de": "Zentral-Albanien",
      "name:en": "Central Albania",
      "name:fr": "Albanie centrale",
      "name:hr": "Središnja Albanija",
      "name:ja": "アルバニア中部",
      "name:mk": "Централна Албанија",
      "name:nl": "Centraal-Albanië",
      "name:sq": "Shqipëria qendrore",
      "name:tr": "Orta Arnavutluk",
      "name:zh": "阿爾巴尼亞中部",
      "boundary": "administrative",
      "ref:nuts": "AL02",
      "way_area": "0.529492",
      "wikidata": "Q18922748",
      "wikipedia": "en:Central Albania",
      "ref:nuts:2": "AL02",
      "admin_level": "4",
      "name:zh-Hans": "阿尔巴尼亚中部"
    }
  },
  {
    "osm_id": -7739252,
    "boundary": "administrative",
    "admin_level": 4,
    "parents": "-53292",
    "name": "Southern Albania",
    "local_name": "Shqipëria jugore",
    "name_en": "Southern Albania",
    "all_tags": {
      "ref": "AL03",
      "name": "Shqipëria jugore",
      "name:de": "Süd-Albanien",
      "name:en": "Southern Albania",
      "name:fr": "Albanie du Sud",
      "name:hr": "Južna Albanija",
      "name:ja": "アルバニア南部",
      "name:mk": "Јужна Албанија",
      "name:nl": "Zuid-Albanië",
      "name:ru": "Южная Албания",
      "name:sq": "Shqipëria jugore",
      "name:tr": "Güney Arnavutluk",
      "name:zh": "阿爾巴尼亞南部",
      "boundary": "administrative",
      "ref:nuts": "AL03",
      "way_area": "1.37824",
      "wikidata": "Q13046908",
      "wikipedia": "en:Southern Albania",
      "ref:nuts:2": "AL03",
      "admin_level": "4",
      "name:zh-Hans": "阿尔巴尼亚南部"
    }
  },
  {
    "osm_id": -1759889,
    "boundary": "administrative",
    "admin_level": 6,
    "parents": "-7739254,-53292",
    "name": "Kukës County",
    "local_name": "Qarku i Kukësit",
    "name_en": "Kukës County",
    "all_tags": {
      "ref": "AL013",
      "name": "Qarku i Kukësit",
      "name:an": "Prefectura de Kukës",
      "name:ar": "مقاطعة كوكس",
      "name:be": "Кукес",
      "name:bg": "Кукъс (област)",
      "name:br": "Kukës (rannvro)",
      "name:ca": "Comtat de Kukës",
      "name:cs": "Kukës (kraj)",
      "name:de": "Qark Kukës",
      "name:el": "Νομός Κουκς",
      "name:en": "Kukës County",
      "name:eo": "Provinco Kukës",
      "name:es": "Condado de Kukës",
      "name:et": "Kukësi maakond",
      "name:eu": "Kukës konderria",
      "name:fi": "Kukësin maakunta",
      "name:fr": "Préfecture de Kukës",
      "name:ga": "Contae Kukës",
      "name:gl": "Condado de Kukës",
      "name:hi": "कुकेस प्रांत",
      "name:hr": "Kukeski okrug",
      "name:hy": "Կուկասի գավառ",
      "name:it": "Prefettura di Kukës",
      "name:ja": "クケス州",
      "name:kg": "Kukës (kizunga)",
      "name:ko": "쿠커스 주",
      "name:lt": "Kukesio apskritis",
      "name:mk": "Округ Кукуш",
      "name:nl": "Kukës (prefectuur)",
      "name:no": "Kukës (region)",
      "name:pl": "Obwód Kukës",
      "name:pt": "Kukës (prefeitura)",
      "name:ro": "Regiunea Kukës",
      "name:ru": "Кукес (область)",
      "name:sk": "Kukës (kraj)",
      "name:sv": "Kukës prefektur",
      "name:tl": "Kondado ng Kukës",
      "name:tr": "Kukës ili",
      "name:uk": "Кукес (область)",
      "name:ur": "صوبہ کوکس",
      "name:vi": "Kukës (hạt)",
      "name:zh": "庫克斯州",
      "boundary": "administrative",
      "name:ceb": "Qarku i Kukësit",
      "name:lmo": "Prefettura de Kukës",
      "name:pnb": "صوبہ کوکس",
      "name:sco": "Kukës Coonty",
      "name:war": "Kukës (condado)",
      "ref:nuts": "AL013",
      "way_area": "0.260725",
      "wikidata": "Q231896",
      "ISO3166-2": "AL-07",
      "wikipedia": "en:Kukës County",
      "population": "85292",
      "ref:nuts:3": "AL013",
      "admin_level": "6",
      "name:simple": "Kukës County",
      "name:zh-Hans": "库克斯州",
      "name:zh-Hant": "庫克斯州",
      "contact:email": "info@kqk.gov.al",
      "contact:phone": "+355 242 22487",
      "name:be-tarask": "Кукес",
      "contact:website": "http://www.kqk.gov.al",
      "population:date": "2018"
    }
  },
  {
    "osm_id": -1255521,
    "boundary": "administrative",
    "admin_level": 6,
    "parents": "-7739252,-53292",
    "name": "Vlorë County",
    "local_name": "Qarku i Vlorës",
    "name_en": "Vlorë County",
    "all_tags": {
      "ref": "AL035",
      "name": "Qarku i Vlorës",
      "name:an": "Prefectura de Vlorë",
      "name:ar": "مقاطعة فلوره",
      "name:be": "Вобласць Влёра",
      "name:bg": "Вльора (област)",
      "name:br": "Vlorë (rannvro)",
      "name:ca": "Comtat de Vlorë",
      "name:cs": "Vlora (kraj)",
      "name:de": "Qark Vlora",
      "name:el": "Νομός Αυλώνα",
      "name:en": "Vlorë County",
      "name:eo": "Provinco Vlorë",
      "name:es": "Condado de Vlorë",
      "name:et": "Vlorë maakond",
      "name:eu": "Vlorë konderria",
      "name:fi": "Vlorën maakunta",
      "name:fr": "Préfecture de Vlorë",
      "name:ga": "Contae Vlorë",
      "name:gl": "Condado de Vlorë",
      "name:hi": "व्लोरे प्रांत",
      "name:hr": "Vlorski okrug",
      "name:hu": "Vlora megye",
      "name:hy": "Վլյորայի գավառ",
      "name:it": "Prefettura di Valona",
      "name:ja": "ヴロラ州",
      "name:ka": "ვლორის ოლქი",
      "name:kg": "Vlorë (kizunga)",
      "name:ko": "블로러 주",
      "name:lt": "Vliorės apskritis",
      "name:mk": "Валона (област)",
      "name:nl": "Vlorë (prefectuur)",
      "name:no": "Vlorë (region)",
      "name:pl": "Obwód Wlora",
      "name:pt": "Vlorë (prefeitura)",
      "name:ro": "Regiunea Vlorë",
      "name:ru": "Влёра (область)",
      "name:sk": "Vlorë (kraj)",
      "name:sv": "Vlorë prefektur",
      "name:tl": "Kondado ng Vlorë",
      "name:tr": "Avlonya ili",
      "name:uk": "Вльора (область)",
      "name:ur": "صوبہ ولورہ",
      "name:vi": "Vlorë (hạt)",
      "name:zh": "夫羅勒州",
      "boundary": "administrative",
      "name:ceb": "Qarku i Vlorës",
      "name:lmo": "Prefettura de Valòna",
      "name:pnb": "صوبہ ولورہ",
      "name:sco": "Vlorë Coonty",
      "name:war": "Vlorë (condado)",
      "ref:nuts": "AL035",
      "way_area": "0.281757",
      "wikidata": "Q192849",
      "ISO3166-2": "AL-12",
      "wikipedia": "sq:Qarku i Vlorës",
      "population": "175640",
      "ref:nuts:3": "AL035",
      "admin_level": "6",
      "name:simple": "Vlorë County",
      "contact:email": "info@qarkuvlore.gov.al;kryetari@qarkuvlore.gov.al",
      "contact:phone": "+355 33 421 612",
      "name:be-tarask": "Влёра",
      "contact:website": "http://www.qarkuvlore.gov.al",
      "population:date": "2018"
    }
  },
  {
    "osm_id": -1253915,
    "boundary": "administrative",
    "admin_level": 6,
    "parents": "-7739252,-53292",
    "name": "Gjirokastër County",
    "local_name": "Qarku i Gjirokastrës",
    "name_en": "Gjirokastër County",
    "all_tags": {
      "ref": "AL033",
      "name": "Qarku i Gjirokastrës",
      "name:an": "Prefectura de Gjirokastër",
      "name:ar": "مقاطعة غيروكاستر",
      "name:be": "Гіракастра",
      "name:bg": "Аргирокастро (област)",
      "name:br": "Gjirokastër (rannvro)",
      "name:ca": "Comtat de Gjirokastër",
      "name:cs": "Gjirokastër (kraj)",
      "name:de": "Qark Gjirokastra",
      "name:el": "Νομός Αργυροκάστρου",
      "name:en": "Gjirokastër County",
      "name:eo": "Provinco Gjirokastër",
      "name:es": "Condado de Gjirokastër",
      "name:et": "Gjirokastëri maakond",
      "name:eu": "Gjirokastër konderria",
      "name:fi": "Gjirokastërin maakunta",
      "name:fr": "Préfecture de Gjirokastër",
      "name:ga": "Contae Gjirokastër",
      "name:gl": "Condado de Gjirokastër",
      "name:hi": "घिरोकसतेर प्रांत",
      "name:hr": "Gjirokastrski okrug",
      "name:hu": "Gjirokastra megye",
      "name:hy": "Գիրոկաստրայի գավառ",
      "name:it": "Prefettura di Argirocastro",
      "name:ja": "ジロカストラ州",
      "name:ka": "გიროკასტრის ოლქი",
      "name:kg": "Gjirokastër (kizunga)",
      "name:ko": "지로카스터르 주",
      "name:lt": "Girokasterio apskritis",
      "name:mk": "Ѓирокастро (област)",
      "name:nl": "Gjirokastër (prefectuur)",
      "name:no": "Gjirokastër (region)",
      "name:pl": "Obwód Gjirokastra",
      "name:pt": "Gjirokastër (prefeitura)",
      "name:ro": "Regiunea Gjirokastër",
      "name:ru": "Гирокастра (область)",
      "name:sk": "Gjirokastër (kraj)",
      "name:sv": "Gjirokastër prefektur",
      "name:tl": "Kondado ng Gjirokastër",
      "name:tr": "Ergiri ili",
      "name:uk": "Гірокастра (область)",
      "name:ur": "صوبہ ارجیر",
      "name:vi": "Gjirokastër (hạt)",
      "name:zh": "吉羅卡斯特州",
      "boundary": "administrative",
      "name:ceb": "Qarku i Gjirokastrës",
      "name:lmo": "Prefettura de Argirocaster",
      "name:pnb": "صوبہ ارجیر",
      "name:sco": "Gjirokastër Coonty",
      "name:war": "Gjirokastër (condado)",
      "ref:nuts": "AL033",
      "way_area": "0.300998",
      "wikidata": "Q193454",
      "ISO3166-2": "AL-05",
      "wikipedia": "sq:Qarku i Gjirokastrës",
      "population": "72176",
      "ref:nuts:3": "AL033",
      "admin_level": "6",
      "name:simple": "Gjirokastër County",
      "name:be-tarask": "Гіракастра",
      "population:date": "2011"
    }
  },
  {
    "osm_id": -1252589,
    "boundary": "administrative",
    "admin_level": 6,
    "parents": "-7739252,-53292",
    "name": "Korçë County",
    "local_name": "Qarku i Korçës",
    "name_en": "Korçë County",
    "all_tags": {
      "ref": "AL034",
      "name": "Qarku i Korçës",
      "name:an": "Prefectura de Korçë",
      "name:ar": "مقاطعة كورتشي",
      "name:be": "Корча",
      "name:bg": "Корча (област)",
      "name:br": "Korçë (rannvro)",
      "name:ca": "Comtat de Korçë",
      "name:cs": "Korçë (kraj)",
      "name:de": "Qark Korça",
      "name:el": "Νομός Κορυτσάς",
      "name:en": "Korçë County",
      "name:eo": "Provinco Korçë",
      "name:es": "Condado de Korçë",
      "name:et": "Korçë maakond",
      "name:eu": "Korçë konderria",
      "name:fi": "Korçën maakunta",
      "name:fr": "Préfecture de Korçë",
      "name:ga": "Contae Korçë",
      "name:gl": "Condado de Korçë",
      "name:hi": "कोर्से प्रांत",
      "name:hr": "Korčanski okrug",
      "name:hu": "Korça megye",
      "name:hy": "Կորչայի գավառ",
      "name:it": "Prefettura di Coriza",
      "name:ja": "コルチャ州",
      "name:kg": "Korçë (kizunga)",
      "name:ko": "코르처 주",
      "name:lt": "Korčės apskritis",
      "name:mk": "Горица (област)",
      "name:nl": "Korçë (prefectuur)",
      "name:no": "Korçë (region)",
      "name:pl": "Obwód Korcza",
      "name:pt": "Korçë (prefeitura)",
      "name:ro": "Regiunea Korçë",
      "name:ru": "Корча (область)",
      "name:sk": "Korçë (kraj)",
      "name:sv": "Korçë prefektur",
      "name:tl": "Kondado ng Korçë",
      "name:tr": "Görice ili",
      "name:uk": "Корча (область)",
      "name:ur": "صوبہ کورچہ",
      "name:vi": "Korçë (hạt)",
      "name:zh": "科赤州",
      "boundary": "administrative",
      "name:ceb": "Qarku i Korçës",
      "name:lmo": "Prefettura de Coriza",
      "name:pnb": "صوبہ کورچہ",
      "name:sco": "Korçë Coonty",
      "name:war": "Korçë (condado)",
      "ref:nuts": "AL034",
      "way_area": "0.379035",
      "wikidata": "Q193464",
      "ISO3166-2": "AL-06",
      "wikipedia": "sq:Qarku i Korçës",
      "population": "220357",
      "ref:nuts:3": "AL034",
      "admin_level": "6",
      "name:simple": "Korçë County",
      "contact:email": "qarkukorce@gmail.com",
      "contact:phone": "+355 8224 2009",
      "name:be-tarask": "Корча",
      "contact:website": "http://www.korcaregion.com",
      "population:date": "2018"
    }
  },
  {
    "osm_id": -1252289,
    "boundary": "administrative",
    "admin_level": 6,
    "parents": "-7739252,-53292",
    "name": "Berat County",
    "local_name": "Qarku i Beratit",
    "name_en": "Berat County",
    "all_tags": {
      "ref": "AL031",
      "name": "Qarku i Beratit",
      "name:an": "Prefectura de Berat",
      "name:ar": "مقاطعة بيرات",
      "name:be": "Вобласць Берат",
      "name:bg": "Берат (област)",
      "name:br": "Berat (rannvro)",
      "name:bs": "Okrug Berat",
      "name:ca": "Comtat de Berat",
      "name:cs": "Berat (kraj)",
      "name:de": "Qark Berat",
      "name:el": "Νομός Μπεράτ",
      "name:en": "Berat County",
      "name:eo": "Provinco Berat",
      "name:es": "Condado de Berat",
      "name:et": "Berati maakond",
      "name:eu": "Berat konderria",
      "name:fa": "شهرستان برات",
      "name:fi": "Beratin maakunta",
      "name:fr": "Préfecture de Berat",
      "name:ga": "Contae Berat",
      "name:gl": "Condado de Berat",
      "name:hi": "बेरत प्रांत",
      "name:hr": "Beratski okrug",
      "name:hu": "Berat megye",
      "name:hy": "Բերատի գավառ",
      "name:it": "Prefettura di Berat",
      "name:ja": "ベラト州",
      "name:ka": "ბერატის ოლქი",
      "name:kg": "Berat (kizunga)",
      "name:ko": "베라트 주",
      "name:lt": "Beračio apskritis",
      "name:lv": "Berati apgabals",
      "name:mk": "Белград (област)",
      "name:mn": "Берат хошуу",
      "name:no": "Berat (region)",
      "name:pa": "ਬੇਰਾਤ ਕਾਊਂਟੀ",
      "name:pl": "Obwód Berat",
      "name:pt": "Berati (prefeitura)",
      "name:ro": "Regiunea Berat",
      "name:ru": "Берат (область)",
      "name:sk": "Berat (kraj)",
      "name:sv": "Beratprefekturen",
      "name:tl": "Kondado ng Berat",
      "name:tr": "Berat ili",
      "name:uk": "Берат (область)",
      "name:ur": "صوبہ بیرات",
      "name:vi": "Berat (hạt)",
      "name:zh": "培拉特州",
      "boundary": "administrative",
      "name:ceb": "Qarku i Beratit",
      "name:lmo": "Prefettura de Berat",
      "name:pnb": "صوبہ بیرات",
      "name:sco": "Berat Coonty",
      "name:war": "Berat (condado)",
      "ref:nuts": "AL031",
      "way_area": "0.196808",
      "wikidata": "Q189296",
      "ISO3166-2": "AL-01",
      "wikipedia": "sq:Qarku i Beratit",
      "population": "141944",
      "ref:nuts:3": "AL031",
      "admin_level": "6",
      "name:simple": "Berat County",
      "contact:email": "keshilliqarkut_berat@yahoo.it",
      "contact:phone": "+35532234283",
      "name:be-tarask": "Бэрат",
      "contact:website": "http://qarkuberat.gov.al",
      "population:date": "2018"
    }
  },
  {
    "osm_id": -1251469,
    "boundary": "administrative",
    "admin_level": 6,
    "parents": "-7739252,-53292",
    "name": "Fier County",
    "local_name": "Qarku i Fierit",
    "name_en": "Fier County",
    "all_tags": {
      "ref": "AL032",
      "name": "Qarku i Fierit",
      "name:an": "Prefectura de Fier",
      "name:ar": "مقاطعة فيير (ألبانيا)",
      "name:be": "Фіеры",
      "name:bg": "Фиер (област)",
      "name:br": "Fier (rannvro)",
      "name:ca": "Comtat de Fier",
      "name:cs": "Fier (kraj)",
      "name:de": "Qark Fier",
      "name:el": "Νομός Φιέρ",
      "name:en": "Fier County",
      "name:eo": "Provinco Fier",
      "name:es": "Condado de Fier",
      "name:et": "Fieri maakond",
      "name:eu": "Fier konderria",
      "name:fi": "Fierin maakunta",
      "name:fr": "Préfecture de Fier",
      "name:ga": "Contae Fier",
      "name:gl": "Condado de Fier",
      "name:hi": "फिएर प्रांत",
      "name:hr": "Fierski okrug",
      "name:hy": "Ֆիերիի գավառ",
      "name:it": "Prefettura di Fier",
      "name:ja": "フィエル州",
      "name:kg": "Fier (kizunga)",
      "name:ko": "피에르 주",
      "name:lt": "Fierio apskritis",
      "name:mk": "Фиер (област)",
      "name:nl": "Fier (prefectuur)",
      "name:no": "Fier (region)",
      "name:pl": "Obwód Fier",
      "name:pt": "Fier (prefeitura)",
      "name:ro": "Regiunea Fier",
      "name:ru": "Фиери (область)",
      "name:sk": "Fier (kraj)",
      "name:sv": "Fier prefektur",
      "name:tl": "Kondado ng Fier",
      "name:tr": "Fier ili",
      "name:uk": "Фієрі (область)",
      "name:ur": "صوبہ فیر",
      "name:vi": "Fier (hạt)",
      "name:zh": "非夏爾州",
      "boundary": "administrative",
      "name:ceb": "Qarku i Fierit",
      "name:lmo": "Prefettura de Fier",
      "name:pnb": "صوبہ فیر",
      "name:sco": "Fier Coonty",
      "name:war": "Fier (condado)",
      "ref:nuts": "AL032",
      "way_area": "0.196811",
      "wikidata": "Q231900",
      "ISO3166-2": "AL-04",
      "wikipedia": "sq:Qarku i Fierit",
      "population": "310331",
      "ref:nuts:3": "AL032",
      "admin_level": "6",
      "name:simple": "Fier County",
      "name:be-tarask": "Фіеры",
      "contact:website": "http://www.qarkufier.gov.al",
      "population:date": "2018"
    }
  },
  {
    "osm_id": -1250609,
    "boundary": "administrative",
    "admin_level": 6,
    "parents": "-7739253,-53292",
    "name": "Elbasan County",
    "local_name": "Qarku i Elbasanit",
    "name_en": "Elbasan County",
    "all_tags": {
      "ref": "AL021",
      "name": "Qarku i Elbasanit",
      "name:an": "Prefectura d'Elbasan",
      "name:ar": "مقاطعة إلباسان",
      "name:be": "Эльбасан",
      "name:bg": "Елбасан (област)",
      "name:br": "Elbasan (rannvro)",
      "name:cs": "Elbasan (kraj)",
      "name:el": "Νομός Ελβασάν",
      "name:en": "Elbasan County",
      "name:eo": "Provinco Elbasan",
      "name:es": "Condado de Elbasan",
      "name:et": "Elbasani maakond",
      "name:eu": "Elbasan konderria",
      "name:fi": "Elbasanin maakunta",
      "name:fr": "Préfecture d'Elbasan",
      "name:ga": "Contae Elbasan",
      "name:gl": "Condado de Elbasan",
      "name:hi": "एलबसन प्रांत",
      "name:hr": "Elbasanski okrug",
      "name:hy": "Էլբասանի գավառ",
      "name:it": "Prefettura di Elbasan",
      "name:ja": "エルバサン州",
      "name:kg": "Elbasan (kizunga)",
      "name:ko": "엘바산 주",
      "name:lt": "Elbasanio apskritis",
      "name:mk": "Елбасан (област)",
      "name:nl": "Elbasan (prefectuur)",
      "name:no": "Elbasan (region)",
      "name:pl": "Obwód Elbasan",
      "name:pt": "Elbasani (prefeitura)",
      "name:ro": "Regiunea Elbasan",
      "name:ru": "Эльбасан (область)",
      "name:sk": "Elbasan (kraj)",
      "name:sv": "Elbasan prefektur",
      "name:tl": "Kondado ng Elbasan",
      "name:tr": "Elbasan ili",
      "name:uk": "Ельбасан (область)",
      "name:ur": "صوبہ الباسان",
      "name:vi": "Elbasan (hạt)",
      "name:zh": "艾巴申州",
      "boundary": "administrative",
      "name:ceb": "Qarku i Elbasanit",
      "name:lad": "Prefektura de Elbasan",
      "name:lmo": "Prefettura de Elbasan",
      "name:pnb": "صوبہ الباسان",
      "name:war": "Elbasan (condado)",
      "ref:nuts": "AL021",
      "way_area": "0.352783",
      "wikidata": "Q193790",
      "ISO3166-2": "AL-03",
      "wikipedia": "en:Elbasan County",
      "population": "295827",
      "ref:nuts:3": "AL021",
      "admin_level": "6",
      "name:be-tarask": "Эльбасан",
      "contact:website": "www.qarkuelbasan.gov.al",
      "population:date": "2018"
    }
  },
  {
    "osm_id": -1250098,
    "boundary": "administrative",
    "admin_level": 6,
    "parents": "-7739253,-53292",
    "name": "Tirana County",
    "local_name": "Qarku i Tiranës",
    "name_en": "Tirana County",
    "all_tags": {
      "ref": "AL022",
      "name": "Qarku i Tiranës",
      "name:an": "Prefectura de Tirana",
      "name:ar": "مقاطعة تيرانا",
      "name:be": "Тырана",
      "name:bg": "Тирана (област)",
      "name:br": "Tirana (rannvro)",
      "name:ca": "Comtat de Tirana",
      "name:cs": "Tiranë (kraj)",
      "name:de": "Qark Tirana",
      "name:el": "Νομός Τιράνων",
      "name:en": "Tirana County",
      "name:eo": "Provinco Tirano",
      "name:es": "Condado de Tirana",
      "name:et": "Tirana maakond",
      "name:eu": "Tirana konderria",
      "name:fa": "شهرستان تیرانا",
      "name:fi": "Tiranan maakunta",
      "name:fr": "Préfecture de Tirana",
      "name:ga": "Contae Tiranë",
      "name:gl": "Condado de Tirana",
      "name:hi": "तिराना प्रांत",
      "name:hr": "Tiranski okrug",
      "name:hy": "Տիրանայի գավառ",
      "name:it": "Prefettura di Tirana",
      "name:ja": "ティラナ州",
      "name:kg": "Tirana (kizunga)",
      "name:ko": "티라나 주",
      "name:lt": "Tiranos apskritis",
      "name:mk": "Тирана (област)",
      "name:nl": "Tirana (prefectuur)",
      "name:no": "Tiranë (region)",
      "name:pl": "Obwód Tirana",
      "name:pt": "Tirana (prefeitura)",
      "name:ro": "Regiunea Tirana",
      "name:ru": "Тирана (область)",
      "name:sk": "Tirana (kraj)",
      "name:sv": "Tiranë prefektur",
      "name:th": "มณฑลติรานา",
      "name:tl": "Kondado ng Tirana",
      "name:tr": "Tiran ili",
      "name:uk": "Тирана (область)",
      "name:ur": "صوبہ تیرانا",
      "name:vi": "Tirana (hạt)",
      "name:zh": "地拉那州",
      "boundary": "administrative",
      "name:ceb": "Qarku i Tiranës",
      "name:lmo": "Prefettura de Tirana",
      "name:pnb": "صوبہ تیرانا",
      "name:sco": "Tirana Coonty",
      "name:war": "Tirana (condado)",
      "ref:nuts": "AL022",
      "way_area": "0.176709",
      "wikidata": "Q229892",
      "ISO3166-2": "AL-11",
      "wikipedia": "sq:Qarku i Tiranës",
      "population": "749365",
      "ref:nuts:3": "AL022",
      "admin_level": "6",
      "name:simple": "Tirana County",
      "contact:email": "kryetari@qarkutirane.gov.al; qarkutirane@yahoo.com",
      "contact:phone": "+355 42 225141",
      "name:be-tarask": "Тырана",
      "contact:website": "http://www.qarkutirane.gov.al",
      "population:date": "2018"
    }
  },
  {
    "osm_id": -1249872,
    "boundary": "administrative",
    "admin_level": 6,
    "parents": "-7739254,-53292",
    "name": "Durrës County",
    "local_name": "Qarku i Durrësit",
    "name_en": "Durrës County",
    "all_tags": {
      "ref": "AL012",
      "name": "Qarku i Durrësit",
      "name:an": "Prefectura de Durrazo",
      "name:ar": "مقاطعة دوريس",
      "name:be": "Дурэс",
      "name:bg": "Драч (област)",
      "name:br": "Durrës (rannvro)",
      "name:ca": "Comtat de Durrës",
      "name:cs": "Durrës (kraj)",
      "name:de": "Qark Durrës",
      "name:el": "Νομός Δυρραχίου",
      "name:en": "Durrës County",
      "name:eo": "Provinco Durrës",
      "name:es": "Condado de Durrës",
      "name:et": "Durrësi maakond",
      "name:eu": "Durrës konderria",
      "name:fa": "شهرستان دورس",
      "name:fi": "Durrësin maakunta",
      "name:fr": "Préfecture de Durrës",
      "name:ga": "Contae Durrës",
      "name:gl": "Condado de Durrës",
      "name:hi": "डुर्रेस प्रांत",
      "name:hr": "Drački okrug",
      "name:hy": "Դուրրասի գավառ",
      "name:it": "Prefettura di Durazzo",
      "name:ja": "ドゥラス州",
      "name:kg": "Durrës (kizunga)",
      "name:ko": "두러스 주",
      "name:lt": "Duresio apskritis",
      "name:lv": "Duresi apgabals",
      "name:mk": "Драч (област)",
      "name:nl": "Durrës (prefectuur)",
      "name:no": "Durrës (region)",
      "name:pa": "ਡੂਰੇਸ ਕਾਉਂਟੀ",
      "name:pl": "Obwód Durrës",
      "name:pt": "Durrës (prefeitura)",
      "name:ro": "Regiunea Durrës",
      "name:ru": "Дуррес (область)",
      "name:sk": "Drač (kraj)",
      "name:sv": "Durrës prefektur",
      "name:tl": "Kondado ng Durrës",
      "name:tr": "Dıraç ili",
      "name:uk": "Дуррес (область)",
      "name:ur": "صوبہ دراج",
      "name:vi": "Durrës (hạt)",
      "name:zh": "杜勒斯州",
      "boundary": "administrative",
      "name:ceb": "Qarku i Durrësit",
      "name:lmo": "Prefettura de Durazz",
      "name:pnb": "صوبہ دراج",
      "name:sco": "Durrës Coonty",
      "name:war": "Durrës (condado)",
      "ref:nuts": "AL012",
      "way_area": "0.0825358",
      "wikidata": "Q192853",
      "ISO3166-2": "AL-02",
      "wikipedia": "sq:Qarku i Durrësit",
      "population": "262785",
      "ref:nuts:3": "AL012",
      "admin_level": "6",
      "name:simple": "Durrës County",
      "contact:email": "kryetari@qarkudurres.gov.al; sekretari@qarkudurres.gov.al",
      "name:be-tarask": "Дурэс",
      "contact:website": "http://www.qarkudurres.gov.al",
      "population:date": "2018"
    }
  },
  {
    "osm_id": -1249567,
    "boundary": "administrative",
    "admin_level": 6,
    "parents": "-7739254,-53292",
    "name": "Dibër County",
    "local_name": "Qarku i Dibrës",
    "name_en": "Dibër County",
    "all_tags": {
      "ref": "AL011",
      "name": "Qarku i Dibrës",
      "name:an": "Prefectura de Dibër",
      "name:ar": "مقاطعة ديبر",
      "name:be": "Дзібра",
      "name:bg": "Дебър (област)",
      "name:br": "Dibër (rannvro)",
      "name:ca": "Comtat de Dibër",
      "name:cs": "Dibrë (kraj)",
      "name:de": "Qark Dibra",
      "name:el": "Νομός Ντίμπρα",
      "name:en": "Dibër County",
      "name:eo": "Provinco Dibër",
      "name:es": "Condado de Dibër",
      "name:et": "Dibëri maakond",
      "name:eu": "Dibër konderria",
      "name:fa": "شهرستان دیبر",
      "name:fi": "Dibërin maakunta",
      "name:fr": "Préfecture de Dibër",
      "name:ga": "Contae Dibër",
      "name:gl": "Condado de Dibër",
      "name:hi": "डिबॅर प्रांत",
      "name:hr": "Dibrski okrug",
      "name:hy": "Դիբարի գավառ",
      "name:it": "Prefettura di Dibër",
      "name:ja": "ディブラ州",
      "name:ka": "დიბრის ოლქი",
      "name:ko": "디버르 주",
      "name:lv": "Dibras apgabals",
      "name:mk": "Дебар (област)",
      "name:nl": "Dibër (prefectuur)",
      "name:no": "Dibër (region)",
      "name:pa": "ਡਿਬਰ ਕਾਉਂਟੀ",
      "name:pl": "Obwód Dibra",
      "name:pt": "Dibër (prefeitura)",
      "name:ro": "Regiunea Dibër",
      "name:ru": "Дибра (область)",
      "name:sk": "Dibër (kraj)",
      "name:sv": "Dibër prefektur",
      "name:tl": "Kondado ng Dibër",
      "name:tr": "Debre ili",
      "name:uk": "Дібер (область)",
      "name:ur": "صوبہ دیبر",
      "name:vi": "Dibër (hạt)",
      "name:zh": "第巴爾州",
      "boundary": "administrative",
      "name:ceb": "Qarku i Dibrës",
      "name:lmo": "Prefettura de Dibër",
      "name:pnb": "صوبہ دیبر",
      "name:sco": "Dibër Coonty",
      "name:war": "Dibër (condado)",
      "ref:nuts": "AL011",
      "way_area": "0.263381",
      "wikidata": "Q192866",
      "ISO3166-2": "AL-09",
      "wikipedia": "en:Dibër County",
      "population": "137047",
      "ref:nuts:3": "AL011",
      "admin_level": "6",
      "name:simple": "Dibër County",
      "name:be-tarask": "Дзібра",
      "contact:website": "http://www.qarkudiber.gov.al",
      "population:date": "2018"
    }
  },
  {
    "osm_id": -1248935,
    "boundary": "administrative",
    "admin_level": 6,
    "parents": "-7739254,-53292",
    "name": "Lezhë County",
    "local_name": "Qarku i Lezhës",
    "name_en": "Lezhë County",
    "all_tags": {
      "ref": "AL014",
      "name": "Qarku i Lezhës",
      "name:an": "Prefectura de Lezhë",
      "name:ar": "مقاطعة لجه",
      "name:be": "Лежа",
      "name:bg": "Лежа (област)",
      "name:br": "Lezhë (rannvro)",
      "name:ca": "Comtat de Lezhë",
      "name:cs": "Lezhë (kraj)",
      "name:de": "Qark Lezha",
      "name:el": "Νομός Λεζ",
      "name:en": "Lezhë County",
      "name:eo": "Provinco Lezhë",
      "name:es": "Condado de Lezhë",
      "name:et": "Lezhë maakond",
      "name:eu": "Lezhë konderria",
      "name:fi": "Lezhën maakunta",
      "name:fr": "Préfecture de Lezhë",
      "name:ga": "Contae Lezhë",
      "name:gl": "Condado de Lezhë",
      "name:hi": "लेज़ह प्रांत",
      "name:hr": "Lješki okrug",
      "name:hy": "Լեժայի գավառ",
      "name:it": "Prefettura di Alessio",
      "name:ja": "レジャ州",
      "name:kg": "Lezhë (kizunga)",
      "name:ko": "레저 주",
      "name:lt": "Ležės apskritis",
      "name:mk": "Леска (област)",
      "name:nl": "Lezhë (prefectuur)",
      "name:no": "Lezhë (region)",
      "name:pl": "Obwód Lezha",
      "name:pt": "Lezhë (prefeitura)",
      "name:ro": "Regiunea Lezhë",
      "name:ru": "Лежа (область)",
      "name:sh": "Lješki okrug",
      "name:sk": "Lezhë (kraj)",
      "name:sv": "Lezhë prefektur",
      "name:tl": "Kondado ng Lezhë",
      "name:tr": "Leş ili",
      "name:uk": "Леже (область)",
      "name:ur": "صوبہ لژہ",
      "name:vi": "Lezhë (hạt)",
      "name:zh": "列澤州",
      "boundary": "administrative",
      "name:ceb": "Qarku i Lezhës",
      "name:lmo": "Prefettura de Alessi",
      "name:pnb": "صوبہ لژہ",
      "name:sco": "Lezhë Coonty",
      "name:war": "Lezhë (condado)",
      "ref:nuts": "AL014",
      "way_area": "0.182632",
      "wikidata": "Q193436",
      "ISO3166-2": "AL-08",
      "wikipedia": "en:Lezhë County",
      "population": "134027",
      "ref:nuts:3": "AL014",
      "admin_level": "6",
      "alt_name:mk": "Лежа (област)",
      "name:simple": "Lezhë County",
      "name:be-tarask": "Лежа",
      "contact:website": "http://www.qarkulezhe.gov.al",
      "population:date": "2018"
    }
  },
  {
    "osm_id": -1248293,
    "boundary": "administrative",
    "admin_level": 6,
    "parents": "-7739254,-53292",
    "name": "Shkodër County",
    "local_name": "Qarku i Shkodrës",
    "name_en": "Shkodër County",
    "all_tags": {
      "ref": "AL015",
      "name": "Qarku i Shkodrës",
      "name:an": "Prefectura de Shkodër",
      "name:ar": "مقاطعة شكودر",
      "name:be": "Шкодэр",
      "name:bg": "Шкодра (област)",
      "name:br": "Shkodër (rannvro)",
      "name:ca": "Comtat de Shkodër",
      "name:cs": "Shkodër (kraj)",
      "name:da": "Shkodër (amt)",
      "name:de": "Qark Shkodra",
      "name:el": "Νομός Σκόδρας",
      "name:en": "Shkodër County",
      "name:eo": "Provinco Shkodër",
      "name:es": "Condado de Shkodër",
      "name:et": "Shkodëri maakond",
      "name:eu": "Shkodër konderria",
      "name:fa": "شهرستان شکودر",
      "name:fi": "Shkodërin maakunta",
      "name:fr": "Préfecture de Shkodër",
      "name:ga": "Contae Shkodër",
      "name:gl": "Condado de Shkodër",
      "name:hi": "श्कोडेर प्रांत",
      "name:hr": "Skadarski okrug",
      "name:hy": "Շկոդերի գավառ",
      "name:it": "Prefettura di Scutari",
      "name:ja": "シュコドラ州",
      "name:kg": "Shkodër (kizunga)",
      "name:ko": "슈코더르 주",
      "name:lt": "Škoderio apskritis",
      "name:mk": "Скадар (област)",
      "name:nl": "Shkodër (prefectuur)",
      "name:no": "Shkodër (region)",
      "name:pl": "Obwód Szkodra",
      "name:pt": "Escodra (prefeitura)",
      "name:ro": "Regiunea Shkodër",
      "name:ru": "Шкодер (область)",
      "name:sh": "Skadarski okrug",
      "name:sk": "Shkodër (kraj)",
      "name:sr": "Округ Скадар",
      "name:sv": "Shkodër prefektur",
      "name:tl": "Kondado ng Shkodër",
      "name:tr": "İşkodra ili",
      "name:uk": "Шкодер (область)",
      "name:ur": "صوبہ شکودر",
      "name:vi": "Shkodër (hạt)",
      "name:zh": "士科德州",
      "boundary": "administrative",
      "name:ceb": "Qarku i Shkodrës",
      "name:lmo": "Prefettura de Scutar",
      "name:pnb": "صوبہ شکودر",
      "name:sco": "Shkodër Coonty",
      "name:war": "Shkodër (condado)",
      "ref:nuts": "AL015",
      "way_area": "0.38422",
      "wikidata": "Q193438",
      "ISO3166-2": "AL-10",
      "wikipedia": "sq:Qarku i Shkodrës",
      "population": "215347",
      "ref:nuts:3": "AL015",
      "admin_level": "6",
      "name:simple": "Shkodër County",
      "name:sr-Latn": "Okrug Skadar",
      "name:be-tarask": "Шкодер",
      "contact:website": "www.qarkushkoder.gov.al",
      "population:date": "2018"
    }
  }
]
