[
  {
    "osm_id": -13404299,
    "boundary": "administrative",
    "admin_level": 5,
    "parents": "-364087,-364066",
    "name": "Ajapnyak",
    "local_name": "Աջափնյակ",
    "name_en": "Ajapnyak",
    "all_tags": {
      "name": "Աջափնյակ",
      "name:en": "Ajapnyak",
      "name:hy": "Աջափնյակ",
      "name:ru": "Ачапняк",
      "boundary": "administrative",
      "way_area": "0.00278257",
      "wikidata": "Q1822966",
      "wikipedia": "en:Ajapnyak District",
      "admin_level": "5"
    }
  },
  {
    "osm_id": -13404298,
    "boundary": "administrative",
    "admin_level": 5,
    "parents": "-364087,-364066",
    "name": "Davtashen",
    "local_name": "Դավթաշեն",
    "name_en": "Davtashen",
    "all_tags": {
      "name": "Դավթաշեն",
      "name:en": "Davtashen",
      "name:hy": "Դավթաշեն",
      "name:ru": "Давташен",
      "boundary": "administrative",
      "way_area": "0.000691729",
      "admin_level": "5"
    }
  },
  {
    "osm_id": -13404297,
    "boundary": "administrative",
    "admin_level": 5,
    "parents": "-364087,-364066",
    "name": "Arabkir",
    "local_name": "Արաբկիր",
    "name_en": "Arabkir",
    "all_tags": {
      "name": "Արաբկիր",
      "name:en": "Arabkir",
      "name:hy": "Արաբկիր",
      "name:ru": "Арабкир",
      "boundary": "administrative",
      "way_area": "0.00135186",
      "wikidata": "Q2737784",
      "wikipedia": "en:Arabkir District",
      "admin_level": "5"
    }
  },
  {
    "osm_id": -13404296,
    "boundary": "administrative",
    "admin_level": 5,
    "parents": "-364087,-364066",
    "name": "Qanaqer-Zeytun",
    "local_name": "Քանաքեռ-Զեյթուն",
    "name_en": "Qanaqer-Zeytun",
    "all_tags": {
      "name": "Քանաքեռ-Զեյթուն",
      "name:en": "Qanaqer-Zeytun",
      "name:hy": "Քանաքեռ-Զեյթուն",
      "name:ru": "Канакер-Зейтун",
      "boundary": "administrative",
      "way_area": "0.000822753",
      "wikidata": "Q1823735",
      "wikipedia": "en:Kanaker-Zeytun District",
      "admin_level": "5"
    }
  },
  {
    "osm_id": -13404250,
    "boundary": "administrative",
    "admin_level": 5,
    "parents": "-364087,-364066",
    "name": "Avan",
    "local_name": "Ավան",
    "name_en": "Avan",
    "all_tags": {
      "name": "Ավան",
      "name:en": "Avan",
      "name:hy": "Ավան",
      "name:ru": "Аван",
      "boundary": "administrative",
      "way_area": "0.000724871",
      "wikidata": "Q1822949",
      "wikipedia": "en:Avan District",
      "admin_level": "5"
    }
  },
  {
    "osm_id": -13404220,
    "boundary": "administrative",
    "admin_level": 5,
    "parents": "-364087,-364066",
    "name": "Nor Norq",
    "local_name": "Նոր Նորք",
    "name_en": "Nor Norq",
    "all_tags": {
      "name": "Նոր Նորք",
      "name:en": "Nor Norq",
      "name:hy": "Նոր Նորք",
      "name:ru": "Нор Норк",
      "boundary": "administrative",
      "way_area": "0.00153074",
      "admin_level": "5"
    }
  },
  {
    "osm_id": -13404219,
    "boundary": "administrative",
    "admin_level": 5,
    "parents": "-364087,-364066",
    "name": "Malatia-Sebastia",
    "local_name": "Մալաթիա-Սեբաստիա",
    "name_en": "Malatia-Sebastia",
    "all_tags": {
      "name": "Մալաթիա-Սեբաստիա",
      "name:en": "Malatia-Sebastia",
      "name:hy": "Մալաթիա-Սեբաստիա",
      "name:ru": "Малатия-Себастия",
      "boundary": "administrative",
      "way_area": "0.00267364",
      "wikidata": "Q1822985",
      "wikipedia": "en:Malatia-Sebastia District",
      "admin_level": "5"
    }
  },
  {
    "osm_id": -13404218,
    "boundary": "administrative",
    "admin_level": 5,
    "parents": "-364087,-364066",
    "name": "Kentron",
    "local_name": "Կենտրոն",
    "name_en": "Kentron",
    "all_tags": {
      "name": "Կենտրոն",
      "name:en": "Kentron",
      "name:hy": "Կենտրոն",
      "name:ru": "Кентрон",
      "boundary": "administrative",
      "way_area": "0.00141855",
      "wikidata": "Q2573437",
      "wikipedia": "en:Kentron District",
      "admin_level": "5"
    }
  },
  {
    "osm_id": -13404217,
    "boundary": "administrative",
    "admin_level": 5,
    "parents": "-364087,-364066",
    "name": "Norq Marash",
    "local_name": "Նորք Մարաշ",
    "name_en": "Norq Marash",
    "all_tags": {
      "name": "Նորք Մարաշ",
      "name:en": "Norq Marash",
      "name:hy": "Նորք Մարաշ",
      "name:ru": "Норк Мараш",
      "boundary": "administrative",
      "way_area": "0.000527815",
      "wikidata": "Q1822958",
      "wikipedia": "en:Nork-Marash District",
      "admin_level": "5"
    }
  },
  {
    "osm_id": -13404216,
    "boundary": "administrative",
    "admin_level": 5,
    "parents": "-364087,-364066",
    "name": "Erebuni",
    "local_name": "Էրեբունի",
    "name_en": "Erebuni",
    "all_tags": {
      "name": "Էրեբունի",
      "name:en": "Erebuni",
      "name:hy": "Էրեբունի",
      "name:ru": "Эребуни",
      "boundary": "administrative",
      "way_area": "0.00493105",
      "wikidata": "Q390360",
      "wikipedia": "en:Erebuni District",
      "admin_level": "5"
    }
  },
  {
    "osm_id": -13404215,
    "boundary": "administrative",
    "admin_level": 5,
    "parents": "-364087,-364066",
    "name": "Shengavit",
    "local_name": "Շենգավիթ",
    "name_en": "Shengavit",
    "all_tags": {
      "name": "Շենգավիթ",
      "name:en": "Shengavit",
      "name:hy": "Շենգավիթ",
      "name:ru": "Шенгавит",
      "boundary": "administrative",
      "way_area": "0.00417386",
      "wikidata": "Q1822938",
      "wikipedia": "en:Shengavit District",
      "admin_level": "5"
    }
  },
  {
    "osm_id": -13404214,
    "boundary": "administrative",
    "admin_level": 5,
    "parents": "-364087,-364066",
    "name": "Nubarashen",
    "local_name": "Նուբարաշեն",
    "name_en": "Nubarashen",
    "all_tags": {
      "name": "Նուբարաշեն",
      "name:en": "Nubarashen",
      "name:hy": "Նուբարաշեն",
      "name:ru": "Нубарашен",
      "boundary": "administrative",
      "way_area": "0.00213368",
      "wikidata": "Q1822974",
      "wikipedia": "en:Nubarashen District",
      "admin_level": "5"
    }
  },
  {
    "osm_id": -13091914,
    "boundary": "administrative",
    "admin_level": 5,
    "parents": "-364079,-364066",
    "name": "Dilijan Region",
    "local_name": "Դիլիջանի տարածաշրջան",
    "name_en": "Dilijan Region",
    "all_tags": {
      "name": "Դիլիջանի տարածաշրջան",
      "name:en": "Dilijan Region",
      "name:ru": "Дилиджанский район",
      "boundary": "administrative",
      "way_area": "0.0444485",
      "admin_level": "5"
    }
  },
  {
    "osm_id": -12270367,
    "boundary": "administrative",
    "admin_level": 5,
    "parents": "-364080,-364066",
    "name": "Geghamasar Region",
    "local_name": "Գեղամասարի տարածաշրջան",
    "name_en": "Geghamasar Region",
    "all_tags": {
      "name": "Գեղամասարի տարածաշրջան",
      "name:en": "Geghamasar Region",
      "name:ru": "Гехамасарский район",
      "boundary": "administrative",
      "way_area": "0.0374585",
      "wikidata": "Q65225992",
      "wikipedia": "hy:Գեղամասար (համայնք)",
      "admin_level": "5"
    }
  },
  {
    "osm_id": -12201442,
    "boundary": "administrative",
    "admin_level": 5,
    "parents": "-364084,-364066",
    "name": "Garni Region",
    "local_name": "Գառնու տարածաշրջան",
    "name_en": "Garni Region",
    "all_tags": {
      "name": "Գառնու տարածաշրջան",
      "name:en": "Garni Region",
      "name:ru": "Гарнийский район",
      "boundary": "administrative",
      "way_area": "0.0153552",
      "admin_level": "5"
    }
  },
  {
    "osm_id": -12002275,
    "boundary": "administrative",
    "admin_level": 5,
    "parents": "-364081,-364066",
    "name": "Gladzor Community",
    "local_name": "Գլաձորի տարածաշրջան",
    "name_en": "Gladzor Community",
    "all_tags": {
      "name": "Գլաձորի տարածաշրջան",
      "name:en": "Gladzor Community",
      "name:fa": "شهرستان گلادزور",
      "boundary": "administrative",
      "way_area": "0.00599981",
      "admin_level": "5"
    }
  },
  {
    "osm_id": -12001541,
    "boundary": "administrative",
    "admin_level": 5,
    "parents": "-364081,-364066",
    "name": "Malishka Community",
    "local_name": "Մալիշկայի տարածաշրջան",
    "name_en": "Malishka Community",
    "all_tags": {
      "name": "Մալիշկայի տարածաշրջան",
      "name:en": "Malishka Community",
      "name:fa": "شهرستان مالیشکا",
      "boundary": "administrative",
      "way_area": "0.0030305",
      "admin_level": "5"
    }
  },
  {
    "osm_id": -12001265,
    "boundary": "administrative",
    "admin_level": 5,
    "parents": "-364081,-364066",
    "name": "Yeghegnadzor Community",
    "local_name": "Եղեգնաձորի տարածաշրջան",
    "name_en": "Yeghegnadzor Community",
    "all_tags": {
      "name": "Եղեգնաձորի տարածաշրջան",
      "name:en": "Yeghegnadzor Community",
      "name:fa": "شهرستان یغگنادزور",
      "name:uk": "Єгеґнадзор",
      "boundary": "administrative",
      "way_area": "0.00198147",
      "admin_level": "5"
    }
  },
  {
    "osm_id": -11999129,
    "boundary": "administrative",
    "admin_level": 5,
    "parents": "-364081,-364066",
    "name": "Areni Community",
    "local_name": "Արենիի տարածաշրջան",
    "name_en": "Areni Community",
    "all_tags": {
      "name": "Արենիի տարածաշրջան",
      "name:en": "Areni Community",
      "name:fa": "شهرستان آرنی",
      "boundary": "administrative",
      "way_area": "0.0447911",
      "admin_level": "5"
    }
  },
  {
    "osm_id": -11998790,
    "boundary": "administrative",
    "admin_level": 5,
    "parents": "-364081,-364066",
    "name": "Zaritap Community",
    "local_name": "Զառիթափի տարածաշրջան",
    "name_en": "Zaritap Community",
    "all_tags": {
      "name": "Զառիթափի տարածաշրջան",
      "name:en": "Zaritap Community",
      "name:fa": "شهرستان زریتاپ",
      "name:uk": "Зарітап",
      "boundary": "administrative",
      "way_area": "0.0489472",
      "admin_level": "5"
    }
  },
  {
    "osm_id": -11994300,
    "boundary": "administrative",
    "admin_level": 5,
    "parents": "-364082,-364066",
    "name": "Gorayk Community",
    "local_name": "Գորայքի տարածաշրջան",
    "name_en": "Gorayk Community",
    "all_tags": {
      "name": "Գորայքի տարածաշրջան",
      "name:en": "Gorayk Community",
      "name:fa": "شهرستان گورایک",
      "boundary": "administrative",
      "way_area": "0.0572432",
      "admin_level": "5"
    }
  },
  {
    "osm_id": -11993008,
    "boundary": "administrative",
    "admin_level": 5,
    "parents": "-364082,-364066",
    "name": "Tegh Community",
    "local_name": "Տեղի տարածաշրջան",
    "name_en": "Tegh Community",
    "all_tags": {
      "name": "Տեղի տարածաշրջան",
      "name:en": "Tegh Community",
      "name:fa": "شهرستان تغ",
      "boundary": "administrative",
      "way_area": "0.0186301",
      "admin_level": "5"
    }
  },
  {
    "osm_id": -11993007,
    "boundary": "administrative",
    "admin_level": 5,
    "parents": "-364082,-364066",
    "name": "Tatev Community",
    "local_name": "Տաթևի տարածաշրջան",
    "name_en": "Tatev Community",
    "all_tags": {
      "name": "Տաթևի տարածաշրջան",
      "name:en": "Tatev Community",
      "name:fa": "شهرستان تاتو",
      "boundary": "administrative",
      "way_area": "0.0321496",
      "wikidata": "Q48862730",
      "admin_level": "5"
    }
  },
  {
    "osm_id": -11992300,
    "boundary": "administrative",
    "admin_level": 5,
    "parents": "-364082,-364066",
    "name": "Kajaran Community",
    "local_name": "Քաջարանի տարածաշրջան",
    "name_en": "Kajaran Community",
    "all_tags": {
      "name": "Քաջարանի տարածաշրջան",
      "name:en": "Kajaran Community",
      "name:fa": "شهرستان کاجاران",
      "boundary": "administrative",
      "way_area": "0.0642782",
      "admin_level": "5"
    }
  },
  {
    "osm_id": -11816846,
    "boundary": "administrative",
    "admin_level": 5,
    "parents": "-364078,-364066",
    "name": "Tumanyan Region",
    "local_name": "Թումանյանի տարածաշրջան",
    "name_en": "Tumanyan Region",
    "all_tags": {
      "name": "Թումանյանի տարածաշրջան",
      "name:en": "Tumanyan Region",
      "name:ru": "Туманянский район",
      "boundary": "administrative",
      "way_area": "0.124467",
      "admin_level": "5"
    }
  },
  {
    "osm_id": -11816845,
    "boundary": "administrative",
    "admin_level": 5,
    "parents": "-364078,-364066",
    "name": "Vanadzor Region",
    "local_name": "Վանաձորի տարածաշրջան",
    "name_en": "Vanadzor Region",
    "all_tags": {
      "name": "Վանաձորի տարածաշրջան",
      "name:en": "Vanadzor Region",
      "name:ru": "Ванадзорский район",
      "boundary": "administrative",
      "way_area": "0.0909411",
      "admin_level": "5"
    }
  },
  {
    "osm_id": -11816844,
    "boundary": "administrative",
    "admin_level": 5,
    "parents": "-364078,-364066",
    "name": "Stepanavan Region",
    "local_name": "Ստեփանավանի տարածաշրջան",
    "name_en": "Stepanavan Region",
    "all_tags": {
      "name": "Ստեփանավանի տարածաշրջան",
      "name:en": "Stepanavan Region",
      "name:ru": "Степанаванский район",
      "boundary": "administrative",
      "way_area": "0.0392665",
      "admin_level": "5"
    }
  },
  {
    "osm_id": -11816843,
    "boundary": "administrative",
    "admin_level": 5,
    "parents": "-364078,-364066",
    "name": "Spitak Region",
    "local_name": "Սպիտակի տարածաշրջան",
    "name_en": "Spitak Region",
    "all_tags": {
      "name": "Սպիտակի տարածաշրջան",
      "name:en": "Spitak Region",
      "name:ru": "Спитакский район",
      "boundary": "administrative",
      "way_area": "0.0626647",
      "admin_level": "5"
    }
  },
  {
    "osm_id": -11816842,
    "boundary": "administrative",
    "admin_level": 5,
    "parents": "-364078,-364066",
    "name": "Tashir Region",
    "local_name": "Տաշիրի տարածաշրջան",
    "name_en": "Tashir Region",
    "all_tags": {
      "name": "Տաշիրի տարածաշրջան",
      "name:en": "Tashir Region",
      "name:ru": "Таширский район",
      "boundary": "administrative",
      "way_area": "0.068349",
      "admin_level": "5"
    }
  },
  {
    "osm_id": -11788622,
    "boundary": "administrative",
    "admin_level": 5,
    "parents": "-364082,-364066",
    "name": "Meghri Community",
    "local_name": "Մեղրիի տարածաշրջան",
    "name_en": "Meghri Community",
    "all_tags": {
      "name": "Մեղրիի տարածաշրջան",
      "name:en": "Meghri Community",
      "name:fa": "شهرستان مغری",
      "boundary": "administrative",
      "way_area": "0.0686683",
      "admin_level": "5"
    }
  },
  {
    "osm_id": -11788621,
    "boundary": "administrative",
    "admin_level": 5,
    "parents": "-364082,-364066",
    "name": "Kapan Community",
    "local_name": "Կապանի տարածաշրջան",
    "name_en": "Kapan Community",
    "all_tags": {
      "name": "Կապանի տարածաշրջան",
      "name:en": "Kapan Community",
      "name:fa": "شهرستان کاپان",
      "boundary": "administrative",
      "way_area": "0.0783964",
      "admin_level": "5"
    }
  },
  {
    "osm_id": -11788620,
    "boundary": "administrative",
    "admin_level": 5,
    "parents": "-364082,-364066",
    "name": "Goris Community",
    "local_name": "Գորիսի տարածաշրջան",
    "name_en": "Goris Community",
    "all_tags": {
      "name": "Գորիսի տարածաշրջան",
      "name:en": "Goris Community",
      "name:fa": "شهرستان گوریس",
      "boundary": "administrative",
      "way_area": "0.0280333",
      "admin_level": "5"
    }
  },
  {
    "osm_id": -11788619,
    "boundary": "administrative",
    "admin_level": 5,
    "parents": "-364082,-364066",
    "name": "Sisian Community",
    "local_name": "Սիսիանի տարածաշրջան",
    "name_en": "Sisian Community",
    "all_tags": {
      "name": "Սիսիանի տարածաշրջան",
      "name:en": "Sisian Community",
      "name:fa": "شهرستان سیسیان",
      "boundary": "administrative",
      "way_area": "0.120798",
      "admin_level": "5"
    }
  },
  {
    "osm_id": -11543307,
    "boundary": "administrative",
    "admin_level": 5,
    "parents": "-364079,-364066",
    "name": "Ijevan Region",
    "local_name": "Իջևանի տարածաշրջան",
    "name_en": "Ijevan Region",
    "all_tags": {
      "name": "Իջևանի տարածաշրջան",
      "name:en": "Ijevan Region",
      "name:ru": "Иджеванский район",
      "name:uk": "Іджеван",
      "boundary": "administrative",
      "way_area": "0.126391",
      "wikidata": "Q4197905",
      "wikipedia": "hy:Իջևանի շրջան",
      "admin_level": "5"
    }
  },
  {
    "osm_id": -11543306,
    "boundary": "administrative",
    "admin_level": 5,
    "parents": "-364079,-364066",
    "name": "Noyemberyan Region",
    "local_name": "Նոյեմբերյանի տարածաշրջան",
    "name_en": "Noyemberyan Region",
    "all_tags": {
      "name": "Նոյեմբերյանի տարածաշրջան",
      "name:en": "Noyemberyan Region",
      "name:ru": "Нойемберянский район",
      "boundary": "administrative",
      "way_area": "0.0445218",
      "admin_level": "5"
    }
  },
  {
    "osm_id": -11543305,
    "boundary": "administrative",
    "admin_level": 5,
    "parents": "-364079,-364066",
    "name": "Berd Region",
    "local_name": "Բերդի տարածաշրջան",
    "name_en": "Berd Region",
    "all_tags": {
      "name": "Բերդի տարածաշրջան",
      "name:en": "Berd Region",
      "name:ru": "Бердский район",
      "name:uk": "Берд",
      "boundary": "administrative",
      "way_area": "0.0682931",
      "admin_level": "5"
    }
  },
  {
    "osm_id": -11543300,
    "boundary": "administrative",
    "admin_level": 5,
    "parents": "-364081,-364066",
    "name": "Jermuk Community",
    "local_name": "Ջերմուկի տարածաշրջան",
    "name_en": "Jermuk Community",
    "all_tags": {
      "name": "Ջերմուկի տարածաշրջան",
      "name:en": "Jermuk Community",
      "name:fa": "شهرستان جرموک",
      "boundary": "administrative",
      "way_area": "0.0853127",
      "admin_level": "5"
    }
  },
  {
    "osm_id": -11543299,
    "boundary": "administrative",
    "admin_level": 5,
    "parents": "-364081,-364066",
    "name": "Yeghegis Community",
    "local_name": "Եղեգիսի տարածաշրջան",
    "name_en": "Yeghegis Community",
    "all_tags": {
      "name": "Եղեգիսի տարածաշրջան",
      "name:en": "Yeghegis Community",
      "name:fa": "شهرستان یغگیس",
      "boundary": "administrative",
      "way_area": "0.0550181",
      "wikidata": "Q48862638",
      "admin_level": "5"
    }
  },
  {
    "osm_id": -10921611,
    "boundary": "administrative",
    "admin_level": 5,
    "parents": "-364077,-364066",
    "name": "Ashotsk Region",
    "local_name": "Աշոցքի տարածաշրջան",
    "name_en": "Ashotsk Region",
    "all_tags": {
      "name": "Աշոցքի տարածաշրջան",
      "name:en": "Ashotsk Region",
      "name:ru": "Ашоцкский район",
      "boundary": "administrative",
      "way_area": "0.0583597",
      "admin_level": "5"
    }
  },
  {
    "osm_id": -10921610,
    "boundary": "administrative",
    "admin_level": 5,
    "parents": "-364077,-364066",
    "name": "Amasia region",
    "local_name": "Ամասիայի տարածաշրջան",
    "name_en": "Amasia region",
    "all_tags": {
      "name": "Ամասիայի տարածաշրջան",
      "name:en": "Amasia region",
      "name:ru": "Амасиский район",
      "boundary": "administrative",
      "way_area": "0.0590845",
      "admin_level": "5"
    }
  },
  {
    "osm_id": -10921609,
    "boundary": "administrative",
    "admin_level": 5,
    "parents": "-364077,-364066",
    "name": "Akhuryan region",
    "local_name": "Ախուրյանի տարածաշրջան",
    "name_en": "Akhuryan region",
    "all_tags": {
      "name": "Ախուրյանի տարածաշրջան",
      "name:en": "Akhuryan region",
      "name:ru": "Ахурянский район",
      "boundary": "administrative",
      "way_area": "0.0998197",
      "admin_level": "5"
    }
  },
  {
    "osm_id": -10921594,
    "boundary": "administrative",
    "admin_level": 5,
    "parents": "-364077,-364066",
    "name": "Artik region",
    "local_name": "Արթիկի տարածաշրջան",
    "name_en": "Artik region",
    "all_tags": {
      "name": "Արթիկի տարածաշրջան",
      "name:en": "Artik region",
      "name:ru": "Артикский район",
      "boundary": "administrative",
      "way_area": "0.0547553",
      "wikidata": "Q4070260",
      "admin_level": "5"
    }
  },
  {
    "osm_id": -10869624,
    "boundary": "administrative",
    "admin_level": 5,
    "parents": "-364077,-364066",
    "name": "Maralik region",
    "local_name": "Մարալիկի տարածաշրջան",
    "name_en": "Maralik region",
    "all_tags": {
      "name": "Մարալիկի տարածաշրջան",
      "name:ar": "منطقة ماراليك",
      "name:en": "Maralik region",
      "name:ru": "Мараликский район",
      "boundary": "administrative",
      "way_area": "0.0441493",
      "admin_level": "5"
    }
  },
  {
    "osm_id": -10866162,
    "boundary": "administrative",
    "admin_level": 5,
    "parents": "-3917110,-364066",
    "name": "Tsaghkahovit region",
    "local_name": "Ծաղկահովիտի տարածաշրջան",
    "name_en": "Tsaghkahovit region",
    "all_tags": {
      "name": "Ծաղկահովիտի տարածաշրջան",
      "name:en": "Tsaghkahovit region",
      "name:ru": "Цахкаовитский район",
      "boundary": "administrative",
      "int_name": "Aragats region",
      "way_area": "0.0395466",
      "admin_level": "5"
    }
  },
  {
    "osm_id": -10866161,
    "boundary": "administrative",
    "admin_level": 5,
    "parents": "-3917110,-364066",
    "name": "Aparan region",
    "local_name": "Ապարանի տարածաշրջան",
    "name_en": "Aparan region",
    "all_tags": {
      "name": "Ապարանի տարածաշրջան",
      "name:en": "Aparan region",
      "name:ru": "Апаранский район",
      "boundary": "administrative",
      "int_name": "Aparan region",
      "way_area": "0.0727277",
      "admin_level": "5"
    }
  },
  {
    "osm_id": -10866160,
    "boundary": "administrative",
    "admin_level": 5,
    "parents": "-3917110,-364066",
    "name": "Ashtarak region",
    "local_name": "Աշտարակի տարածաշրջան",
    "name_en": "Ashtarak region",
    "all_tags": {
      "name": "Աշտարակի տարածաշրջան",
      "name:en": "Ashtarak region",
      "name:ru": "Аштаракский район",
      "boundary": "administrative",
      "int_name": "Ashtarak region",
      "way_area": "0.0507426",
      "admin_level": "5"
    }
  },
  {
    "osm_id": -10866159,
    "boundary": "administrative",
    "admin_level": 5,
    "parents": "-3917110,-364066",
    "name": "Talin region",
    "local_name": "Թալինի տարածաշրջան",
    "name_en": "Talin region",
    "all_tags": {
      "name": "Թալինի տարածաշրջան",
      "name:en": "Talin region",
      "name:ru": "Талинский район",
      "boundary": "administrative",
      "int_name": "Talin region",
      "way_area": "0.132621",
      "wikidata": "Q4450423",
      "wikipedia": "hy:Թալինի շրջան",
      "admin_level": "5"
    }
  },
  {
    "osm_id": -10860153,
    "boundary": "administrative",
    "admin_level": 5,
    "parents": "-364084,-364066",
    "name": "Hrazdan region",
    "local_name": "Հրազդանի տարածաշրջան",
    "name_en": "Hrazdan region",
    "all_tags": {
      "name": "Հրազդանի տարածաշրջան",
      "name:en": "Hrazdan region",
      "name:ru": "Разданский район",
      "boundary": "administrative",
      "way_area": "0.10572",
      "admin_level": "5"
    }
  },
  {
    "osm_id": -10860152,
    "boundary": "administrative",
    "admin_level": 5,
    "parents": "-364084,-364066",
    "name": "Abovyan region",
    "local_name": "Աբովյանի տարածաշրջան",
    "name_en": "Abovyan region",
    "all_tags": {
      "name": "Աբովյանի տարածաշրջան",
      "name:en": "Abovyan region",
      "name:ru": "Абовянский район",
      "boundary": "administrative",
      "way_area": "0.0670535",
      "admin_level": "5"
    }
  },
  {
    "osm_id": -10860151,
    "boundary": "administrative",
    "admin_level": 5,
    "parents": "-364084,-364066",
    "name": "Yeghvard region",
    "local_name": "Եղվարդի տարածաշրջան",
    "name_en": "Yeghvard region",
    "all_tags": {
      "name": "Եղվարդի տարածաշրջան",
      "name:en": "Yeghvard region",
      "name:ru": "Егвардский район",
      "boundary": "administrative",
      "way_area": "0.0307602",
      "admin_level": "5"
    }
  },
  {
    "osm_id": -10860125,
    "boundary": "administrative",
    "admin_level": 5,
    "parents": "-364086,-364066",
    "name": "Vagharshapat region",
    "local_name": "Վաղարշապատի տարածաշրջան",
    "name_en": "Vagharshapat region",
    "all_tags": {
      "name": "Վաղարշապատի տարածաշրջան",
      "name:en": "Vagharshapat region",
      "name:ru": "Вагаршапатский район",
      "boundary": "administrative",
      "int_name": "Vagharshapat region",
      "way_area": "0.0475476",
      "admin_level": "5"
    }
  },
  {
    "osm_id": -10860124,
    "boundary": "administrative",
    "admin_level": 5,
    "parents": "-364086,-364066",
    "name": "Armavir region",
    "local_name": "Արմավիրի տարածաշրջան",
    "name_en": "Armavir region",
    "all_tags": {
      "name": "Արմավիրի տարածաշրջան",
      "name:en": "Armavir region",
      "name:ru": "Армавирский район",
      "boundary": "administrative",
      "int_name": "Armavir region",
      "way_area": "0.0465772",
      "admin_level": "5"
    }
  },
  {
    "osm_id": -10860123,
    "boundary": "administrative",
    "admin_level": 5,
    "parents": "-364086,-364066",
    "name": "Baghramyan region",
    "local_name": "Բաղրամյանի տարածաշրջան",
    "name_en": "Baghramyan region",
    "all_tags": {
      "name": "Բաղրամյանի տարածաշրջան",
      "name:en": "Baghramyan region",
      "name:ru": "Баграмянский район",
      "boundary": "administrative",
      "int_name": "Baghramyan region",
      "way_area": "0.0428515",
      "admin_level": "5"
    }
  },
  {
    "osm_id": -10853047,
    "boundary": "administrative",
    "admin_level": 5,
    "parents": "-364080,-364066",
    "name": "Chambarak region",
    "local_name": "Ճամբարակի տարածաշրջան",
    "name_en": "Chambarak region",
    "all_tags": {
      "name": "Ճամբարակի տարածաշրջան",
      "name:en": "Chambarak region",
      "name:ru": "Чамбаракский район",
      "boundary": "administrative",
      "way_area": "0.0713442",
      "admin_level": "5"
    }
  },
  {
    "osm_id": -10853046,
    "boundary": "administrative",
    "admin_level": 5,
    "parents": "-364080,-364066",
    "name": "Sevan Region",
    "local_name": "Սևանի տարածաշրջան",
    "name_en": "Sevan Region",
    "all_tags": {
      "name": "Սևանի տարածաշրջան",
      "name:en": "Sevan Region",
      "name:ru": "Севанский район",
      "boundary": "administrative",
      "way_area": "0.0288739",
      "admin_level": "5"
    }
  },
  {
    "osm_id": -10853045,
    "boundary": "administrative",
    "admin_level": 5,
    "parents": "-364080,-364066",
    "name": "Gavar region",
    "local_name": "Գավառի տարածաշրջան",
    "name_en": "Gavar region",
    "all_tags": {
      "name": "Գավառի տարածաշրջան",
      "name:en": "Gavar region",
      "name:ru": "Гаварский район",
      "boundary": "administrative",
      "way_area": "0.0605402",
      "admin_level": "5"
    }
  },
  {
    "osm_id": -10853044,
    "boundary": "administrative",
    "admin_level": 5,
    "parents": "-364080,-364066",
    "name": "Vardenis region",
    "local_name": "Վարդենիսի տարածաշրջան",
    "name_en": "Vardenis region",
    "all_tags": {
      "name": "Վարդենիսի տարածաշրջան",
      "name:en": "Vardenis region",
      "name:ru": "Варденисский район",
      "boundary": "administrative",
      "way_area": "0.086215",
      "admin_level": "5"
    }
  },
  {
    "osm_id": -10853043,
    "boundary": "administrative",
    "admin_level": 5,
    "parents": "-364080,-364066",
    "name": "Martuni region",
    "local_name": "Մարտունու տարածաշրջան",
    "name_en": "Martuni region",
    "all_tags": {
      "name": "Մարտունու տարածաշրջան",
      "name:en": "Martuni region",
      "name:ru": "Мартунийский район",
      "name:uk": "Мартуні",
      "boundary": "administrative",
      "way_area": "0.124146",
      "admin_level": "5"
    }
  },
  {
    "osm_id": -10852606,
    "boundary": "administrative",
    "admin_level": 5,
    "parents": "-364083,-364066",
    "name": "Vedi region",
    "local_name": "Վեդու տարածաշրջան",
    "name_en": "Vedi region",
    "all_tags": {
      "name": "Վեդու տարածաշրջան",
      "name:en": "Vedi region",
      "name:ru": "Ведийский район",
      "boundary": "administrative",
      "int_name": "Vedi region",
      "way_area": "0.11575",
      "admin_level": "5"
    }
  },
  {
    "osm_id": -10852605,
    "boundary": "administrative",
    "admin_level": 5,
    "parents": "-364083,-364066",
    "name": "Ararat region",
    "local_name": "Արարատի տարածաշրջան",
    "name_en": "Ararat region",
    "all_tags": {
      "name": "Արարատի տարածաշրջան",
      "name:en": "Ararat region",
      "name:ru": "Араратский район",
      "boundary": "administrative",
      "int_name": "Ararat region",
      "way_area": "0.045655",
      "admin_level": "5"
    }
  },
  {
    "osm_id": -10852604,
    "boundary": "administrative",
    "admin_level": 5,
    "parents": "-364083,-364066",
    "name": "Masis region",
    "local_name": "Մասիսի տարածաշրջան",
    "name_en": "Masis region",
    "all_tags": {
      "name": "Մասիսի տարածաշրջան",
      "name:en": "Masis region",
      "name:ru": "Масиский район",
      "boundary": "administrative",
      "int_name": "Masis region",
      "way_area": "0.0191719",
      "admin_level": "5"
    }
  },
  {
    "osm_id": -10852603,
    "boundary": "administrative",
    "admin_level": 5,
    "parents": "-364083,-364066",
    "name": "Artashat region",
    "local_name": "Արտաշատի տարածաշրջան",
    "name_en": "Artashat region",
    "all_tags": {
      "name": "Արտաշատի տարածաշրջան",
      "name:en": "Artashat region",
      "name:ru": "Арташатский район",
      "boundary": "administrative",
      "int_name": "Artashat region",
      "way_area": "0.0506264",
      "wikidata": "Q4070153",
      "wikipedia": "hy:Արտաշատի շրջան",
      "admin_level": "5"
    }
  },
  {
    "osm_id": -10255555,
    "boundary": "administrative",
    "admin_level": 6,
    "parents": "-12001265,-364081,-364066",
    "name": "Yeghegnadzor",
    "local_name": "Եղեգնաձոր",
    "name_en": "Yeghegnadzor",
    "all_tags": {
      "name": "Եղեգնաձոր",
      "place": "town",
      "name:de": "Jeghegnadsor",
      "name:en": "Yeghegnadzor",
      "name:hy": "Եղեգնաձոր",
      "name:it": "Jeghegnadzoras",
      "name:ja": "イェゲグナゾル",
      "name:pl": "Jeghegnadzor",
      "name:ru": "Ехегнадзор",
      "name:uk": "Єгеґнадзор",
      "boundary": "administrative",
      "way_area": "0.000494051",
      "wikidata": "Q39538",
      "wikipedia": "hy:Եղեգնաձոր",
      "population": "7944",
      "admin_level": "6"
    }
  },
  {
    "osm_id": -9084333,
    "boundary": "administrative",
    "admin_level": 5,
    "parents": "-364084,-364066",
    "name": "Hrazdan",
    "local_name": "Հրազդան",
    "name_en": "Hrazdan",
    "all_tags": {
      "name": "Հրազդան",
      "place": "town",
      "name:de": "Hrasdan",
      "name:en": "Hrazdan",
      "name:hy": "Հրազդան",
      "name:lt": "Hrazdanas",
      "name:ru": "Раздан",
      "boundary": "administrative",
      "way_area": "0.00251371",
      "wikidata": "Q31610",
      "wikipedia": "en:Hrazdan",
      "population": "42000",
      "admin_level": "5"
    }
  },
  {
    "osm_id": -8896914,
    "boundary": "administrative",
    "admin_level": 5,
    "parents": "-364080,-364066",
    "name": "Gavar",
    "local_name": "Գավառ",
    "name_en": "Gavar",
    "all_tags": {
      "name": "Գավառ",
      "place": "town",
      "name:de": "Gawar",
      "name:el": "Γκαβάρ",
      "name:en": "Gavar",
      "name:fr": "Gavar",
      "name:hy": "Գավառ",
      "name:it": "Gavar",
      "name:ja": "ガバル (アルメニア)",
      "name:ka": "გავარი (სომხეთი)",
      "name:ko": "가바르",
      "name:lt": "Gavaras (miestas)",
      "name:ru": "Гавар",
      "alt_name": "Kyavar",
      "boundary": "administrative",
      "old_name": "Nor Bayezet",
      "way_area": "0.00116466",
      "wikidata": "Q39565",
      "wikipedia": "en:Gavar",
      "admin_level": "5"
    }
  },
  {
    "osm_id": -8404520,
    "boundary": "administrative",
    "admin_level": 5,
    "parents": "-364080,-364066",
    "name": "Sevan",
    "local_name": "Սևան",
    "name_en": "Sevan",
    "all_tags": {
      "name": "Սևան",
      "place": "town",
      "name:de": "Sewan (Stadt)",
      "name:en": "Sevan",
      "name:es": "Sevan",
      "name:fr": "Sevan",
      "name:hy": "Սևան",
      "name:lt": "Sevanas (miestas)",
      "name:ru": "Севан",
      "boundary": "administrative",
      "way_area": "0.000913233",
      "wikidata": "Q39625",
      "wikipedia": "en:Sevan, Armenia",
      "population": "23200",
      "admin_level": "5"
    }
  },
  {
    "osm_id": -8122811,
    "boundary": "administrative",
    "admin_level": 6,
    "parents": "-13091914,-364079,-364066",
    "name": "Dilijan",
    "local_name": "Դիլիջան",
    "name_en": "Dilijan",
    "all_tags": {
      "name": "Դիլիջան",
      "place": "town",
      "name:en": "Dilijan",
      "name:hy": "Դիլիջան",
      "name:ru": "Дилижан",
      "boundary": "administrative",
      "way_area": "1.05537e-05",
      "population": "18000",
      "admin_level": "6"
    }
  },
  {
    "osm_id": -7857352,
    "boundary": "administrative",
    "admin_level": 6,
    "parents": "-12201442,-364084,-364066",
    "name": "Garni",
    "local_name": "Գառնի",
    "name_en": "Garni",
    "all_tags": {
      "name": "Գառնի",
      "place": "village",
      "name:de": "Garni (Ort)",
      "name:en": "Garni",
      "name:fr": "Garni",
      "name:hy": "Գառնի",
      "name:ru": "Гарни",
      "name:uk": "Ґарні (село)",
      "boundary": "administrative",
      "way_area": "0.000609846",
      "wikidata": "Q1010273",
      "wikipedia": "en:Garni",
      "population": "6910",
      "admin_level": "6"
    }
  },
  {
    "osm_id": -7846009,
    "boundary": "administrative",
    "admin_level": 6,
    "parents": "-10860152,-364084,-364066",
    "name": "Abovyan",
    "local_name": "Աբովյան",
    "name_en": "Abovyan",
    "all_tags": {
      "name": "Աբովյան",
      "place": "town",
      "name:ar": "أبوفيان (أرارات)",
      "name:bg": "Абовян",
      "name:de": "Abowjan",
      "name:en": "Abovyan",
      "name:eo": "Abovjan",
      "name:es": "Abovyan",
      "name:fa": "آبوویان",
      "name:fr": "Abovyan",
      "name:hr": "Abovjan",
      "name:hy": "Աբովյան",
      "name:id": "Abovyan",
      "name:it": "Abovyan",
      "name:ka": "აბოვიანი",
      "name:ko": "아보비안",
      "name:lt": "Abovianas",
      "name:ms": "Abovyan",
      "name:nl": "Abovjan (Kotajk)",
      "name:pl": "Abowian",
      "name:pt": "Abovyan",
      "name:ro": "Abovian",
      "name:ru": "Абовян",
      "name:sr": "Абовјан",
      "name:sw": "Abovyan",
      "name:tr": "Abovyan",
      "name:uk": "Абовян (місто)",
      "name:vi": "Abovyan",
      "name:zh": "阿博維揚 (亞美尼亞)",
      "boundary": "administrative",
      "way_area": "0.00143784",
      "wikidata": "Q31493",
      "wikipedia": "hy:Աբովյան (քաղաք)",
      "population": "60000",
      "admin_level": "6",
      "wikipedia_1": "en:Abovyan"
    }
  },
  {
    "osm_id": -7843731,
    "boundary": "administrative",
    "admin_level": 5,
    "parents": "-364084,-364066",
    "name": "Tsakhkadzor",
    "local_name": "Ծաղկա‎ձոր",
    "name_en": "Tsakhkadzor",
    "all_tags": {
      "ele": "1841",
      "name": "Ծաղկա‎ձոր",
      "is_in": "Armenia, Kotayk",
      "place": "town",
      "name:el": "Τσαχκαντζόρ",
      "name:en": "Tsakhkadzor",
      "name:hy": "Ծաղկա‎ձոր",
      "name:ru": "Цахкадзор",
      "website": "http://www.tsakhkadzor.am",
      "boundary": "administrative",
      "int_name": "Tsakhkadzor",
      "nat_name": "Ծաղկա‎ձոր",
      "way_area": "0.000620114",
      "wikidata": "Q140342",
      "wikipedia": "en:Tsaghkadzor",
      "population": "1620",
      "admin_level": "5"
    }
  },
  {
    "osm_id": -7825883,
    "boundary": "administrative",
    "admin_level": 5,
    "parents": "-364078,-364066",
    "name": "Vanadzor",
    "local_name": "Վանաձոր",
    "name_en": "Vanadzor",
    "all_tags": {
      "name": "Վանաձոր",
      "place": "city",
      "name:de": "Wanadsor",
      "name:en": "Vanadzor",
      "name:fr": "Vanadzor",
      "name:hy": "Վանաձոր",
      "name:it": "Vanadzor",
      "name:ka": "ვანაძორი",
      "name:ko": "바나조르",
      "name:lt": "Vanadzoras",
      "name:ru": "Ванадзор",
      "name:tr": "Vanadzor",
      "boundary": "administrative",
      "old_name": "Gharakilisa;Kirovakan",
      "way_area": "0.00236419",
      "wikidata": "Q62337",
      "wikipedia": "en:Vanadzor",
      "population": "82200",
      "admin_level": "5",
      "old_name:ru": "Караклис;Каракилисе;Кировакан"
    }
  },
  {
    "osm_id": -7814501,
    "boundary": "administrative",
    "admin_level": 5,
    "parents": "-364077,-364066",
    "name": "Gyumri",
    "local_name": "Գյումրի",
    "name_en": "Gyumri",
    "all_tags": {
      "ele": "1509",
      "name": "Գյումրի",
      "is_in": "Armenia, Shirak",
      "place": "city",
      "name:ar": "غيومري",
      "name:de": "Gjumri",
      "name:en": "Gyumri",
      "name:es": "Guiumri",
      "name:eu": "Giumri",
      "name:fr": "Gyumri",
      "name:hy": "Գյումրի",
      "name:ja": "ギュムリ",
      "name:ka": "გიუმრი",
      "name:ko": "귬리",
      "name:ku": "Gumrî",
      "name:lt": "Giumris",
      "name:nl": "Gjoemri",
      "name:pl": "Giumri",
      "name:ru": "Гюмри",
      "name:uk": "Ґюмрі",
      "name:zh": "久姆里",
      "boundary": "administrative",
      "way_area": "0.00499353",
      "wikidata": "Q199500",
      "wikipedia": "en:Gyumri",
      "population": "121976",
      "admin_level": "5"
    }
  },
  {
    "osm_id": -7772201,
    "boundary": "administrative",
    "admin_level": 5,
    "parents": "-364086,-364066",
    "name": "Vagharshapat",
    "local_name": "Վաղարշապատ",
    "name_en": "Vagharshapat",
    "all_tags": {
      "name": "Վաղարշապատ",
      "place": "city",
      "name:de": "Etschmiadsin",
      "name:en": "Vagharshapat",
      "name:fr": "Etchmiadzin",
      "name:hy": "Վաղարշապատ",
      "name:ru": "Вагаршапат",
      "boundary": "administrative",
      "way_area": "0.0011083",
      "wikidata": "Q183394",
      "wikipedia": "en:Vagharshapat",
      "admin_level": "5"
    }
  },
  {
    "osm_id": -7745403,
    "boundary": "administrative",
    "admin_level": 6,
    "parents": "-11788621,-364082,-364066",
    "name": "Kapan",
    "local_name": "Կապան",
    "name_en": "Kapan",
    "all_tags": {
      "name": "Կապան",
      "place": "town",
      "name:en": "Kapan",
      "name:fa": "کاپان",
      "name:fr": "Kapan",
      "name:hy": "Կապան",
      "name:ja": "カパン",
      "name:ko": "카판",
      "name:lt": "Kapanas",
      "name:ru": "Капан",
      "name:uk": "Капан",
      "boundary": "administrative",
      "way_area": "0.00195648",
      "wikidata": "Q31583",
      "wikipedia": "en:Kapan",
      "admin_level": "6",
      "is_in:country": "Armenia, Syunik",
      "is_in:continent": "asia"
    }
  },
  {
    "osm_id": -3917110,
    "boundary": "administrative",
    "admin_level": 4,
    "parents": "-364066",
    "name": "Aragatsotn Province",
    "local_name": "Արագածոտնի մարզ",
    "name_en": "Aragatsotn Province",
    "all_tags": {
      "name": "Արագածոտնի մարզ",
      "is_in": "Armenia",
      "name:az": "Araqacotn mərzi",
      "name:de": "Provinz Aragazotn",
      "name:el": "Αραγκατσότν",
      "name:en": "Aragatsotn Province",
      "name:es": "Aragatsotn",
      "name:fr": "Aragatsotn",
      "name:hy": "Արագածոտնի մարզ",
      "name:ru": "Арагацотнская область",
      "name:uk": "Араґацотн",
      "boundary": "administrative",
      "int_name": "Aragatsotn",
      "way_area": "0.295638",
      "wikidata": "Q17915",
      "ISO3166-2": "AM-AG",
      "wikipedia": "hy:Արագածոտնի մարզ",
      "admin_level": "4",
      "is_in:country": "Armenia",
      "is_in:continent": "Asia",
      "is_in:country_code": "AM"
    }
  },
  {
    "osm_id": -364087,
    "boundary": "administrative",
    "admin_level": 4,
    "parents": "-364066",
    "name": "Yerevan",
    "local_name": "Երևան",
    "name_en": "Yerevan",
    "all_tags": {
      "name": "Երևան",
      "is_in": "Armenia",
      "place": "city",
      "capital": "yes",
      "name:ab": "Ереван",
      "name:af": "Jerewan",
      "name:ak": "Erevan",
      "name:am": "ዬሬቫን",
      "name:an": "Erevan",
      "name:ar": "يريفان",
      "name:av": "Ереван",
      "name:az": "İrəvan",
      "name:ba": "Ереван",
      "name:be": "Ерэван",
      "name:bg": "Ереван",
      "name:bn": "ইয়েরেভান",
      "name:bo": "ཡེ་རེ་ཝན།",
      "name:br": "Yerevan",
      "name:bs": "Erevan",
      "name:ca": "Erevan",
      "name:ce": "Ереван",
      "name:cs": "Jerevan",
      "name:cv": "Ереван",
      "name:cy": "Yerevan",
      "name:da": "Jerevan",
      "name:de": "Jerewan",
      "name:el": "Γιερεβάν",
      "name:en": "Yerevan",
      "name:eo": "Erevano",
      "name:es": "Ereván",
      "name:et": "Jerevan",
      "name:eu": "Erevan",
      "name:fa": "ایروان",
      "name:ff": "Yerevan",
      "name:fi": "Jerevan",
      "name:fr": "Erevan",
      "name:fy": "Jerevan",
      "name:ga": "Eireaván",
      "name:gd": "Yerevan",
      "name:gl": "Iereván - Երեվան",
      "name:gv": "Yerevan",
      "name:he": "ירוואן",
      "name:hi": "येरवान",
      "name:hr": "Erevan",
      "name:ht": "Erevàn",
      "name:hu": "Jereván",
      "name:hy": "Երևան",
      "name:ia": "Yerevan",
      "name:id": "Yerevan",
      "name:ie": "Jerevan",
      "name:io": "Yerevan",
      "name:is": "Jerevan",
      "name:it": "Yerevan",
      "name:ja": "エレバン",
      "name:jv": "Yerevan",
      "name:ka": "ერევანი",
      "name:kk": "Ереван",
      "name:kn": "ಯೆರೆವಾನ್",
      "name:ko": "예레반",
      "name:ku": "Êrîvan",
      "name:kv": "Ереван",
      "name:ky": "Ереван",
      "name:la": "Erevanum",
      "name:lb": "Eriwan",
      "name:li": "Jerevan",
      "name:lt": "Jerevanas",
      "name:lv": "Erevāna",
      "name:mg": "Yerevan",
      "name:mi": "Yerevan",
      "name:mk": "Ереван",
      "name:ml": "യെറിവാൻ",
      "name:mn": "Ереван",
      "name:mr": "येरेव्हान",
      "name:ms": "Yerevan",
      "name:ne": "येरवान प्रान्त",
      "name:nl": "Jerevan",
      "name:nn": "Jerevan",
      "name:no": "Jerevan",
      "name:ny": "Yerevan",
      "name:oc": "Erevan",
      "name:os": "Ереван",
      "name:pa": "ਯੇਰਵਾਨ",
      "name:pl": "Erywań",
      "name:pt": "Erevan",
      "name:qu": "Yiriwan",
      "name:ro": "Erevan",
      "name:ru": "Ереван",
      "name:rw": "Yerevan",
      "name:sa": "येरेवान",
      "name:sc": "Erevan",
      "name:sh": "Erevan",
      "name:sk": "Jerevan",
      "name:sl": "Erevan",
      "name:sn": "Yerevan",
      "name:sq": "Jerevani",
      "name:sr": "Јереван",
      "name:su": "Yérévan",
      "name:sv": "Jerevan",
      "name:sw": "Yerevan",
      "name:ta": "யெரெவான்",
      "name:te": "యెరెవాన్",
      "name:tg": "Ереван",
      "name:th": "เยเรวาน",
      "name:tk": "Ýerewan",
      "name:tl": "Yerevan",
      "name:tr": "Erivan",
      "name:tt": "Ереван",
      "name:tw": "Eεrεwan",
      "name:ug": "يېرېۋان",
      "name:uk": "Єреван",
      "name:ur": "یریوان",
      "name:uz": "Yerevan",
      "name:vi": "Yerevan",
      "name:vo": "Yerevan",
      "name:yi": "יערעוואן",
      "name:yo": "Yerevan",
      "name:zh": "葉里溫",
      "boundary": "administrative",
      "int_name": "Yerevan",
      "name:ckb": "یەریڤان",
      "name:diq": "Yerêvan",
      "name:frp": "Yèrèvan",
      "name:gag": "Erivan",
      "name:hif": "Yerevan",
      "name:hsb": "Jerjewan",
      "name:ilo": "Yerevan",
      "name:lad": "Djerevan",
      "name:lez": "Ереван",
      "name:lij": "Erevan",
      "name:lmo": "Erevan",
      "name:mdf": "Ереван ошсь",
      "name:mhr": "Ереван",
      "name:myv": "Ереван ош",
      "name:mzn": "ایروان",
      "name:nah": "Erevan",
      "name:nov": "Yerevan",
      "name:pms": "Erevan",
      "name:pnb": "یریوان",
      "name:sah": "Ереван",
      "name:scn": "Erevan",
      "name:sco": "Yerevan",
      "name:udm": "Ереван",
      "name:vec": "Èrevan",
      "name:vep": "Jerevan",
      "name:war": "Yerevan",
      "name:xmf": "ერევანი",
      "name:zea": "Jerevan",
      "way_area": "0.0237631",
      "wikidata": "Q1953",
      "ISO3166-2": "AM-ER",
      "wikipedia": "en:Yerevan",
      "admin_level": "4",
      "name:simple": "Yerevan",
      "name:fiu-vro": "Jerevan",
      "is_in:country": "Armenia",
      "name:be-tarask": "Ерэван",
      "is_in:continent": "Asia",
      "is_in:country_code": "AM"
    }
  },
  {
    "osm_id": -364086,
    "boundary": "administrative",
    "admin_level": 4,
    "parents": "-364066",
    "name": "Armavir Province",
    "local_name": "Արմավիրի մարզ",
    "name_en": "Armavir Province",
    "all_tags": {
      "name": "Արմավիրի մարզ",
      "is_in": "Armenia",
      "name:az": "Armavir mərzi",
      "name:de": "Provinz Armawir",
      "name:el": "Αρμαβίρ",
      "name:en": "Armavir Province",
      "name:es": "Armavir",
      "name:fr": "Armavir",
      "name:hy": "Արմավիրի մարզ",
      "name:ku": "Armawîr",
      "name:ms": "Wilayah Armavir",
      "name:ru": "Армавирская область",
      "boundary": "administrative",
      "way_area": "0.136976",
      "wikidata": "Q201147",
      "ISO3166-2": "AM-AV",
      "wikipedia": "hy:Արմավիրի մարզ",
      "admin_level": "4",
      "is_in:country": "Armenia",
      "is_in:continent": "Asia",
      "is_in:country_code": "AM"
    }
  },
  {
    "osm_id": -364084,
    "boundary": "administrative",
    "admin_level": 4,
    "parents": "-364066",
    "name": "Kotayk Province",
    "local_name": "Կոտայքի մարզ",
    "name_en": "Kotayk Province",
    "all_tags": {
      "name": "Կոտայքի մարզ",
      "is_in": "Armenia",
      "name:az": "Kotayk mərzi",
      "name:de": "Provinz Kotajk",
      "name:el": "Κοτάικ",
      "name:en": "Kotayk Province",
      "name:es": "Kotayk'",
      "name:fr": "Kotayk",
      "name:hy": "Կոտայքի մարզ",
      "name:ka": "კოტაიქის პროვინცია",
      "name:ru": "Котайкская область",
      "boundary": "administrative",
      "way_area": "0.218889",
      "wikidata": "Q4511",
      "ISO3166-2": "AM-KT",
      "wikipedia": "hy:Կոտայքի մարզ",
      "admin_level": "4",
      "is_in:country": "Armenia",
      "is_in:continent": "Asia",
      "is_in:country_code": "AM"
    }
  },
  {
    "osm_id": -364083,
    "boundary": "administrative",
    "admin_level": 4,
    "parents": "-364066",
    "name": "Ararat Province",
    "local_name": "Արարատի մարզ",
    "name_en": "Ararat Province",
    "all_tags": {
      "name": "Արարատի մարզ",
      "name:az": "Ararat mərzi",
      "name:de": "Provinz Ararat",
      "name:el": "Αραράτ",
      "name:en": "Ararat Province",
      "name:es": "Ararat",
      "name:fr": "Ararat",
      "name:hy": "Արարատի մարզ",
      "name:ja": "アララト地方",
      "name:ku": "Ararat",
      "name:ru": "Араратская область",
      "boundary": "administrative",
      "int_name": "Ararat",
      "way_area": "0.231203",
      "wikidata": "Q199880",
      "ISO3166-2": "AM-AR",
      "wikipedia": "hy:Արարատի մարզ",
      "admin_level": "4",
      "is_in:country": "Armenia",
      "is_in:continent": "Asia",
      "is_in:country_code": "AM"
    }
  },
  {
    "osm_id": -364082,
    "boundary": "administrative",
    "admin_level": 4,
    "parents": "-364066",
    "name": "Syunik Province",
    "local_name": "Սյունիքի մարզ",
    "name_en": "Syunik Province",
    "all_tags": {
      "name": "Սյունիքի մարզ",
      "is_in": "Armenia",
      "name:az": "Sünik mərzi",
      "name:cs": "Sjunik",
      "name:de": "Provinz Sjunik",
      "name:el": "Σιούνικ",
      "name:en": "Syunik Province",
      "name:es": "Syunik'",
      "name:fr": "Syunik",
      "name:hy": "Սյունիքի մարզ",
      "name:ja": "シュニク地方",
      "name:ka": "სიუნიქის პროვინცია",
      "name:ku": "Siyunîk",
      "name:ml": "സ്യൂണിക് പ്രവിശ്യ",
      "name:ru": "Сюникская область",
      "name:uk": "Сюнік область",
      "boundary": "administrative",
      "way_area": "0.468197",
      "wikidata": "Q2523428",
      "ISO3166-2": "AM-SU",
      "wikipedia": "ru:Сюникская область",
      "admin_level": "4",
      "is_in:country": "Armenia",
      "is_in:continent": "Asia",
      "is_in:country_code": "AM"
    }
  },
  {
    "osm_id": -364081,
    "boundary": "administrative",
    "admin_level": 4,
    "parents": "-364066",
    "name": "Vayots Dzor Province",
    "local_name": "Վայոց ձորի մարզ",
    "name_en": "Vayots Dzor Province",
    "all_tags": {
      "name": "Վայոց ձորի մարզ",
      "name:de": "Provinz Wajoz Dsor",
      "name:el": "Βαγιότζ Τζορ",
      "name:en": "Vayots Dzor Province",
      "name:es": "Vayots' Dzor",
      "name:fr": "Vayots Dzor",
      "name:hy": "Վայոց ձորի մարզ",
      "name:ja": "ヴァヨツ・ゾル地方",
      "name:ka": "ვაიოცძორის პროვინცია",
      "name:ku": "Vayots Cor",
      "name:ru": "Вайоцдзорская область",
      "name:uk": "Вайоц-Дзор область",
      "boundary": "administrative",
      "way_area": "0.245081",
      "wikidata": "Q200124",
      "ISO3166-2": "AM-VD",
      "wikipedia": "hy:Վայոց ձորի մարզ",
      "admin_level": "4",
      "is_in:country": "Armenia",
      "is_in:continent": "Asia",
      "is_in:country_code": "AM"
    }
  },
  {
    "osm_id": -364080,
    "boundary": "administrative",
    "admin_level": 4,
    "parents": "-364066",
    "name": "Gegharkunik Province",
    "local_name": "Գեղարքունիքի մարզ",
    "name_en": "Gegharkunik Province",
    "all_tags": {
      "name": "Գեղարքունիքի մարզ",
      "is_in": "Armenia",
      "name:de": "Provinz Gegharkunik",
      "name:el": "Γκεγκαρκούνικ",
      "name:en": "Gegharkunik Province",
      "name:es": "Gegharkunik'",
      "name:fr": "Gegharkunik",
      "name:hy": "Գեղարքունիքի մարզ",
      "name:ja": "ゲガルクニク地方",
      "name:ka": "გეღარქუნიქის პროვინცია",
      "name:ku": "Gêxarkunik",
      "name:ru": "Гехаркуникская область",
      "name:uk": "Ґегаркунік область",
      "boundary": "administrative",
      "int_name": "Gegharkunik",
      "way_area": "0.543149",
      "wikidata": "Q199905",
      "ISO3166-2": "AM-GR",
      "wikipedia": "hy:Գեղարքունիքի մարզ",
      "admin_level": "4",
      "alt_name:ru": "Гегаркуникская область",
      "is_in:country": "Armenia",
      "is_in:continent": "Asia",
      "is_in:country_code": "AM"
    }
  },
  {
    "osm_id": -364079,
    "boundary": "administrative",
    "admin_level": 4,
    "parents": "-364066",
    "name": "Tavush Province",
    "local_name": "Տավուշի մարզ",
    "name_en": "Tavush Province",
    "all_tags": {
      "name": "Տավուշի մարզ",
      "is_in": "Armenia",
      "name:az": "Tavuş mərzi",
      "name:de": "Provinz Tawusch",
      "name:en": "Tavush Province",
      "name:es": "Tavush",
      "name:fr": "Tavush",
      "name:hy": "Տավուշի մարզ",
      "name:it": "Provincia di Tavowš",
      "name:ja": "タヴシュ地方",
      "name:ku": "Tavuş",
      "name:ru": "Тавушская область",
      "name:uk": "Тавуш область",
      "boundary": "administrative",
      "way_area": "0.283654",
      "wikidata": "Q201140",
      "ISO3166-2": "AM-TV",
      "wikipedia": "hy:Տավուշի մարզ",
      "admin_level": "4",
      "is_in:country": "Armenia",
      "is_in:continent": "Asia",
      "is_in:country_code": "AM"
    }
  },
  {
    "osm_id": -364078,
    "boundary": "administrative",
    "admin_level": 4,
    "parents": "-364066",
    "name": "Lori Province",
    "local_name": "Լոռու մարզ",
    "name_en": "Lori Province",
    "all_tags": {
      "name": "Լոռու մարզ",
      "is_in": "Armenia",
      "name:de": "Provinz Lori",
      "name:en": "Lori Province",
      "name:es": "Lorri",
      "name:fr": "Lorri",
      "name:hy": "Լոռու մարզ",
      "name:ja": "ロリ地方",
      "name:ru": "Лорийская область",
      "boundary": "administrative",
      "way_area": "0.385688",
      "wikidata": "Q200350",
      "ISO3166-2": "AM-LO",
      "wikipedia": "hy:Լոռու մարզ",
      "admin_level": "4",
      "is_in:country": "Armenia",
      "is_in:continent": "Asia",
      "is_in:country_code": "AM"
    }
  },
  {
    "osm_id": -364077,
    "boundary": "administrative",
    "admin_level": 4,
    "parents": "-364066",
    "name": "Shirak Province",
    "local_name": "Շիրակի մարզ",
    "name_en": "Shirak Province",
    "all_tags": {
      "name": "Շիրակի մարզ",
      "is_in": "Armenia",
      "name:ar": "محافظة شيراك",
      "name:az": "Şirak mərzi",
      "name:de": "Provinz Schirak",
      "name:en": "Shirak Province",
      "name:es": "Shirak",
      "name:fr": "Shirak",
      "name:hy": "Շիրակի մարզ",
      "name:ja": "シラク地方",
      "name:ka": "შირაკის პროვინცია",
      "name:ku": "Şîrak",
      "name:ru": "Ширакская область",
      "boundary": "administrative",
      "way_area": "0.316168",
      "wikidata": "Q201063",
      "ISO3166-2": "AM-SH",
      "wikipedia": "hy:Շիրակի մարզ",
      "admin_level": "4",
      "is_in:country": "Armenia",
      "is_in:continent": "Asia",
      "is_in:country_code": "AM"
    }
  }
]
