[
  {
    "osm_id": -11807304,
    "boundary": "administrative",
    "admin_level": 6,
    "parents": "-422660,-195267",
    "name": "Quitapa",
    "local_name": "Quitapa",
    "name_en": null,
    "all_tags": {
      "name": "Quitapa",
      "boundary": "administrative",
      "way_area": "0.520972",
      "wikidata": "Q10356513",
      "admin_level": "6"
    }
  },
  {
    "osm_id": -11807291,
    "boundary": "administrative",
    "admin_level": 6,
    "parents": "-422660,-195267",
    "name": "Quizenga",
    "local_name": "Quizenga",
    "name_en": null,
    "all_tags": {
      "name": "Quizenga",
      "boundary": "administrative",
      "way_area": "0.128898",
      "admin_level": "6"
    }
  },
  {
    "osm_id": -11704233,
    "boundary": "administrative",
    "admin_level": 6,
    "parents": "-1802546,-195267",
    "name": "Ícolo and Bengo Municipality",
    "local_name": "Município de Ícolo e Bengo",
    "name_en": "Ícolo and Bengo Municipality",
    "all_tags": {
      "name": "Município de Ícolo e Bengo",
      "name:de": "Gemeinde Ícolo und Bengo",
      "name:en": "Ícolo and Bengo Municipality",
      "name:es": "Municipio de Ícolo y Bengo",
      "name:fr": "Ícolo et Bengo",
      "name:it": "Municipio di Ícolo e Bengo",
      "name:nl": "Gemeente Ícolo en Bengo",
      "name:pl": "Gmina Ícolo i Bengo",
      "name:pt": "Município de Ícolo e Bengo",
      "name:ru": "Муниципалитет Иколо и Бенго",
      "boundary": "administrative",
      "way_area": "0.272062",
      "wikidata": "Q291729",
      "admin_level": "6"
    }
  },
  {
    "osm_id": -11704232,
    "boundary": "administrative",
    "admin_level": 6,
    "parents": "-1802546,-195267",
    "name": "Cacuaco Municipality",
    "local_name": "Município do Cacuaco",
    "name_en": "Cacuaco Municipality",
    "all_tags": {
      "name": "Município do Cacuaco",
      "name:de": "Gemeinde Cacuaco",
      "name:en": "Cacuaco Municipality",
      "name:es": "Municipio del Cacuaco",
      "name:fr": "Cacuaco",
      "name:it": "Municipio di Cacuaco",
      "name:nl": "Gemeente Cacuaco",
      "name:pl": "Gmina Cacuaco",
      "name:pt": "Município do Cacuaco",
      "name:ru": "Муниципалитет Какуако",
      "boundary": "administrative",
      "way_area": "0.0249677",
      "wikidata": "Q1005770",
      "admin_level": "6"
    }
  },
  {
    "osm_id": -11704231,
    "boundary": "administrative",
    "admin_level": 6,
    "parents": "-1802546,-195267",
    "name": "Municipality of Quiçama",
    "local_name": "Município do Quiçama",
    "name_en": "Municipality of Quiçama",
    "all_tags": {
      "name": "Município do Quiçama",
      "name:de": "Stadtverwaltung von Quiçama",
      "name:en": "Municipality of Quiçama",
      "name:es": "Municipio de Quiçama",
      "name:fr": "Quiçama",
      "name:it": "Comune di Quiçama",
      "name:ja": "キサマ市の自治体",
      "name:nl": "Gemeente Quiçama",
      "name:pl": "Gmina Quiçama",
      "name:pt": "Município do Quiçama",
      "name:ru": "Муниципалитет Кичама",
      "boundary": "administrative",
      "way_area": "1.14915",
      "wikidata": "Q1617461",
      "admin_level": "6",
      "alt_name:de": "Stadtverwaltung von Kissama;Stadtverwaltung von Quissama",
      "alt_name:en": "Municipality of Kissama;Municipality of Quissama",
      "alt_name:es": "Municipio de Kissama;Municipio de Quissama",
      "alt_name:fr": "Municipalité de Kissama;Municipalité de Quissama",
      "alt_name:it": "Comune di Kissama;Comune di Quissama",
      "alt_name:ja": "キサマの市町村",
      "alt_name:nl": "Gemeente Kissama;Gemeente Quissama",
      "alt_name:pl": "Gmina Kissama;Gmina Quissama",
      "alt_name:pt": "Município do Kissama",
      "alt_name:ru": "Муниципалитет Киссама",
      "name:zh-Hans": "基萨马市",
      "name:zh-Hant": "基薩馬市"
    }
  },
  {
    "osm_id": -11704230,
    "boundary": "administrative",
    "admin_level": 6,
    "parents": "-1802546,-195267",
    "name": "Viana Municipality",
    "local_name": "Município de Viana",
    "name_en": "Viana Municipality",
    "all_tags": {
      "name": "Município de Viana",
      "name:de": "Gemeinde Viana",
      "name:en": "Viana Municipality",
      "name:es": "Municipio de Viana",
      "name:fr": "Viana",
      "name:it": "Municipio di Viana",
      "name:nl": "Gemeente Viana",
      "name:pl": "Gmina Viana",
      "name:pt": "Município de Viana",
      "name:ru": "Муниципалитет Вианы",
      "boundary": "administrative",
      "way_area": "0.0537057",
      "wikidata": "Q2304294",
      "admin_level": "6"
    }
  },
  {
    "osm_id": -11704229,
    "boundary": "administrative",
    "admin_level": 6,
    "parents": "-1802546,-195267",
    "name": "Talatona Municipality",
    "local_name": "Município do Talatona",
    "name_en": "Talatona Municipality",
    "all_tags": {
      "name": "Município do Talatona",
      "name:de": "Gemeinde Talatona",
      "name:en": "Talatona Municipality",
      "name:es": "Municipio de Talatona",
      "name:fr": "Talatona",
      "name:it": "Municipio di Talatona",
      "name:nl": "Gemeente Talatona",
      "name:pl": "Gmina Talatona",
      "name:pt": "Município do Talatona",
      "name:ru": "Муниципалитет Талатона",
      "boundary": "administrative",
      "way_area": "0.0107475",
      "wikidata": "Q60999936",
      "admin_level": "6"
    }
  },
  {
    "osm_id": -11704228,
    "boundary": "administrative",
    "admin_level": 6,
    "parents": "-1802546,-195267",
    "name": "Cazenga Municipality",
    "local_name": "Município do Cazenga",
    "name_en": "Cazenga Municipality",
    "all_tags": {
      "name": "Município do Cazenga",
      "name:de": "Gemeinde Cazenga",
      "name:en": "Cazenga Municipality",
      "name:es": "Municipio del Cazenga",
      "name:fr": "Cazenga",
      "name:it": "Municipio di Cazenga",
      "name:nl": "Gemeente Cazenga",
      "name:pl": "Gmina Cazenga",
      "name:pt": "Município do Cazenga",
      "name:ru": "Муниципалитет Казенга",
      "boundary": "administrative",
      "way_area": "0.00289443",
      "wikidata": "Q1005786",
      "admin_level": "6"
    }
  },
  {
    "osm_id": -11704227,
    "boundary": "administrative",
    "admin_level": 6,
    "parents": "-1802546,-195267",
    "name": "Kilamba Kiaxi Municipality",
    "local_name": "Município do Kilamba Kiaxi",
    "name_en": "Kilamba Kiaxi Municipality",
    "all_tags": {
      "name": "Município do Kilamba Kiaxi",
      "name:de": "Gemeinde Kilamba Kiaxi",
      "name:en": "Kilamba Kiaxi Municipality",
      "name:es": "Municipio de Kilamba Kiaxi",
      "name:fr": "Kilamba Kiaxi",
      "name:it": "Municipio di Kilamba Kiaxi",
      "name:nl": "Gemeente Kilamba Kiaxi",
      "name:pl": "Gmina Kilamba Kiaxi",
      "name:pt": "Município do Kilamba Kiaxi",
      "name:ru": "Муниципалитет Киламба Киаси",
      "boundary": "administrative",
      "way_area": "0.000835021",
      "wikidata": "Q1741227",
      "admin_level": "6"
    }
  },
  {
    "osm_id": -11704226,
    "boundary": "administrative",
    "admin_level": 6,
    "parents": "-1802546,-195267",
    "name": "Municipality of Luanda",
    "local_name": "Município de Luanda",
    "name_en": "Municipality of Luanda",
    "all_tags": {
      "name": "Município de Luanda",
      "name:de": "Stadtverwaltung von Luanda",
      "name:en": "Municipality of Luanda",
      "name:es": "Municipio de Luanda",
      "name:fr": "Luanda",
      "name:it": "Comune di Luanda",
      "name:ja": "ルアンダ市",
      "name:nl": "Gemeente Luanda",
      "name:pl": "Gmina Luanda",
      "name:pt": "Município de Luanda",
      "name:ru": "Муниципалитет Луанды",
      "boundary": "administrative",
      "way_area": "0.0100566",
      "wikidata": "Q14633813",
      "admin_level": "6",
      "name:zh-Hans": "罗安达市",
      "name:zh-Hant": "羅安達市"
    }
  },
  {
    "osm_id": -11162252,
    "boundary": "administrative",
    "admin_level": 6,
    "parents": "-1802545,-195267",
    "name": "Jamba",
    "local_name": "Jamba",
    "name_en": null,
    "all_tags": {
      "name": "Jamba",
      "alt_name": "Jamba Mineira",
      "boundary": "administrative",
      "way_area": "1.0005",
      "wikidata": "Q3806439",
      "wikipedia": "pt:Jamba (Angola)",
      "admin_level": "6",
      "border_type": "Município",
      "official_name": "Município da Jamba"
    }
  },
  {
    "osm_id": -11162251,
    "boundary": "administrative",
    "admin_level": 6,
    "parents": "-1802545,-195267",
    "name": "Cuvango",
    "local_name": "Cuvango",
    "name_en": null,
    "all_tags": {
      "name": "Cuvango",
      "alt_name": "Kuvango",
      "boundary": "administrative",
      "way_area": "0.750723",
      "wikidata": "Q2343092",
      "wikipedia": "pt:Cuvango",
      "admin_level": "6",
      "border_type": "Município",
      "official_name": "Município do Cuvango"
    }
  },
  {
    "osm_id": -11162250,
    "boundary": "administrative",
    "admin_level": 6,
    "parents": "-1802545,-195267",
    "name": "Chipindo",
    "local_name": "Chipindo",
    "name_en": null,
    "all_tags": {
      "name": "Chipindo",
      "boundary": "administrative",
      "way_area": "0.315489",
      "wikidata": "Q992695",
      "wikipedia": "pt:Chipindo",
      "admin_level": "6",
      "border_type": "Município",
      "official_name": "Município do Chipindo"
    }
  },
  {
    "osm_id": -11162249,
    "boundary": "administrative",
    "admin_level": 6,
    "parents": "-1802545,-195267",
    "name": "Caconda",
    "local_name": "Caconda",
    "name_en": null,
    "all_tags": {
      "name": "Caconda",
      "boundary": "administrative",
      "way_area": "0.396284",
      "wikidata": "Q2343957",
      "wikipedia": "pt:Caconda",
      "admin_level": "6",
      "border_type": "Município",
      "official_name": "Município da Caconda"
    }
  },
  {
    "osm_id": -11162248,
    "boundary": "administrative",
    "admin_level": 6,
    "parents": "-1802545,-195267",
    "name": "Chicomba",
    "local_name": "Chicomba",
    "name_en": null,
    "all_tags": {
      "name": "Chicomba",
      "boundary": "administrative",
      "way_area": "0.34654",
      "wikidata": "Q956860",
      "wikipedia": "pt:Chicomba",
      "admin_level": "6",
      "border_type": "Município",
      "official_name": "Município da Chicomba"
    }
  },
  {
    "osm_id": -11162246,
    "boundary": "administrative",
    "admin_level": 6,
    "parents": "-1802545,-195267",
    "name": "Caluquembe",
    "local_name": "Caluquembe",
    "name_en": null,
    "all_tags": {
      "name": "Caluquembe",
      "boundary": "administrative",
      "way_area": "0.32733",
      "wikidata": "Q931694",
      "wikipedia": "pt:Caluquembe",
      "admin_level": "6",
      "border_type": "Município",
      "official_name": "Município de Caluquembe"
    }
  },
  {
    "osm_id": -11162245,
    "boundary": "administrative",
    "admin_level": 6,
    "parents": "-1802545,-195267",
    "name": "Quipungo",
    "local_name": "Quipungo",
    "name_en": null,
    "all_tags": {
      "name": "Quipungo",
      "boundary": "administrative",
      "way_area": "0.73923",
      "wikidata": "Q774789",
      "wikipedia": "pt:Quipungo",
      "admin_level": "6",
      "border_type": "Município",
      "official_name": "Município do Quipungo"
    }
  },
  {
    "osm_id": -11162244,
    "boundary": "administrative",
    "admin_level": 6,
    "parents": "-1802545,-195267",
    "name": "Matala",
    "local_name": "Matala",
    "name_en": null,
    "all_tags": {
      "name": "Matala",
      "boundary": "administrative",
      "way_area": "0.763773",
      "wikidata": "Q1016739",
      "wikipedia": "pt:Matala",
      "admin_level": "6",
      "border_type": "Município",
      "official_name": "Município da Matala"
    }
  },
  {
    "osm_id": -11162243,
    "boundary": "administrative",
    "admin_level": 6,
    "parents": "-1802545,-195267",
    "name": "Chiange",
    "local_name": "Chiange",
    "name_en": null,
    "all_tags": {
      "name": "Chiange",
      "alt_name": "Gambos",
      "boundary": "administrative",
      "way_area": "0.689153",
      "wikidata": "Q2342418",
      "wikipedia": "pt:Chiange",
      "admin_level": "6",
      "border_type": "Município",
      "official_name": "Município de Chiange"
    }
  },
  {
    "osm_id": -11162242,
    "boundary": "administrative",
    "admin_level": 6,
    "parents": "-1802545,-195267",
    "name": "Chibia",
    "local_name": "Chibia",
    "name_en": null,
    "all_tags": {
      "name": "Chibia",
      "boundary": "administrative",
      "way_area": "0.440617",
      "wikidata": "Q2346746",
      "wikipedia": "pt:Chibia",
      "admin_level": "6",
      "border_type": "Município",
      "official_name": "Município da Chibia"
    }
  },
  {
    "osm_id": -11162241,
    "boundary": "administrative",
    "admin_level": 6,
    "parents": "-1802545,-195267",
    "name": "Quilengues",
    "local_name": "Quilengues",
    "name_en": null,
    "all_tags": {
      "name": "Quilengues",
      "boundary": "administrative",
      "way_area": "0.412327",
      "wikidata": "Q598594",
      "wikipedia": "pt:Quilengues",
      "admin_level": "6",
      "border_type": "Município",
      "official_name": "Município de Quilengues"
    }
  },
  {
    "osm_id": -11162240,
    "boundary": "administrative",
    "admin_level": 6,
    "parents": "-1802545,-195267",
    "name": "Humpata",
    "local_name": "Humpata",
    "name_en": null,
    "all_tags": {
      "name": "Humpata",
      "boundary": "administrative",
      "way_area": "0.0909663",
      "wikidata": "Q1010646",
      "wikipedia": "pt:Humpata",
      "admin_level": "6",
      "border_type": "Município",
      "official_name": "Município da Humpata"
    }
  },
  {
    "osm_id": -11162239,
    "boundary": "administrative",
    "admin_level": 6,
    "parents": "-1802545,-195267",
    "name": "Lubango",
    "local_name": "Lubango",
    "name_en": null,
    "all_tags": {
      "name": "Lubango",
      "boundary": "administrative",
      "way_area": "0.320993",
      "wikidata": "Q122044",
      "wikipedia": "pt:Lubango",
      "admin_level": "6",
      "border_type": "Município",
      "official_name": "Município do Lubango"
    }
  },
  {
    "osm_id": -8665098,
    "boundary": "administrative",
    "admin_level": 6,
    "parents": "-1802546,-195267",
    "name": "Municipality of Belas",
    "local_name": "Município do Belas",
    "name_en": "Municipality of Belas",
    "all_tags": {
      "name": "Município do Belas",
      "name:de": "Stadtverwaltung von Belas",
      "name:en": "Municipality of Belas",
      "name:es": "Municipio de Belas",
      "name:fr": "Belas",
      "name:it": "Comune di Belas",
      "name:ja": "ベラス市",
      "name:nl": "Gemeente Belas",
      "name:pl": "Gmina Belas",
      "name:pt": "Município do Belas",
      "name:ru": "Муниципалитет Беласа",
      "boundary": "administrative",
      "way_area": "0.0760974",
      "wikidata": "Q727233",
      "admin_level": "6",
      "name:zh-Hans": "贝拉斯市",
      "name:zh-Hant": "貝拉斯市"
    }
  },
  {
    "osm_id": -2822142,
    "boundary": "administrative",
    "admin_level": 6,
    "parents": "-422660,-195267",
    "name": "Malanje - Malange",
    "local_name": "Malanje - Malange",
    "name_en": null,
    "all_tags": {
      "name": "Malanje - Malange",
      "boundary": "administrative",
      "way_area": "0.0659397",
      "admin_level": "6"
    }
  },
  {
    "osm_id": -2822141,
    "boundary": "administrative",
    "admin_level": 6,
    "parents": "-422660,-195267",
    "name": "Calandula",
    "local_name": "Calandula",
    "name_en": null,
    "all_tags": {
      "name": "Calandula",
      "boundary": "administrative",
      "way_area": "0.0825924",
      "wikidata": "Q584657",
      "admin_level": "6"
    }
  },
  {
    "osm_id": -2822140,
    "boundary": "administrative",
    "admin_level": 6,
    "parents": "-422660,-195267",
    "name": "Lombe",
    "local_name": "Lombe",
    "name_en": null,
    "all_tags": {
      "name": "Lombe",
      "boundary": "administrative",
      "way_area": "0.0909717",
      "admin_level": "6"
    }
  },
  {
    "osm_id": -2822137,
    "boundary": "administrative",
    "admin_level": 6,
    "parents": "-422660,-195267",
    "name": "Pungo Andongo",
    "local_name": "Pungo Andongo",
    "name_en": null,
    "all_tags": {
      "name": "Pungo Andongo",
      "boundary": "administrative",
      "way_area": "0.175701",
      "admin_level": "6"
    }
  },
  {
    "osm_id": -2822091,
    "boundary": "administrative",
    "admin_level": 6,
    "parents": "-422660,-195267",
    "name": "Cacuso - Cacuso",
    "local_name": "Cacuso - Cacuso",
    "name_en": null,
    "all_tags": {
      "name": "Cacuso - Cacuso",
      "boundary": "administrative",
      "way_area": "0.108777",
      "admin_level": "6"
    }
  },
  {
    "osm_id": -1802550,
    "boundary": "administrative",
    "admin_level": 4,
    "parents": "-195267",
    "name": "Namibe",
    "local_name": "Namibe",
    "name_en": "Namibe",
    "all_tags": {
      "name": "Namibe",
      "name:ar": "مقاطعة ناميبي",
      "name:el": "Ναμίμπε",
      "name:en": "Namibe",
      "name:es": "Namibe",
      "name:fr": "Namibe",
      "name:ru": "Намибе",
      "name:uk": "Намібе",
      "name:zh": "纳米贝省",
      "boundary": "administrative",
      "way_area": "5.77369",
      "wikidata": "Q216819",
      "ISO3166-2": "AO-NAM",
      "wikipedia": "en:Namibe Province",
      "admin_level": "4",
      "name:zh-Hans": "纳米贝省"
    }
  },
  {
    "osm_id": -1802549,
    "boundary": "administrative",
    "admin_level": 4,
    "parents": "-195267",
    "name": "Moxico",
    "local_name": "Moxico",
    "name_en": null,
    "all_tags": {
      "name": "Moxico",
      "name:el": "Μόξικο",
      "name:ru": "Мошико",
      "name:uk": "Мошико",
      "name:zh": "莫希科省",
      "boundary": "administrative",
      "way_area": "16.713",
      "wikidata": "Q173988",
      "ISO3166-2": "AO-MOX",
      "wikipedia": "en:Moxico Province",
      "admin_level": "4",
      "name:zh-Hans": "莫希科省"
    }
  },
  {
    "osm_id": -1802548,
    "boundary": "administrative",
    "admin_level": 4,
    "parents": "-195267",
    "name": "Lunda Sul",
    "local_name": "Lunda Sul",
    "name_en": null,
    "all_tags": {
      "name": "Lunda Sul",
      "name:el": "Λούντα Σουλ",
      "name:pl": "Lunda Południowa",
      "name:ru": "Южная Лунда",
      "name:uk": "Південна Лунда",
      "name:zh": "南隆达省",
      "boundary": "administrative",
      "way_area": "6.77527",
      "wikidata": "Q219648",
      "ISO3166-2": "AO-LSU",
      "wikipedia": "en:Lunda Sul Province",
      "admin_level": "4",
      "name:zh-Hans": "南隆达省"
    }
  },
  {
    "osm_id": -1802547,
    "boundary": "administrative",
    "admin_level": 4,
    "parents": "-195267",
    "name": "Lunda Norte",
    "local_name": "Lunda Norte",
    "name_en": null,
    "all_tags": {
      "name": "Lunda Norte",
      "name:el": "Λούντα Νόρτε",
      "name:pl": "Lunda Północna",
      "name:ru": "Северная Лунда",
      "name:uk": "Північна Лунда",
      "name:zh": "北隆达省",
      "boundary": "administrative",
      "way_area": "8.11599",
      "wikidata": "Q214221",
      "ISO3166-2": "AO-LNO",
      "wikipedia": "en:Lunda Norte Province",
      "admin_level": "4",
      "name:zh-Hans": "北隆达省"
    }
  },
  {
    "osm_id": -1802546,
    "boundary": "administrative",
    "admin_level": 4,
    "parents": "-195267",
    "name": "Luanda Province",
    "local_name": "Luanda",
    "name_en": "Luanda Province",
    "all_tags": {
      "name": "Luanda",
      "name:de": "Provinz Luanda",
      "name:el": "Λουάντα",
      "name:en": "Luanda Province",
      "name:es": "Provincia de Luanda",
      "name:fr": "Province de Luanda",
      "name:it": "Provincia di Luanda",
      "name:ja": "ルアンダ州",
      "name:nl": "Provincie Luanda",
      "name:pl": "Prowincja Luanda",
      "name:pt": "Província de Luanda",
      "name:ru": "Луанда",
      "name:uk": "Луанда",
      "name:zh": "罗安达省",
      "boundary": "administrative",
      "way_area": "2.01792",
      "wikidata": "Q190066",
      "ISO3166-2": "AO-LUA",
      "addr:city": "Luanda",
      "wikipedia": "en:Luanda Province",
      "admin_level": "4",
      "name:zh-Hans": "罗安达省",
      "name:zh-Hant": "羅安達省"
    }
  },
  {
    "osm_id": -1802545,
    "boundary": "administrative",
    "admin_level": 4,
    "parents": "-195267",
    "name": "Huíla",
    "local_name": "Huíla",
    "name_en": null,
    "all_tags": {
      "name": "Huíla",
      "name:el": "Χουίλα",
      "name:ru": "Уила",
      "name:uk": "Уїла",
      "name:zh": "威拉省",
      "boundary": "administrative",
      "way_area": "6.59393",
      "wikidata": "Q214572",
      "ISO3166-2": "AO-HUI",
      "wikipedia": "en:Huíla Province",
      "admin_level": "4",
      "name:zh-Hans": "威拉省"
    }
  },
  {
    "osm_id": -1802544,
    "boundary": "administrative",
    "admin_level": 4,
    "parents": "-195267",
    "name": "Huambo",
    "local_name": "Huambo",
    "name_en": null,
    "all_tags": {
      "name": "Huambo",
      "name:el": "Χουάμπο",
      "name:ru": "Уамбо",
      "name:uk": "Уамбо",
      "name:zh": "万博省",
      "boundary": "administrative",
      "way_area": "2.76813",
      "wikidata": "Q218848",
      "ISO3166-2": "AO-HUA",
      "wikipedia": "en:Huambo Province",
      "admin_level": "4",
      "name:zh-Hans": "万博省"
    }
  },
  {
    "osm_id": -1802543,
    "boundary": "administrative",
    "admin_level": 4,
    "parents": "-195267",
    "name": "Cuanza Sul",
    "local_name": "Cuanza Sul",
    "name_en": null,
    "all_tags": {
      "name": "Cuanza Sul",
      "name:el": "Κουάνζα Σουλ",
      "name:pl": "Kwanza Południowa",
      "name:ru": "Южная Кванза",
      "name:uk": "Південна Кванза",
      "name:zh": "南宽扎省",
      "boundary": "administrative",
      "way_area": "4.87766",
      "wikidata": "Q216998",
      "ISO3166-2": "AO-CUS",
      "wikipedia": "en:Cuanza Sul Province",
      "admin_level": "4",
      "name:zh-Hans": "南宽扎省"
    }
  },
  {
    "osm_id": -1802542,
    "boundary": "administrative",
    "admin_level": 4,
    "parents": "-195267",
    "name": "Cuanza Norte",
    "local_name": "Cuanza Norte",
    "name_en": null,
    "all_tags": {
      "name": "Cuanza Norte",
      "name:el": "Κουάνζα Νόρτε",
      "name:pl": "Kwanza Północna",
      "name:ru": "Северная Кванза",
      "name:uk": "Північна Кванза",
      "name:zh": "北宽扎省",
      "boundary": "administrative",
      "way_area": "1.65981",
      "wikidata": "Q216834",
      "ISO3166-2": "AO-CNO",
      "wikipedia": "en:Cuanza Norte Province",
      "admin_level": "4",
      "name:zh-Hans": "北宽扎省"
    }
  },
  {
    "osm_id": -1802541,
    "boundary": "administrative",
    "admin_level": 4,
    "parents": "-195267",
    "name": "Bié",
    "local_name": "Bié",
    "name_en": null,
    "all_tags": {
      "name": "Bié",
      "name:el": "Μπιέ",
      "name:ru": "Бие",
      "name:uk": "Біє",
      "name:zh": "比耶省",
      "boundary": "administrative",
      "way_area": "5.9219",
      "wikidata": "Q213977",
      "ISO3166-2": "AO-BIE",
      "wikipedia": "en:Bié Province",
      "admin_level": "4",
      "name:zh-Hans": "比耶省"
    }
  },
  {
    "osm_id": -1802540,
    "boundary": "administrative",
    "admin_level": 4,
    "parents": "-195267",
    "name": "Benguela",
    "local_name": "Benguela",
    "name_en": null,
    "all_tags": {
      "name": "Benguela",
      "name:ar": "بنغيلا",
      "name:el": "Μπενγκέλα",
      "name:fa": "بنگوئلا",
      "name:nl": "Benguela",
      "name:ru": "Бенгела",
      "name:uk": "Бенгела",
      "name:ur": "بینگوئلا",
      "name:zh": "本格拉省",
      "boundary": "administrative",
      "way_area": "3.77377",
      "wikidata": "Q212786",
      "ISO3166-2": "AO-BGU",
      "wikipedia": "en:Benguela Province",
      "admin_level": "4",
      "name:zh-Hans": "本格拉省"
    }
  },
  {
    "osm_id": -1802539,
    "boundary": "administrative",
    "admin_level": 4,
    "parents": "-195267",
    "name": "Bengo",
    "local_name": "Bengo",
    "name_en": null,
    "all_tags": {
      "name": "Bengo",
      "name:el": "Μπένγκο",
      "name:ru": "Бенго",
      "name:uk": "Бенго",
      "name:zh": "本戈省",
      "boundary": "administrative",
      "way_area": "1.85984",
      "wikidata": "Q191299",
      "ISO3166-2": "AO-BGO",
      "wikipedia": "en:Bengo Province",
      "admin_level": "4",
      "name:zh-Hans": "本戈省"
    }
  },
  {
    "osm_id": -568485,
    "boundary": "administrative",
    "admin_level": 4,
    "parents": "-195267",
    "name": "Cuando Cubango",
    "local_name": "Cuando Cubango",
    "name_en": null,
    "all_tags": {
      "name": "Cuando Cubango",
      "name:ru": "Квандо-Кубанго",
      "name:uk": "Квандо-Кубанго",
      "name:zh": "宽多-库邦戈省",
      "boundary": "administrative",
      "way_area": "16.8619",
      "wikidata": "Q215268",
      "ISO3166-2": "AO-CCU",
      "land_area": "administrative",
      "wikipedia": "en:Cuando Cubango Province",
      "admin_level": "4",
      "name:zh-Hans": "宽多-库邦戈省"
    }
  },
  {
    "osm_id": -422660,
    "boundary": "administrative",
    "admin_level": 4,
    "parents": "-195267",
    "name": "Malanje",
    "local_name": "Malanje",
    "name_en": null,
    "all_tags": {
      "name": "Malanje",
      "name:el": "Μαλάνζε",
      "name:ru": "Маланже",
      "name:uk": "Маланже",
      "name:zh": "马兰热省",
      "boundary": "administrative",
      "way_area": "7.14912",
      "wikidata": "Q219072",
      "ISO3166-2": "AO-MAL",
      "wikipedia": "en:Malanje Province",
      "admin_level": "4",
      "name:zh-Hans": "马兰热省"
    }
  },
  {
    "osm_id": -422659,
    "boundary": "administrative",
    "admin_level": 4,
    "parents": "-195267",
    "name": "Uíge",
    "local_name": "Uíge",
    "name_en": null,
    "all_tags": {
      "name": "Uíge",
      "name:el": "Ουίγκε",
      "name:ru": "Уиже",
      "name:uk": "Уїже",
      "name:zh": "威热省",
      "boundary": "administrative",
      "way_area": "5.13615",
      "wikidata": "Q216972",
      "ISO3166-2": "AO-UIG",
      "wikipedia": "en:Uíge Province",
      "admin_level": "4",
      "name:zh-Hans": "威热省"
    }
  },
  {
    "osm_id": -422608,
    "boundary": "administrative",
    "admin_level": 4,
    "parents": "-195267",
    "name": "Zaire",
    "local_name": "Zaire",
    "name_en": null,
    "all_tags": {
      "name": "Zaire",
      "name:el": "Ζάιρε",
      "name:ru": "Заире",
      "name:uk": "Заїре",
      "name:zh": "扎伊尔省",
      "boundary": "administrative",
      "way_area": "3.46683",
      "wikidata": "Q196674",
      "ISO3166-2": "AO-ZAI",
      "wikipedia": "en:Zaire Province",
      "admin_level": "4",
      "name:zh-Hans": "扎伊尔省"
    }
  },
  {
    "osm_id": -422607,
    "boundary": "administrative",
    "admin_level": 4,
    "parents": "-195267",
    "name": "Cabinda",
    "local_name": "Cabinda",
    "name_en": null,
    "all_tags": {
      "name": "Cabinda",
      "name:el": "Καμπίντα",
      "name:pt": "Cabinda",
      "name:ru": "Кабинда",
      "name:uk": "Кабінда",
      "name:zh": "卡宾达省",
      "boundary": "administrative",
      "way_area": "0.738259",
      "wikidata": "Q168787",
      "ISO3166-2": "AO-CAB",
      "wikipedia": "en:Cabinda Province",
      "admin_level": "4",
      "name:zh-Hans": "卡宾达省"
    }
  },
  {
    "osm_id": -422606,
    "boundary": "administrative",
    "admin_level": 4,
    "parents": "-195267",
    "name": "Cunene",
    "local_name": "Cunene",
    "name_en": null,
    "all_tags": {
      "name": "Cunene",
      "name:el": "Κουνένε",
      "name:ru": "Кунене",
      "name:uk": "Кунене",
      "name:zh": "库内内省",
      "boundary": "administrative",
      "way_area": "6.54469",
      "wikidata": "Q216987",
      "ISO3166-2": "AO-CNN",
      "wikipedia": "en:Cunene Province",
      "admin_level": "4",
      "name:zh-Hans": "库内内省"
    }
  }
]
