[
  {
    "osm_id": -110525,
    "boundary": "administrative",
    "admin_level": 6,
    "parents": "-77189,-16239",
    "name": "Bezirk Neunkirchen",
    "local_name": "Bezirk Neunkirchen",
    "name_en": null,
    "all_tags": {
      "ref": "NK",
      "name": "Bezirk Neunkirchen",
      "boundary": "administrative",
      "way_area": "0.137888",
      "wikidata": "Q694386",
      "wikipedia": "de:Bezirk Neunkirchen",
      "ref:at:gkz": "318",
      "admin_level": "6"
    }
  },
  {
    "osm_id": -86539,
    "boundary": "administrative",
    "admin_level": 4,
    "parents": "-16239",
    "name": "Salzburg",
    "local_name": "Salzburg",
    "name_en": "Salzburg",
    "all_tags": {
      "name": "Salzburg",
      "name:ar": "زالتسبورغ",
      "name:be": "Зальцбург",
      "name:ca": "Estat de Salzburg",
      "name:cs": "Salcbursko",
      "name:de": "Salzburg",
      "name:en": "Salzburg",
      "name:es": "Salzburgo",
      "name:fr": "Salzbourg",
      "name:hr": "Salzburg (pokrajina)",
      "name:hu": "Salzburg",
      "name:lt": "Zalcburgas",
      "name:lv": "Zalcburga",
      "name:mk": "Салцбург",
      "name:nl": "Salzburg",
      "name:pl": "Salzburg",
      "name:ru": "Зальцбург",
      "name:sk": "Salzbursko",
      "name:sl": "Salzburška",
      "name:ta": "சல்பேர்க்",
      "website": "https://www.salzburg.gv.at/",
      "boundary": "administrative",
      "ref:nuts": "AT32",
      "way_area": "0.853034",
      "wikidata": "Q43325",
      "ISO3166-2": "AT-5",
      "wikipedia": "de:Land Salzburg",
      "ref:at:gkz": "5",
      "ref:nuts:2": "AT32",
      "admin_level": "4",
      "alt_name:cs": "Solnohradsko",
      "alt_name:mk": "Залцбург",
      "alt_name:sl": "Solnograško",
      "description": "Land Salzburg",
      "name:be-tarask": "Зальцбург",
      "name:prefix:at": "Bundesland"
    }
  },
  {
    "osm_id": -2754656,
    "boundary": "region",
    "admin_level": 5,
    "parents": "-52345,-16239",
    "name": "Region Unterkärnten",
    "local_name": "Region Unterkärnten",
    "name_en": null,
    "all_tags": {
      "name": "Region Unterkärnten",
      "boundary": "region",
      "way_area": "0.398001",
      "admin_level": "5"
    }
  },
  {
    "osm_id": -63619,
    "boundary": "administrative",
    "admin_level": 6,
    "parents": "-77189,-16239",
    "name": "Bezirk St. Pölten",
    "local_name": "Bezirk St. Pölten",
    "name_en": null,
    "all_tags": {
      "ref": "PL",
      "name": "Bezirk St. Pölten",
      "name:ro": "Sankt Pölten (teren)",
      "name:ru": "Санкт-Пёльтен",
      "alt_name": "Sankt Pölten",
      "boundary": "administrative",
      "old_name": "Bezirk St. Pölten-Land",
      "way_area": "0.155789",
      "wikidata": "Q694393",
      "wikipedia": "en:Sankt Pölten",
      "ref:at:gkz": "319",
      "admin_level": "6"
    }
  },
  {
    "osm_id": -533765,
    "boundary": "administrative",
    "admin_level": 6,
    "parents": "-86539,-16239",
    "name": "Bezirk St. Johann im Pongau",
    "local_name": "Bezirk St. Johann im Pongau",
    "name_en": null,
    "all_tags": {
      "ref": "JO",
      "name": "Bezirk St. Johann im Pongau",
      "alt_name": "Pongau",
      "boundary": "administrative",
      "way_area": "0.20888",
      "wikidata": "Q256828",
      "wikipedia": "de:Bezirk St. Johann im Pongau",
      "ref:at:gkz": "504",
      "short_name": "Bezirk St. Johann",
      "admin_level": "6"
    }
  },
  {
    "osm_id": -111858,
    "boundary": "administrative",
    "admin_level": 6,
    "parents": "-77189,-16239",
    "name": "Bezirk Mödling",
    "local_name": "Bezirk Mödling",
    "name_en": null,
    "all_tags": {
      "ref": "MD",
      "name": "Bezirk Mödling",
      "boundary": "administrative",
      "way_area": "0.033517",
      "wikidata": "Q254176",
      "wikipedia": "de:Bezirk Mödling",
      "ref:at:gkz": "317",
      "admin_level": "6"
    }
  },
  {
    "osm_id": -74231,
    "boundary": "administrative",
    "admin_level": 6,
    "parents": "-74942,-16239",
    "name": "Bezirk Bregenz",
    "local_name": "Bezirk Bregenz",
    "name_en": null,
    "all_tags": {
      "ref": "B",
      "name": "Bezirk Bregenz",
      "boundary": "administrative",
      "way_area": "0.106029",
      "wikidata": "Q698621",
      "wikipedia": "de:Bezirk Bregenz",
      "ref:at:gkz": "802",
      "admin_level": "6"
    }
  },
  {
    "osm_id": -80051,
    "boundary": "administrative",
    "admin_level": 6,
    "parents": "-52343,-16239",
    "name": "Bezirk Schwaz",
    "local_name": "Bezirk Schwaz",
    "name_en": null,
    "all_tags": {
      "ref": "SZ",
      "name": "Bezirk Schwaz",
      "name:ru": "Швац",
      "boundary": "administrative",
      "way_area": "0.21906",
      "wikidata": "Q266685",
      "wikipedia": "de:Bezirk Schwaz",
      "ref:at:gkz": "709",
      "admin_level": "6"
    }
  },
  {
    "osm_id": -109793,
    "boundary": "administrative",
    "admin_level": 6,
    "parents": "-76909,-16239",
    "name": "Bezirk Jennersdorf",
    "local_name": "Bezirk Jennersdorf",
    "name_en": null,
    "all_tags": {
      "ref": "JE",
      "name": "Bezirk Jennersdorf",
      "name:hu": "Gyanafalvi járás",
      "name:ru": "Еннерсдорф",
      "boundary": "administrative",
      "way_area": "0.0299451",
      "wikidata": "Q756277",
      "wikipedia": "de:Bezirk Jennersdorf",
      "ref:at:gkz": "105",
      "admin_level": "6"
    }
  },
  {
    "osm_id": -52123,
    "boundary": "administrative",
    "admin_level": 6,
    "parents": "-35183,-16239",
    "name": "Bezirk Weiz",
    "local_name": "Bezirk Weiz",
    "name_en": null,
    "all_tags": {
      "ref": "WZ",
      "name": "Bezirk Weiz",
      "name:ru": "Вайц",
      "boundary": "administrative",
      "way_area": "0.130611",
      "wikidata": "Q665571",
      "wikipedia": "de:Bezirk Weiz",
      "ref:at:gkz": "617",
      "admin_level": "6"
    }
  },
  {
    "osm_id": -105735,
    "boundary": "administrative",
    "admin_level": 6,
    "parents": "-2754656,-52345,-16239",
    "name": "Bezirk Wolfsberg",
    "local_name": "Bezirk Wolfsberg",
    "name_en": null,
    "all_tags": {
      "ref": "WO",
      "name": "Bezirk Wolfsberg",
      "boundary": "administrative",
      "way_area": "0.114965",
      "wikidata": "Q665641",
      "wikipedia": "de:Bezirk Wolfsberg",
      "ref:at:gkz": "209",
      "admin_level": "6"
    }
  },
  {
    "osm_id": -2661100,
    "boundary": "administrative",
    "admin_level": 6,
    "parents": "-35183,-16239",
    "name": "Bezirk Hartberg-Fürstenfeld",
    "local_name": "Bezirk Hartberg-Fürstenfeld",
    "name_en": null,
    "all_tags": {
      "ref": "HF",
      "name": "Bezirk Hartberg-Fürstenfeld",
      "boundary": "administrative",
      "way_area": "0.146053",
      "wikidata": "Q853765",
      "wikipedia": "de:Bezirk Hartberg-Fürstenfeld",
      "ref:at:gkz": "622",
      "start_date": "2013-01-01",
      "admin_level": "6"
    }
  },
  {
    "osm_id": -112050,
    "boundary": "administrative",
    "admin_level": 6,
    "parents": "-77189,-16239",
    "name": "Bezirk Bruck an der Leitha",
    "local_name": "Bezirk Bruck an der Leitha",
    "name_en": null,
    "all_tags": {
      "ref": "BL",
      "name": "Bezirk Bruck an der Leitha",
      "boundary": "administrative",
      "way_area": "0.0849098",
      "wikidata": "Q584543",
      "wikipedia": "de:Bezirk Bruck an der Leitha",
      "ref:at:gkz": "307",
      "admin_level": "6"
    }
  },
  {
    "osm_id": -86340,
    "boundary": "administrative",
    "admin_level": 6,
    "parents": "-86539,-16239",
    "name": "Bezirk Hallein",
    "local_name": "Bezirk Hallein",
    "name_en": null,
    "all_tags": {
      "ref": "HA",
      "name": "Bezirk Hallein",
      "alt_name": "Tennengau",
      "boundary": "administrative",
      "way_area": "0.0800219",
      "wikidata": "Q254533",
      "wikipedia": "de:Bezirk Hallein",
      "ref:at:gkz": "502",
      "admin_level": "6"
    }
  },
  {
    "osm_id": -105088,
    "boundary": "administrative",
    "admin_level": 6,
    "parents": "-77189,-16239",
    "name": "Bezirk Baden",
    "local_name": "Bezirk Baden",
    "name_en": null,
    "all_tags": {
      "ref": "BN",
      "name": "Bezirk Baden",
      "boundary": "administrative",
      "way_area": "0.090853",
      "wikidata": "Q279874",
      "wikipedia": "de:Bezirk Baden (Niederösterreich)",
      "ref:at:gkz": "306",
      "admin_level": "6"
    }
  },
  {
    "osm_id": -105958,
    "boundary": "administrative",
    "admin_level": 6,
    "parents": "-2754656,-52345,-16239",
    "name": "Bezirk Völkermarkt",
    "local_name": "Bezirk Völkermarkt",
    "name_en": null,
    "all_tags": {
      "ref": "VK",
      "name": "Bezirk Völkermarkt",
      "name:ru": "Фёлькермаркт",
      "name:sl": "Velikovec (okraj)",
      "boundary": "administrative",
      "way_area": "0.106659",
      "wikidata": "Q660279",
      "wikipedia": "de:Bezirk Völkermarkt",
      "ref:at:gkz": "208",
      "admin_level": "6"
    }
  },
  {
    "osm_id": -104072,
    "boundary": "administrative",
    "admin_level": 6,
    "parents": "-77189,-16239",
    "name": "Bezirk Gänserndorf",
    "local_name": "Bezirk Gänserndorf",
    "name_en": null,
    "all_tags": {
      "ref": "GF",
      "name": "Bezirk Gänserndorf",
      "boundary": "administrative",
      "way_area": "0.154409",
      "wikidata": "Q694442",
      "wikipedia": "de:Bezirk Gänserndorf",
      "ref:at:gkz": "308",
      "admin_level": "6"
    }
  },
  {
    "osm_id": -544102,
    "boundary": "administrative",
    "admin_level": 6,
    "parents": "-52343,-16239",
    "name": "Bezirk Kufstein",
    "local_name": "Bezirk Kufstein",
    "name_en": null,
    "all_tags": {
      "ref": "KU",
      "name": "Bezirk Kufstein",
      "boundary": "administrative",
      "way_area": "0.11583",
      "wikidata": "Q255141",
      "wikipedia": "de:Bezirk Kufstein",
      "ref:at:gkz": "705",
      "admin_level": "6",
      "admin_titel": "Bezirk"
    }
  },
  {
    "osm_id": -36182,
    "boundary": "administrative",
    "admin_level": 6,
    "parents": "-35183,-16239",
    "name": "Bezirk Leibnitz",
    "local_name": "Bezirk Leibnitz",
    "name_en": null,
    "all_tags": {
      "ref": "LB",
      "name": "Bezirk Leibnitz",
      "name:ru": "Лайбниц",
      "boundary": "administrative",
      "way_area": "0.0885254",
      "wikidata": "Q660400",
      "wikipedia": "de:Bezirk Leibnitz",
      "ref:at:gkz": "610",
      "admin_level": "6",
      "administrative_title": "Bezirk"
    }
  },
  {
    "osm_id": -63349,
    "boundary": "administrative",
    "admin_level": 6,
    "parents": "-102303,-16239",
    "name": "Bezirk Gmunden",
    "local_name": "Bezirk Gmunden",
    "name_en": null,
    "all_tags": {
      "ref": "GM",
      "name": "Bezirk Gmunden",
      "name:ru": "Гмунден",
      "boundary": "administrative",
      "way_area": "0.171776",
      "wikidata": "Q253221",
      "wikipedia": "de:Bezirk Gmunden",
      "ref:at:gkz": "407",
      "admin_level": "6"
    }
  },
  {
    "osm_id": -2661074,
    "boundary": "administrative",
    "admin_level": 6,
    "parents": "-35183,-16239",
    "name": "Bezirk Bruck-Mürzzuschlag",
    "local_name": "Bezirk Bruck-Mürzzuschlag",
    "name_en": null,
    "all_tags": {
      "ref": "BM",
      "name": "Bezirk Bruck-Mürzzuschlag",
      "boundary": "administrative",
      "way_area": "0.257778",
      "wikidata": "Q853690",
      "wikipedia": "de:Bezirk Bruck-Mürzzuschlag",
      "ref:at:gkz": "621",
      "admin_level": "6"
    }
  },
  {
    "osm_id": -102302,
    "boundary": "administrative",
    "admin_level": 6,
    "parents": "-102303,-16239",
    "name": "Bezirk Vöcklabruck",
    "local_name": "Bezirk Vöcklabruck",
    "name_en": null,
    "all_tags": {
      "ref": "VB",
      "name": "Bezirk Vöcklabruck",
      "boundary": "administrative",
      "way_area": "0.130732",
      "wikidata": "Q267479",
      "wikipedia": "de:Bezirk Vöcklabruck",
      "ref:at:gkz": "417",
      "admin_level": "6"
    }
  },
  {
    "osm_id": -103095,
    "boundary": "administrative",
    "admin_level": 6,
    "parents": "-77189,-16239",
    "name": "Bezirk Hollabrunn",
    "local_name": "Bezirk Hollabrunn",
    "name_en": null,
    "all_tags": {
      "ref": "HL",
      "name": "Bezirk Hollabrunn",
      "boundary": "administrative",
      "way_area": "0.123366",
      "wikidata": "Q694349",
      "wikipedia": "de:Bezirk Hollabrunn",
      "ref:at:gkz": "310",
      "admin_level": "6"
    }
  },
  {
    "osm_id": -106250,
    "boundary": "administrative",
    "admin_level": 6,
    "parents": "-77189,-16239",
    "name": "Bezirk Tulln",
    "local_name": "Bezirk Tulln",
    "name_en": null,
    "all_tags": {
      "ref": "TU",
      "name": "Bezirk Tulln",
      "name:ru": "Тульн",
      "boundary": "administrative",
      "way_area": "0.0890966",
      "wikidata": "Q694428",
      "wikipedia": "de:Bezirk Tulln",
      "ref:at:gkz": "321",
      "admin_level": "6"
    }
  },
  {
    "osm_id": -130944,
    "boundary": "administrative",
    "admin_level": 6,
    "parents": "-77189,-16239",
    "name": "Krems an der Donau",
    "local_name": "Krems an der Donau",
    "name_en": null,
    "all_tags": {
      "ref": "KS",
      "name": "Krems an der Donau",
      "boundary": "administrative",
      "way_area": "0.00628213",
      "wikidata": "Q131266",
      "wikipedia": "de:Krems an der Donau",
      "ref:at:gkz": "301",
      "short_name": "Krems",
      "admin_level": "6",
      "description": "Statutarstadt"
    }
  },
  {
    "osm_id": -102303,
    "boundary": "administrative",
    "admin_level": 4,
    "parents": "-16239",
    "name": "Upper Austria",
    "local_name": "Oberösterreich",
    "name_en": "Upper Austria",
    "all_tags": {
      "name": "Oberösterreich",
      "name:ar": "النمسا العليا",
      "name:be": "Верхняя Аўстрыя",
      "name:ca": "Alta Àustria",
      "name:cs": "Horní Rakousko",
      "name:de": "Oberösterreich",
      "name:en": "Upper Austria",
      "name:es": "Alta Austria",
      "name:fr": "Haute-Autriche",
      "name:ga": "An Ostair Uachtarach",
      "name:hr": "Gornja Austrija",
      "name:hu": "Felső-Ausztria",
      "name:is": "Efra Austurríki",
      "name:mk": "Горна Австрија",
      "name:nl": "Opper-Oostenrijk",
      "name:pl": "Górna Austria",
      "name:ru": "Верхняя Австрия",
      "name:sk": "Horné Rakúsko",
      "name:sl": "Zgornja Avstrija",
      "name:ta": "மேல் ஆஸ்திரியா",
      "website": "https://www.land-oberoesterreich.gv.at/",
      "boundary": "administrative",
      "ref:nuts": "AT31",
      "way_area": "1.44817",
      "wikidata": "Q41967",
      "ISO3166-2": "AT-4",
      "wikipedia": "de:Oberösterreich",
      "ref:at:gkz": "4",
      "ref:nuts:2": "AT31",
      "admin_level": "4",
      "alt_name:cs": "Horní Rakousy",
      "name:be-tarask": "Верхняя Аўстрыя",
      "name:prefix:at": "Bundesland"
    }
  },
  {
    "osm_id": -75152,
    "boundary": "administrative",
    "admin_level": 6,
    "parents": "-74942,-16239",
    "name": "Bezirk Feldkirch",
    "local_name": "Bezirk Feldkirch",
    "name_en": null,
    "all_tags": {
      "ref": "FK",
      "name": "Bezirk Feldkirch",
      "boundary": "administrative",
      "way_area": "0.0330504",
      "wikidata": "Q384914",
      "wikipedia": "de:Bezirk Feldkirch",
      "ref:at:gkz": "804",
      "admin_level": "6"
    }
  },
  {
    "osm_id": -75111,
    "boundary": "administrative",
    "admin_level": 6,
    "parents": "-74942,-16239",
    "name": "Bezirk Dornbirn",
    "local_name": "Bezirk Dornbirn",
    "name_en": null,
    "all_tags": {
      "ref": "DO",
      "name": "Bezirk Dornbirn",
      "boundary": "administrative",
      "way_area": "0.0205357",
      "wikidata": "Q698581",
      "wikipedia": "de:Bezirk Dornbirn",
      "ref:at:gkz": "803",
      "admin_level": "6"
    }
  },
  {
    "osm_id": -74804,
    "boundary": "administrative",
    "admin_level": 6,
    "parents": "-74942,-16239",
    "name": "Bezirk Bludenz",
    "local_name": "Bezirk Bludenz",
    "name_en": null,
    "all_tags": {
      "ref": "BZ",
      "name": "Bezirk Bludenz",
      "boundary": "administrative",
      "way_area": "0.152444",
      "wikidata": "Q698606",
      "wikipedia": "de:Bezirk Bludenz",
      "ref:at:gkz": "801",
      "admin_level": "6"
    }
  },
  {
    "osm_id": -76826,
    "boundary": "administrative",
    "admin_level": 6,
    "parents": "-52343,-16239",
    "name": "Bezirk Landeck",
    "local_name": "Bezirk Landeck",
    "name_en": null,
    "all_tags": {
      "ref": "LA",
      "name": "Bezirk Landeck",
      "name:ru": "Ландекк",
      "boundary": "administrative",
      "way_area": "0.18882",
      "wikidata": "Q665605",
      "wikipedia": "de:Bezirk Landeck",
      "ref:at:gkz": "706",
      "admin_level": "6"
    }
  },
  {
    "osm_id": -74942,
    "boundary": "administrative",
    "admin_level": 4,
    "parents": "-16239",
    "name": "Vorarlberg",
    "local_name": "Vorarlberg",
    "name_en": "Vorarlberg",
    "all_tags": {
      "name": "Vorarlberg",
      "name:ar": "فورارلبرغ",
      "name:be": "Форарльберг",
      "name:ca": "Vorarlberg",
      "name:cs": "Vorarlbersko",
      "name:de": "Vorarlberg",
      "name:en": "Vorarlberg",
      "name:es": "Vorarlberg",
      "name:fr": "Vorarlberg",
      "name:hr": "Vorarlberg",
      "name:hu": "Vorarlberg",
      "name:mk": "Предарлска",
      "name:pl": "Vorarlberg",
      "name:ru": "Форарльберг",
      "name:sk": "Vorarlbersko",
      "name:sl": "Predarlska",
      "name:ta": "வொரர்ல்பேர்க்",
      "name:zh": "福拉尔贝格州",
      "website": "https://www.vorarlberg.gv.at",
      "boundary": "administrative",
      "ref:nuts": "AT34",
      "way_area": "0.312059",
      "wikidata": "Q38981",
      "ISO3166-2": "AT-8",
      "wikipedia": "de:Vorarlberg",
      "ref:at:gkz": "8",
      "ref:nuts:2": "AT34",
      "admin_level": "4",
      "alt_name:mk": "Форарлберг",
      "name:zh-Hans": "福拉尔贝格州",
      "name:zh-Hant": "福拉爾貝格邦",
      "is_in:country": "Austria",
      "name:be-tarask": "Форарльбэрг",
      "name:prefix:at": "Bundesland",
      "is_in:continent": "Europe",
      "is_in:country_code": "AT"
    }
  },
  {
    "osm_id": -30030,
    "boundary": "administrative",
    "admin_level": 6,
    "parents": "-52343,-16239",
    "name": "Bezirk Reutte",
    "local_name": "Bezirk Reutte",
    "name_en": null,
    "all_tags": {
      "ref": "RE",
      "name": "Bezirk Reutte",
      "name:ru": "Ройтте",
      "alt_name": "Reutte (Außerfern)",
      "boundary": "administrative",
      "way_area": "0.147278",
      "wikidata": "Q854005",
      "wikipedia": "de:Bezirk Reutte",
      "ref:at:gkz": "708",
      "admin_level": "6",
      "description": "Außerfern"
    }
  },
  {
    "osm_id": -539866,
    "boundary": "administrative",
    "admin_level": 6,
    "parents": "-52343,-16239",
    "name": "Bezirk Lienz",
    "local_name": "Bezirk Lienz",
    "name_en": null,
    "all_tags": {
      "ref": "LZ",
      "name": "Bezirk Lienz",
      "name:cs": "Lienz",
      "name:ru": "Лиенц",
      "alt_name": "Osttirol",
      "boundary": "administrative",
      "way_area": "0.238553",
      "wikidata": "Q251931",
      "wikipedia": "de:Bezirk Lienz",
      "ref:at:gkz": "707",
      "admin_level": "6",
      "old_name:cs": "Východní Tyrolsko",
      "old_name:sl": "Vzhodna Tirolska"
    }
  },
  {
    "osm_id": -78251,
    "boundary": "administrative",
    "admin_level": 6,
    "parents": "-52343,-16239",
    "name": "Bezirk Innsbruck-Land",
    "local_name": "Bezirk Innsbruck-Land",
    "name_en": null,
    "all_tags": {
      "ref": "IL",
      "name": "Bezirk Innsbruck-Land",
      "name:ru": "Инсбрук-Ланд",
      "alt_name": "Innsbruck Land",
      "boundary": "administrative",
      "way_area": "0.236294",
      "wikidata": "Q699582",
      "wikipedia": "de:Bezirk Innsbruck-Land",
      "ref:at:gkz": "703",
      "admin_level": "6"
    }
  },
  {
    "osm_id": -4835169,
    "boundary": "administrative",
    "admin_level": 6,
    "parents": "-52343,-16239",
    "name": "Innsbruck",
    "local_name": "Innsbruck",
    "name_en": null,
    "all_tags": {
      "ref": "I",
      "name": "Innsbruck",
      "name:cs": "Innsbruck",
      "name:ru": "Инсбрук",
      "alt_name": "Statutarstadt Innsbruck",
      "boundary": "administrative",
      "way_area": "0.0124708",
      "wikidata": "Q1735",
      "wikipedia": "en:Innsbruck",
      "ref:at:gkz": "70101",
      "admin_level": "6",
      "alt_name:cs": "Inšpruk",
      "name:prefix:at": "Statutarstadt"
    }
  },
  {
    "osm_id": -539863,
    "boundary": "administrative",
    "admin_level": 6,
    "parents": "-86539,-16239",
    "name": "Bezirk Zell am See",
    "local_name": "Bezirk Zell am See",
    "name_en": null,
    "all_tags": {
      "ref": "ZE",
      "name": "Bezirk Zell am See",
      "name:ru": "Целль-ам-Зе",
      "alt_name": "Pinzgau",
      "boundary": "administrative",
      "way_area": "0.314424",
      "wikidata": "Q257897",
      "wikipedia": "de:Bezirk Zell am See",
      "ref:at:gkz": "506",
      "admin_level": "6"
    }
  },
  {
    "osm_id": -85647,
    "boundary": "administrative",
    "admin_level": 6,
    "parents": "-52343,-16239",
    "name": "Bezirk Kitzbühel",
    "local_name": "Bezirk Kitzbühel",
    "name_en": null,
    "all_tags": {
      "ref": "KB",
      "name": "Bezirk Kitzbühel",
      "boundary": "administrative",
      "way_area": "0.13869",
      "wikidata": "Q265649",
      "wikipedia": "de:Bezirk Kitzbühel",
      "ref:at:gkz": "704",
      "admin_level": "6",
      "admin_titel": "Bezirk"
    }
  },
  {
    "osm_id": -376676,
    "boundary": "administrative",
    "admin_level": 6,
    "parents": "-2754658,-52345,-16239",
    "name": "Bezirk Spittal an der Drau",
    "local_name": "Bezirk Spittal an der Drau",
    "name_en": null,
    "all_tags": {
      "ref": "SP",
      "name": "Bezirk Spittal an der Drau",
      "boundary": "administrative",
      "way_area": "0.326485",
      "wikidata": "Q660293",
      "wikipedia": "de:Bezirk Spittal an der Drau",
      "ref:at:gkz": "206",
      "admin_level": "6"
    }
  },
  {
    "osm_id": -2754657,
    "boundary": "region",
    "admin_level": 5,
    "parents": "-52345,-16239",
    "name": "Region Klagenfurt-Villach",
    "local_name": "Region Klagenfurt-Villach",
    "name_en": null,
    "all_tags": {
      "name": "Region Klagenfurt-Villach",
      "boundary": "region",
      "way_area": "0.238541",
      "admin_level": "5"
    }
  },
  {
    "osm_id": -2754658,
    "boundary": "region",
    "admin_level": 5,
    "parents": "-52345,-16239",
    "name": "Region Oberkärnten",
    "local_name": "Region Oberkärnten",
    "name_en": null,
    "all_tags": {
      "name": "Region Oberkärnten",
      "boundary": "region",
      "way_area": "0.487424",
      "admin_level": "5"
    }
  },
  {
    "osm_id": -86538,
    "boundary": "administrative",
    "admin_level": 6,
    "parents": "-86539,-16239",
    "name": "Salzburg",
    "local_name": "Salzburg",
    "name_en": null,
    "all_tags": {
      "ref": "S",
      "name": "Salzburg",
      "name:ar": "زالتسبورغ",
      "name:cs": "Salcburk",
      "name:eo": "Salcburgo",
      "name:it": "Salisburgo",
      "name:pt": "Salisburgo",
      "boundary": "administrative",
      "way_area": "0.00788451",
      "wikidata": "Q34713",
      "wikipedia": "de:Salzburg",
      "ref:at:gkz": "50101",
      "admin_level": "6",
      "alt_name:cs": "Solnohrad",
      "postal_code": "5020",
      "name:prefix:at": "Statutarstadt"
    }
  },
  {
    "osm_id": -105870,
    "boundary": "administrative",
    "admin_level": 6,
    "parents": "-2754657,-52345,-16239",
    "name": "Klagenfurt am Wörthersee",
    "local_name": "Klagenfurt am Wörthersee",
    "name_en": null,
    "all_tags": {
      "ref": "K",
      "name": "Klagenfurt am Wörthersee",
      "name:it": "Clanforte",
      "name:sl": "Celovec",
      "name:zh": "克拉根福",
      "boundary": "administrative",
      "name:fur": "Clanfurt",
      "way_area": "0.0141084",
      "wikidata": "Q41753",
      "wikipedia": "de:Klagenfurt am Wörthersee",
      "ref:at:gkz": "20101",
      "admin_level": "6",
      "name:prefix:at": "Statutarstadt"
    }
  },
  {
    "osm_id": -34719,
    "boundary": "administrative",
    "admin_level": 6,
    "parents": "-35183,-16239",
    "name": "Graz",
    "local_name": "Graz",
    "name_en": null,
    "all_tags": {
      "name": "Graz",
      "name:ru": "Грац",
      "name:zh": "格拉茨",
      "boundary": "administrative",
      "way_area": "0.0151076",
      "wikidata": "Q13298",
      "wikipedia": "de:Graz",
      "ref:at:gkz": "60101",
      "admin_level": "6",
      "name:zh-Hant": "格拉茲",
      "name:prefix:at": "Statutarstadt"
    }
  },
  {
    "osm_id": -37894,
    "boundary": "administrative",
    "admin_level": 6,
    "parents": "-35183,-16239",
    "name": "Bezirk Murtal",
    "local_name": "Bezirk Murtal",
    "name_en": null,
    "all_tags": {
      "ref": "MT",
      "name": "Bezirk Murtal",
      "boundary": "administrative",
      "way_area": "0.199205",
      "wikidata": "Q526517",
      "wikipedia": "de:Bezirk Murtal",
      "ref:at:gkz": "620",
      "admin_level": "6"
    }
  },
  {
    "osm_id": -34676,
    "boundary": "administrative",
    "admin_level": 6,
    "parents": "-35183,-16239",
    "name": "Bezirk Graz-Umgebung",
    "local_name": "Bezirk Graz-Umgebung",
    "name_en": null,
    "all_tags": {
      "ref": "GU",
      "name": "Bezirk Graz-Umgebung",
      "name:ru": "Грац-Умгебунг",
      "boundary": "administrative",
      "way_area": "0.128867",
      "wikidata": "Q672475",
      "wikipedia": "de:Bezirk Graz-Umgebung",
      "population": "152944",
      "ref:at:gkz": "606",
      "admin_level": "6",
      "population:date": "2018-01-01"
    }
  },
  {
    "osm_id": -106447,
    "boundary": "administrative",
    "admin_level": 6,
    "parents": "-77189,-16239",
    "name": "Bezirk Wiener Neustadt",
    "local_name": "Bezirk Wiener Neustadt",
    "name_en": null,
    "all_tags": {
      "ref": "WB",
      "name": "Bezirk Wiener Neustadt",
      "boundary": "administrative",
      "old_name": "Bezirk Wiener Neustadt-Land",
      "way_area": "0.116728",
      "wikidata": "Q694413",
      "wikipedia": "de:Bezirk Wiener Neustadt-Land",
      "ref:at:gkz": "323",
      "admin_level": "6"
    }
  },
  {
    "osm_id": -109543,
    "boundary": "administrative",
    "admin_level": 6,
    "parents": "-76909,-16239",
    "name": "Bezirk Güssing",
    "local_name": "Bezirk Güssing",
    "name_en": null,
    "all_tags": {
      "ref": "GS",
      "name": "Bezirk Güssing",
      "name:hu": "Németújvári járás",
      "name:ru": "Гюссинг",
      "boundary": "administrative",
      "way_area": "0.0575097",
      "wikidata": "Q660312",
      "wikipedia": "de:Bezirk Güssing",
      "ref:at:gkz": "104",
      "admin_level": "6"
    }
  },
  {
    "osm_id": -110268,
    "boundary": "administrative",
    "admin_level": 6,
    "parents": "-76909,-16239",
    "name": "Bezirk Oberwart",
    "local_name": "Bezirk Oberwart",
    "name_en": null,
    "all_tags": {
      "ref": "OW",
      "name": "Bezirk Oberwart",
      "name:hu": "Felsőőri járás",
      "name:ru": "Оберварт",
      "boundary": "administrative",
      "way_area": "0.0871174",
      "wikidata": "Q660230",
      "wikipedia": "de:Bezirk Oberwart",
      "ref:at:gkz": "109",
      "admin_level": "6"
    }
  },
  {
    "osm_id": -110451,
    "boundary": "administrative",
    "admin_level": 6,
    "parents": "-77189,-16239",
    "name": "Wiener Neustadt",
    "local_name": "Wiener Neustadt",
    "name_en": null,
    "all_tags": {
      "ref": "WN",
      "name": "Wiener Neustadt",
      "name:ar": "فينر نويشتات",
      "boundary": "administrative",
      "way_area": "0.00731655",
      "wikidata": "Q131612",
      "wikipedia": "de:Wiener Neustadt",
      "ref:at:gkz": "304",
      "admin_level": "6",
      "official_name": "Wiener Neustadt (Stadt)",
      "name:prefix:at": "Statutarstadt"
    }
  },
  {
    "osm_id": -106097,
    "boundary": "administrative",
    "admin_level": 6,
    "parents": "-76909,-16239",
    "name": "Bezirk Mattersburg",
    "local_name": "Bezirk Mattersburg",
    "name_en": null,
    "all_tags": {
      "ref": "MA",
      "name": "Bezirk Mattersburg",
      "name:hu": "Nagymartoni járás",
      "name:ru": "Маттерсбург",
      "boundary": "administrative",
      "way_area": "0.0285158",
      "wikidata": "Q748570",
      "wikipedia": "de:Bezirk Mattersburg",
      "population": "39348",
      "ref:at:gkz": "106",
      "admin_level": "6"
    }
  },
  {
    "osm_id": -76909,
    "boundary": "administrative",
    "admin_level": 4,
    "parents": "-16239",
    "name": "Burgenland",
    "local_name": "Burgenland",
    "name_en": "Burgenland",
    "all_tags": {
      "name": "Burgenland",
      "name:ar": "بورغنلاند",
      "name:be": "Бургенланд",
      "name:bg": "Бургенланд",
      "name:br": "Burgenland",
      "name:ca": "Burgenland",
      "name:cs": "Hradsko",
      "name:de": "Burgenland",
      "name:en": "Burgenland",
      "name:eo": "Burgenlando",
      "name:es": "Burgenland",
      "name:fr": "Burgenland",
      "name:he": "בורגנלנד",
      "name:hr": "Gradišće",
      "name:hu": "Burgenland",
      "name:ja": "ブルゲンラント州",
      "name:mk": "Градиште",
      "name:nl": "Burgenland",
      "name:pl": "Burgenland",
      "name:ru": "Бургенланд",
      "name:sk": "Burgenland",
      "name:sl": "Gradiščanska",
      "name:sr": "Бургенланд",
      "name:ta": "புர்கென்லான்ட்",
      "name:uk": "Бургенланд",
      "name:yi": "בורגנלאנד",
      "website": "http://www.bgld.gv.at",
      "boundary": "administrative",
      "name:hsb": "Hrodowska",
      "ref:nuts": "AT11",
      "way_area": "0.473654",
      "wikidata": "Q43210",
      "ISO3166-2": "AT-1",
      "wikipedia": "de:Burgenland",
      "place:note": "state:note see here https://www.openstreetmap.org/node/240037510",
      "ref:at:gkz": "1",
      "ref:nuts:2": "AT11",
      "admin_level": "4",
      "alt_name:cs": "Burgenlandsko",
      "alt_name:mk": "Бургенланд",
      "alt_name:sl": "Gradiščansko",
      "name:be-tarask": "Бургенлянд",
      "name:prefix:at": "Bundesland"
    }
  },
  {
    "osm_id": -88553,
    "boundary": "administrative",
    "admin_level": 6,
    "parents": "-102303,-16239",
    "name": "Bezirk Grieskirchen",
    "local_name": "Bezirk Grieskirchen",
    "name_en": null,
    "all_tags": {
      "ref": "GR",
      "name": "Bezirk Grieskirchen",
      "boundary": "administrative",
      "way_area": "0.0701374",
      "wikidata": "Q655262",
      "wikipedia": "de:Bezirk Grieskirchen",
      "ref:at:gkz": "408",
      "admin_level": "6"
    }
  },
  {
    "osm_id": -63163,
    "boundary": "administrative",
    "admin_level": 6,
    "parents": "-102303,-16239",
    "name": "Bezirk Kirchdorf",
    "local_name": "Bezirk Kirchdorf",
    "name_en": null,
    "all_tags": {
      "ref": "KI",
      "name": "Bezirk Kirchdorf",
      "name:cs": "Kostelec nad Kremží",
      "name:ru": "Кирхдорф-на-Кремсе",
      "boundary": "administrative",
      "way_area": "0.148857",
      "wikidata": "Q660512",
      "wikipedia": "de:Bezirk Kirchdorf an der Krems",
      "ref:at:gkz": "409",
      "admin_level": "6"
    }
  },
  {
    "osm_id": -86708,
    "boundary": "administrative",
    "admin_level": 6,
    "parents": "-102303,-16239",
    "name": "Linz",
    "local_name": "Linz",
    "name_en": null,
    "all_tags": {
      "ref": "L",
      "name": "Linz",
      "name:ar": "لنتس",
      "name:zh": "林茨",
      "boundary": "administrative",
      "way_area": "0.0116372",
      "wikidata": "Q41329",
      "wikipedia": "de:Linz",
      "ref:at:gkz": "40101",
      "admin_level": "6",
      "name:zh-Hant": "林茲",
      "name:prefix:at": "Statutarstadt"
    }
  },
  {
    "osm_id": -86257,
    "boundary": "administrative",
    "admin_level": 6,
    "parents": "-102303,-16239",
    "name": "Bezirk Urfahr-Umgebung",
    "local_name": "Bezirk Urfahr-Umgebung",
    "name_en": null,
    "all_tags": {
      "ref": "UU",
      "name": "Bezirk Urfahr-Umgebung",
      "boundary": "administrative",
      "loc_name": "Urfahr-Umgebung",
      "way_area": "0.0802527",
      "wikidata": "Q253585",
      "wikipedia": "de:Bezirk Urfahr-Umgebung",
      "ref:at:gkz": "416",
      "admin_level": "6"
    }
  },
  {
    "osm_id": -112705,
    "boundary": "administrative",
    "admin_level": 6,
    "parents": "-77189,-16239",
    "name": "Bezirk Scheibbs",
    "local_name": "Bezirk Scheibbs",
    "name_en": null,
    "all_tags": {
      "ref": "SB",
      "name": "Bezirk Scheibbs",
      "boundary": "administrative",
      "way_area": "0.123271",
      "wikidata": "Q253068",
      "wikipedia": "de:Bezirk Scheibbs",
      "ref:at:gkz": "320",
      "admin_level": "6"
    }
  },
  {
    "osm_id": -422468,
    "boundary": "administrative",
    "admin_level": 6,
    "parents": "-102303,-16239",
    "name": "Bezirk Freistadt",
    "local_name": "Bezirk Freistadt",
    "name_en": null,
    "all_tags": {
      "ref": "FR",
      "name": "Bezirk Freistadt",
      "boundary": "administrative",
      "way_area": "0.120936",
      "wikidata": "Q257347",
      "wikipedia": "de:Bezirk Freistadt",
      "ref:at:gkz": "406",
      "admin_level": "6"
    }
  },
  {
    "osm_id": -114629,
    "boundary": "administrative",
    "admin_level": 6,
    "parents": "-77189,-16239",
    "name": "Bezirk Melk",
    "local_name": "Bezirk Melk",
    "name_en": null,
    "all_tags": {
      "ref": "ME",
      "name": "Bezirk Melk",
      "boundary": "administrative",
      "way_area": "0.122805",
      "wikidata": "Q261942",
      "wikipedia": "de:Bezirk Melk",
      "population": "76785",
      "ref:at:gkz": "315",
      "admin_level": "6"
    }
  },
  {
    "osm_id": -446967,
    "boundary": "administrative",
    "admin_level": 6,
    "parents": "-77189,-16239",
    "name": "Bezirk Gmünd",
    "local_name": "Bezirk Gmünd",
    "name_en": null,
    "all_tags": {
      "ref": "GD",
      "name": "Bezirk Gmünd",
      "name:ru": "Гмюнд",
      "boundary": "administrative",
      "way_area": "0.0962734",
      "wikidata": "Q694421",
      "wikipedia": "de:Bezirk Gmünd",
      "ref:at:gkz": "309",
      "admin_level": "6"
    }
  },
  {
    "osm_id": -446160,
    "boundary": "administrative",
    "admin_level": 6,
    "parents": "-77189,-16239",
    "name": "Bezirk Waidhofen an der Thaya",
    "local_name": "Bezirk Waidhofen an der Thaya",
    "name_en": null,
    "all_tags": {
      "ref": "WT",
      "name": "Bezirk Waidhofen an der Thaya",
      "name:cs": "okres Bejdov nad Dyjí",
      "boundary": "administrative",
      "way_area": "0.0820022",
      "wikidata": "Q594032",
      "wikipedia": "de:Bezirk Waidhofen an der Thaya",
      "ref:at:gkz": "322",
      "admin_level": "6"
    }
  },
  {
    "osm_id": -77189,
    "boundary": "administrative",
    "admin_level": 4,
    "parents": "-16239",
    "name": "Lower Austria",
    "local_name": "Niederösterreich",
    "name_en": "Lower Austria",
    "all_tags": {
      "name": "Niederösterreich",
      "name:ar": "النمسا السفلى",
      "name:be": "Ніжняя Аўстрыя",
      "name:ca": "Baixa Àustria",
      "name:cs": "Dolní Rakousko",
      "name:de": "Niederösterreich",
      "name:en": "Lower Austria",
      "name:es": "Baja Austria",
      "name:fr": "Basse-Autriche",
      "name:ga": "An Ostair Íochtarach",
      "name:hr": "Donja Austrija",
      "name:hu": "Alsó-Ausztria",
      "name:is": "Neðra Austurríki",
      "name:mk": "Долна Австрија",
      "name:nl": "Neder-Oostenrijk",
      "name:pl": "Dolna Austria",
      "name:ru": "Нижняя Австрия",
      "name:sk": "Dolné Rakúsko",
      "name:sl": "Spodnja Avstrija",
      "name:ta": "கீழ் ஆஸ்திரியா",
      "website": "http://www.noel.gv.at",
      "boundary": "administrative",
      "ref:nuts": "AT12",
      "way_area": "2.32551",
      "wikidata": "Q42497",
      "ISO3166-2": "AT-3",
      "wikipedia": "de:Niederösterreich",
      "ref:at:gkz": "3",
      "ref:nuts:2": "AT12",
      "admin_level": "4",
      "alt_name:cs": "Dolní Rakousy",
      "name:be-tarask": "Ніжняя Аўстрыя",
      "name:prefix:at": "Bundesland"
    }
  },
  {
    "osm_id": -103816,
    "boundary": "administrative",
    "admin_level": 6,
    "parents": "-76909,-16239",
    "name": "Bezirk Eisenstadt-Umgebung",
    "local_name": "Bezirk Eisenstadt-Umgebung",
    "name_en": null,
    "all_tags": {
      "ref": "EU",
      "name": "Bezirk Eisenstadt-Umgebung",
      "name:hu": "Kismartoni járás",
      "name:ru": "Айзенштадт-Умгебунг",
      "boundary": "administrative",
      "way_area": "0.0544361",
      "wikidata": "Q261432",
      "wikipedia": "de:Bezirk Eisenstadt-Umgebung",
      "ref:at:gkz": "103",
      "admin_level": "6"
    }
  },
  {
    "osm_id": -106740,
    "boundary": "administrative",
    "admin_level": 6,
    "parents": "-77189,-16239",
    "name": "Bezirk Korneuburg",
    "local_name": "Bezirk Korneuburg",
    "name_en": null,
    "all_tags": {
      "ref": "KO",
      "name": "Bezirk Korneuburg",
      "name:ru": "Корнойбург",
      "boundary": "administrative",
      "way_area": "0.0804886",
      "wikidata": "Q694372",
      "wikipedia": "de:Bezirk Korneuburg",
      "ref:at:gkz": "312",
      "admin_level": "6"
    }
  },
  {
    "osm_id": -105949,
    "boundary": "administrative",
    "admin_level": 6,
    "parents": "-77189,-16239",
    "name": "Bezirk Horn",
    "local_name": "Bezirk Horn",
    "name_en": null,
    "all_tags": {
      "ref": "HO",
      "name": "Bezirk Horn",
      "boundary": "administrative",
      "way_area": "0.0957906",
      "wikidata": "Q143167",
      "wikipedia": "de:Bezirk Horn",
      "ref:at:gkz": "311",
      "admin_level": "6"
    }
  },
  {
    "osm_id": -104883,
    "boundary": "administrative",
    "admin_level": 6,
    "parents": "-77189,-16239",
    "name": "Bezirk Mistelbach",
    "local_name": "Bezirk Mistelbach",
    "name_en": null,
    "all_tags": {
      "ref": "MI",
      "name": "Bezirk Mistelbach",
      "boundary": "administrative",
      "way_area": "0.157645",
      "wikidata": "Q257454",
      "wikipedia": "de:Bezirk Mistelbach",
      "ref:at:gkz": "316",
      "admin_level": "6"
    }
  },
  {
    "osm_id": -78829,
    "boundary": "administrative",
    "admin_level": 6,
    "parents": "-76909,-16239",
    "name": "Bezirk Neusiedl am See",
    "local_name": "Bezirk Neusiedl am See",
    "name_en": null,
    "all_tags": {
      "ref": "ND",
      "name": "Bezirk Neusiedl am See",
      "name:hu": "Nezsideri járás",
      "name:ru": "Нойзидль-ам-Зе",
      "boundary": "administrative",
      "way_area": "0.124842",
      "wikidata": "Q660325",
      "wikipedia": "de:Bezirk Neusiedl am See",
      "ref:at:gkz": "107",
      "short_name": "Bezirk Neusiedl",
      "admin_level": "6"
    }
  },
  {
    "osm_id": -90143,
    "boundary": "administrative",
    "admin_level": 6,
    "parents": "-102303,-16239",
    "name": "Steyr",
    "local_name": "Steyr",
    "name_en": null,
    "all_tags": {
      "ref": "SR",
      "name": "Steyr",
      "boundary": "administrative",
      "way_area": "0.00320376",
      "wikidata": "Q260320",
      "wikipedia": "de:Steyr",
      "ref:at:gkz": "40201",
      "admin_level": "6",
      "postal_code": "4400",
      "name:prefix:at": "Statutarstadt",
      "postal_code_level": "6"
    }
  },
  {
    "osm_id": -106163,
    "boundary": "administrative",
    "admin_level": 6,
    "parents": "-2754657,-52345,-16239",
    "name": "Villach",
    "local_name": "Villach",
    "name_en": null,
    "all_tags": {
      "ref": "VI",
      "name": "Villach",
      "name:sl": "Beljak",
      "boundary": "administrative",
      "name:fur": "Vilac",
      "way_area": "0.0158499",
      "wikidata": "Q483522",
      "wikipedia": "de:Villach",
      "ref:at:gkz": "20201",
      "admin_level": "6",
      "name:prefix:at": "Statutarstadt"
    }
  },
  {
    "osm_id": -109166,
    "boundary": "administrative",
    "admin_level": 4,
    "parents": "-16239",
    "name": "Vienna",
    "local_name": "Wien",
    "name_en": "Vienna",
    "all_tags": {
      "name": "Wien",
      "capital": "yes",
      "name:ar": "فيينا",
      "name:be": "Вена",
      "name:ca": "Viena",
      "name:de": "Wien",
      "name:en": "Vienna",
      "name:es": "Viena",
      "name:fr": "Vienne",
      "name:fy": "Wenen",
      "name:gl": "Viena",
      "name:hr": "Beč",
      "name:hu": "Bécs",
      "name:ko": "빈",
      "name:nl": "Wenen",
      "name:pl": "Wiedeń",
      "name:ru": "Вена",
      "name:sk": "Viedeň",
      "name:sl": "Dunaj",
      "name:vi": "Viên",
      "name:zh": "维也纳",
      "website": "https://www.wien.gv.at/",
      "boundary": "administrative",
      "name:szl": "Wiedziyń",
      "name:tzl": "Viadna",
      "ref:nuts": "AT13;AT130",
      "way_area": "0.0501986",
      "wikidata": "Q1741",
      "ISO3166-2": "AT-9",
      "wikipedia": "de:Wien",
      "ref:at:gkz": "90001",
      "ref:nuts:2": "AT13",
      "ref:nuts:3": "AT130",
      "admin_level": "4",
      "name:zh-Hans": "维也纳",
      "name:zh-Hant": "維也納",
      "is_in:country": "Austria",
      "name:be-tarask": "Вена",
      "name:prefix:at": "Statutarstadt",
      "is_in:continent": "Europe",
      "is_in:country_code": "AT"
    }
  },
  {
    "osm_id": -52345,
    "boundary": "administrative",
    "admin_level": 4,
    "parents": "-16239",
    "name": "Carinthia",
    "local_name": "Kärnten",
    "name_en": "Carinthia",
    "all_tags": {
      "name": "Kärnten",
      "name:ar": "كيرنتن",
      "name:be": "Карынтыя",
      "name:br": "Karintia",
      "name:ca": "Caríntia",
      "name:cs": "Korutany",
      "name:de": "Kärnten",
      "name:en": "Carinthia",
      "name:eo": "Karintio",
      "name:es": "Carintia",
      "name:fr": "Carinthie",
      "name:hr": "Koruška",
      "name:hu": "Karintia",
      "name:it": "Carinzia",
      "name:la": "Carinthia",
      "name:mk": "Корушка",
      "name:nl": "Karinthië",
      "name:pl": "Karyntia",
      "name:pt": "Caríntia",
      "name:ru": "Каринтия",
      "name:sk": "Korutánsko",
      "name:sl": "Koroška",
      "name:ta": "கரின்தையா",
      "website": "https://www.ktn.gv.at",
      "boundary": "administrative",
      "name:hsb": "Korutanska",
      "ref:nuts": "AT21",
      "way_area": "1.12397",
      "wikidata": "Q37985",
      "ISO3166-2": "AT-2",
      "wikipedia": "de:Kärnten",
      "ref:at:gkz": "2",
      "ref:nuts:2": "AT21",
      "admin_level": "4",
      "alt_name:cs": "Korutansko",
      "alt_name:mk": "Каринтија",
      "alt_name:sl": "Avstrijska Koroška",
      "is_in:country": "Austria",
      "name:be-tarask": "Карынтыя",
      "name:prefix:at": "Bundesland",
      "is_in:continent": "Europe",
      "is_in:country_code": "AT"
    }
  },
  {
    "osm_id": -109411,
    "boundary": "administrative",
    "admin_level": 6,
    "parents": "-76909,-16239",
    "name": "Bezirk Oberpullendorf",
    "local_name": "Bezirk Oberpullendorf",
    "name_en": null,
    "all_tags": {
      "ref": "OP",
      "name": "Bezirk Oberpullendorf",
      "name:hu": "Felsőpulyai járás",
      "name:ru": "Оберпуллендорф",
      "alt_name": "Mittelburgenland",
      "boundary": "administrative",
      "way_area": "0.0837349",
      "wikidata": "Q748891",
      "wikipedia": "de:Bezirk Oberpullendorf",
      "ref:at:gkz": "108",
      "admin_level": "6"
    }
  },
  {
    "osm_id": -69648,
    "boundary": "administrative",
    "admin_level": 6,
    "parents": "-2754657,-52345,-16239",
    "name": "Bezirk Klagenfurt-Land",
    "local_name": "Bezirk Klagenfurt-Land",
    "name_en": null,
    "all_tags": {
      "ref": "KL",
      "name": "Bezirk Klagenfurt-Land",
      "name:de": "Bezirk Klagenfurt-Land",
      "name:ru": "Клагенфурт",
      "name:sl": "Celovec (okraj)",
      "boundary": "administrative",
      "way_area": "0.0899524",
      "wikidata": "Q660701",
      "wikipedia": "de:Bezirk Klagenfurt-Land",
      "ref:at:gkz": "204",
      "admin_level": "6"
    }
  },
  {
    "osm_id": -51331,
    "boundary": "administrative",
    "admin_level": 6,
    "parents": "-35183,-16239",
    "name": "Bezirk Voitsberg",
    "local_name": "Bezirk Voitsberg",
    "name_en": null,
    "all_tags": {
      "ref": "VO",
      "name": "Bezirk Voitsberg",
      "name:ru": "Фойтсберг",
      "boundary": "administrative",
      "way_area": "0.0804675",
      "wikidata": "Q672537",
      "wikipedia": "de:Bezirk Voitsberg",
      "ref:at:gkz": "616",
      "admin_level": "6"
    }
  },
  {
    "osm_id": -35202,
    "boundary": "administrative",
    "admin_level": 6,
    "parents": "-35183,-16239",
    "name": "Bezirk Deutschlandsberg",
    "local_name": "Bezirk Deutschlandsberg",
    "name_en": null,
    "all_tags": {
      "ref": "DL",
      "name": "Bezirk Deutschlandsberg",
      "boundary": "administrative",
      "way_area": "0.101852",
      "wikidata": "Q660219",
      "wikipedia": "de:Bezirk Deutschlandsberg",
      "ref:at:gkz": "603",
      "admin_level": "6"
    }
  },
  {
    "osm_id": -50802,
    "boundary": "administrative",
    "admin_level": 6,
    "parents": "-35183,-16239",
    "name": "Bezirk Murau",
    "local_name": "Bezirk Murau",
    "name_en": null,
    "all_tags": {
      "ref": "MU",
      "name": "Bezirk Murau",
      "name:ru": "Мурау",
      "boundary": "administrative",
      "way_area": "0.164187",
      "wikidata": "Q388913",
      "wikipedia": "de:Bezirk Murau",
      "population": "28488",
      "ref:at:gkz": "614",
      "admin_level": "6"
    }
  },
  {
    "osm_id": -2661101,
    "boundary": "administrative",
    "admin_level": 6,
    "parents": "-35183,-16239",
    "name": "Bezirk Südoststeiermark",
    "local_name": "Bezirk Südoststeiermark",
    "name_en": null,
    "all_tags": {
      "ref": "SO",
      "name": "Bezirk Südoststeiermark",
      "boundary": "administrative",
      "way_area": "0.116332",
      "wikidata": "Q854043",
      "wikipedia": "de:Bezirk Südoststeiermark",
      "ref:at:gkz": "623",
      "admin_level": "6",
      "administrative_title": "Bezirk"
    }
  },
  {
    "osm_id": -419452,
    "boundary": "administrative",
    "admin_level": 6,
    "parents": "-102303,-16239",
    "name": "Bezirk Schärding",
    "local_name": "Bezirk Schärding",
    "name_en": null,
    "all_tags": {
      "ref": "SD",
      "name": "Bezirk Schärding",
      "boundary": "administrative",
      "way_area": "0.0751497",
      "wikidata": "Q47482",
      "wikipedia": "de:Bezirk Schärding",
      "ref:at:gkz": "414",
      "admin_level": "6"
    }
  },
  {
    "osm_id": -134351,
    "boundary": "administrative",
    "admin_level": 6,
    "parents": "-77189,-16239",
    "name": "St. Pölten",
    "local_name": "St. Pölten",
    "name_en": null,
    "all_tags": {
      "ref": "P",
      "name": "St. Pölten",
      "name:ro": "Sankt Pölten (oraș)",
      "name:ru": "Санкт-Пёльтен",
      "alt_name": "Sankt Pölten",
      "boundary": "administrative",
      "way_area": "0.0131257",
      "wikidata": "Q82500",
      "wikipedia": "de:St. Pölten",
      "ref:at:gkz": "302",
      "admin_level": "6",
      "name:prefix:at": "Statutarstadt"
    }
  },
  {
    "osm_id": -112678,
    "boundary": "administrative",
    "admin_level": 6,
    "parents": "-77189,-16239",
    "name": "Bezirk Lilienfeld",
    "local_name": "Bezirk Lilienfeld",
    "name_en": null,
    "all_tags": {
      "ref": "LF",
      "name": "Bezirk Lilienfeld",
      "boundary": "administrative",
      "way_area": "0.112252",
      "wikidata": "Q694463",
      "wikipedia": "de:Bezirk Lilienfeld",
      "ref:at:gkz": "314",
      "admin_level": "6"
    }
  },
  {
    "osm_id": -79747,
    "boundary": "administrative",
    "admin_level": 6,
    "parents": "-76909,-16239",
    "name": "Eisenstadt",
    "local_name": "Eisenstadt",
    "name_en": null,
    "all_tags": {
      "ref": "E",
      "name": "Eisenstadt",
      "name:hr": "Željezno",
      "name:hu": "Kismarton",
      "boundary": "administrative",
      "way_area": "0.00515152",
      "wikidata": "Q126321",
      "wikipedia": "de:Eisenstadt",
      "ref:at:gkz": "10101",
      "admin_level": "6"
    }
  },
  {
    "osm_id": -77101,
    "boundary": "administrative",
    "admin_level": 6,
    "parents": "-52343,-16239",
    "name": "Bezirk Imst",
    "local_name": "Bezirk Imst",
    "name_en": null,
    "all_tags": {
      "ref": "IM",
      "name": "Bezirk Imst",
      "name:ru": "Имст",
      "boundary": "administrative",
      "way_area": "0.20433",
      "wikidata": "Q665668",
      "wikipedia": "de:Bezirk Imst",
      "ref:at:gkz": "702",
      "admin_level": "6"
    }
  },
  {
    "osm_id": -86381,
    "boundary": "administrative",
    "admin_level": 6,
    "parents": "-86539,-16239",
    "name": "Bezirk Salzburg-Umgebung",
    "local_name": "Bezirk Salzburg-Umgebung",
    "name_en": null,
    "all_tags": {
      "ref": "SL",
      "name": "Bezirk Salzburg-Umgebung",
      "alt_name": "Flachgau",
      "boundary": "administrative",
      "way_area": "0.120806",
      "wikidata": "Q255469",
      "wikipedia": "de:Bezirk Salzburg-Umgebung",
      "ref:at:gkz": "503",
      "admin_level": "6"
    }
  },
  {
    "osm_id": -107941,
    "boundary": "administrative",
    "admin_level": 6,
    "parents": "-102303,-16239",
    "name": "Bezirk Rohrbach",
    "local_name": "Bezirk Rohrbach",
    "name_en": null,
    "all_tags": {
      "ref": "RO",
      "name": "Bezirk Rohrbach",
      "boundary": "administrative",
      "way_area": "0.0995886",
      "wikidata": "Q252828",
      "wikipedia": "de:Bezirk Rohrbach",
      "ref:at:gkz": "413",
      "admin_level": "6"
    }
  },
  {
    "osm_id": -376675,
    "boundary": "administrative",
    "admin_level": 6,
    "parents": "-2754658,-52345,-16239",
    "name": "Bezirk Hermagor",
    "local_name": "Bezirk Hermagor",
    "name_en": null,
    "all_tags": {
      "ref": "HE",
      "name": "Bezirk Hermagor",
      "name:ru": "Хермагор",
      "boundary": "administrative",
      "way_area": "0.0951007",
      "wikidata": "Q613991",
      "wikipedia": "de:Bezirk Hermagor",
      "ref:at:gkz": "203",
      "admin_level": "6"
    }
  },
  {
    "osm_id": -106175,
    "boundary": "administrative",
    "admin_level": 6,
    "parents": "-2754658,-52345,-16239",
    "name": "Bezirk Feldkirchen",
    "local_name": "Bezirk Feldkirchen",
    "name_en": null,
    "all_tags": {
      "ref": "FE",
      "name": "Bezirk Feldkirchen",
      "boundary": "administrative",
      "way_area": "0.0658386",
      "wikidata": "Q665735",
      "wikipedia": "de:Bezirk Feldkirchen",
      "ref:at:gkz": "210",
      "admin_level": "6"
    }
  },
  {
    "osm_id": -105348,
    "boundary": "administrative",
    "admin_level": 6,
    "parents": "-2754656,-52345,-16239",
    "name": "Bezirk Sankt Veit an der Glan",
    "local_name": "Bezirk Sankt Veit an der Glan",
    "name_en": null,
    "all_tags": {
      "ref": "SV",
      "name": "Bezirk Sankt Veit an der Glan",
      "boundary": "administrative",
      "way_area": "0.176377",
      "wikidata": "Q660255",
      "wikipedia": "de:Bezirk Sankt Veit an der Glan",
      "ref:at:gkz": "205",
      "admin_level": "6"
    }
  },
  {
    "osm_id": -446158,
    "boundary": "administrative",
    "admin_level": 6,
    "parents": "-77189,-16239",
    "name": "Bezirk Zwettl",
    "local_name": "Bezirk Zwettl",
    "name_en": null,
    "all_tags": {
      "ref": "ZT",
      "name": "Bezirk Zwettl",
      "boundary": "administrative",
      "way_area": "0.170495",
      "wikidata": "Q694452",
      "wikipedia": "de:Bezirk Zwettl",
      "ref:at:gkz": "325",
      "admin_level": "6"
    }
  },
  {
    "osm_id": -417294,
    "boundary": "administrative",
    "admin_level": 6,
    "parents": "-102303,-16239",
    "name": "Bezirk Braunau am Inn",
    "local_name": "Bezirk Braunau am Inn",
    "name_en": null,
    "all_tags": {
      "ref": "BR",
      "name": "Bezirk Braunau am Inn",
      "boundary": "administrative",
      "way_area": "0.125724",
      "wikidata": "Q255626",
      "wikipedia": "de:Bezirk Braunau am Inn",
      "ref:at:gkz": "404",
      "admin_level": "6"
    }
  },
  {
    "osm_id": -49964,
    "boundary": "administrative",
    "admin_level": 6,
    "parents": "-35183,-16239",
    "name": "Bezirk Leoben",
    "local_name": "Bezirk Leoben",
    "name_en": null,
    "all_tags": {
      "ref": "LN",
      "name": "Bezirk Leoben",
      "name:ru": "Леобен",
      "boundary": "administrative",
      "way_area": "0.125494",
      "wikidata": "Q665720",
      "wikipedia": "de:Bezirk Leoben",
      "ref:at:gkz": "611",
      "admin_level": "6"
    }
  },
  {
    "osm_id": -533764,
    "boundary": "administrative",
    "admin_level": 6,
    "parents": "-86539,-16239",
    "name": "Bezirk Tamsweg",
    "local_name": "Bezirk Tamsweg",
    "name_en": null,
    "all_tags": {
      "ref": "TA",
      "name": "Bezirk Tamsweg",
      "alt_name": "Lungau",
      "boundary": "administrative",
      "way_area": "0.121017",
      "wikidata": "Q268090",
      "wikipedia": "de:Bezirk Tamsweg",
      "ref:at:gkz": "505",
      "admin_level": "6"
    }
  },
  {
    "osm_id": -106094,
    "boundary": "administrative",
    "admin_level": 6,
    "parents": "-2754657,-52345,-16239",
    "name": "Bezirk Villach-Land",
    "local_name": "Bezirk Villach-Land",
    "name_en": null,
    "all_tags": {
      "ref": "VL",
      "name": "Bezirk Villach-Land",
      "name:ru": "Филлах",
      "name:sl": "Okraj Beljak-dežela",
      "boundary": "administrative",
      "way_area": "0.11863",
      "wikidata": "Q660264",
      "wikipedia": "de:Bezirk Villach-Land",
      "ref:at:gkz": "207",
      "admin_level": "6"
    }
  },
  {
    "osm_id": -114684,
    "boundary": "administrative",
    "admin_level": 6,
    "parents": "-77189,-16239",
    "name": "Bezirk Krems",
    "local_name": "Bezirk Krems",
    "name_en": null,
    "all_tags": {
      "ref": "KR",
      "name": "Bezirk Krems",
      "boundary": "administrative",
      "old_name": "Bezirk Krems-Land",
      "way_area": "0.112268",
      "wikidata": "Q694399",
      "wikipedia": "de:Bezirk Krems-Land",
      "ref:at:gkz": "313",
      "admin_level": "6"
    }
  },
  {
    "osm_id": -86309,
    "boundary": "administrative",
    "admin_level": 6,
    "parents": "-102303,-16239",
    "name": "Bezirk Linz-Land",
    "local_name": "Bezirk Linz-Land",
    "name_en": null,
    "all_tags": {
      "ref": "LL",
      "name": "Bezirk Linz-Land",
      "boundary": "administrative",
      "way_area": "0.0556504",
      "wikidata": "Q265632",
      "wikipedia": "de:Bezirk Linz-Land",
      "ref:at:gkz": "410",
      "admin_level": "6"
    }
  },
  {
    "osm_id": -128099,
    "boundary": "administrative",
    "admin_level": 6,
    "parents": "-77189,-16239",
    "name": "Bezirk Amstetten",
    "local_name": "Bezirk Amstetten",
    "name_en": null,
    "all_tags": {
      "ref": "AM",
      "name": "Bezirk Amstetten",
      "boundary": "administrative",
      "way_area": "0.143131",
      "wikidata": "Q694449",
      "wikipedia": "de:Bezirk Amstetten",
      "ref:at:gkz": "305",
      "admin_level": "6"
    }
  },
  {
    "osm_id": -86459,
    "boundary": "administrative",
    "admin_level": 6,
    "parents": "-102303,-16239",
    "name": "Bezirk Steyr-Land",
    "local_name": "Bezirk Steyr-Land",
    "name_en": null,
    "all_tags": {
      "ref": "SE",
      "name": "Bezirk Steyr-Land",
      "boundary": "administrative",
      "way_area": "0.117122",
      "wikidata": "Q854074",
      "wikipedia": "de:Bezirk Steyr-Land",
      "ref:at:gkz": "415",
      "admin_level": "6"
    }
  },
  {
    "osm_id": -50587,
    "boundary": "administrative",
    "admin_level": 6,
    "parents": "-35183,-16239",
    "name": "Bezirk Liezen",
    "local_name": "Bezirk Liezen",
    "name_en": null,
    "all_tags": {
      "ref": "LI",
      "name": "Bezirk Liezen",
      "name:ru": "Лицен",
      "boundary": "administrative",
      "way_area": "0.396406",
      "wikidata": "Q255834",
      "wikipedia": "de:Bezirk Liezen",
      "ref:at:gkz": "612",
      "admin_level": "6",
      "official_name": "Liezen"
    }
  },
  {
    "osm_id": -128117,
    "boundary": "administrative",
    "admin_level": 6,
    "parents": "-102303,-16239",
    "name": "Bezirk Perg",
    "local_name": "Bezirk Perg",
    "name_en": null,
    "all_tags": {
      "ref": "PE",
      "name": "Bezirk Perg",
      "boundary": "administrative",
      "way_area": "0.0742692",
      "wikidata": "Q660530",
      "wikipedia": "de:Bezirk Perg",
      "ref:at:gkz": "411",
      "admin_level": "6"
    }
  },
  {
    "osm_id": -421817,
    "boundary": "administrative",
    "admin_level": 6,
    "parents": "-102303,-16239",
    "name": "Bezirk Ried im Innkreis",
    "local_name": "Bezirk Ried im Innkreis",
    "name_en": null,
    "all_tags": {
      "ref": "RI",
      "name": "Bezirk Ried im Innkreis",
      "boundary": "administrative",
      "way_area": "0.0707576",
      "wikidata": "Q264704",
      "wikipedia": "de:Bezirk Ried im Innkreis",
      "ref:at:gkz": "412",
      "admin_level": "6"
    }
  },
  {
    "osm_id": -64917,
    "boundary": "administrative",
    "admin_level": 6,
    "parents": "-102303,-16239",
    "name": "Bezirk Wels-Land",
    "local_name": "Bezirk Wels-Land",
    "name_en": null,
    "all_tags": {
      "ref": "WL",
      "name": "Bezirk Wels-Land",
      "boundary": "administrative",
      "way_area": "0.0553389",
      "wikidata": "Q660544",
      "wikipedia": "de:Bezirk Wels-Land",
      "ref:at:gkz": "418",
      "admin_level": "6"
    }
  },
  {
    "osm_id": -78752,
    "boundary": "administrative",
    "admin_level": 6,
    "parents": "-76909,-16239",
    "name": "Rust",
    "local_name": "Rust",
    "name_en": null,
    "all_tags": {
      "ref": "E",
      "name": "Rust",
      "boundary": "administrative",
      "way_area": "0.00240176",
      "wikidata": "Q259214",
      "wikipedia": "de:Rust (Burgenland)",
      "ref:at:gkz": "10201",
      "admin_level": "6",
      "postal_code": "7071",
      "name:prefix:at": "Statutarstadt"
    }
  },
  {
    "osm_id": -86256,
    "boundary": "administrative",
    "admin_level": 6,
    "parents": "-102303,-16239",
    "name": "Bezirk Eferding",
    "local_name": "Bezirk Eferding",
    "name_en": null,
    "all_tags": {
      "ref": "EF",
      "name": "Bezirk Eferding",
      "boundary": "administrative",
      "way_area": "0.0314876",
      "wikidata": "Q47289",
      "wikipedia": "de:Bezirk Eferding",
      "ref:at:gkz": "405",
      "admin_level": "6"
    }
  },
  {
    "osm_id": -35183,
    "boundary": "administrative",
    "admin_level": 4,
    "parents": "-16239",
    "name": "Styria",
    "local_name": "Steiermark",
    "name_en": "Styria",
    "all_tags": {
      "name": "Steiermark",
      "name:ar": "شتايرمارك",
      "name:be": "Штырыя",
      "name:ca": "Estíria",
      "name:cs": "Štýrsko",
      "name:de": "Steiermark",
      "name:en": "Styria",
      "name:eo": "Stirio",
      "name:es": "Estiria",
      "name:fr": "Styrie",
      "name:hr": "Štajerska",
      "name:hu": "Stájerország",
      "name:it": "Stiria",
      "name:mk": "Штаерска",
      "name:nl": "Stiermarken",
      "name:pl": "Styria",
      "name:pt": "Estíria",
      "name:ru": "Штирия",
      "name:sk": "Štajersko",
      "name:sl": "Štajerska (zvezna dežela)",
      "name:ta": "சிடிரியா",
      "website": "http://www.stmk.gv.at",
      "boundary": "administrative",
      "ref:nuts": "AT22",
      "way_area": "1.95089",
      "wikidata": "Q41358",
      "ISO3166-2": "AT-6",
      "wikipedia": "de:Steiermark",
      "ref:at:gkz": "6",
      "ref:nuts:2": "AT22",
      "admin_level": "4",
      "alt_name:mk": "Штирија",
      "alt_name:sl": "Avstrijska Štajerska",
      "name:be-tarask": "Штырыя",
      "name:prefix:at": "Bundesland"
    }
  },
  {
    "osm_id": -52343,
    "boundary": "administrative",
    "admin_level": 4,
    "parents": "-16239",
    "name": "Tyrol",
    "local_name": "Tirol",
    "name_en": "Tyrol",
    "all_tags": {
      "name": "Tirol",
      "name:ar": "تيرول",
      "name:be": "Ціроль",
      "name:ca": "Tirol",
      "name:cs": "Tyrolsko",
      "name:de": "Tirol",
      "name:en": "Tyrol",
      "name:es": "Tirol",
      "name:fi": "Tiroli",
      "name:fr": "Tyrol",
      "name:ga": "An Tioróil",
      "name:hr": "Tirol",
      "name:hu": "Tirol",
      "name:it": "Tirolo",
      "name:lv": "Tirole",
      "name:mk": "Тирол",
      "name:nl": "Tirol",
      "name:pl": "Tyrol",
      "name:ru": "Тироль",
      "name:sk": "Tirolsko",
      "name:sl": "Tirolska",
      "name:ta": "டைரொல்",
      "website": "https://www.tirol.gv.at/",
      "boundary": "administrative",
      "name:lld": "Tirol",
      "name:tzl": "Tirol",
      "ref:nuts": "AT33",
      "way_area": "1.50133",
      "wikidata": "Q42880",
      "ISO3166-2": "AT-7",
      "wikipedia": "de:Tirol (Bundesland)",
      "population": "707573",
      "ref:at:gkz": "7",
      "ref:nuts:2": "AT33",
      "admin_level": "4",
      "alt_name:mk": "Туролска",
      "name:be-tarask": "Тыроль",
      "name:prefix:at": "Bundesland"
    }
  },
  {
    "osm_id": -63175,
    "boundary": "administrative",
    "admin_level": 6,
    "parents": "-102303,-16239",
    "name": "Wels",
    "local_name": "Wels",
    "name_en": null,
    "all_tags": {
      "ref": "WE",
      "name": "Wels",
      "boundary": "administrative",
      "way_area": "0.00555128",
      "wikidata": "Q178582",
      "ref:at:gkz": "40301",
      "admin_level": "6",
      "postal_code": "4600",
      "name:prefix:at": "Statutarstadt",
      "postal_code_level": "6"
    }
  },
  {
    "osm_id": -131937,
    "boundary": "administrative",
    "admin_level": 6,
    "parents": "-77189,-16239",
    "name": "Waidhofen an der Ybbs",
    "local_name": "Waidhofen an der Ybbs",
    "name_en": null,
    "all_tags": {
      "ref": "WY",
      "name": "Waidhofen an der Ybbs",
      "boundary": "administrative",
      "way_area": "0.0158069",
      "wikidata": "Q427385",
      "wikipedia": "de:Waidhofen an der Ybbs",
      "ref:at:gkz": "303",
      "admin_level": "6",
      "name:prefix:at": "Statutarstadt"
    }
  }
]
