[
  {
    "osm_id": -2528153,
    "boundary": "administrative",
    "admin_level": 5,
    "parents": "-2528144,-2528142",
    "name": "Una-Sana Canton",
    "local_name": "Unsko-sanski kanton",
    "name_en": "Una-Sana Canton",
    "all_tags": {
      "name": "Unsko-sanski kanton",
      "name:bs": "Unsko-sanski kanton",
      "name:ca": "Cantó d'Una-Sana",
      "name:de": "Kanton Una-Sana",
      "name:en": "Una-Sana Canton",
      "name:fr": "Canton d'Una-Sana",
      "name:hr": "Unsko-sanska županija",
      "name:ru": "Унско-Санский кантон",
      "name:sr": "Унско-сански кантон",
      "boundary": "administrative",
      "way_area": "0.478533",
      "wikidata": "Q18248",
      "wikipedia": "en:Una-Sana Canton",
      "admin_level": "5"
    }
  },
  {
    "osm_id": -2528281,
    "boundary": "administrative",
    "admin_level": 6,
    "parents": "-2528152,-2528144,-2528142",
    "name": "City of Tuzla",
    "local_name": "Grad Tuzla",
    "name_en": "City of Tuzla",
    "all_tags": {
      "name": "Grad Tuzla",
      "name:bs": "Grad Tuzla",
      "name:en": "City of Tuzla",
      "name:fr": "Ville de Tuzla",
      "name:hr": "Grad Tuzla",
      "boundary": "administrative",
      "way_area": "0.0333347",
      "wikidata": "Q19904705",
      "admin_level": "6",
      "sorting_name": "Tuzla"
    }
  },
  {
    "osm_id": -2528226,
    "boundary": "administrative",
    "admin_level": 6,
    "parents": "-2528147,-2528144,-2528142",
    "name": "City of Livno",
    "local_name": "Grad Livno",
    "name_en": "City of Livno",
    "all_tags": {
      "name": "Grad Livno",
      "name:bs": "Grad Livno",
      "name:de": "Stadt Livno",
      "name:en": "City of Livno",
      "name:fr": "Ville de Livno",
      "name:hr": "Grad Livno",
      "name:ru": "община Ливно",
      "website": "http://www.livno.ba/",
      "boundary": "administrative",
      "way_area": "0.110761",
      "wikidata": "Q12756640",
      "population": "34133",
      "admin_level": "6"
    }
  },
  {
    "osm_id": -2528270,
    "boundary": "administrative",
    "admin_level": 6,
    "parents": "-2528152,-2528144,-2528142",
    "name": "Town of Srebrenik",
    "local_name": "Grad Srebrenik",
    "name_en": "Town of Srebrenik",
    "all_tags": {
      "name": "Grad Srebrenik",
      "name:bs": "Grad Srebrenik",
      "name:en": "Town of Srebrenik",
      "boundary": "administrative",
      "old_name": "Općina Srebrenik",
      "way_area": "0.0283413",
      "wikidata": "Q12756675",
      "population": "39678",
      "admin_level": "6"
    }
  },
  {
    "osm_id": -2528200,
    "boundary": "administrative",
    "admin_level": 6,
    "parents": "-2528146,-2528144,-2528142",
    "name": "City of Goražde",
    "local_name": "Grad Goražde",
    "name_en": "City of Goražde",
    "all_tags": {
      "name": "Grad Goražde",
      "name:bs": "Grad Goražde",
      "name:en": "City of Goražde",
      "name:hr": "Grad Goražde",
      "name:ru": "община Горажде",
      "boundary": "administrative",
      "way_area": "0.0282691",
      "wikidata": "Q12756604",
      "population": "20897",
      "admin_level": "6",
      "sorting_name": "Goražde",
      "population:date": "2013"
    }
  },
  {
    "osm_id": -2528277,
    "boundary": "administrative",
    "admin_level": 6,
    "parents": "-2528145,-2528142",
    "name": "City of Trebinje",
    "local_name": "Град Требиње / Grad Trebinje",
    "name_en": "City of Trebinje",
    "all_tags": {
      "name": "Град Требиње / Grad Trebinje",
      "name:bs": "Grad Trebinje",
      "name:de": "Stadt Trebinje",
      "name:en": "City of Trebinje",
      "name:fr": "Ville de Trebinje",
      "name:hr": "Grad Trebinje",
      "name:lt": "Trebinės miestas",
      "name:ru": "Требине",
      "boundary": "administrative",
      "way_area": "0.0950777",
      "population": "31433",
      "admin_level": "6"
    }
  },
  {
    "osm_id": -2528293,
    "boundary": "administrative",
    "admin_level": 6,
    "parents": "-2528155,-2528144,-2528142",
    "name": "City of Zenica",
    "local_name": "Grad Zenica",
    "name_en": "City of Zenica",
    "all_tags": {
      "name": "Grad Zenica",
      "name:bs": "Grad Zenica",
      "name:en": "City of Zenica",
      "name:fr": "Ville de Zenica",
      "name:hr": "Grad Zenica",
      "name:ru": "Зеница",
      "boundary": "administrative",
      "way_area": "0.0633475",
      "wikidata": "Q12756619",
      "admin_level": "6",
      "sorting_name": "Zenica"
    }
  },
  {
    "osm_id": -2528146,
    "boundary": "administrative",
    "admin_level": 5,
    "parents": "-2528144,-2528142",
    "name": "Bosnian-Podrinje Canton Goražde",
    "local_name": "Bosansko-podrinjski kanton Goražde",
    "name_en": "Bosnian-Podrinje Canton Goražde",
    "all_tags": {
      "name": "Bosansko-podrinjski kanton Goražde",
      "name:bs": "Bosansko-podrinjski kanton Goražde",
      "name:ca": "Cantó de Podrinje Bosnià",
      "name:de": "Kanton Bosnisches Podrinje",
      "name:en": "Bosnian-Podrinje Canton Goražde",
      "name:fr": "Canton du Podrinje bosnien",
      "name:hr": "Bosansko-podrinjska županija Goražde",
      "name:ru": "Боснийско-Подринский кантон",
      "name:sr": "Босанско-подрињски кантон Горажде",
      "boundary": "administrative",
      "way_area": "0.0559979",
      "wikidata": "Q18256",
      "wikipedia": "bs:Bosansko-podrinjski kanton Goražde",
      "admin_level": "5"
    }
  },
  {
    "osm_id": -2528147,
    "boundary": "administrative",
    "admin_level": 5,
    "parents": "-2528144,-2528142",
    "name": "Herzeg-Bosnia Canton",
    "local_name": "Hercegbosanska županija",
    "name_en": "Herzeg-Bosnia Canton",
    "all_tags": {
      "name": "Hercegbosanska županija",
      "name:an": "Condau de Herzeg-Bosnia",
      "name:bg": "Херцегбосненски кантон",
      "name:bs": "Kanton 10",
      "name:ca": "Comtat d'Herceg-Bòsnia",
      "name:cs": "Hercegbosenská župa",
      "name:de": "Kanton Herceg-Bosna",
      "name:en": "Herzeg-Bosnia Canton",
      "name:es": "Cantón de Herzeg-Bosnia",
      "name:fi": "Hertseg-Bosnian kantoni",
      "name:fr": "Canton de Herceg-Bosna",
      "name:hr": "Hercegbosanska županija",
      "name:hy": "Հերցեգ-Բոսնիա օկրուգ",
      "name:id": "Kanton Herzeg-Bosnia",
      "name:ie": "Canton Herceg-Bosna",
      "name:it": "Cantone dell'Erzeg-Bosnia",
      "name:ja": "ヘルツェグ＝ボスナ県",
      "name:ka": "ჰერცეგბოსნიას",
      "name:ko": "헤르체그보스니아 주",
      "name:nl": "Provincie Herceg-Bosna",
      "name:no": "Herceg-Bosnia kanton",
      "name:ro": "Cantonul Herțeg-Bosnia",
      "name:ru": "Герцегбосанский кантон",
      "name:sr": "Херцегбосанска жупанија",
      "name:sv": "Herceg-Bosnas kanton",
      "name:uk": "Герцег-Босанський кантон",
      "name:zh": "西波斯尼亞州",
      "boundary": "administrative",
      "way_area": "0.54922",
      "wikidata": "Q18277",
      "wikipedia": "en:Canton 10",
      "population": "84127",
      "admin_level": "5",
      "alt_name:bs": "Livanjski kanton",
      "alt_name:ca": "Cantó 10",
      "alt_name:de": "Kanton Westbosnien",
      "alt_name:fr": "Canton 10",
      "alt_name:hr": "Županija br. 10",
      "old_name:bs": "Zapadnobosanski kanton",
      "default_language": "hr"
    }
  },
  {
    "osm_id": -2528159,
    "boundary": "administrative",
    "admin_level": 6,
    "parents": "-2528153,-2528144,-2528142",
    "name": "City of Bihać",
    "local_name": "Grad Bihać",
    "name_en": "City of Bihać",
    "all_tags": {
      "name": "Grad Bihać",
      "name:bs": "Grad Bihać",
      "name:en": "City of Bihać",
      "name:fr": "Ville de Bihać",
      "name:hr": "Grad Bihać",
      "name:ru": "Город Бихач",
      "name:sr": "Град Бихаћ",
      "boundary": "administrative",
      "way_area": "0.109104",
      "population": "56261",
      "admin_level": "6",
      "name:sr-Latn": "Grad Bihać",
      "sorting_name": "Bihać"
    }
  },
  {
    "osm_id": -2528288,
    "boundary": "administrative",
    "admin_level": 6,
    "parents": "-2528155,-2528144,-2528142",
    "name": "Grad Visoko",
    "local_name": "Grad Visoko",
    "name_en": null,
    "all_tags": {
      "name": "Grad Visoko",
      "name:bs": "Grad Visoko",
      "boundary": "administrative",
      "way_area": "0.0248283",
      "wikidata": "Q12756592",
      "admin_level": "6",
      "sorting_name": "Visoko"
    }
  },
  {
    "osm_id": -2528228,
    "boundary": "administrative",
    "admin_level": 6,
    "parents": "-2528154,-2528144,-2528142",
    "name": "Grad Ljubuški",
    "local_name": "Grad Ljubuški",
    "name_en": null,
    "all_tags": {
      "name": "Grad Ljubuški",
      "name:bs": "Grad Ljubuški",
      "name:hr": "Grad Ljubuški",
      "boundary": "administrative",
      "way_area": "0.032557",
      "wikidata": "Q12756581",
      "population": "28184",
      "admin_level": "6"
    }
  },
  {
    "osm_id": -2528154,
    "boundary": "administrative",
    "admin_level": 5,
    "parents": "-2528144,-2528142",
    "name": "West Herzegovina Canton",
    "local_name": "Županija zapadnohercegovačka",
    "name_en": "West Herzegovina Canton",
    "all_tags": {
      "name": "Županija zapadnohercegovačka",
      "name:bs": "Zapadnohercegovački kanton",
      "name:ca": "Cantó d'Hercegovina Occidental",
      "name:de": "Kanton West-Herzegowina",
      "name:en": "West Herzegovina Canton",
      "name:fr": "Canton de l'Herzégovine de l'Ouest",
      "name:hr": "Županija zapadnohercegovačka",
      "name:ro": "Cantonul Herțegovina de Vest",
      "name:ru": "Западногерцеговинский кантон",
      "name:sr": "Жупанија западнохерцеговачка",
      "boundary": "administrative",
      "way_area": "0.150689",
      "wikidata": "Q18275",
      "wikipedia": "en:West Herzegovina Canton",
      "admin_level": "5"
    }
  },
  {
    "osm_id": -2528149,
    "boundary": "administrative",
    "admin_level": 5,
    "parents": "-2528144,-2528142",
    "name": "Herzegovina-Neretva Canton",
    "local_name": "Hercegovačko-neretvanska županija (kanton)",
    "name_en": "Herzegovina-Neretva Canton",
    "all_tags": {
      "name": "Hercegovačko-neretvanska županija (kanton)",
      "name:bs": "Hercegovačko-neretvanski kanton",
      "name:ca": "Cantó d'Hercegovina-Neretva",
      "name:de": "Kanton Herzegowina-Neretva",
      "name:en": "Herzegovina-Neretva Canton",
      "name:fr": "Canton d'Herzégovine-Neretva",
      "name:hr": "Hercegovačko-neretvanska županija",
      "name:lt": "Hercegovinos-Neretvos kantonas",
      "name:ru": "Герцеговино-Неретвенский кантон",
      "name:sr": "Херцеговачко-неретванска жупанија (кантон)",
      "boundary": "administrative",
      "way_area": "0.483286",
      "wikidata": "Q18273",
      "wikipedia": "en:Herzegovina-Neretva Canton",
      "admin_level": "5"
    }
  },
  {
    "osm_id": -2528234,
    "boundary": "administrative",
    "admin_level": 6,
    "parents": "-2528149,-2528144,-2528142",
    "name": "City of Mostar",
    "local_name": "Grad Mostar",
    "name_en": "City of Mostar",
    "all_tags": {
      "name": "Grad Mostar",
      "name:bs": "Grad Mostar",
      "name:de": "Stadt Mostar",
      "name:en": "City of Mostar",
      "name:fr": "Ville de Mostar",
      "name:hr": "Grad Mostar",
      "name:ru": "Мостар",
      "name:sr": "Мостар",
      "boundary": "administrative",
      "way_area": "0.128521",
      "wikidata": "Q15508167",
      "admin_level": "6",
      "default_language": "hr"
    }
  },
  {
    "osm_id": -2528144,
    "boundary": "administrative",
    "admin_level": 4,
    "parents": "-2528142",
    "name": "Federation of Bosnia and Herzegovina",
    "local_name": "Federacija Bosne i Hercegovine",
    "name_en": "Federation of Bosnia and Herzegovina",
    "all_tags": {
      "name": "Federacija Bosne i Hercegovine",
      "name:ar": "اتحاد البوسنة والهرسك",
      "name:bs": "Federacija Bosne i Hercegovine",
      "name:ca": "Federació de Bòsnia i Hercegovina",
      "name:de": "Föderation Bosnien und Herzegowina",
      "name:en": "Federation of Bosnia and Herzegovina",
      "name:eo": "Federacio Bosnio kaj Hercegovino",
      "name:es": "Federación de Bosnia y Herzegovina",
      "name:fa": "فدراسیون بوسنی و هرزگوین",
      "name:fr": "Fédération de Bosnie-et-Herzégovine",
      "name:hr": "Federacija Bosne i Hercegovine",
      "name:lt": "Bosnijos ir Hercegovinos Federacija",
      "name:nl": "Federatie van Bosnië en Herzegovina",
      "name:pl": "Federacja Bośni i Hercegowiny",
      "name:ro": "Federația Bosniei și Herțegovinei",
      "name:ru": "Федерация Боснии и Герцеговины",
      "name:sr": "Федерација Босне и Херцеговине",
      "name:ur": "وفاق بوسنیا و ہرزیگووینا",
      "boundary": "administrative",
      "name:hsb": "Federacija Bosniska a Hercegowina",
      "way_area": "2.93101",
      "wikidata": "Q11198",
      "ISO3166-2": "BA-BIH",
      "wikipedia": "bs:Federacija Bosne i Hercegovine",
      "short_name": "FBiH",
      "admin_level": "4",
      "short_name:sr": "ФБиХ"
    }
  },
  {
    "osm_id": -2528148,
    "boundary": "administrative",
    "admin_level": 5,
    "parents": "-2528144,-2528142",
    "name": "Central Bosnia Canton",
    "local_name": "Srednjobosanski kanton / Županija Središnja Bosna",
    "name_en": "Central Bosnia Canton",
    "all_tags": {
      "name": "Srednjobosanski kanton / Županija Središnja Bosna",
      "name:bs": "Srednjobosanski kanton",
      "name:ca": "Cantó de Bòsnia Central",
      "name:de": "Kanton Zentralbosnien",
      "name:en": "Central Bosnia Canton",
      "name:fr": "Canton de Bosnie centrale",
      "name:hr": "Županija Središnja Bosna",
      "name:ru": "Среднебоснийский кантон",
      "name:sr": "Средњобосански кантон / Жупанија Средишња Босна",
      "boundary": "administrative",
      "way_area": "0.361545",
      "wikidata": "Q18262",
      "wikipedia": "en:Central Bosnia Canton",
      "admin_level": "5",
      "alt_name:de": "Kanton Mittelbosnien"
    }
  },
  {
    "osm_id": -2528156,
    "boundary": "administrative",
    "admin_level": 6,
    "parents": "-2528145,-2528142",
    "name": "City of Banja Luka",
    "local_name": "Grad Banja Luka",
    "name_en": "City of Banja Luka",
    "all_tags": {
      "name": "Grad Banja Luka",
      "name:bs": "Grad Banja Luka",
      "name:en": "City of Banja Luka",
      "name:fr": "Ville de Banja Luka",
      "name:hr": "Grad Banja Luka",
      "name:ru": "Город Баня-Лука",
      "name:sr": "Град Бањалука",
      "name:zh": "巴尼亚卢卡市",
      "alt_name": "Grad Banjaluka",
      "boundary": "administrative",
      "way_area": "0.14076",
      "population": "185042",
      "admin_level": "6",
      "alt_name:sr": "Град Бања Лука",
      "name:sr-Latn": "Grad Banjaluka",
      "sorting_name": "Banja Luka",
      "alt_name:sr-Latn": "Grad Banja Luka"
    }
  },
  {
    "osm_id": -2528151,
    "boundary": "administrative",
    "admin_level": 5,
    "parents": "-2528144,-2528142",
    "name": "Sarajevo Canton",
    "local_name": "Kanton Sarajevo",
    "name_en": "Sarajevo Canton",
    "all_tags": {
      "name": "Kanton Sarajevo",
      "name:ar": "كانتون سراييفو",
      "name:bs": "Kanton Sarajevo",
      "name:ca": "Cantó de Sarajevo",
      "name:de": "Kanton Sarajevo",
      "name:en": "Sarajevo Canton",
      "name:fr": "Canton de Sarajevo",
      "name:gl": "Cantón de Saraxevo",
      "name:hr": "Sarajevska županija",
      "name:ru": "Сараевский кантон",
      "name:sr": "Кантон Сарајево",
      "boundary": "administrative",
      "way_area": "0.142216",
      "wikidata": "Q18276",
      "wikipedia": "en:Sarajevo Canton",
      "admin_level": "5",
      "alt_name:gl": "Cantón de Saraievo",
      "alt_name:hr": "Vrhbosanska županija"
    }
  },
  {
    "osm_id": -2567380,
    "boundary": "administrative",
    "admin_level": 6,
    "parents": "-2528151,-2528144,-2528142",
    "name": "City of Sarajevo",
    "local_name": "Grad Sarajevo",
    "name_en": "City of Sarajevo",
    "all_tags": {
      "name": "Grad Sarajevo",
      "name:ar": "مدينة سراييفو",
      "name:bs": "Grad Sarajevo",
      "name:de": "Stadt Sarajevo",
      "name:en": "City of Sarajevo",
      "name:fr": "Ville de Sarajevo",
      "name:gl": "Cidade de Saraxevo",
      "name:hr": "Grad Sarajevo",
      "name:it": "Città di Saraievo",
      "name:ru": "Город Сараево",
      "name:sr": "Град Сарајево",
      "boundary": "administrative",
      "way_area": "0.0155682",
      "wikidata": "Q11194",
      "wikipedia": "en:Sarajevo",
      "population": "275524",
      "admin_level": "6",
      "alt_name:gl": "Cidade de Saraievo",
      "sorting_name": "Sarajevo"
    }
  },
  {
    "osm_id": -2528152,
    "boundary": "administrative",
    "admin_level": 5,
    "parents": "-2528144,-2528142",
    "name": "Tuzla Canton",
    "local_name": "Tuzlanski kanton",
    "name_en": "Tuzla Canton",
    "all_tags": {
      "name": "Tuzlanski kanton",
      "name:bs": "Tuzlanski kanton",
      "name:ca": "Cantó de Tuzla",
      "name:en": "Tuzla Canton",
      "name:fr": "Canton de Tuzla",
      "name:hr": "Tuzlanska županija",
      "name:ru": "Тузланский кантон",
      "name:sr": "Тузлански кантон",
      "boundary": "administrative",
      "way_area": "0.299062",
      "wikidata": "Q18250",
      "wikipedia": "en:Tuzla Canton",
      "admin_level": "5",
      "alt_name:hr": "Županija Soli"
    }
  },
  {
    "osm_id": -2528202,
    "boundary": "administrative",
    "admin_level": 6,
    "parents": "-2528152,-2528144,-2528142",
    "name": "Town of Gračanica",
    "local_name": "Grad Gračanica",
    "name_en": "Town of Gračanica",
    "all_tags": {
      "name": "Grad Gračanica",
      "name:bs": "Grad Gračanica",
      "name:en": "Town of Gračanica",
      "name:ru": "Город Грачаница",
      "boundary": "administrative",
      "old_name": "Općina Gračanica",
      "way_area": "0.0247031",
      "population": "45220",
      "admin_level": "6"
    }
  },
  {
    "osm_id": -2528295,
    "boundary": "administrative",
    "admin_level": 6,
    "parents": "-2528152,-2528144,-2528142",
    "name": "Town of Živinice",
    "local_name": "Grad Živinice",
    "name_en": "Town of Živinice",
    "all_tags": {
      "name": "Grad Živinice",
      "name:bs": "Grad Živinice",
      "name:en": "Town of Živinice",
      "boundary": "administrative",
      "old_name": "Općina Živinice",
      "way_area": "0.0327138",
      "population": "57765",
      "admin_level": "6",
      "sorting_name": "Živinice"
    }
  },
  {
    "osm_id": -2528177,
    "boundary": "administrative",
    "admin_level": 6,
    "parents": "-2528153,-2528144,-2528142",
    "name": "City of Cazin",
    "local_name": "Grad Cazin",
    "name_en": "City of Cazin",
    "all_tags": {
      "name": "Grad Cazin",
      "name:bs": "Općina Cazin",
      "name:en": "City of Cazin",
      "name:fr": "Ville de Cazin",
      "name:hr": "Grad Cazin",
      "name:ru": "община Цазин",
      "boundary": "administrative",
      "way_area": "0.0405191",
      "wikidata": "Q12756695",
      "admin_level": "6",
      "sorting_name": "Cazin"
    }
  },
  {
    "osm_id": -2528150,
    "boundary": "administrative",
    "admin_level": 5,
    "parents": "-2528144,-2528142",
    "name": "Posavina Canton",
    "local_name": "Županija Posavska",
    "name_en": "Posavina Canton",
    "all_tags": {
      "name": "Županija Posavska",
      "name:bs": "Posavski kanton",
      "name:ca": "Cantó de Posavina",
      "name:en": "Posavina Canton",
      "name:fr": "Canton de la Posavina",
      "name:hr": "Županija Posavska",
      "name:ru": "Посавский кантон",
      "name:sr": "Посавски кантон",
      "boundary": "administrative",
      "way_area": "0.0366668",
      "wikidata": "Q18249",
      "wikipedia": "bs:Posavski kanton",
      "population": "43453",
      "admin_level": "5"
    }
  },
  {
    "osm_id": -2528182,
    "boundary": "administrative",
    "admin_level": 6,
    "parents": "-2528145,-2528142",
    "name": "Town of Derventa",
    "local_name": "Grad Derventa",
    "name_en": "Town of Derventa",
    "all_tags": {
      "name": "Grad Derventa",
      "name:bs": "Grad Derventa",
      "name:en": "Town of Derventa",
      "name:hr": "Grad Derventa",
      "name:sr": "Град Дервента",
      "boundary": "administrative",
      "old_name": "Opština Derventa",
      "way_area": "0.0588988",
      "population": "27404",
      "admin_level": "6"
    }
  },
  {
    "osm_id": -2528296,
    "boundary": "administrative",
    "admin_level": 6,
    "parents": "-2528145,-2528142",
    "name": "City of Zvornik",
    "local_name": "Grad Zvornik",
    "name_en": "City of Zvornik",
    "all_tags": {
      "name": "Grad Zvornik",
      "name:bs": "Grad Zvornik",
      "name:en": "City of Zvornik",
      "name:fr": "Ville de Zvornik",
      "name:hr": "Grad Zvornik",
      "name:sr": "Град Зворник",
      "boundary": "administrative",
      "way_area": "0.043169",
      "admin_level": "6",
      "name:sr-Latn": "Grad Zvornik"
    }
  },
  {
    "osm_id": -2528143,
    "boundary": "administrative",
    "admin_level": 4,
    "parents": "-2528142",
    "name": "Brčko District",
    "local_name": "Brčko Distrikt",
    "name_en": "Brčko District",
    "all_tags": {
      "name": "Brčko Distrikt",
      "name:bs": "Brčko Distrikt",
      "name:ca": "Districte de Brčko",
      "name:en": "Brčko District",
      "name:fr": "District de Brčko",
      "name:hr": "Brčko Distrikt",
      "name:pl": "Dystrykt Brczko",
      "name:ru": "Округ Брчко",
      "name:sr": "Брчко Дистрикт",
      "boundary": "administrative",
      "way_area": "0.0560672",
      "wikidata": "Q194483",
      "ISO3166-2": "BA-BRC",
      "wikipedia": "bs:Brčko Distrikt",
      "population": "83516",
      "admin_level": "4",
      "name:sr-Latn": "Brčko Distrikt",
      "official_name": "Brčko distrikt Bosne i Hercegovine",
      "official_name:bs": "Brčko distrikt Bosne i Hercegovine",
      "official_name:en": "Brčko District of Bosnia and Herzegovina",
      "official_name:hr": "Brčko distrikt Bosne i Hercegovine",
      "official_name:sr": "Брчко дистрикт Босне и Херцеговине",
      "official_name:sr-Latn": "Brčko distrikt Bosne i Hercegovine"
    }
  },
  {
    "osm_id": -2528160,
    "boundary": "administrative",
    "admin_level": 6,
    "parents": "-2528145,-2528142",
    "name": "City of Bijeljina",
    "local_name": "Grad Bijeljina",
    "name_en": "City of Bijeljina",
    "all_tags": {
      "name": "Grad Bijeljina",
      "name:bs": "Grad Bijeljina",
      "name:en": "City of Bijeljina",
      "name:fr": "Ville de Bijeljina",
      "name:hr": "Grad Bijeljina",
      "name:ru": "Город Биелина",
      "name:sr": "Град Бијељина",
      "boundary": "administrative",
      "way_area": "0.0836411",
      "population": "107715",
      "admin_level": "6",
      "name:sr-Latn": "Grad Bijeljina",
      "sorting_name": "Bijeljina"
    }
  },
  {
    "osm_id": -2528203,
    "boundary": "administrative",
    "admin_level": 6,
    "parents": "-2528152,-2528144,-2528142",
    "name": "Town of Gradačac",
    "local_name": "Grad Gradačac",
    "name_en": "Town of Gradačac",
    "all_tags": {
      "name": "Grad Gradačac",
      "name:bs": "Grad Gradačac",
      "name:en": "Town of Gradačac",
      "name:ru": "Город Градачац",
      "boundary": "administrative",
      "old_name": "Općina Gradačac",
      "way_area": "0.024484",
      "population": "39340",
      "admin_level": "6"
    }
  },
  {
    "osm_id": -2528162,
    "boundary": "administrative",
    "admin_level": 6,
    "parents": "-2528145,-2528142",
    "name": "Town of Gradiška",
    "local_name": "Grad Gradiška",
    "name_en": "Town of Gradiška",
    "all_tags": {
      "name": "Grad Gradiška",
      "name:bs": "Grad Gradiška",
      "name:en": "Town of Gradiška",
      "name:hr": "Grad Bosanska Gradiška",
      "name:sr": "Град Градишка",
      "boundary": "administrative",
      "old_name": "Opština Gradiška",
      "way_area": "0.0870242",
      "population": "51727",
      "admin_level": "6",
      "old_name:bs": "Općina Gradiška",
      "old_name:en": "Gradiška Municipality",
      "old_name:hr": "Općina Bosanska Gradiška",
      "old_name:sr": "Општина Градишка",
      "name:sr-Latn": "Grad Gradiška",
      "sorting_name": "Gradiška",
      "old_name:sr-Latn": "Opština Gradiška"
    }
  },
  {
    "osm_id": -5729592,
    "boundary": "administrative",
    "admin_level": 6,
    "parents": "-2528145,-2528142",
    "name": "City of Prijedor",
    "local_name": "Grad Prijedor",
    "name_en": "City of Prijedor",
    "all_tags": {
      "name": "Grad Prijedor",
      "name:bs": "Grad Prijedor",
      "name:en": "City of Prijedor",
      "name:fr": "Ville de Prijedor",
      "name:hr": "Grad Prijedor",
      "name:ru": "Город Приедор",
      "boundary": "administrative",
      "way_area": "0.0951418",
      "population": "97588",
      "admin_level": "6",
      "sorting_name": "Prijedor"
    }
  },
  {
    "osm_id": -2528185,
    "boundary": "administrative",
    "admin_level": 6,
    "parents": "-2528145,-2528142",
    "name": "City of Doboj",
    "local_name": "Grad Doboj",
    "name_en": "City of Doboj",
    "all_tags": {
      "name": "Grad Doboj",
      "name:bs": "Grad Doboj",
      "name:en": "City of Doboj",
      "name:fr": "Ville de Doboj",
      "name:hr": "Grad Doboj",
      "name:ru": "Город Добой",
      "name:sr": "Град Добој",
      "boundary": "administrative",
      "way_area": "0.0744475",
      "admin_level": "6"
    }
  },
  {
    "osm_id": -2528265,
    "boundary": "administrative",
    "admin_level": 6,
    "parents": "-2528154,-2528144,-2528142",
    "name": "City of Široki Brijeg",
    "local_name": "Grad Široki Brijeg",
    "name_en": "City of Široki Brijeg",
    "all_tags": {
      "name": "Grad Široki Brijeg",
      "name:bs": "Grad Široki Brijeg",
      "name:de": "Stadt Široki Brijeg",
      "name:en": "City of Široki Brijeg",
      "name:fr": "Ville de Široki Brijeg",
      "name:hr": "Grad Široki Brijeg",
      "boundary": "administrative",
      "way_area": "0.0417026",
      "wikidata": "Q15736756",
      "population": "28929",
      "admin_level": "6",
      "default_language": "hr"
    }
  },
  {
    "osm_id": -2528176,
    "boundary": "administrative",
    "admin_level": 6,
    "parents": "-2528149,-2528144,-2528142",
    "name": "City of Čapljina",
    "local_name": "Grad Čapljina",
    "name_en": "City of Čapljina",
    "all_tags": {
      "name": "Grad Čapljina",
      "name:bs": "Grad Čapljina",
      "name:en": "City of Čapljina",
      "name:fr": "Ville de Čapljina",
      "name:hr": "Grad Čapljina",
      "name:sr": "Град Чапљина",
      "boundary": "administrative",
      "way_area": "0.0278843",
      "population": "26157",
      "admin_level": "6",
      "name:sr-Latn": "Grad Čapljina",
      "default_language": "hr"
    }
  },
  {
    "osm_id": -2528155,
    "boundary": "administrative",
    "admin_level": 5,
    "parents": "-2528144,-2528142",
    "name": "Zenica-Doboj Canton",
    "local_name": "Zeničko-dobojski kanton",
    "name_en": "Zenica-Doboj Canton",
    "all_tags": {
      "name": "Zeničko-dobojski kanton",
      "name:bs": "Zeničko-dobojski kanton",
      "name:ca": "Cantó de Zenica-Doboj",
      "name:en": "Zenica-Doboj Canton",
      "name:fr": "Canton de Zenica-Doboj",
      "name:hr": "Zeničko-dobojska županija",
      "name:ru": "Зеницко-Добойский кантон",
      "name:sr": "Зеничко-добојски кантон",
      "boundary": "administrative",
      "way_area": "0.373796",
      "wikidata": "Q18253",
      "wikipedia": "en:Zenica-Doboj Canton",
      "admin_level": "5"
    }
  },
  {
    "osm_id": -2528145,
    "boundary": "administrative",
    "admin_level": 4,
    "parents": "-2528142",
    "name": "Republika Srpska",
    "local_name": "Република Српска / Republika Srpska",
    "name_en": "Republika Srpska",
    "all_tags": {
      "name": "Република Српска / Republika Srpska",
      "name:ar": "الجمهورية الصربية",
      "name:bs": "Republika Srpska",
      "name:ca": "Republika Srpska",
      "name:de": "Republika Srpska",
      "name:en": "Republika Srpska",
      "name:eo": "Serba Respubliko",
      "name:es": "República Srpska",
      "name:fr": "République serbe de Bosnie",
      "name:hr": "Republika Srpska",
      "name:lt": "Serbų respublika",
      "name:mk": "Република Српска",
      "name:nl": "Servische Republiek",
      "name:pl": "Republika Serbska",
      "name:ro": "Republica Sârbă a Bosniei",
      "name:ru": "Республика Сербская",
      "name:sr": "Република Српска",
      "boundary": "administrative",
      "way_area": "2.77673",
      "wikidata": "Q11196",
      "ISO3166-2": "BA-SRP",
      "wikipedia": "sr:Република Српска",
      "admin_level": "4",
      "alt_name:ar": "جمهورية صرب البوسنة",
      "alt_name:en": "Republic of Srpska",
      "alt_name:eo": "Respubliko Serba",
      "alt_name:ro": "Republica Srpska",
      "name:sr-Latn": "Republika Srpska",
      "wikipedia:bs": "Republika Srpska",
      "default_language": "sr"
    }
  },
  {
    "osm_id": -2567396,
    "boundary": "administrative",
    "admin_level": 6,
    "parents": "-2528145,-2528142",
    "name": "City of Istočno Sarajevo",
    "local_name": "Град Источно Сарајево / Grad Istočno Sarajevo",
    "name_en": "City of Istočno Sarajevo",
    "all_tags": {
      "name": "Град Источно Сарајево / Grad Istočno Sarajevo",
      "name:bs": "Grad Istočno Sarajevo",
      "name:en": "City of Istočno Sarajevo",
      "name:hr": "Grad Istočno Sarajevo",
      "name:ru": "Город Источно-Сараево",
      "name:sr": "Град Источно Сарајево",
      "boundary": "administrative",
      "way_area": "0.159192",
      "wikidata": "Q147556",
      "wikipedia": "en:Istočno Sarajevo",
      "population": "59916",
      "admin_level": "6",
      "name:sr-Latn": "Grad Istočno Sarajevo",
      "sorting_name": "Istočno Sarajevo"
    }
  }
]
