[
  {
    "osm_id": -53134,
    "boundary": "administrative",
    "admin_level": 4,
    "parents": "-52411",
    "name": "Flanders",
    "local_name": "Vlaanderen",
    "name_en": "Flanders",
    "all_tags": {
      "name": "Vlaanderen",
      "name:ar": "فلاندر",
      "name:br": "Flandrez",
      "name:ca": "Flandes",
      "name:de": "Flandern",
      "name:el": "Φλάνδρα",
      "name:en": "Flanders",
      "name:eo": "Flandrio",
      "name:es": "Flandes",
      "name:et": "Flandria",
      "name:fi": "Flanderi",
      "name:fr": "Flandre",
      "name:fy": "Flaanderen",
      "name:hu": "Flandria",
      "name:ja": "フランデレン地域",
      "name:ka": "ფლანდრია",
      "name:ko": "플라망 지역",
      "name:lb": "Flandern",
      "name:li": "Vlaondere",
      "name:lt": "Flandrija",
      "name:nl": "Vlaanderen",
      "name:pt": "Flandres",
      "name:ru": "Фландрия",
      "name:sk": "Flámsko",
      "name:th": "เขตฟลามส์",
      "name:wa": "Flande",
      "name:zh": "弗拉芒大區",
      "ref:INS": "02000",
      "website": "https://www.vlaanderen.be/",
      "boundary": "administrative",
      "name:pcd": "Flande",
      "name:tzl": "Flemphäts",
      "name:vls": "Vloandern",
      "nat_name": "Vlaams Gewest",
      "way_area": "1.74589",
      "wikidata": "Q9337",
      "ISO3166-2": "BE-VLG",
      "wikipedia": "nl:Vlaams Gewest",
      "ref:nuts:1": "BE2",
      "admin_level": "4",
      "border_type": "state",
      "nat_name:ar": "الإقليم الفلامندي",
      "nat_name:be": "Фламандскі рэгіён",
      "nat_name:bg": "Фламандски регион",
      "nat_name:ca": "Regió flamenca",
      "nat_name:de": "Flämische Region",
      "nat_name:el": "Φλαμανδική Περιοχή",
      "nat_name:en": "Flemish Region",
      "nat_name:eo": "Flandra Regiono",
      "nat_name:fr": "Région flamande",
      "nat_name:fy": "Flaamsk Gewest",
      "nat_name:lb": "Flämesch Regioun",
      "nat_name:li": "Vlaondere Gewes",
      "nat_name:mk": "Фламански регион",
      "nat_name:nl": "Vlaams Gewest",
      "nat_name:os": "Фламандийы регион",
      "nat_name:pl": "Region Flamandzki",
      "nat_name:ru": "Фламандский регион",
      "nat_name:sk": "Flámsky región",
      "nat_name:tr": "Flaman Bölgesi",
      "nat_name:wa": "Redjon flaminde",
      "name:zh-Hans": "弗拉芒大区",
      "name:zh-Hant": "弗拉芒大區",
      "nat_name:pcd": "Région flaminke",
      "nat_name:vls": "Vlams Gewest",
      "default_language": "nl"
    }
  },
  {
    "osm_id": -53114,
    "boundary": "administrative",
    "admin_level": 6,
    "parents": "-53134,-52411",
    "name": "Antwerp",
    "local_name": "Antwerpen",
    "name_en": "Antwerp",
    "all_tags": {
      "name": "Antwerpen",
      "capital": "6",
      "name:ar": "أنتويرب",
      "name:ca": "Anvers",
      "name:cs": "Antverpy",
      "name:de": "Antwerpen",
      "name:el": "Αμβέρσα",
      "name:en": "Antwerp",
      "name:eo": "Antverpeno",
      "name:es": "Amberes",
      "name:fi": "Antwerpen",
      "name:fr": "Anvers",
      "name:he": "אנטוורפן",
      "name:hr": "Antwerpen",
      "name:hu": "Antwerpen",
      "name:hy": "Անտվերպեն",
      "name:it": "Anversa",
      "name:ja": "アントワープ",
      "name:ka": "ანტვერპენი",
      "name:kn": "ಆಂಟ್ವೆರ್ಪ್",
      "name:la": "Antverpia",
      "name:lt": "Antverpenas",
      "name:lv": "Antverpene",
      "name:mk": "Антверпен",
      "name:nl": "Antwerpen",
      "name:pl": "Antwerpia",
      "name:pt": "Antuérpia",
      "name:ru": "Антверпен",
      "name:sk": "Antverpy",
      "name:sr": "Антверпен",
      "name:uk": "Антверпен",
      "name:wa": "Anverse",
      "name:zh": "安特卫普",
      "ref:INS": "10000",
      "website": "https://www.provincieantwerpen.be/",
      "boundary": "administrative",
      "name:nds": "Antwarp",
      "name:pcd": "Anvérse",
      "name:tzl": "Anviarça",
      "name:vls": "Antwerpn",
      "ref:nuts": "BE21",
      "way_area": "0.370025",
      "wikidata": "Q1116",
      "ISO3166-2": "BE-VAN",
      "wikipedia": "nl:Antwerpen (provincie)",
      "population": "1802719",
      "ref:nuts:2": "BE21",
      "admin_level": "6",
      "alt_name:ar": "أنتفيرب",
      "alt_name:es": "Antuerpia",
      "alt_name:mk": "Антверп",
      "border_type": "province",
      "name:nds-nl": "Antwaarp",
      "old_name:de": "Antorf",
      "official_name": "Provincie Antwerpen",
      "population:date": "2014-01-01",
      "official_name:ar": "مقاطعة أنتويرب",
      "official_name:nl": "Provincie Antwerpen"
    }
  },
  {
    "osm_id": -90348,
    "boundary": "administrative",
    "admin_level": 4,
    "parents": "-52411",
    "name": "Wallonia",
    "local_name": "Wallonie",
    "name_en": "Wallonia",
    "all_tags": {
      "name": "Wallonie",
      "name:ar": "والونيا",
      "name:be": "Валонія",
      "name:ca": "Valònia",
      "name:de": "Wallonien",
      "name:en": "Wallonia",
      "name:es": "Valonia",
      "name:fa": "والونی",
      "name:fi": "Vallonia",
      "name:fr": "Wallonie",
      "name:fy": "Walloanje",
      "name:hu": "Vallónia",
      "name:lb": "Wallounien",
      "name:lt": "Valonija",
      "name:nl": "Wallonië",
      "name:pl": "Walonia",
      "name:pt": "Valônia",
      "name:ru": "Валлония",
      "name:sk": "Valónsko",
      "name:ur": "والونیا",
      "name:wa": "Walonreye",
      "ref:INS": "03000",
      "website": "https://www.wallonie.be/",
      "boundary": "administrative",
      "name:pcd": "Walonnie",
      "name:pnb": "ویلونیا",
      "name:tzl": "Valonia",
      "name:vls": "Wallonië",
      "nat_name": "Région Wallonne",
      "ref:nuts": "BE3",
      "way_area": "2.13346",
      "wikidata": "Q231",
      "ISO3166-2": "BE-WAL",
      "wikipedia": "fr:Région wallonne",
      "ref:nuts:1": "BE3",
      "admin_level": "4",
      "nat_name:ar": "إقليم والونيا",
      "nat_name:ca": "Regió Valona",
      "nat_name:de": "Wallonische Region",
      "nat_name:en": "Walloon Region",
      "nat_name:es": "Región Valona",
      "nat_name:fr": "Région wallonne",
      "nat_name:lb": "Wallounesch Regioun",
      "nat_name:nl": "Waals Gewest",
      "nat_name:wa": "Redjon Walone",
      "name:zh-Hans": "瓦隆大区",
      "name:zh-Hant": "瓦隆大区",
      "nat_name:pcd": "Région walonne",
      "nat_name:vls": "Woals Gewest",
      "default_language": "fr"
    }
  },
  {
    "osm_id": -157559,
    "boundary": "administrative",
    "admin_level": 6,
    "parents": "-2620920,-52411",
    "name": "Hainaut",
    "local_name": "Hainaut",
    "name_en": "Hainaut",
    "all_tags": {
      "name": "Hainaut",
      "name:ar": "هينو",
      "name:ca": "Hainaut",
      "name:de": "Hennegau",
      "name:en": "Hainaut",
      "name:es": "Henao",
      "name:fr": "Hainaut",
      "name:hu": "Hainaut",
      "name:ja": "エノー州",
      "name:nl": "Henegouwen",
      "name:ru": "Эно",
      "name:sk": "Hennegavsko",
      "name:wa": "Hinnot",
      "ref:INS": "50000",
      "boundary": "administrative",
      "name:pcd": "Hénau",
      "name:vls": "Enegouwn",
      "ref:nuts": "BE32",
      "way_area": "0.482942",
      "wikidata": "Q1129",
      "ISO3166-2": "BE-WHT",
      "wikipedia": "fr:Province de Hainaut",
      "ref:nuts:2": "BE32",
      "admin_level": "6",
      "border_type": "departement"
    }
  },
  {
    "osm_id": -2620916,
    "boundary": "administrative_fraction",
    "admin_level": 6,
    "parents": "-2620920,-52411",
    "name": "Liège (French Community)",
    "local_name": "Liège (Communauté française)",
    "name_en": "Liège (French Community)",
    "all_tags": {
      "name": "Liège (Communauté française)",
      "name:ca": "Lieja (Comunitat francesa)",
      "name:de": "Lüttich (Französische Gemeinschaft)",
      "name:en": "Liège (French Community)",
      "name:fr": "Liège (Communauté française)",
      "name:hu": "Liège (francia közösség)",
      "name:nl": "Luik (Franse Gemeenschap)",
      "name:wa": "Lîdje (Kiminålté francesse)",
      "boundary": "administrative_fraction",
      "name:pcd": "Lidje",
      "way_area": "0.381922",
      "admin_level": "6",
      "name:nds-nl": "Luuk"
    }
  },
  {
    "osm_id": -1407192,
    "boundary": "administrative",
    "admin_level": 6,
    "parents": "-90348,-52411",
    "name": "Liège",
    "local_name": "Liège",
    "name_en": null,
    "all_tags": {
      "name": "Liège",
      "name:ar": "لييج",
      "name:bg": "Льеж",
      "name:ca": "Província de Lieja",
      "name:cs": "Lutych",
      "name:de": "Lüttich",
      "name:el": "Λιέγη",
      "name:eo": "Lieĝo",
      "name:es": "Lieja",
      "name:eu": "Lieja",
      "name:fa": "لیژ",
      "name:fr": "Liège",
      "name:fy": "Luik",
      "name:gl": "Liexa",
      "name:he": "לייז'",
      "name:hu": "Liège",
      "name:it": "Liegi",
      "name:ja": "リエージュ",
      "name:kk": "Льеж",
      "name:ko": "리에주",
      "name:la": "Leodium",
      "name:lb": "Léck",
      "name:li": "Luuk",
      "name:lt": "Lježas",
      "name:lv": "Lježa",
      "name:mr": "लीज",
      "name:nl": "Luik",
      "name:oc": "Lièja",
      "name:ru": "Льеж",
      "name:sk": "Lutyšsko",
      "name:sr": "Лијеж",
      "name:th": "ลีแยฌ",
      "name:uk": "Льєж",
      "name:wa": "Lîdje",
      "name:zh": "列日省",
      "ref:INS": "60000",
      "boundary": "administrative",
      "name:ast": "Liex",
      "name:nds": "Lüttich",
      "name:pcd": "Lidje",
      "name:pnb": "لیج",
      "name:vls": "Luuk",
      "ref:nuts": "BE33",
      "way_area": "0.488988",
      "wikidata": "Q1127",
      "ISO3166-2": "BE-WLG",
      "wikipedia": "fr:Province de Liège",
      "ref:nuts:2": "BE33",
      "admin_level": "6",
      "alt_name:la": "Legia",
      "name:nds-nl": "Luuk",
      "old_name:fr": "Liége",
      "old_name:la": "Leodicum",
      "name:zh-Hans": "列日省",
      "name:zh-Hant": "列日省",
      "official_name": "Province de Liège",
      "official_name:de": "Provinz Lüttich",
      "official_name:fr": "Province de Liège"
    }
  },
  {
    "osm_id": -53135,
    "boundary": "administrative",
    "admin_level": 6,
    "parents": "-53134,-52411",
    "name": "East Flanders",
    "local_name": "Oost-Vlaanderen",
    "name_en": "East Flanders",
    "all_tags": {
      "name": "Oost-Vlaanderen",
      "name:af": "Oos-Vlaandere",
      "name:an": "Flandres Oriental",
      "name:ar": "فلاندر الشرقية",
      "name:be": "Усходняя Фландрыя",
      "name:bg": "Източна Фландрия",
      "name:br": "Reter-Flandrez",
      "name:ca": "Flandes Oriental",
      "name:cs": "Východní Flandry",
      "name:cy": "Dwyrain Fflandrys",
      "name:da": "Østflandern",
      "name:de": "Ostflandern",
      "name:el": "Ανατολική Φλάνδρα",
      "name:en": "East Flanders",
      "name:eo": "Orienta Flandrio",
      "name:es": "Provincia de Flandes Oriental",
      "name:et": "Ida-Flandria",
      "name:eu": "Ekialdeko Flandria",
      "name:fa": "استان فلاندری شرقی",
      "name:fi": "Itä-Flanderi",
      "name:fr": "Flandre orientale",
      "name:fy": "East-Flaanderen",
      "name:gl": "Provincia de Flandres oriental",
      "name:hr": "Istočna Flandrija",
      "name:hu": "Kelet-Flandria",
      "name:id": "Flandria Timur",
      "name:is": "Austur-Flæmingjaland",
      "name:it": "Provincia delle Fiandre Orientali",
      "name:ja": "オースト＝フランデレン州",
      "name:ko": "오스트플란데런 주",
      "name:la": "Flandria Orientalis",
      "name:lb": "Provënz Ostflandern",
      "name:li": "Oos-Vlaondere",
      "name:lt": "Rytų Flandrijos provincija",
      "name:lv": "Austrumflandrija",
      "name:mr": "पूर्व फ्लांडर्स",
      "name:ms": "Flanders Timur",
      "name:nl": "Oost-Vlaanderen",
      "name:nn": "Aust-Flandern",
      "name:no": "Øst-Flandern",
      "name:oc": "Flandra Orientala",
      "name:os": "Скæсæн Фландри",
      "name:pl": "Flandria Wschodnia",
      "name:pt": "Flandres Oriental",
      "name:ro": "Flandra de Est",
      "name:ru": "Восточная Фландрия",
      "name:sk": "Východné Flámsko",
      "name:sv": "Östflandern",
      "name:th": "จังหวัดฟลานเดอร์ตะวันออก",
      "name:tr": "Doğu Flandre",
      "name:uk": "Східна Фландрія",
      "name:zh": "东弗兰德省",
      "ref:INS": "40000",
      "website": "https://www.oost-vlaanderen.be/",
      "boundary": "administrative",
      "name:pcd": "Flande-Oryintale",
      "ref:nuts": "BE23",
      "way_area": "0.385464",
      "wikidata": "Q1114",
      "ISO3166-2": "BE-VOV",
      "wikipedia": "nl:Oost-Vlaanderen",
      "ref:nuts:2": "BE23",
      "admin_level": "6",
      "border_type": "province",
      "official_name": "Provincie Oost-Vlaanderen",
      "official_name:nl": "Provincie Oost-Vlaanderen"
    }
  },
  {
    "osm_id": -78748,
    "boundary": "administrative",
    "admin_level": 6,
    "parents": "-2620920,-52411",
    "name": "Walloon Brabant",
    "local_name": "Brabant wallon",
    "name_en": "Walloon Brabant",
    "all_tags": {
      "name": "Brabant wallon",
      "name:ca": "Brabant Való",
      "name:de": "Wallonisch-Brabant",
      "name:en": "Walloon Brabant",
      "name:es": "Brabante Valón",
      "name:fr": "Brabant wallon",
      "name:fy": "Waalsk-Brabân",
      "name:hu": "Vallon-Brabant",
      "name:nl": "Waals-Brabant",
      "name:pl": "Brabancja Walońska",
      "name:ru": "Валлонский Брабант",
      "name:sk": "Valónske Brabantsko",
      "ref:INS": "20002",
      "boundary": "administrative",
      "ref:nuts": "BE31",
      "way_area": "0.139498",
      "wikidata": "Q1122",
      "ISO3166-2": "BE-WBR",
      "wikipedia": "fr:Province du Brabant wallon",
      "ref:nuts:2": "BE31",
      "admin_level": "6",
      "border_type": "departement",
      "name:nds-nl": "Waols-Braobaant"
    }
  },
  {
    "osm_id": -54094,
    "boundary": "administrative",
    "admin_level": 4,
    "parents": "-52411",
    "name": "Brussels-Capital",
    "local_name": "Région de Bruxelles-Capitale - Brussels Hoofdstedelijk Gewest",
    "name_en": "Brussels-Capital",
    "all_tags": {
      "name": "Région de Bruxelles-Capitale - Brussels Hoofdstedelijk Gewest",
      "name:ar": "بروكسل العاصمة",
      "name:ca": "Brussel·les-Capital",
      "name:de": "Brüssel-Hauptstadt",
      "name:en": "Brussels-Capital",
      "name:eo": "Brusela Ĉefurba",
      "name:fr": "Bruxelles-Capitale",
      "name:fy": "Brusselsk Haadsteedlik Gewest",
      "name:hu": "Brüsszel főváros",
      "name:la": "Bruxellae Capitalis",
      "name:lb": "Haaptstad Bréissel",
      "name:nl": "Brussel Hoofdstad",
      "name:ru": "Брюссельский столичный регион",
      "name:sk": "Bruselský región",
      "name:wa": "Brussele-Capitåle",
      "ref:INS": "04000",
      "website": "https://be.brussels/brussels?set_language=en",
      "boundary": "administrative",
      "name:pcd": "Brusselle-Capitale",
      "name:vls": "Brussel Oofdstad",
      "nat_name": "Région de Bruxelles-Capitale - Brussels Hoofdstedelijk Gewest",
      "ref:nuts": "BE1;BE10",
      "way_area": "0.0207282",
      "wikidata": "Q240",
      "ISO3166-2": "BE-BRU",
      "wikipedia": "fr:Région de Bruxelles-Capitale",
      "ref:nuts:1": "BE1",
      "ref:nuts:2": "BE10",
      "admin_level": "4",
      "name:nds-nl": "Bruzzels Heufdstedelk Gewest",
      "nat_name:ar": "إقليم بروكسل العاصمة",
      "nat_name:ca": "Regió de Brussel·les-Capital",
      "nat_name:de": "Region Brüssel-Hauptstadt",
      "nat_name:en": "Brussels-Capital Region",
      "nat_name:eo": "Brusela Ĉefurba Regiono",
      "nat_name:fr": "Région de Bruxelles-Capitale",
      "nat_name:la": "Regio Bruxellana Capitalis",
      "nat_name:lb": "Haaptstadregioun Bréissel",
      "nat_name:li": "Brussels Hoofsjtaejelik Gewes",
      "nat_name:nl": "Brussels Hoofdstedelijk Gewest",
      "nat_name:wa": "Redjon d'Brussele-Capitåle",
      "nat_name:pcd": "Région Brusselle-Capitale",
      "nat_name:vls": "Brussels Oofdstedelik Gewest",
      "flag:wikidata": "Q2474848",
      "default_language": "fr - nl",
      "official_name:la": "Regio Bruxellana Capitalis"
    }
  },
  {
    "osm_id": -58004,
    "boundary": "administrative",
    "admin_level": 6,
    "parents": "-53134,-52411",
    "name": "Flemish Brabant",
    "local_name": "Vlaams-Brabant",
    "name_en": "Flemish Brabant",
    "all_tags": {
      "name": "Vlaams-Brabant",
      "name:ar": "برابانت الفلامندي",
      "name:ca": "Brabant Flamenc",
      "name:de": "Flämisch-Brabant",
      "name:en": "Flemish Brabant",
      "name:eo": "Flandra Brabanto",
      "name:es": "Brabante Flamenco",
      "name:fr": "Brabant flamand",
      "name:fy": "Flaamsk-Brabân",
      "name:hu": "Flamand-Brabant",
      "name:la": "Brabantia Flandrica",
      "name:li": "Vlaams-Brabant",
      "name:nl": "Vlaams-Brabant",
      "name:pl": "Brabancja Flamandzka",
      "name:ru": "Фламандский Брабант",
      "name:sk": "Flámske Brabantsko",
      "name:wa": "Braibant flamind",
      "ref:INS": "20001",
      "website": "https://www.vlaamsbrabant.be/",
      "boundary": "administrative",
      "name:pcd": "Brabant flaminke",
      "name:vls": "Vlams-Broabant",
      "name:zea": "Vlaoms-Braebant",
      "ref:nuts": "BE24",
      "way_area": "0.270556",
      "wikidata": "Q1118",
      "ISO3166-2": "BE-VBR",
      "wikipedia": "nl:Vlaams-Brabant",
      "ref:nuts:2": "BE24",
      "admin_level": "6",
      "border_type": "province",
      "name:nds-nl": "Floams Broabant",
      "alt_name:zea": "Vloams-Braebant;Vlaems-Braebant",
      "official_name": "Provincie Vlaams-Brabant",
      "official_name:ar": "مقاطعة برابانت الفلامندي",
      "official_name:fr": "Province du Brabant flamand",
      "official_name:nl": "Provincie Vlaams-Brabant",
      "official_name:wa": "Province do Braibant flamind",
      "wikimedia_commons": "Flemish Brabant"
    }
  },
  {
    "osm_id": -53142,
    "boundary": "administrative",
    "admin_level": 6,
    "parents": "-53134,-52411",
    "name": "Limburg",
    "local_name": "Limburg",
    "name_en": "Limburg",
    "all_tags": {
      "name": "Limburg",
      "name:ar": "ليمبورخ",
      "name:ca": "Limburg",
      "name:de": "Limburg",
      "name:en": "Limburg",
      "name:eo": "Limburgo",
      "name:es": "Limburgo",
      "name:fr": "Limbourg",
      "name:fy": "Limburch",
      "name:hu": "Limburg",
      "name:li": "Limburg",
      "name:nl": "Limburg",
      "name:pl": "Limburgia",
      "name:ru": "Лимбург",
      "name:sk": "Limbursko",
      "name:wa": "Limbork",
      "ref:INS": "70000",
      "alt_name": "Belgisch Limburg",
      "boundary": "administrative",
      "name:pcd": "Limbourq",
      "ref:nuts": "BE22",
      "way_area": "0.31079",
      "wikidata": "Q1095",
      "ISO3166-2": "BE-VLI",
      "wikipedia": "nl:Limburg (Belgische provincie)",
      "ref:nuts:2": "BE22",
      "admin_level": "6",
      "alt_name:de": "Belgisch Limburg",
      "alt_name:fr": "Limbourg belge",
      "alt_name:li": "Belsj Limburg;Wes-Limburg",
      "alt_name:nl": "Belgisch Limburg",
      "alt_name:pl": "Limburgia belgijska",
      "border_type": "province",
      "name:zh-Hans": "林堡省",
      "name:zh-Hant": "林堡省",
      "official_name": "Provincie Limburg",
      "official_name:nl": "Provincie Limburg"
    }
  },
  {
    "osm_id": -1412581,
    "boundary": "administrative",
    "admin_level": 6,
    "parents": "-2620920,-52411",
    "name": "Luxembourg",
    "local_name": "Luxembourg",
    "name_en": "Luxembourg",
    "all_tags": {
      "name": "Luxembourg",
      "name:ca": "Luxemburg",
      "name:de": "Luxemburg",
      "name:en": "Luxembourg",
      "name:es": "Luxemburgo",
      "name:fr": "Luxembourg",
      "name:hu": "Luxembourg",
      "name:lb": "Lëtzebuerg",
      "name:li": "Luxemburg",
      "name:lt": "Liuksemburgas",
      "name:nl": "Luxemburg",
      "name:pl": "Luksemburg",
      "name:ru": "Люксембург",
      "name:wa": "Lussimbork",
      "name:zh": "盧森堡",
      "ref:INS": "80000",
      "website": "http://www.province.luxembourg.be/",
      "boundary": "administrative",
      "name:pcd": "Lussimbourk",
      "name:vls": "Luxemburg",
      "ref:nuts": "BE34",
      "way_area": "0.558767",
      "wikidata": "Q1126",
      "ISO3166-2": "BE-WLX",
      "wikipedia": "fr:Province de Luxembourg",
      "ref:nuts:2": "BE34",
      "admin_level": "6",
      "alt_name:nl": "Belgian Luxembourg",
      "border_type": "departement",
      "name:zh-Hans": "卢森堡",
      "name:zh-Hant": "盧森堡",
      "official_name": "Province de Luxembourg",
      "official_name:de": "Provinz Luxemburg",
      "official_name:en": "Luxembourg Province",
      "official_name:fr": "Province de Luxembourg",
      "official_name:lb": "Provënz Lëtzebuerg",
      "official_name:li": "Provincie Luxemburg",
      "official_name:nl": "Provincie Luxemburg",
      "official_name:wa": "Province do Lussimbork",
      "official_name:vls": "Provinsje Luxemburg"
    }
  },
  {
    "osm_id": -416271,
    "boundary": "administrative",
    "admin_level": 6,
    "parents": "-53134,-52411",
    "name": "West Flanders",
    "local_name": "West-Vlaanderen",
    "name_en": "West Flanders",
    "all_tags": {
      "name": "West-Vlaanderen",
      "name:ar": "فلاندر الغربية",
      "name:ca": "Flandes Occidental",
      "name:de": "Westflandern",
      "name:en": "West Flanders",
      "name:es": "Flandes Occidental",
      "name:fr": "Flandre-Occidentale",
      "name:hu": "Nyugat-Flandria",
      "name:nl": "West-Vlaanderen",
      "name:pl": "Flandria Zachodnia",
      "name:ru": "Западная Фландрия",
      "name:sk": "Západné Flámsko",
      "ref:INS": "30000",
      "website": "https://www.west-vlaanderen.be/",
      "boundary": "administrative",
      "name:pcd": "Flande-Occhidintale",
      "name:vls": "West-Vloandern",
      "ref:nuts": "BE25",
      "way_area": "0.409054",
      "wikidata": "Q1113",
      "ISO3166-2": "BE-VWV",
      "wikipedia": "nl:West-Vlaanderen",
      "ref:nuts:2": "BE25",
      "admin_level": "6",
      "border_type": "province",
      "official_name": "Provincie West-Vlaanderen",
      "official_name:ar": "مقاطعة فلاندر الغربية",
      "official_name:nl": "Provincie West-Vlaanderen"
    }
  },
  {
    "osm_id": -1311816,
    "boundary": "administrative",
    "admin_level": 6,
    "parents": "-2620920,-52411",
    "name": "Namur",
    "local_name": "Namur",
    "name_en": "Namur",
    "all_tags": {
      "name": "Namur",
      "border": "state",
      "name:ar": "نامور",
      "name:ca": "Província de Namur",
      "name:de": "Namur",
      "name:en": "Namur",
      "name:eo": "Namuro",
      "name:es": "Namur",
      "name:fr": "Namur",
      "name:hu": "Namur",
      "name:it": "Namur",
      "name:la": "Namurcum",
      "name:lb": "Namouer",
      "name:lt": "Namiūras",
      "name:mk": "Намир",
      "name:nl": "Namen",
      "name:ru": "Намюр",
      "name:sk": "Namursko",
      "name:sr": "Намир",
      "name:uk": "Намюр",
      "name:wa": "Nameur",
      "name:zh": "那慕爾",
      "ref:INS": "90000",
      "boundary": "administrative",
      "name:pcd": "Nameur",
      "name:vls": "Noamn",
      "ref:nuts": "BE35",
      "way_area": "0.463264",
      "wikidata": "Q1125",
      "ISO3166-2": "BE-WNA",
      "wikipedia": "fr:Province de Namur",
      "ref:nuts:2": "BE35",
      "admin_level": "6",
      "border_type": "departement",
      "name:zh-Hans": "那慕尔",
      "name:zh-Hant": "那慕爾"
    }
  },
  {
    "osm_id": -2620920,
    "boundary": "administrative_fraction",
    "admin_level": 4,
    "parents": "-52411",
    "name": "Wallonia (French Community)",
    "local_name": "Wallonie (Communauté française)",
    "name_en": "Wallonia (French Community)",
    "all_tags": {
      "name": "Wallonie (Communauté française)",
      "name:ar": "والونيا (المجتمع الفرنسي)",
      "name:ca": "Valònia (Comunitat francesa)",
      "name:de": "Wallonien (Französische Gemeinschaft)",
      "name:en": "Wallonia (French Community)",
      "name:es": "Valonia (Comunidad francesa)",
      "name:fr": "Wallonie (Communauté française)",
      "name:hu": "Vallónia (francia közösség)",
      "name:lt": "Valonija (Prancūzų bendruomenė)",
      "name:nl": "Wallonië (Franse Gemeenschap)",
      "name:pl": "Walonia (Wspólnota francuska)",
      "name:sk": "Valónsko (Francúzske spoločenstvo)",
      "name:wa": "Walonreye (Kiminålté francesse)",
      "boundary": "administrative_fraction",
      "nat_name": "Région Wallonne (Communauté française)",
      "way_area": "2.02639",
      "admin_level": "4",
      "nat_name:ca": "Regió valona (Comunitat francesa)",
      "nat_name:de": "Wallonische Region (Französische Gemeinschaft)",
      "nat_name:en": "Walloon Region (French Community)",
      "nat_name:fr": "Région wallonne (Communauté française)",
      "nat_name:nl": "Waals Gewest (Franse Gemeenschap)",
      "nat_name:wa": "Redjon Walone (Kiminålté francesse)"
    }
  }
]
