[
  {
    "osm_id": -1739521,
    "boundary": "administrative",
    "admin_level": 6,
    "parents": "-1733104,-3159967,-186382",
    "name": "Blagoevgrad",
    "local_name": "Благоевград",
    "name_en": "Blagoevgrad",
    "all_tags": {
      "name": "Благоевград",
      "ekatte": "BLG",
      "name:bg": "Благоевград",
      "name:de": "Oblast Blagoewgrad",
      "name:el": "Μπλαγκόεβγκραντ",
      "name:en": "Blagoevgrad",
      "name:fr": "Oblast de Blagoevgrad",
      "name:hu": "Blagoevgrad megye",
      "name:mk": "Пиринска Македонија",
      "name:ro": "Regiunea Blagoevgrad",
      "name:ru": "Благоевградская область",
      "boundary": "administrative",
      "ref:nuts": "BG413",
      "way_area": "0.697965",
      "wikidata": "Q804311",
      "ISO3166-2": "BG-01",
      "wikipedia": "bg:Благоевград (област)",
      "ref:nuts:3": "BG413",
      "admin_level": "6",
      "alt_name:mk": "Благоевградска област",
      "name:prefix": "Област",
      "name:prefix:bg": "Област",
      "name:suffix:en": "Region"
    }
  },
  {
    "osm_id": -1739532,
    "boundary": "administrative",
    "admin_level": 6,
    "parents": "-1733102,-13518891,-186382",
    "name": "Montana",
    "local_name": "Монтана",
    "name_en": "Montana",
    "all_tags": {
      "name": "Монтана",
      "ekatte": "MON",
      "name:bg": "Монтана",
      "name:de": "Oblast Montana",
      "name:en": "Montana",
      "name:fr": "Oblast de Montana",
      "name:ro": "Regiunea Montana",
      "name:ru": "Монтанская область",
      "name:sr": "Монтанска област",
      "boundary": "administrative",
      "ref:nuts": "BG312",
      "way_area": "0.404323",
      "wikidata": "Q2012057",
      "ISO3166-2": "BG-12",
      "wikipedia": "en:Montana Province",
      "ref:nuts:3": "BG312",
      "admin_level": "6",
      "name:prefix": "Област",
      "name:sr-Latn": "Montanska oblast",
      "name:prefix:bg": "Област",
      "name:suffix:en": "Region"
    }
  },
  {
    "osm_id": -1739525,
    "boundary": "administrative",
    "admin_level": 6,
    "parents": "-1733102,-13518891,-186382",
    "name": "Vidin",
    "local_name": "Видин",
    "name_en": "Vidin",
    "all_tags": {
      "name": "Видин",
      "ekatte": "VID",
      "name:bg": "Видин",
      "name:de": "Oblast Widin",
      "name:en": "Vidin",
      "name:fr": "Oblast de Vidin",
      "name:hu": "Vidin megye",
      "name:pl": "Widyń",
      "name:ro": "Regiunea Vidin",
      "name:ru": "Видинская область",
      "name:sr": "Видинска област",
      "boundary": "administrative",
      "ref:nuts": "BG311",
      "way_area": "0.33945",
      "wikidata": "Q2012772",
      "ISO3166-2": "BG-05",
      "wikipedia": "en:Vidin Province",
      "ref:nuts:3": "BG311",
      "admin_level": "6",
      "name:prefix": "Област",
      "name:sr-Latn": "Vidinska oblast",
      "name:prefix:bg": "Област",
      "name:suffix:en": "Region"
    }
  },
  {
    "osm_id": -1739530,
    "boundary": "administrative",
    "admin_level": 6,
    "parents": "-1733104,-3159967,-186382",
    "name": "Kyustendil",
    "local_name": "Кюстендил",
    "name_en": "Kyustendil",
    "all_tags": {
      "name": "Кюстендил",
      "ekatte": "KNL",
      "name:bg": "Кюстендил",
      "name:de": "Oblast Kjustendil",
      "name:el": "Κιουστεντίλ",
      "name:en": "Kyustendil",
      "name:fr": "Oblast de Kyoustendil",
      "name:hu": "Kjusztendil megye",
      "name:ro": "Regiunea Chiustendil",
      "name:ru": "Кюстендилская область",
      "name:sr": "Ћустендилска област",
      "boundary": "administrative",
      "ref:nuts": "BG415",
      "way_area": "0.333155",
      "wikidata": "Q1112985",
      "ISO3166-2": "BG-10",
      "wikipedia": "en:Kyustendil Province",
      "ref:nuts:3": "BG415",
      "admin_level": "6",
      "name:prefix": "Област",
      "name:sr-Latn": "Ćustendilska oblast",
      "name:zh-Hans": "丘斯滕迪尔州",
      "name:zh-Hant": "丘斯滕迪爾州",
      "name:prefix:bg": "Област",
      "name:suffix:en": "Region"
    }
  },
  {
    "osm_id": -1739539,
    "boundary": "administrative",
    "admin_level": 6,
    "parents": "-1733101,-13518891,-186382",
    "name": "Silistra",
    "local_name": "Силистра",
    "name_en": "Silistra",
    "all_tags": {
      "name": "Силистра",
      "ekatte": "SLS",
      "name:bg": "Силистра",
      "name:de": "Oblast Silistra",
      "name:en": "Silistra",
      "name:fr": "Oblast de Silistra",
      "name:lt": "Silistros sritis",
      "name:ro": "Regiunea Silistra",
      "name:ru": "Силистренская область",
      "boundary": "administrative",
      "ref:nuts": "BG325",
      "way_area": "0.319593",
      "wikidata": "Q2012423",
      "ISO3166-2": "BG-19",
      "wikipedia": "en:Silistra Province",
      "ref:nuts:3": "BG325",
      "admin_level": "6",
      "name:prefix": "Област",
      "name:prefix:bg": "Област",
      "name:suffix:en": "Region"
    }
  },
  {
    "osm_id": -1733106,
    "boundary": "statistical",
    "admin_level": 4,
    "parents": "-3159967,-186382",
    "name": "South-Central Planning Region",
    "local_name": "Южен централен район за планиране",
    "name_en": "South-Central Planning Region",
    "all_tags": {
      "name": "Южен централен район за планиране",
      "name:bg": "Южен централен район за планиране",
      "name:en": "South-Central Planning Region",
      "name:hu": "Dél-Közép-Bulgária",
      "name:ru": "Южно-Центральный регион",
      "boundary": "statistical",
      "int_name": "South-Central Planning Region",
      "ref:nuts": "BG42",
      "way_area": "2.42819",
      "wikidata": "Q31571",
      "wikipedia": "bg:Южен централен район за планиране",
      "ref:nuts:2": "BG42",
      "admin_level": "4"
    }
  },
  {
    "osm_id": -1739545,
    "boundary": "administrative",
    "admin_level": 6,
    "parents": "-1733106,-3159967,-186382",
    "name": "Haskovo",
    "local_name": "Хасково",
    "name_en": "Haskovo",
    "all_tags": {
      "name": "Хасково",
      "ekatte": "HKV",
      "name:bg": "Хасково",
      "name:de": "Oblast Chaskowo",
      "name:el": "Χάσκοβο",
      "name:en": "Haskovo",
      "name:fr": "Oblast de Khaskovo",
      "name:ro": "Regiunea Hascovo",
      "name:ru": "Хасковская область",
      "boundary": "administrative",
      "ref:nuts": "BG422",
      "way_area": "0.599663",
      "wikidata": "Q182809",
      "ISO3166-2": "BG-26",
      "wikipedia": "en:Haskovo Province",
      "ref:nuts:3": "BG422",
      "admin_level": "6",
      "name:prefix": "Област",
      "name:zh-Hans": "哈斯科沃州",
      "name:zh-Hant": "哈斯科沃州",
      "name:prefix:bg": "Област",
      "name:suffix:en": "Region"
    }
  },
  {
    "osm_id": -1739536,
    "boundary": "administrative",
    "admin_level": 6,
    "parents": "-1733106,-3159967,-186382",
    "name": "Plovdiv",
    "local_name": "Пловдив",
    "name_en": "Plovdiv",
    "all_tags": {
      "name": "Пловдив",
      "ekatte": "PDV",
      "name:bg": "Пловдив",
      "name:de": "Oblast Plowdiw",
      "name:en": "Plovdiv",
      "name:fr": "Oblast de Plovdiv",
      "name:ro": "Regiunea Plovdiv",
      "name:ru": "Пловдивская область",
      "boundary": "administrative",
      "ref:nuts": "BG421",
      "way_area": "0.65038",
      "wikidata": "Q187874",
      "ISO3166-2": "BG-16",
      "wikipedia": "en:Plovdiv Province",
      "ref:nuts:3": "BG421",
      "admin_level": "6",
      "name:prefix": "Област",
      "name:prefix:bg": "Област",
      "name:suffix:en": "Region"
    }
  },
  {
    "osm_id": -1739531,
    "boundary": "administrative",
    "admin_level": 6,
    "parents": "-1733102,-13518891,-186382",
    "name": "Lovech",
    "local_name": "Ловеч",
    "name_en": "Lovech",
    "all_tags": {
      "name": "Ловеч",
      "ekatte": "LOV",
      "name:bg": "Ловеч",
      "name:de": "Oblast Lowetsch",
      "name:en": "Lovech",
      "name:fr": "Oblast de Lovetch",
      "name:ro": "Regiunea Loveci",
      "name:ru": "Ловечская область",
      "boundary": "administrative",
      "ref:nuts": "BG315",
      "way_area": "0.45652",
      "wikidata": "Q6587068",
      "ISO3166-2": "BG-11",
      "wikipedia": "en:Lovech Province",
      "ref:nuts:3": "BG315",
      "admin_level": "6",
      "name:prefix": "Област",
      "name:prefix:bg": "Област",
      "name:suffix:en": "Region"
    }
  },
  {
    "osm_id": -1739535,
    "boundary": "administrative",
    "admin_level": 6,
    "parents": "-1733102,-13518891,-186382",
    "name": "Pleven",
    "local_name": "Плевен",
    "name_en": "Pleven",
    "all_tags": {
      "name": "Плевен",
      "ekatte": "PVN",
      "name:bg": "Плевен",
      "name:de": "Oblast Plewen",
      "name:en": "Pleven",
      "name:fr": "Oblast de Pleven",
      "name:hu": "Pleven megye",
      "name:ro": "Regiunea Plevna",
      "name:ru": "Плевенская область",
      "boundary": "administrative",
      "ref:nuts": "BG314",
      "way_area": "0.517673",
      "wikidata": "Q2012242",
      "ISO3166-2": "BG-15",
      "wikipedia": "en:Pleven Province",
      "ref:nuts:3": "BG314",
      "admin_level": "6",
      "name:prefix": "Област",
      "name:prefix:bg": "Област",
      "name:suffix:en": "Region"
    }
  },
  {
    "osm_id": -1739546,
    "boundary": "administrative",
    "admin_level": 6,
    "parents": "-1733103,-13518891,-186382",
    "name": "Shumen",
    "local_name": "Шумен",
    "name_en": "Shumen",
    "all_tags": {
      "name": "Шумен",
      "ekatte": "SHU",
      "name:bg": "Шумен",
      "name:de": "Oblast Schumen",
      "name:en": "Shumen",
      "name:fr": "Oblast de Choumen",
      "name:ro": "Regiunea Șumen",
      "name:ru": "Шуменская область",
      "boundary": "administrative",
      "ref:nuts": "BG333",
      "way_area": "0.376602",
      "wikidata": "Q184981",
      "ISO3166-2": "BG-27",
      "wikipedia": "en:Shumen Province",
      "ref:nuts:3": "BG333",
      "admin_level": "6",
      "name:prefix": "Област",
      "name:prefix:bg": "Област",
      "name:suffix:en": "Region"
    }
  },
  {
    "osm_id": -1733103,
    "boundary": "statistical",
    "admin_level": 4,
    "parents": "-13518891,-186382",
    "name": "North-East Planning Region",
    "local_name": "Североизточен район за планиране",
    "name_en": "North-East Planning Region",
    "all_tags": {
      "name": "Североизточен район за планиране",
      "name:de": "Planungsregion Nordost",
      "name:en": "North-East Planning Region",
      "name:hu": "Északkelet-Bulgária",
      "name:ru": "Северо-Восточный регион",
      "boundary": "statistical",
      "int_name": "Northeast Planning Region",
      "way_area": "1.62655",
      "wikidata": "Q4349469",
      "wikipedia": "bg:Североизточен район за планиране",
      "ref:nuts:2": "BG33",
      "admin_level": "4"
    }
  },
  {
    "osm_id": -1437135,
    "boundary": "administrative",
    "admin_level": 6,
    "parents": "-1733103,-13518891,-186382",
    "name": "Varna",
    "local_name": "Варна",
    "name_en": "Varna",
    "all_tags": {
      "name": "Варна",
      "ekatte": "VAR",
      "name:bg": "Варна",
      "name:de": "Oblast Warna",
      "name:en": "Varna",
      "name:fr": "Oblast de Varna",
      "name:hu": "Várna megye",
      "name:ro": "Regiunea Varna",
      "name:ru": "Варненская область",
      "website": "http://www.vn.government.bg/",
      "boundary": "administrative",
      "ref:nuts": "BG331",
      "way_area": "0.423262",
      "wikidata": "Q183487",
      "ISO3166-2": "BG-03",
      "wikipedia": "bg:Варна (област)",
      "ref:nuts:3": "BG331",
      "admin_level": "6",
      "name:prefix": "Област",
      "name:prefix:bg": "Област",
      "name:suffix:en": "Region"
    }
  },
  {
    "osm_id": -13516477,
    "boundary": "statistical",
    "admin_level": 4,
    "parents": "-13518891,-186382",
    "name": "Югоизточен район за планиране",
    "local_name": "Югоизточен район за планиране",
    "name_en": null,
    "all_tags": {
      "name": "Югоизточен район за планиране",
      "boundary": "statistical",
      "ref:nuts": "BG34",
      "way_area": "2.16729",
      "admin_level": "4"
    }
  },
  {
    "osm_id": -1733105,
    "boundary": "statistical",
    "admin_level": 4,
    "parents": "-13518891,-186382",
    "name": "Southeast Planning Region",
    "local_name": "Югоизточен район за планиране",
    "name_en": "Southeast Planning Region",
    "all_tags": {
      "name": "Югоизточен район за планиране",
      "name:de": "Planungsregion Südost",
      "name:en": "Southeast Planning Region",
      "name:hu": "Délkelet-Bulgária",
      "name:ru": "Юго-Восточный регион",
      "boundary": "statistical",
      "int_name": "Southeast Planning Region",
      "ref:nuts": "BG34",
      "way_area": "2.16729",
      "wikidata": "Q2471345",
      "wikipedia": "bg:Югоизточен район за планиране",
      "ref:nuts:2": "BG34",
      "admin_level": "4"
    }
  },
  {
    "osm_id": -1739528,
    "boundary": "administrative",
    "admin_level": 6,
    "parents": "-1733103,-13518891,-186382",
    "name": "Dobrich",
    "local_name": "Добрич",
    "name_en": "Dobrich",
    "all_tags": {
      "name": "Добрич",
      "ekatte": "DOB",
      "name:bg": "Добрич",
      "name:de": "Oblast Dobritsch",
      "name:en": "Dobrich",
      "name:fr": "Oblast de Dobritch",
      "name:hu": "Dobrics megye",
      "name:ro": "Regiunea Dobrici",
      "name:ru": "Добричская область",
      "boundary": "administrative",
      "ref:nuts": "BG332",
      "way_area": "0.526287",
      "wikidata": "Q907395",
      "ISO3166-2": "BG-08",
      "wikipedia": "en:Dobrich Province",
      "ref:nuts:3": "BG332",
      "admin_level": "6",
      "name:prefix": "Област",
      "name:prefix:bg": "Област",
      "name:suffix:en": "Region"
    }
  },
  {
    "osm_id": -1739526,
    "boundary": "administrative",
    "admin_level": 6,
    "parents": "-1733102,-13518891,-186382",
    "name": "Vratsa",
    "local_name": "Враца",
    "name_en": "Vratsa",
    "all_tags": {
      "name": "Враца",
      "ekatte": "VRC",
      "name:bg": "Враца",
      "name:de": "Oblast Wraza",
      "name:en": "Vratsa",
      "name:fr": "Oblast de Vratsa",
      "name:ro": "Regiunea Vrața",
      "name:ru": "Врачанская область",
      "boundary": "administrative",
      "ref:nuts": "BG313",
      "way_area": "0.402298",
      "wikidata": "Q2012785",
      "ISO3166-2": "BG-06",
      "wikipedia": "en:Vratsa Province",
      "ref:nuts:3": "BG313",
      "admin_level": "6",
      "name:prefix": "Област",
      "name:prefix:bg": "Област",
      "name:suffix:en": "Region"
    }
  },
  {
    "osm_id": -1739529,
    "boundary": "administrative",
    "admin_level": 6,
    "parents": "-1733106,-3159967,-186382",
    "name": "Kardzhali",
    "local_name": "Кърджали",
    "name_en": "Kardzhali",
    "all_tags": {
      "name": "Кърджали",
      "ekatte": "KRZ",
      "name:bg": "Кърджали",
      "name:de": "Oblast Kardschali",
      "name:el": "Κάρτζαλι",
      "name:en": "Kardzhali",
      "name:fr": "Oblast de Kardjali",
      "name:lt": "Kerdžalų sritis",
      "name:mk": "Крџалиска област",
      "name:ro": "Regiunea Cârgeali",
      "name:ru": "Кырджалийская область",
      "boundary": "administrative",
      "ref:nuts": "BG425",
      "way_area": "0.346489",
      "wikidata": "Q1104675",
      "ISO3166-2": "BG-09",
      "wikipedia": "en:Kardzhali Province",
      "ref:nuts:3": "BG425",
      "admin_level": "6",
      "name:prefix": "Област",
      "name:prefix:bg": "Област",
      "name:suffix:en": "Region"
    }
  },
  {
    "osm_id": -1739541,
    "boundary": "administrative",
    "admin_level": 6,
    "parents": "-1733106,-3159967,-186382",
    "name": "Smolyan",
    "local_name": "Смолян",
    "name_en": "Smolyan",
    "all_tags": {
      "name": "Смолян",
      "ekatte": "SML",
      "name:bg": "Смолян",
      "name:de": "Oblast Smoljan",
      "name:en": "Smolyan",
      "name:fr": "Oblast de Smolyan",
      "name:ro": "Regiunea Smolian",
      "name:ru": "Смолянская область",
      "boundary": "administrative",
      "ref:nuts": "BG424",
      "way_area": "0.346399",
      "wikidata": "Q2012430",
      "ISO3166-2": "BG-21",
      "wikipedia": "en:Smolyan Province",
      "ref:nuts:3": "BG424",
      "admin_level": "6",
      "name:prefix": "Област",
      "name:prefix:bg": "Област",
      "name:suffix:en": "Region"
    }
  },
  {
    "osm_id": -1739543,
    "boundary": "administrative",
    "admin_level": 6,
    "parents": "-1733104,-3159967,-186382",
    "name": "Sofia-City",
    "local_name": "София-град",
    "name_en": "Sofia-City",
    "all_tags": {
      "name": "София-град",
      "ekatte": "SOF",
      "name:bg": "София-град",
      "name:de": "Oblast Sofia-Stadt",
      "name:en": "Sofia-City",
      "name:fr": "Oblast de Sofia-ville",
      "name:hu": "Szófia főváros",
      "name:ro": "Sofia",
      "name:ru": "София",
      "boundary": "administrative",
      "ref:nuts": "BG411",
      "way_area": "0.147344",
      "wikidata": "Q1585725",
      "ISO3166-2": "BG-22",
      "wikipedia": "en:Sofia City Province",
      "ref:nuts:3": "BG411",
      "admin_level": "6",
      "name:prefix": "Област",
      "name:prefix:bg": "Област",
      "name:suffix:en": "Region"
    }
  },
  {
    "osm_id": -1733102,
    "boundary": "statistical",
    "admin_level": 4,
    "parents": "-13518891,-186382",
    "name": "Northwest Planning Region",
    "local_name": "Северозападен район за планиране",
    "name_en": "Northwest Planning Region",
    "all_tags": {
      "name": "Северозападен район за планиране",
      "name:de": "Planungsregion Nordwest",
      "name:en": "Northwest Planning Region",
      "name:hu": "Északnyugat-Bulgária",
      "name:ru": "Северо-Западный регион",
      "boundary": "statistical",
      "int_name": "Northwest Planning Region",
      "way_area": "2.12026",
      "wikidata": "Q4809383",
      "wikipedia": "bg:Северозападен район за планиране",
      "ref:nuts:2": "BG31",
      "admin_level": "4"
    }
  },
  {
    "osm_id": -1739524,
    "boundary": "administrative",
    "admin_level": 6,
    "parents": "-1733101,-13518891,-186382",
    "name": "Veliko Tarnovo",
    "local_name": "Велико Търново",
    "name_en": "Veliko Tarnovo",
    "all_tags": {
      "name": "Велико Търново",
      "ekatte": "VTR",
      "name:bg": "Велико Търново",
      "name:de": "Oblast Weliko Tarnowo",
      "name:en": "Veliko Tarnovo",
      "name:fr": "Oblast de Veliko Tarnovo",
      "name:ro": "Regiunea Târnava Mare",
      "name:ru": "Великотырновская область",
      "boundary": "administrative",
      "ref:nuts": "BG321",
      "way_area": "0.513577",
      "wikidata": "Q2012621",
      "ISO3166-2": "BG-04",
      "wikipedia": "en:Veliko Tarnovo Province",
      "ref:nuts:3": "BG321",
      "admin_level": "6",
      "name:prefix": "Област",
      "name:prefix:bg": "Област",
      "name:suffix:en": "Region"
    }
  },
  {
    "osm_id": -1739538,
    "boundary": "administrative",
    "admin_level": 6,
    "parents": "-1733101,-13518891,-186382",
    "name": "Ruse",
    "local_name": "Русе",
    "name_en": "Ruse",
    "all_tags": {
      "name": "Русе",
      "ekatte": "RSE",
      "name:bg": "Русе",
      "name:de": "Oblast Russe",
      "name:en": "Ruse",
      "name:fr": "Oblast de Roussé",
      "name:hu": "Rusze megye",
      "name:ro": "Regiunea Ruse",
      "name:ru": "Русенская область",
      "boundary": "administrative",
      "ref:nuts": "BG323",
      "way_area": "0.319971",
      "wikidata": "Q1251933",
      "ISO3166-2": "BG-18",
      "wikipedia": "en:Ruse Province",
      "ref:nuts:3": "BG323",
      "admin_level": "6",
      "name:prefix": "Област",
      "name:prefix:bg": "Област",
      "name:suffix:en": "Region"
    }
  },
  {
    "osm_id": -1733101,
    "boundary": "statistical",
    "admin_level": 4,
    "parents": "-13518891,-186382",
    "name": "North-Center Planning Region",
    "local_name": "Северен централен район за планиране",
    "name_en": "North-Center Planning Region",
    "all_tags": {
      "name": "Северен централен район за планиране",
      "name:en": "North-Center Planning Region",
      "name:hu": "Észak-Közép-Bulgária",
      "name:ru": "Северно-Центральный регион",
      "boundary": "statistical",
      "int_name": "Severen tsentralen",
      "way_area": "1.64796",
      "wikidata": "Q2471235",
      "wikipedia": "bg:Северен централен район за планиране",
      "ref:nuts:2": "BG32",
      "admin_level": "4"
    }
  },
  {
    "osm_id": -1739523,
    "boundary": "administrative",
    "admin_level": 6,
    "parents": "-13516477,-13518891,-186382",
    "name": "Burgas",
    "local_name": "Бургас",
    "name_en": "Burgas",
    "all_tags": {
      "name": "Бургас",
      "ekatte": "BGS",
      "name:ar": "مقاطعة بورغاس",
      "name:be": "Бургаская вобласць",
      "name:bg": "Бургас",
      "name:ca": "Província de Burgàs",
      "name:cs": "Burgaská oblast",
      "name:da": "Burgas (provins)",
      "name:de": "Oblast Burgas",
      "name:el": "Επαρχία Μπουργκάς",
      "name:en": "Burgas",
      "name:eo": "Provinco Burgas",
      "name:es": "Provincia de Burgas",
      "name:et": "Burgasi piirkond",
      "name:eu": "Burgas probintzia",
      "name:fa": "استان بورگاس",
      "name:fi": "Burgasin alue",
      "name:fr": "Oblast de Bourgas",
      "name:he": "בורגס (מחוז)",
      "name:hr": "Oblast Burgas",
      "name:hu": "Burgasz megye",
      "name:hy": "Բուրգասի մարզ",
      "name:id": "Provinsi Burgas",
      "name:it": "Distretto di Burgas",
      "name:ja": "ブルガス州",
      "name:ka": "ბურგასის ოლქი",
      "name:ko": "부르가스 주",
      "name:la": "Pyrgos (provincia)",
      "name:lt": "Burgaso sritis",
      "name:mk": "Бургаска област",
      "name:mn": "Бургас аймаг",
      "name:nl": "Boergas",
      "name:no": "Burgas oblast",
      "name:oc": "Borgas (region)",
      "name:os": "Бургасы облæст",
      "name:pl": "Obwód Burgas",
      "name:pt": "Burgas (província)",
      "name:ro": "Regiunea Burgas",
      "name:ru": "Бургасская область",
      "name:sh": "Burgaska oblast",
      "name:sk": "Burgas (oblasť)",
      "name:sl": "Burgas (okraj)",
      "name:sq": "Provinca Burgas",
      "name:sr": "Бургаска област",
      "name:sv": "Burgas (region)",
      "name:tg": "Вилояти Бургас",
      "name:tr": "Burgaz (il)",
      "name:uk": "Бургаська область",
      "name:ur": "بورگاس صوبہ",
      "name:uz": "Burgas",
      "name:vi": "Burgas (tỉnh)",
      "name:zh": "布爾加斯州",
      "boundary": "administrative",
      "name:ceb": "Burgas (rehiyon)",
      "name:nan": "Burgas Chiu",
      "name:pnb": "صوبہ برگاس",
      "name:sco": "Burgas",
      "name:war": "Burgas (lalawigan)",
      "ref:nuts": "BG341",
      "way_area": "0.848415",
      "wikidata": "Q369220",
      "ISO3166-2": "BG-02",
      "wikipedia": "en:Burgas Province",
      "ref:nuts:3": "BG341",
      "admin_level": "6",
      "name:prefix": "Област",
      "name:be-tarask": "Бургаская вобласьць",
      "name:prefix:bg": "Област",
      "name:suffix:en": "Region"
    }
  },
  {
    "osm_id": -1739534,
    "boundary": "administrative",
    "admin_level": 6,
    "parents": "-1733104,-3159967,-186382",
    "name": "Pernik",
    "local_name": "Перник",
    "name_en": "Pernik",
    "all_tags": {
      "name": "Перник",
      "ekatte": "PER",
      "name:bg": "Перник",
      "name:de": "Oblast Pernik",
      "name:en": "Pernik",
      "name:fr": "Oblast de Pernik",
      "name:ro": "Regiunea Pernic",
      "name:ru": "Перникская область",
      "name:sr": "Перничка област",
      "boundary": "administrative",
      "ref:nuts": "BG414",
      "way_area": "0.262449",
      "wikidata": "Q2012234",
      "ISO3166-2": "BG-14",
      "wikipedia": "en:Pernik Province",
      "ref:nuts:3": "BG414",
      "admin_level": "6",
      "name:prefix": "Област",
      "name:sr-Latn": "Pernička oblast",
      "name:prefix:bg": "Област",
      "name:suffix:en": "Region"
    }
  },
  {
    "osm_id": -1739533,
    "boundary": "administrative",
    "admin_level": 6,
    "parents": "-1733106,-3159967,-186382",
    "name": "Pazardzhik",
    "local_name": "Пазарджик",
    "name_en": "Pazardzhik",
    "all_tags": {
      "name": "Пазарджик",
      "ekatte": "PAZ",
      "name:bg": "Пазарджик",
      "name:de": "Oblast Pasardschik",
      "name:en": "Pazardzhik",
      "name:fr": "Oblast de Pazardjik",
      "name:hu": "Pazardzsik megye",
      "name:ro": "Regiunea Pazargic",
      "name:ru": "Пазарджикская область",
      "boundary": "administrative",
      "ref:nuts": "BG423",
      "way_area": "0.485256",
      "wikidata": "Q2012227",
      "ISO3166-2": "BG-13",
      "wikipedia": "de:Oblast Pasardschik",
      "ref:nuts:3": "BG423",
      "admin_level": "6",
      "name:prefix": "Област",
      "name:prefix:bg": "Област",
      "name:suffix:en": "Region"
    }
  },
  {
    "osm_id": -1739544,
    "boundary": "administrative",
    "admin_level": 6,
    "parents": "-1733103,-13518891,-186382",
    "name": "Targovishte",
    "local_name": "Търговище",
    "name_en": "Targovishte",
    "all_tags": {
      "name": "Търговище",
      "ekatte": "TGV",
      "name:bg": "Търговище",
      "name:de": "Oblast Targowischte",
      "name:en": "Targovishte",
      "name:fr": "Oblast de Targovichte",
      "name:ro": "Regiunea Târgoviște",
      "name:ru": "Тырговиштская область",
      "boundary": "administrative",
      "ref:nuts": "BG334",
      "way_area": "0.3004",
      "wikidata": "Q2012589",
      "ISO3166-2": "BG-25",
      "wikipedia": "en:Targovishte Province",
      "ref:nuts:3": "BG334",
      "admin_level": "6",
      "name:prefix": "Област",
      "name:prefix:bg": "Област",
      "name:suffix:en": "Region"
    }
  },
  {
    "osm_id": -1733104,
    "boundary": "statistical",
    "admin_level": 4,
    "parents": "-3159967,-186382",
    "name": "Southwest Planning Region",
    "local_name": "Югозападен район за планиране",
    "name_en": "Southwest Planning Region",
    "all_tags": {
      "name": "Югозападен район за планиране",
      "name:de": "Planungsregion Südwest",
      "name:el": "Νοτιοδυτική Περιφέρεια Σχεδιασμού",
      "name:en": "Southwest Planning Region",
      "name:hu": "Délnyugat-Bulgária",
      "name:ru": "Юго-Западный регион",
      "boundary": "statistical",
      "ref:nuts": "BG41",
      "way_area": "2.21703",
      "wikidata": "Q31570",
      "wikipedia": "bg:Югозападен район за планиране",
      "ref:nuts:2": "BG41",
      "short_name": "Югозападен район",
      "admin_level": "4"
    }
  },
  {
    "osm_id": -1739542,
    "boundary": "administrative",
    "admin_level": 6,
    "parents": "-1733104,-3159967,-186382",
    "name": "Sofia",
    "local_name": "Софийска",
    "name_en": "Sofia",
    "all_tags": {
      "name": "Софийска",
      "ekatte": "SFO",
      "name:bg": "Софийска",
      "name:de": "Oblast Sofia",
      "name:en": "Sofia",
      "name:fr": "Oblast de Sofia",
      "name:hu": "Szófia megye",
      "name:ro": "Regiunea Sofia",
      "name:ru": "Софийская область",
      "name:sr": "Софијска област",
      "boundary": "administrative",
      "ref:nuts": "BG412",
      "way_area": "0.776118",
      "wikidata": "Q202904",
      "ISO3166-2": "BG-23",
      "wikipedia": "bg:Софийска (област)",
      "ref:nuts:3": "BG412",
      "admin_level": "6",
      "name:suffix": "област",
      "name:sr-Latn": "Sofijska oblast",
      "name:suffix:bg": "област",
      "name:suffix:en": "Region"
    }
  },
  {
    "osm_id": -1739540,
    "boundary": "administrative",
    "admin_level": 6,
    "parents": "-13516477,-13518891,-186382",
    "name": "Sliven",
    "local_name": "Сливен",
    "name_en": "Sliven",
    "all_tags": {
      "name": "Сливен",
      "ekatte": "SLV",
      "name:bg": "Сливен",
      "name:de": "Oblast Sliwen",
      "name:en": "Sliven",
      "name:fr": "Oblast de Sliven",
      "name:ro": "Regiunea Sliven",
      "name:ru": "Сливенская область",
      "boundary": "administrative",
      "ref:nuts": "BG342",
      "way_area": "0.389175",
      "wikidata": "Q113120",
      "ISO3166-2": "BG-20",
      "wikipedia": "en:Sliven Province",
      "ref:nuts:3": "BG342",
      "admin_level": "6",
      "name:prefix": "Област",
      "name:prefix:bg": "Област",
      "name:suffix:en": "Region"
    }
  },
  {
    "osm_id": -1739527,
    "boundary": "administrative",
    "admin_level": 6,
    "parents": "-1733101,-13518891,-186382",
    "name": "Gabrovo",
    "local_name": "Габрово",
    "name_en": "Gabrovo",
    "all_tags": {
      "name": "Габрово",
      "ekatte": "GAB",
      "name:bg": "Габрово",
      "name:de": "Oblast Gabrowo",
      "name:en": "Gabrovo",
      "name:fr": "Oblast de Gabrovo",
      "name:ro": "Regiunea Gabrovo",
      "name:ru": "Габровская область",
      "boundary": "administrative",
      "ref:nuts": "BG322",
      "way_area": "0.22559",
      "wikidata": "Q1007272",
      "ISO3166-2": "BG-07",
      "wikipedia": "en:Gabrovo Province",
      "ref:nuts:3": "BG322",
      "admin_level": "6",
      "name:prefix": "Област",
      "name:prefix:bg": "Област",
      "name:suffix:en": "Region"
    }
  },
  {
    "osm_id": -1739537,
    "boundary": "administrative",
    "admin_level": 6,
    "parents": "-1733101,-13518891,-186382",
    "name": "Razgrad",
    "local_name": "Разград",
    "name_en": "Razgrad",
    "all_tags": {
      "name": "Разград",
      "ekatte": "RAZ",
      "name:bg": "Разград",
      "name:de": "Oblast Rasgrad",
      "name:en": "Razgrad",
      "name:fr": "Oblast de Razgrad",
      "name:ro": "Regiunea Razgrad",
      "name:ru": "Разградская область",
      "boundary": "administrative",
      "ref:nuts": "BG324",
      "way_area": "0.269233",
      "wikidata": "Q2790675",
      "ISO3166-2": "BG-17",
      "wikipedia": "en:Razgrad Province",
      "ref:nuts:3": "BG324",
      "admin_level": "6",
      "name:prefix": "Област",
      "name:prefix:bg": "Област",
      "name:suffix:en": "Region"
    }
  },
  {
    "osm_id": -1300657,
    "boundary": "administrative",
    "admin_level": 6,
    "parents": "-13516477,-13518891,-186382",
    "name": "Stara Zagora",
    "local_name": "Стара Загора",
    "name_en": "Stara Zagora",
    "all_tags": {
      "name": "Стара Загора",
      "ekatte": "SZR",
      "name:bg": "Стара Загора",
      "name:de": "Oblast Stara Sagora",
      "name:en": "Stara Zagora",
      "name:fr": "Oblast de Stara Zagora",
      "name:ro": "Regiunea Stara Zagora",
      "name:ru": "Старозагорская область",
      "boundary": "administrative",
      "ref:nuts": "BG344",
      "way_area": "0.563478",
      "wikidata": "Q2012583",
      "ISO3166-2": "BG-24",
      "wikipedia": "en:Stara Zagora Province",
      "ref:nuts:3": "BG344",
      "admin_level": "6",
      "name:prefix": "Област",
      "name:prefix:bg": "Област",
      "name:suffix:en": "Region"
    }
  },
  {
    "osm_id": -1739547,
    "boundary": "administrative",
    "admin_level": 6,
    "parents": "-13516477,-13518891,-186382",
    "name": "Yambol",
    "local_name": "Ямбол",
    "name_en": "Yambol",
    "all_tags": {
      "name": "Ямбол",
      "ekatte": "JAM",
      "name:bg": "Ямбол",
      "name:de": "Oblast Jambol",
      "name:en": "Yambol",
      "name:fr": "Oblast de Yambol",
      "name:ro": "Regiunea Iambol",
      "name:ru": "Ямболская область",
      "boundary": "administrative",
      "ref:nuts": "BG341",
      "way_area": "0.366217",
      "wikidata": "Q220736",
      "ISO3166-2": "BG-28",
      "wikipedia": "en:Yambol Province",
      "ref:nuts:3": "BG343",
      "admin_level": "6",
      "name:prefix": "Област",
      "name:prefix:bg": "Област",
      "name:suffix:en": "Region"
    }
  }
]
