[
  {
    "osm_id": -3028095,
    "boundary": "administrative",
    "admin_level": 4,
    "parents": "-378734",
    "name": "Muharraq Governorate",
    "local_name": "محافظة المحرق",
    "name_en": "Muharraq Governorate",
    "all_tags": {
      "name": "محافظة المحرق",
      "name:ar": "محافظة المحرق",
      "name:bg": "Мухарак",
      "name:cs": "guvernorát Muhárrak",
      "name:de": "Muharraq",
      "name:en": "Muharraq Governorate",
      "name:es": "Muharraq",
      "name:fr": "Gouvernorat de Muharraq",
      "name:ja": "ムハッラク県",
      "name:ru": "Мухарак",
      "alt_name": "Muhafazat al-Muharaq",
      "boundary": "administrative",
      "way_area": "0.157425",
      "wikidata": "Q375630",
      "ISO3166-2": "BH-15",
      "wikipedia": "ar:محافظة المحرق",
      "admin_level": "4",
      "alt_name:en": "Muharraq Governorate",
      "sorting_name:cs": "Muhárrak"
    }
  },
  {
    "osm_id": -3028094,
    "boundary": "administrative",
    "admin_level": 4,
    "parents": "-378734",
    "name": "Capital Governorate",
    "local_name": "محافظة العاصمة",
    "name_en": "Capital Governorate",
    "all_tags": {
      "name": "محافظة العاصمة",
      "name:ar": "محافظة العاصمة",
      "name:bg": "Столична провинция",
      "name:cs": "Hlavní guvernorát",
      "name:de": "Muhafazat al-'Asimah",
      "name:en": "Capital Governorate",
      "name:fa": "استان عاصمه",
      "name:fr": "Gouvernorat de la capitale",
      "name:ja": "首都県",
      "name:ps": "محافظه پلازمېنه",
      "name:ru": "Столичная провинция",
      "name:ur": "محافظہ دارالحکومت",
      "boundary": "administrative",
      "way_area": "0.0243566",
      "wikidata": "Q528953",
      "ISO3166-2": "BH-13",
      "wikipedia": "ar:محافظة العاصمة (البحرين)",
      "admin_level": "4"
    }
  },
  {
    "osm_id": -2522430,
    "boundary": "administrative",
    "admin_level": 4,
    "parents": "-378734",
    "name": "Southern Governorate",
    "local_name": "المحافظة الجنوبية",
    "name_en": "Southern Governorate",
    "all_tags": {
      "ref": "5",
      "name": "المحافظة الجنوبية",
      "name:ar": "المحافظة الجنوبية",
      "name:bg": "Южна провинция",
      "name:cs": "Jižní guvernorát",
      "name:de": "Muhafazat Süd",
      "name:en": "Southern Governorate",
      "name:fa": "استان جنوبیه",
      "name:fr": "Gouvernorat méridional",
      "name:ja": "南部県",
      "name:ps": "محافظه جنوبيه",
      "name:ru": "Южная провинция",
      "name:ur": "محافظہ جنوبیہ",
      "boundary": "administrative",
      "way_area": "0.266875",
      "wikidata": "Q838532",
      "ISO3166-2": "BH-14",
      "wikipedia": "ar:جنوبية (محافظة)",
      "admin_level": "4"
    }
  },
  {
    "osm_id": -2522303,
    "boundary": "administrative",
    "admin_level": 4,
    "parents": "-378734",
    "name": "Northern Governorate",
    "local_name": "المحافظة الشمالية",
    "name_en": "Northern Governorate",
    "all_tags": {
      "ref": "4",
      "name": "المحافظة الشمالية",
      "name:ar": "المحافظة الشمالية",
      "name:bg": "Северна провинция",
      "name:cs": "Severní guvernorát",
      "name:de": "Norden",
      "name:en": "Northern Governorate",
      "name:es": "Norte",
      "name:fr": "Gouvernorat septentrional",
      "name:ja": "北部県",
      "name:ru": "Северная провинция",
      "boundary": "administrative",
      "way_area": "0.075689",
      "wikidata": "Q840445",
      "ISO3166-2": "BH-17",
      "wikipedia": "en:Northern Governorate",
      "admin_level": "4"
    }
  }
]
