[
  {
    "osm_id": -8751666,
    "boundary": "administrative",
    "admin_level": 6,
    "parents": "-3853885,-2103120",
    "name": "Mukim Kota Batu",
    "local_name": "Mukim Kota Batu",
    "name_en": null,
    "all_tags": {
      "name": "Mukim Kota Batu",
      "place": "subdistrict",
      "boundary": "administrative",
      "way_area": "0.00487149",
      "wikidata": "Q2365632",
      "wikipedia": "ms:Mukim Kota Batu",
      "admin_level": "6"
    }
  },
  {
    "osm_id": -8748572,
    "boundary": "administrative",
    "admin_level": 6,
    "parents": "-3853885,-2103120",
    "name": "Mukim Pangkalan Batu",
    "local_name": "Mukim Pangkalan Batu",
    "name_en": null,
    "all_tags": {
      "name": "Mukim Pangkalan Batu",
      "place": "subdistrict",
      "alt_name": "Mukim Pengkalan Batu",
      "boundary": "administrative",
      "way_area": "0.0074231",
      "wikidata": "Q2365680",
      "wikipedia": "ms:Mukim Pengkalan Batu",
      "admin_level": "6"
    }
  },
  {
    "osm_id": -8747413,
    "boundary": "administrative",
    "admin_level": 6,
    "parents": "-3853885,-2103120",
    "name": "Mukim Sengkurong",
    "local_name": "Mukim Sengkurong",
    "name_en": null,
    "all_tags": {
      "name": "Mukim Sengkurong",
      "boundary": "administrative",
      "way_area": "0.00653656",
      "wikidata": "Q2490410",
      "wikipedia": "ms:Mukim Sengkurong",
      "admin_level": "6"
    }
  },
  {
    "osm_id": -8742065,
    "boundary": "administrative",
    "admin_level": 6,
    "parents": "-3853885,-2103120",
    "name": "Mukim Kianggeh",
    "local_name": "Mukim Kianggeh",
    "name_en": null,
    "all_tags": {
      "name": "Mukim Kianggeh",
      "place": "subdistrict",
      "boundary": "administrative",
      "way_area": "0.00155008",
      "wikidata": "Q2365664",
      "wikipedia": "ms:Mukim Kianggeh",
      "admin_level": "6"
    }
  },
  {
    "osm_id": -8741987,
    "boundary": "administrative",
    "admin_level": 6,
    "parents": "-3853885,-2103120",
    "name": "Mukim Lumapas",
    "local_name": "Mukim Lumapas",
    "name_en": null,
    "all_tags": {
      "name": "Mukim Lumapas",
      "place": "subdistrict",
      "boundary": "administrative",
      "way_area": "0.00454474",
      "wikidata": "Q2364560",
      "wikipedia": "ms:Mukim Lumapas",
      "admin_level": "6"
    }
  },
  {
    "osm_id": -8737979,
    "boundary": "administrative",
    "admin_level": 6,
    "parents": "-3853885,-2103120",
    "name": "Mukim Berakas A",
    "local_name": "Mukim Berakas A",
    "name_en": null,
    "all_tags": {
      "name": "Mukim Berakas A",
      "place": "subdistrict",
      "boundary": "administrative",
      "way_area": "0.00359439",
      "wikidata": "Q1952924",
      "wikipedia": "ms:Mukim Berakas 'A'",
      "admin_level": "6"
    }
  },
  {
    "osm_id": -8737970,
    "boundary": "administrative",
    "admin_level": 6,
    "parents": "-3853885,-2103120",
    "name": "Mukim Berakas B",
    "local_name": "Mukim Berakas B",
    "name_en": null,
    "all_tags": {
      "name": "Mukim Berakas B",
      "place": "subdistrict",
      "boundary": "administrative",
      "way_area": "0.00225622",
      "wikidata": "Q2024412",
      "wikipedia": "ms:Mukim Berakas 'B'",
      "admin_level": "6"
    }
  },
  {
    "osm_id": -8737946,
    "boundary": "administrative",
    "admin_level": 6,
    "parents": "-3853885,-2103120",
    "name": "Mukim Mentiri",
    "local_name": "Mukim Mentiri",
    "name_en": null,
    "all_tags": {
      "name": "Mukim Mentiri",
      "place": "subdistrict",
      "boundary": "administrative",
      "way_area": "0.0028464",
      "wikidata": "Q2365615",
      "wikipedia": "ms:Mukim Mentiri",
      "admin_level": "6"
    }
  },
  {
    "osm_id": -8737936,
    "boundary": "administrative",
    "admin_level": 6,
    "parents": "-3853885,-2103120",
    "name": "Mukim Serasa",
    "local_name": "Mukim Serasa",
    "name_en": null,
    "all_tags": {
      "name": "Mukim Serasa",
      "place": "subdistrict",
      "boundary": "administrative",
      "way_area": "0.00201702",
      "wikidata": "Q2490398",
      "wikipedia": "ms:Mukim Serasa",
      "admin_level": "6"
    }
  },
  {
    "osm_id": -8737931,
    "boundary": "administrative",
    "admin_level": 6,
    "parents": "-3853885,-2103120",
    "name": "Mukim Gadong B",
    "local_name": "Mukim Gadong B",
    "name_en": null,
    "all_tags": {
      "name": "Mukim Gadong B",
      "place": "subdistrict",
      "boundary": "administrative",
      "way_area": "0.00200739",
      "wikidata": "Q3866969",
      "wikipedia": "ms:Mukim Gadong B",
      "admin_level": "6"
    }
  },
  {
    "osm_id": -8737907,
    "boundary": "administrative",
    "admin_level": 6,
    "parents": "-3853885,-2103120",
    "name": "Mukim Gadong A",
    "local_name": "Mukim Gadong A",
    "name_en": null,
    "all_tags": {
      "name": "Mukim Gadong A",
      "place": "subdistrict",
      "boundary": "administrative",
      "way_area": "0.00406024",
      "wikidata": "Q2364102",
      "wikipedia": "ms:Mukim Gadong A",
      "admin_level": "6"
    }
  },
  {
    "osm_id": -8732607,
    "boundary": "administrative",
    "admin_level": 6,
    "parents": "-3853885,-2103120",
    "name": "Mukim Sungai Kedayan",
    "local_name": "Mukim Sungai Kedayan",
    "name_en": null,
    "all_tags": {
      "name": "Mukim Sungai Kedayan",
      "place": "subdistrict",
      "boundary": "administrative",
      "way_area": "2.31012e-05",
      "wikidata": "Q2490416",
      "wikipedia": "ms:Mukim Sungai Kedayan",
      "admin_level": "6"
    }
  },
  {
    "osm_id": -7843853,
    "boundary": "administrative",
    "admin_level": 4,
    "parents": "-2103120",
    "name": "Temburong District",
    "local_name": "Temburong",
    "name_en": "Temburong District",
    "all_tags": {
      "name": "Temburong",
      "place": "district",
      "name:bg": "Тембуронг",
      "name:cs": "Temburong",
      "name:de": "Temburong",
      "name:el": "Τεμπουρόνγκ",
      "name:en": "Temburong District",
      "name:es": "Temburong",
      "name:eu": "Temburong",
      "name:fa": "تمبورونگ",
      "name:fi": "Temburong",
      "name:fr": "Temburong",
      "name:gl": "Temburong",
      "name:he": "טמבורונג",
      "name:id": "Temburong",
      "name:it": "Temburong",
      "name:ja": "テンブロン地区",
      "name:ko": "틈부롱 구",
      "name:lt": "Temburongo",
      "name:ms": "Daerah Temburong",
      "name:nl": "Temburong",
      "name:pl": "Temburong",
      "name:ps": "تيمبورونگ",
      "name:pt": "Temburong",
      "name:ru": "Тембуронг",
      "name:sv": "Temburong",
      "name:ta": "டெம்புரோங்கு",
      "name:th": "เติมบูรง",
      "name:tr": "Temburong",
      "name:uk": "Тембуронґ",
      "name:ur": "تیمبورونگ ضلع",
      "name:zh": "淡布伦区",
      "boundary": "administrative",
      "name:ace": "Temburong",
      "name:ceb": "Temburong",
      "name:nan": "Temburong",
      "name:war": "Temburong",
      "way_area": "0.111304",
      "wikidata": "Q263285",
      "ISO3166-2": "BN-TE",
      "wikipedia": "ms:Daerah Temburong",
      "admin_level": "4",
      "name:zh-Hans": "淡布伦区",
      "name:zh-Hant": "淡武廊縣",
      "official_name": "Daerah Temburong"
    }
  },
  {
    "osm_id": -4197780,
    "boundary": "administrative",
    "admin_level": 6,
    "parents": "-3853885,-2103120",
    "name": "Mukim Tamoi",
    "local_name": "Mukim Tamoi",
    "name_en": null,
    "all_tags": {
      "name": "Mukim Tamoi",
      "place": "subdistrict",
      "boundary": "administrative",
      "way_area": "4.16373e-05",
      "wikidata": "Q2490448",
      "wikipedia": "ms:Mukim Tamoi",
      "admin_level": "6",
      "postal_code": "BL"
    }
  },
  {
    "osm_id": -4197778,
    "boundary": "administrative",
    "admin_level": 6,
    "parents": "-3853885,-2103120",
    "name": "Mukim Sungai Kebun",
    "local_name": "Mukim Sungai Kebun",
    "name_en": null,
    "all_tags": {
      "name": "Mukim Sungai Kebun",
      "place": "subdistrict",
      "boundary": "administrative",
      "way_area": "0.000155323",
      "wikidata": "Q2490464",
      "wikipedia": "ms:Mukim Sungai Kebun",
      "admin_level": "6",
      "postal_code": "BK"
    }
  },
  {
    "osm_id": -4197777,
    "boundary": "administrative",
    "admin_level": 6,
    "parents": "-3853885,-2103120",
    "name": "Mukim Saba",
    "local_name": "Mukim Saba",
    "name_en": null,
    "all_tags": {
      "name": "Mukim Saba",
      "place": "subdistrict",
      "boundary": "administrative",
      "way_area": "1.93721e-05",
      "wikidata": "Q2490424",
      "wikipedia": "ms:Mukim Saba",
      "admin_level": "6",
      "postal_code": "BR"
    }
  },
  {
    "osm_id": -4197776,
    "boundary": "administrative",
    "admin_level": 6,
    "parents": "-3853885,-2103120",
    "name": "Mukim Peramu",
    "local_name": "Mukim Peramu",
    "name_en": null,
    "all_tags": {
      "name": "Mukim Peramu",
      "place": "subdistrict",
      "boundary": "administrative",
      "way_area": "2.26205e-05",
      "wikidata": "Q2365595",
      "wikipedia": "ms:Mukim Peramu",
      "admin_level": "6",
      "postal_code": "BP"
    }
  },
  {
    "osm_id": -4197775,
    "boundary": "administrative",
    "admin_level": 6,
    "parents": "-3853885,-2103120",
    "name": "Mukim Burong Pingai Ayer",
    "local_name": "Mukim Burong Pingai Ayer",
    "name_en": null,
    "all_tags": {
      "name": "Mukim Burong Pingai Ayer",
      "place": "subdistrict",
      "boundary": "administrative",
      "way_area": "4.73294e-05",
      "wikidata": "Q2024423",
      "wikipedia": "ms:Mukim Burong Pingai Ayer",
      "admin_level": "6",
      "postal_code": "BM"
    }
  },
  {
    "osm_id": -3853886,
    "boundary": "administrative",
    "admin_level": 4,
    "parents": "-2103120",
    "name": "Tutong District",
    "local_name": "Tutong",
    "name_en": "Tutong District",
    "all_tags": {
      "name": "Tutong",
      "place": "district",
      "name:de": "Tutong",
      "name:en": "Tutong District",
      "name:ja": "ツトン",
      "name:ms": "Daerah Tutong",
      "name:zh": "都东县",
      "boundary": "administrative",
      "way_area": "0.181717",
      "wikidata": "Q40398",
      "ISO3166-2": "BN-TU",
      "wikipedia": "en:Tutong District",
      "admin_level": "4",
      "official_name": "Daerah Tutong"
    }
  },
  {
    "osm_id": -3853885,
    "boundary": "administrative",
    "admin_level": 4,
    "parents": "-2103120",
    "name": "Brunei-Muara District",
    "local_name": "Brunei-Muara",
    "name_en": "Brunei-Muara District",
    "all_tags": {
      "name": "Brunei-Muara",
      "place": "district",
      "name:de": "Brunei-Muara",
      "name:en": "Brunei-Muara District",
      "name:ja": "ブルネイ・ムアラ",
      "name:ms": "Daerah Brunei-Muara",
      "name:zh": "文莱摩拉县",
      "boundary": "administrative",
      "way_area": "0.142753",
      "wikidata": "Q153009",
      "ISO3166-2": "BN-BM",
      "wikipedia": "en:Brunei-Muara District",
      "admin_level": "4"
    }
  },
  {
    "osm_id": -3853884,
    "boundary": "administrative",
    "admin_level": 4,
    "parents": "-2103120",
    "name": "Belait District",
    "local_name": "Belait",
    "name_en": "Belait District",
    "all_tags": {
      "name": "Belait",
      "place": "district",
      "name:de": "Belait",
      "name:en": "Belait District",
      "name:ja": "ブライト",
      "name:ms": "Daerah Belait",
      "name:zh": "马拉奕县",
      "boundary": "administrative",
      "way_area": "0.301464",
      "wikidata": "Q40395",
      "ISO3166-2": "BN-BE",
      "wikipedia": "en:Belait District",
      "admin_level": "4",
      "official_name": "Daerah Belait"
    }
  }
]
