[
  {
    "osm_id": -4775789,
    "boundary": "administrative",
    "admin_level": 5,
    "parents": "-332476,-3360778,-59470",
    "name": "Região Geográfica Intermediária de Manaus",
    "local_name": "Região Geográfica Intermediária de Manaus",
    "name_en": null,
    "all_tags": {
      "name": "Região Geográfica Intermediária de Manaus",
      "boundary": "administrative",
      "way_area": "46.0019",
      "wikidata": "Q56346735",
      "wikipedia": "pt:Região Geográfica Intermediária de Manaus",
      "admin_level": "5",
      "IBGE:GEOCODIGO": "1301"
    }
  },
  {
    "osm_id": -242620,
    "boundary": "administrative",
    "admin_level": 4,
    "parents": "-2844750,-59470",
    "name": "Rio Grande do Sul",
    "local_name": "Rio Grande do Sul",
    "name_en": "Rio Grande do Sul",
    "all_tags": {
      "ref": "RS",
      "flag": "https://upload.wikimedia.org/wikipedia/commons/6/63/Bandeira_do_Rio_Grande_do_Sul.svg",
      "name": "Rio Grande do Sul",
      "name:ar": "ريو غراندي دو سول",
      "name:ay": "Rio Grande do Sul Istadu",
      "name:az": "Riu-Qrandi-du-Sul",
      "name:be": "Рыу-Гранды-ду-Сул",
      "name:bg": "Рио Гранди до Сул",
      "name:de": "Rio Grande do Sul",
      "name:el": "Ρίο Γκράντε ντο Σουλ",
      "name:en": "Rio Grande do Sul",
      "name:eo": "Suda Rio-Grando",
      "name:es": "Río Grande del Sur",
      "name:et": "Rio Grande do Suli osariik",
      "name:eu": "Hegoaldeko Rio Grande",
      "name:fa": "ریو گرانده جنوبی",
      "name:gl": "Río Grande do Sur",
      "name:he": "ריו גראנדה דו סול",
      "name:hi": "रियो ग्रांडे दो सुल",
      "name:hy": "Ռիու Գրանդի դու Սուլ",
      "name:id": "Rio Grande Selatan",
      "name:ja": "リオグランデ・ド・スル",
      "name:ka": "რიუ-გრანდი-დუ-სული",
      "name:kk": "Риу-Гранди-ду-Сул",
      "name:ko": "히우그란지두술",
      "name:la": "Flumen Magnum Meridionale",
      "name:lt": "Pietų Rio Grandė",
      "name:lv": "Riugrandi du Sula",
      "name:mk": "Јужна Рио Гранде",
      "name:mr": "रियो ग्रांदे दो सुल",
      "name:os": "Риу-Гранди-ду-Сул",
      "name:pl": "Rio Grande do Sul",
      "name:pt": "Rio Grande do Sul",
      "name:qu": "Urin Hatunmayu suyu",
      "name:ru": "Риу-Гранди-ду-Сул",
      "name:sh": "Rio Grandi du Sul",
      "name:sr": "Рио Гранде до Сул",
      "name:ta": "இரியோ கிராண்டு டொ சுல்",
      "name:tg": "Риу Гранди ду Сул",
      "name:th": "รีโอกรันดีโดซูล",
      "name:tt": "Риу-Гранди-ду-Сул",
      "name:uk": "Ріу-Гранді-ду-Сул",
      "name:ur": "جنوبی ریو گرانڈی",
      "name:uz": "Riu-Grandi-du-Sul",
      "name:zh": "南里奥格兰德",
      "website": "http://www.rs.gov.br/",
      "boundary": "administrative",
      "timezone": "America/Sao_Paulo",
      "way_area": "27.5443",
      "wikidata": "Q40030",
      "ISO3166-2": "BR-RS",
      "wikipedia": "pt:Rio Grande do Sul",
      "short_name": "RS",
      "admin_level": "4",
      "is_in:country": "Brazil",
      "IBGE:GEOCODIGO": "43"
    }
  },
  {
    "osm_id": -297640,
    "boundary": "administrative",
    "admin_level": 4,
    "parents": "-2844750,-59470",
    "name": "Paraná",
    "local_name": "Paraná",
    "name_en": "Paraná",
    "all_tags": {
      "ref": "PR",
      "flag": "https://upload.wikimedia.org/wikipedia/commons/9/93/Bandeira_do_Paran%C3%A1.svg",
      "name": "Paraná",
      "name:af": "Paraná",
      "name:ar": "بارانا",
      "name:ay": "Parana Istadu",
      "name:az": "Parana ştatı",
      "name:be": "Парана",
      "name:bg": "Парана",
      "name:br": "Paraná",
      "name:bs": "Paraná",
      "name:ca": "Paranà",
      "name:cs": "Paraná",
      "name:cy": "Paraná",
      "name:da": "Paraná",
      "name:de": "Paraná",
      "name:el": "Παρανά",
      "name:en": "Paraná",
      "name:eo": "Paranao",
      "name:es": "Estado de Paraná",
      "name:et": "Paraná osariik",
      "name:eu": "Paraná",
      "name:fa": "پارانا",
      "name:fi": "Paraná",
      "name:fr": "Parana",
      "name:gl": "Estado do Paraná",
      "name:gn": "Parana",
      "name:he": "פרנה",
      "name:hi": "पाराना",
      "name:hr": "Paraná",
      "name:hu": "Paraná",
      "name:hy": "Պարանա",
      "name:ia": "Parana",
      "name:io": "Paraná",
      "name:is": "Paraná",
      "name:it": "Paraná",
      "name:ja": "パラナ",
      "name:ka": "პარანა",
      "name:ko": "파라나",
      "name:la": "Parana",
      "name:li": "Paraná",
      "name:lt": "Parana",
      "name:lv": "Parana",
      "name:mk": "Парана",
      "name:mr": "पाराना",
      "name:ms": "Paraná",
      "name:nl": "Paraná",
      "name:nn": "Delstaten Paraná",
      "name:no": "Paraná",
      "name:oc": "Estat del Paraná",
      "name:os": "Парана",
      "name:pl": "Parana",
      "name:pt": "Paraná",
      "name:qu": "Paraná suyu",
      "name:ru": "Парана",
      "name:sk": "Paraná",
      "name:sr": "Парана",
      "name:sv": "Paraná",
      "name:sw": "Paraná",
      "name:ta": "பரானா",
      "name:tg": "Парана",
      "name:th": "ปารานา",
      "name:tr": "Paraná",
      "name:tt": "Парана",
      "name:uk": "Парана",
      "name:ur": "پارانا",
      "name:uz": "Parana",
      "name:vi": "Paraná",
      "name:yi": "פאראנא",
      "name:yo": "Paraná",
      "name:zh": "巴拉那",
      "website": "http://www.pr.gov.br/",
      "boundary": "administrative",
      "timezone": "America/Sao_Paulo",
      "way_area": "18.0635",
      "wikidata": "Q15499",
      "ISO3166-2": "BR-PR",
      "wikipedia": "pt:Paraná",
      "short_name": "PR",
      "admin_level": "4",
      "IBGE:GEOCODIGO": "41"
    }
  },
  {
    "osm_id": -4874838,
    "boundary": "administrative",
    "admin_level": 5,
    "parents": "-333597,-3359944,-59470",
    "name": "Região Geográfica Intermediária de Barra do Garças",
    "local_name": "Região Geográfica Intermediária de Barra do Garças",
    "name_en": null,
    "all_tags": {
      "name": "Região Geográfica Intermediária de Barra do Garças",
      "boundary": "administrative",
      "way_area": "16.7351",
      "wikidata": "Q56350451",
      "wikipedia": "pt:Região Geográfica Intermediária de Barra do Garças",
      "admin_level": "5",
      "IBGE:GEOCODIGO": "5104"
    }
  },
  {
    "osm_id": -11074718,
    "boundary": "administrative",
    "admin_level": 5,
    "parents": "-185579,-3360778,-59470",
    "name": "Região Geográfica Intermediária de Redenção",
    "local_name": "Região Geográfica Intermediária de Redenção",
    "name_en": null,
    "all_tags": {
      "name": "Região Geográfica Intermediária de Redenção",
      "boundary": "administrative",
      "way_area": "14.275",
      "wikidata": "Q65167708",
      "wikipedia": "pt:Região Geográfica Intermediária de Redenção",
      "admin_level": "5",
      "IBGE:GEOCODIGO": "1504"
    }
  },
  {
    "osm_id": -4833035,
    "boundary": "administrative",
    "admin_level": 5,
    "parents": "-334051,-3359944,-59470",
    "name": "Região Geográfica Intermediária de Campo Grande",
    "local_name": "Região Geográfica Intermediária de Campo Grande",
    "name_en": null,
    "all_tags": {
      "name": "Região Geográfica Intermediária de Campo Grande",
      "boundary": "administrative",
      "way_area": "13.7362",
      "wikidata": "Q65171890",
      "wikipedia": "pt:Região Geográfica Intermediária de Campo Grande",
      "admin_level": "5",
      "IBGE:GEOCODIGO": "5001"
    }
  },
  {
    "osm_id": -4832189,
    "boundary": "administrative",
    "admin_level": 5,
    "parents": "-334051,-3359944,-59470",
    "name": "Região Geográfica Intermediária de Corumbá",
    "local_name": "Região Geográfica Intermediária de Corumbá",
    "name_en": null,
    "all_tags": {
      "name": "Região Geográfica Intermediária de Corumbá",
      "boundary": "administrative",
      "way_area": "11.299",
      "wikidata": "Q65171892",
      "wikipedia": "pt:Região Geográfica Intermediária de Corumbá",
      "admin_level": "5",
      "IBGE:GEOCODIGO": "5003"
    }
  },
  {
    "osm_id": -4828724,
    "boundary": "administrative",
    "admin_level": 5,
    "parents": "-185579,-3360778,-59470",
    "name": "Região Geográfica Intermediária de Marabá",
    "local_name": "Região Geográfica Intermediária de Marabá",
    "name_en": null,
    "all_tags": {
      "name": "Região Geográfica Intermediária de Marabá",
      "boundary": "administrative",
      "way_area": "8.89403",
      "wikidata": "Q65167701",
      "wikipedia": "pt:Região Geográfica Intermediária de Marabá",
      "admin_level": "5",
      "IBGE:GEOCODIGO": "1503"
    }
  },
  {
    "osm_id": -4813477,
    "boundary": "administrative",
    "admin_level": 5,
    "parents": "-326287,-3360778,-59470",
    "name": "Região Geográfica Intermediária de Boa Vista",
    "local_name": "Região Geográfica Intermediária de Boa Vista",
    "name_en": null,
    "all_tags": {
      "name": "Região Geográfica Intermediária de Boa Vista",
      "boundary": "administrative",
      "way_area": "9.02583",
      "wikidata": "Q56346743",
      "wikipedia": "pt:Região Geográfica Intermediária de Boa Vista",
      "admin_level": "5",
      "IBGE:GEOCODIGO": "1401"
    }
  },
  {
    "osm_id": -4819163,
    "boundary": "administrative",
    "admin_level": 5,
    "parents": "-331463,-3360778,-59470",
    "name": "Região Geográfica Intermediária de Oiapoque-Porto Grande",
    "local_name": "Região Geográfica Intermediária de Oiapoque-Porto Grande",
    "name_en": null,
    "all_tags": {
      "name": "Região Geográfica Intermediária de Oiapoque-Porto Grande",
      "boundary": "administrative",
      "way_area": "7.04616",
      "wikidata": "Q65173774",
      "wikipedia": "pt:Região Geográfica Intermediária de Oiapoque-Porto Grande",
      "admin_level": "5",
      "IBGE:GEOCODIGO": "1602"
    }
  },
  {
    "osm_id": -4874866,
    "boundary": "administrative",
    "admin_level": 5,
    "parents": "-333597,-3359944,-59470",
    "name": "Região Geográfica Intermediária de Rondonópolis",
    "local_name": "Região Geográfica Intermediária de Rondonópolis",
    "name_en": null,
    "all_tags": {
      "name": "Região Geográfica Intermediária de Rondonópolis",
      "boundary": "administrative",
      "way_area": "7.13601",
      "wikidata": "Q56346889",
      "wikipedia": "pt:Região Geográfica Intermediária de Rondonópolis",
      "admin_level": "5",
      "IBGE:GEOCODIGO": "5105"
    }
  },
  {
    "osm_id": -4846886,
    "boundary": "administrative",
    "admin_level": 5,
    "parents": "-336819,-3360778,-59470",
    "name": "Região Geográfica Intermediária de Araguaína",
    "local_name": "Região Geográfica Intermediária de Araguaína",
    "name_en": null,
    "all_tags": {
      "name": "Região Geográfica Intermediária de Araguaína",
      "boundary": "administrative",
      "way_area": "6.56264",
      "wikidata": "Q65167691",
      "wikipedia": "pt:Região Geográfica Intermediária de Araguaína",
      "admin_level": "5",
      "IBGE:GEOCODIGO": "1702"
    }
  },
  {
    "osm_id": -4857279,
    "boundary": "administrative",
    "admin_level": 5,
    "parents": "-334443,-3359944,-59470",
    "name": "Região Geográfica Intermediária de Rio Verde",
    "local_name": "Região Geográfica Intermediária de Rio Verde",
    "name_en": null,
    "all_tags": {
      "name": "Região Geográfica Intermediária de Rio Verde",
      "boundary": "administrative",
      "way_area": "6.22926",
      "wikidata": "Q65168202",
      "wikipedia": "pt:Região Geográfica Intermediária de Rio Verde",
      "admin_level": "5",
      "IBGE:GEOCODIGO": "5203"
    }
  },
  {
    "osm_id": -4831653,
    "boundary": "administrative",
    "admin_level": 5,
    "parents": "-334051,-3359944,-59470",
    "name": "Região Geográfica Intermediária de Dourados",
    "local_name": "Região Geográfica Intermediária de Dourados",
    "name_en": null,
    "all_tags": {
      "name": "Região Geográfica Intermediária de Dourados",
      "boundary": "administrative",
      "way_area": "5.86687",
      "wikidata": "Q65171895",
      "wikipedia": "pt:Região Geográfica Intermediária de Dourados",
      "admin_level": "5",
      "IBGE:GEOCODIGO": "5002"
    }
  },
  {
    "osm_id": -301464,
    "boundary": "administrative",
    "admin_level": 4,
    "parents": "-3360429,-59470",
    "name": "Paraíba",
    "local_name": "Paraíba",
    "name_en": "Paraíba",
    "all_tags": {
      "ref": "PB",
      "flag": "https://upload.wikimedia.org/wikipedia/commons/b/bb/Bandeira_da_Para%C3%ADba.svg",
      "name": "Paraíba",
      "name:ar": "بارايبا",
      "name:be": "Параіба",
      "name:bg": "Параиба",
      "name:de": "Paraíba",
      "name:en": "Paraíba",
      "name:eo": "Paraibo",
      "name:fa": "پارائیبا",
      "name:gn": "Parayva",
      "name:he": "פאראיבה",
      "name:hi": "परेबा",
      "name:hy": "Պարաիբա",
      "name:ja": "パライバ",
      "name:ka": "პარაიბა",
      "name:ko": "파라이바",
      "name:la": "Parahyba",
      "name:lt": "Paraiba",
      "name:lv": "Paraiba",
      "name:mk": "Параиба",
      "name:mr": "परैबा",
      "name:os": "Параибæ",
      "name:pl": "Paraíba",
      "name:pt": "Paraíba",
      "name:ru": "Параиба",
      "name:sh": "Paraiba",
      "name:sr": "Параиба",
      "name:tg": "Параиба",
      "name:th": "ปาราอีบา",
      "name:uk": "Параїба",
      "name:uz": "Paraiba",
      "name:zh": "帕拉伊巴",
      "website": "http://www.paraiba.pb.gov.br/",
      "boundary": "administrative",
      "timezone": "America/Fortaleza",
      "way_area": "4.85268",
      "wikidata": "Q38088",
      "ISO3166-2": "BR-PB",
      "wikipedia": "pt:Paraíba",
      "short_name": "PB",
      "admin_level": "4",
      "is_in:country": "Brazil",
      "IBGE:GEOCODIGO": "25"
    }
  },
  {
    "osm_id": -11074793,
    "boundary": "administrative",
    "admin_level": 5,
    "parents": "-302819,-3360429,-59470",
    "name": "Região Geográfica Intermediária de Floriano",
    "local_name": "Região Geográfica Intermediária de Floriano",
    "name_en": null,
    "all_tags": {
      "name": "Região Geográfica Intermediária de Floriano",
      "boundary": "administrative",
      "way_area": "4.83674",
      "wikidata": "Q65174266",
      "wikipedia": "pt:Região Geográfica Intermediária de Floriano",
      "admin_level": "5",
      "IBGE:GEOCODIGO": "2206"
    }
  },
  {
    "osm_id": -5145084,
    "boundary": "administrative",
    "admin_level": 5,
    "parents": "-302819,-3360429,-59470",
    "name": "Região Geográfica Intermediária de Teresina",
    "local_name": "Região Geográfica Intermediária de Teresina",
    "name_en": null,
    "all_tags": {
      "name": "Região Geográfica Intermediária de Teresina",
      "boundary": "administrative",
      "way_area": "4.50114",
      "wikidata": "Q65174493",
      "wikipedia": "pt:Região Geográfica Intermediária de Teresina",
      "admin_level": "5",
      "IBGE:GEOCODIGO": "2201"
    }
  },
  {
    "osm_id": -4751558,
    "boundary": "administrative",
    "admin_level": 5,
    "parents": "-242620,-2844750,-59470",
    "name": "Região Geográfica Intermediária de Pelotas",
    "local_name": "Região Geográfica Intermediária de Pelotas",
    "name_en": null,
    "all_tags": {
      "name": "Região Geográfica Intermediária de Pelotas",
      "boundary": "administrative",
      "way_area": "4.26553",
      "wikidata": "Q65170723",
      "wikipedia": "pt:Região Geográfica Intermediária de Pelotas",
      "admin_level": "5",
      "IBGE:GEOCODIGO": "4302"
    }
  },
  {
    "osm_id": -11074794,
    "boundary": "administrative",
    "admin_level": 5,
    "parents": "-302819,-3360429,-59470",
    "name": "Região Geográfica Intermediária de Corrente-Bom Jesus",
    "local_name": "Região Geográfica Intermediária de Corrente-Bom Jesus",
    "name_en": null,
    "all_tags": {
      "name": "Região Geográfica Intermediária de Corrente-Bom Jesus",
      "boundary": "administrative",
      "way_area": "4.22792",
      "wikidata": "Q65169679",
      "wikipedia": "pt:Região Geográfica Intermediária de Corrente-Bom Jesus",
      "admin_level": "5",
      "IBGE:GEOCODIGO": "2205"
    }
  },
  {
    "osm_id": -4728458,
    "boundary": "administrative",
    "admin_level": 5,
    "parents": "-297640,-2844750,-59470",
    "name": "Região Geográfica Intermediária de Cascavel",
    "local_name": "Região Geográfica Intermediária de Cascavel",
    "name_en": null,
    "all_tags": {
      "name": "Região Geográfica Intermediária de Cascavel",
      "boundary": "administrative",
      "way_area": "4.00779",
      "wikidata": "Q65170696",
      "wikipedia": "pt:Região Geográfica Intermediária de Cascavel",
      "admin_level": "5",
      "IBGE:GEOCODIGO": "4103"
    }
  },
  {
    "osm_id": -4807469,
    "boundary": "administrative",
    "admin_level": 5,
    "parents": "-298204,-3073228,-59470",
    "name": "Região Geográfica Intermediária de Sorocaba",
    "local_name": "Região Geográfica Intermediária de Sorocaba",
    "name_en": null,
    "all_tags": {
      "name": "Região Geográfica Intermediária de Sorocaba",
      "boundary": "administrative",
      "way_area": "3.99783",
      "wikidata": "Q48878427",
      "wikipedia": "pt:Região Geográfica Intermediária de Sorocaba",
      "admin_level": "5",
      "IBGE:GEOCODIGO": "3502"
    }
  },
  {
    "osm_id": -4548897,
    "boundary": "administrative",
    "admin_level": 5,
    "parents": "-362413,-3360429,-59470",
    "name": "Região Geográfica Intermediária de Ilhéus-Itabuna",
    "local_name": "Região Geográfica Intermediária de Ilhéus-Itabuna",
    "name_en": null,
    "all_tags": {
      "name": "Região Geográfica Intermediária de Ilhéus-Itabuna",
      "boundary": "administrative",
      "way_area": "4.01225",
      "wikidata": "Q51882512",
      "wikipedia": "pt:Região Geográfica Intermediária de Ilhéus-Itabuna",
      "admin_level": "5",
      "IBGE:GEOCODIGO": "2903"
    }
  },
  {
    "osm_id": -4751506,
    "boundary": "administrative",
    "admin_level": 5,
    "parents": "-242620,-2844750,-59470",
    "name": "Região Geográfica Intermediária de Passo Fundo",
    "local_name": "Região Geográfica Intermediária de Passo Fundo",
    "name_en": null,
    "all_tags": {
      "name": "Região Geográfica Intermediária de Passo Fundo",
      "boundary": "administrative",
      "way_area": "3.88737",
      "wikidata": "Q65174715",
      "wikipedia": "pt:Região Geográfica Intermediária de Passo Fundo",
      "admin_level": "5",
      "IBGE:GEOCODIGO": "4306"
    }
  },
  {
    "osm_id": -2235298,
    "boundary": "administrative",
    "admin_level": 5,
    "parents": "-315173,-3073228,-59470",
    "name": "Região Geográfica Intermediária de Uberaba",
    "local_name": "Região Geográfica Intermediária de Uberaba",
    "name_en": null,
    "all_tags": {
      "name": "Região Geográfica Intermediária de Uberaba",
      "boundary": "administrative",
      "way_area": "3.18189",
      "wikidata": "Q65171438",
      "wikipedia": "pt:Região Geográfica Intermediária de Uberaba",
      "admin_level": "5",
      "IBGE:GEOCODIGO": "3110"
    }
  },
  {
    "osm_id": -5122691,
    "boundary": "administrative",
    "admin_level": 5,
    "parents": "-303702,-3360429,-59470",
    "name": "Região Geográfica Intermediária de Petrolina",
    "local_name": "Região Geográfica Intermediária de Petrolina",
    "name_en": null,
    "all_tags": {
      "name": "Região Geográfica Intermediária de Petrolina",
      "boundary": "administrative",
      "way_area": "2.89144",
      "wikidata": "Q65168199",
      "wikipedia": "pt:Região Geográfica Intermediária de Petrolina",
      "admin_level": "5",
      "IBGE:GEOCODIGO": "2604"
    }
  },
  {
    "osm_id": -2662003,
    "boundary": "administrative",
    "admin_level": 6,
    "parents": "-3360429,-59470",
    "name": "Região Administrativa Integrada de Desenvolvimento do Polo Petrolina e Juazeiro",
    "local_name": "Região Administrativa Integrada de Desenvolvimento do Polo Petrolina e Juazeiro",
    "name_en": null,
    "all_tags": {
      "name": "Região Administrativa Integrada de Desenvolvimento do Polo Petrolina e Juazeiro",
      "boundary": "administrative",
      "way_area": "2.75014",
      "wikidata": "Q3931908",
      "wikipedia": "pt:Região Administrativa Integrada de Desenvolvimento do Polo Petrolina e Juazeiro",
      "admin_level": "6"
    }
  },
  {
    "osm_id": -5161833,
    "boundary": "administrative",
    "admin_level": 5,
    "parents": "-302635,-3360429,-59470",
    "name": "Região Geográfica Intermediária de Quixadá",
    "local_name": "Região Geográfica Intermediária de Quixadá",
    "name_en": null,
    "all_tags": {
      "name": "Região Geográfica Intermediária de Quixadá",
      "boundary": "administrative",
      "way_area": "2.55631",
      "wikidata": "Q56348217",
      "wikipedia": "pt:Região Geográfica Intermediária de Quixadá",
      "admin_level": "5",
      "IBGE:GEOCODIGO": "2302"
    }
  },
  {
    "osm_id": -5149369,
    "boundary": "administrative",
    "admin_level": 5,
    "parents": "-302635,-3360429,-59470",
    "name": "Região Geográfica Intermediária de Sobral",
    "local_name": "Região Geográfica Intermediária de Sobral",
    "name_en": null,
    "all_tags": {
      "name": "Região Geográfica Intermediária de Sobral",
      "boundary": "administrative",
      "way_area": "2.52885",
      "wikidata": "Q56351077",
      "wikipedia": "pt:Região Geográfica Intermediária de Sobral",
      "admin_level": "5",
      "IBGE:GEOCODIGO": "2306"
    }
  },
  {
    "osm_id": -5155657,
    "boundary": "administrative",
    "admin_level": 5,
    "parents": "-302635,-3360429,-59470",
    "name": "Região Geográfica Intermediária de Fortaleza",
    "local_name": "Região Geográfica Intermediária de Fortaleza",
    "name_en": null,
    "all_tags": {
      "name": "Região Geográfica Intermediária de Fortaleza",
      "boundary": "administrative",
      "way_area": "2.51207",
      "wikidata": "Q56347121",
      "wikipedia": "pt:Região Geográfica Intermediária de Fortaleza",
      "admin_level": "5",
      "IBGE:GEOCODIGO": "2301"
    }
  },
  {
    "osm_id": -5129417,
    "boundary": "administrative",
    "admin_level": 5,
    "parents": "-332924,-3360429,-59470",
    "name": "Região Geográfica Intermediária de Caxias",
    "local_name": "Região Geográfica Intermediária de Caxias",
    "name_en": null,
    "all_tags": {
      "name": "Região Geográfica Intermediária de Caxias",
      "boundary": "administrative",
      "way_area": "2.27273",
      "wikidata": "Q61002709",
      "wikipedia": "pt:Região Geográfica Intermediária de Caxias",
      "admin_level": "5",
      "IBGE:GEOCODIGO": "2103"
    }
  },
  {
    "osm_id": -4778493,
    "boundary": "administrative",
    "admin_level": 5,
    "parents": "-298204,-3073228,-59470",
    "name": "Região Geográfica Intermediária de São José do Rio Preto",
    "local_name": "Região Geográfica Intermediária de São José do Rio Preto",
    "name_en": null,
    "all_tags": {
      "name": "Região Geográfica Intermediária de São José do Rio Preto",
      "boundary": "administrative",
      "way_area": "2.26107",
      "wikidata": "Q48878439",
      "wikipedia": "pt:Região Geográfica Intermediária de São José do Rio Preto",
      "admin_level": "5",
      "IBGE:GEOCODIGO": "3507"
    }
  },
  {
    "osm_id": -4802907,
    "boundary": "administrative",
    "admin_level": 5,
    "parents": "-298204,-3073228,-59470",
    "name": "Região Geográfica Intermediária de Campinas",
    "local_name": "Região Geográfica Intermediária de Campinas",
    "name_en": null,
    "all_tags": {
      "name": "Região Geográfica Intermediária de Campinas",
      "boundary": "administrative",
      "way_area": "2.17374",
      "wikidata": "Q48878448",
      "wikipedia": "pt:Região Geográfica Intermediária de Campinas",
      "admin_level": "5",
      "IBGE:GEOCODIGO": "3510"
    }
  },
  {
    "osm_id": -4751423,
    "boundary": "administrative",
    "admin_level": 5,
    "parents": "-242620,-2844750,-59470",
    "name": "Região Geográfica Intermediária de Caxias do Sul",
    "local_name": "Região Geográfica Intermediária de Caxias do Sul",
    "name_en": null,
    "all_tags": {
      "name": "Região Geográfica Intermediária de Caxias do Sul",
      "boundary": "administrative",
      "way_area": "2.22775",
      "wikidata": "Q65170698",
      "wikipedia": "pt:Região Geográfica Intermediária de Caxias do Sul",
      "admin_level": "5",
      "IBGE:GEOCODIGO": "4307"
    }
  },
  {
    "osm_id": -2661526,
    "boundary": "administrative",
    "admin_level": 5,
    "parents": "-298204,-3073228,-59470",
    "name": "Região Geográfica Intermediária de Presidente Prudente",
    "local_name": "Região Geográfica Intermediária de Presidente Prudente",
    "name_en": null,
    "all_tags": {
      "name": "Região Geográfica Intermediária de Presidente Prudente",
      "boundary": "administrative",
      "way_area": "2.17286",
      "wikidata": "Q48878433",
      "wikipedia": "pt:Região Geográfica Intermediária de Presidente Prudente",
      "admin_level": "5",
      "IBGE:GEOCODIGO": "3505"
    }
  },
  {
    "osm_id": -303940,
    "boundary": "administrative",
    "admin_level": 4,
    "parents": "-3360429,-59470",
    "name": "Sergipe",
    "local_name": "Sergipe",
    "name_en": "Sergipe",
    "all_tags": {
      "ref": "SE",
      "flag": "https://upload.wikimedia.org/wikipedia/commons/b/be/Bandeira_de_Sergipe.svg",
      "name": "Sergipe",
      "name:ar": "سيرجيبي",
      "name:be": "Сержыпі",
      "name:bg": "Сержипи",
      "name:de": "Sergipe",
      "name:en": "Sergipe",
      "name:eo": "Serĝipo",
      "name:fa": "سرژیپه",
      "name:he": "סרז'יפה",
      "name:hi": "सर्जिपे",
      "name:hy": "Սերժիպի",
      "name:ja": "セルジッペ",
      "name:ka": "სერჟიპი",
      "name:ko": "세르지피",
      "name:la": "Seregipe",
      "name:lt": "Seržipė",
      "name:lv": "Seržipi",
      "name:mk": "Сергипе",
      "name:mr": "सर्जिपे",
      "name:os": "Сержипи",
      "name:pl": "Sergipe",
      "name:pt": "Sergipe",
      "name:ru": "Сержипи",
      "name:sh": "Seržipi",
      "name:sr": "Сержипе",
      "name:tg": "Сержипи",
      "name:th": "เซร์ชิเป",
      "name:uk": "Сержипі",
      "name:uz": "Serjipi",
      "name:zh": "塞尔希培",
      "website": "http://www.se.gov.br/",
      "boundary": "administrative",
      "timezone": "America/Maceio",
      "way_area": "2.07559",
      "wikidata": "Q43783",
      "ISO3166-2": "BR-SE",
      "wikipedia": "pt:Sergipe",
      "short_name": "SE",
      "admin_level": "4",
      "is_in:country": "Brazil",
      "IBGE:GEOCODIGO": "28"
    }
  },
  {
    "osm_id": -4782236,
    "boundary": "administrative",
    "admin_level": 5,
    "parents": "-298204,-3073228,-59470",
    "name": "Região Geográfica Intermediária de Bauru",
    "local_name": "Região Geográfica Intermediária de Bauru",
    "name_en": null,
    "all_tags": {
      "name": "Região Geográfica Intermediária de Bauru",
      "boundary": "administrative",
      "way_area": "1.94193",
      "wikidata": "Q48878430",
      "wikipedia": "pt:Região Geográfica Intermediária de Bauru",
      "admin_level": "5",
      "IBGE:GEOCODIGO": "3503"
    }
  },
  {
    "osm_id": -4097611,
    "boundary": "administrative",
    "admin_level": 5,
    "parents": "-296584,-2844750,-59470",
    "name": "Região Geográfica Intermediária de Lages",
    "local_name": "Região Geográfica Intermediária de Lages",
    "name_en": null,
    "all_tags": {
      "name": "Região Geográfica Intermediária de Lages",
      "boundary": "administrative",
      "way_area": "1.7794",
      "wikidata": "Q65170714",
      "wikipedia": "pt:Região Geográfica Intermediária de Lages",
      "admin_level": "5",
      "IBGE:GEOCODIGO": "4203"
    }
  },
  {
    "osm_id": -4728835,
    "boundary": "administrative",
    "admin_level": 5,
    "parents": "-297640,-2844750,-59470",
    "name": "Região Geográfica Intermediária de Guarapuava",
    "local_name": "Região Geográfica Intermediária de Guarapuava",
    "name_en": null,
    "all_tags": {
      "name": "Região Geográfica Intermediária de Guarapuava",
      "boundary": "administrative",
      "way_area": "1.72877",
      "wikidata": "Q65170707",
      "wikipedia": "pt:Região Geográfica Intermediária de Guarapuava",
      "admin_level": "5",
      "IBGE:GEOCODIGO": "4102"
    }
  },
  {
    "osm_id": -5145071,
    "boundary": "administrative",
    "admin_level": 5,
    "parents": "-302819,-3360429,-59470",
    "name": "Região Geográfica Intermediária de Parnaíba",
    "local_name": "Região Geográfica Intermediária de Parnaíba",
    "name_en": null,
    "all_tags": {
      "name": "Região Geográfica Intermediária de Parnaíba",
      "boundary": "administrative",
      "way_area": "1.74575",
      "wikidata": "Q65174268",
      "wikipedia": "pt:Região Geográfica Intermediária de Parnaíba",
      "admin_level": "5",
      "IBGE:GEOCODIGO": "2202"
    }
  },
  {
    "osm_id": -4751538,
    "boundary": "administrative",
    "admin_level": 5,
    "parents": "-242620,-2844750,-59470",
    "name": "Região Geográfica Intermediária de Santa Cruz do Sul - Lajeado",
    "local_name": "Região Geográfica Intermediária de Santa Cruz do Sul - Lajeado",
    "name_en": null,
    "all_tags": {
      "name": "Região Geográfica Intermediária de Santa Cruz do Sul - Lajeado",
      "boundary": "administrative",
      "way_area": "1.65103",
      "wikidata": "Q65170728",
      "wikipedia": "pt:Região Geográfica Intermediária de Santa Cruz do Sul-Lajeado",
      "admin_level": "5",
      "IBGE:GEOCODIGO": "4308"
    }
  },
  {
    "osm_id": -4813131,
    "boundary": "administrative",
    "admin_level": 5,
    "parents": "-298204,-3073228,-59470",
    "name": "Região Geográfica Intermediária de São José dos Campos",
    "local_name": "Região Geográfica Intermediária de São José dos Campos",
    "name_en": null,
    "all_tags": {
      "name": "Região Geográfica Intermediária de São José dos Campos",
      "boundary": "administrative",
      "way_area": "1.42517",
      "wikidata": "Q48873429",
      "wikipedia": "pt:Região Geográfica Intermediária de São José dos Campos",
      "admin_level": "5",
      "IBGE:GEOCODIGO": "3511"
    }
  },
  {
    "osm_id": -2661856,
    "boundary": "administrative",
    "admin_level": 6,
    "parents": "-4813131,-298204,-3073228,-59470",
    "name": "Região Metropolitana do Vale do Paraíba e Litoral Norte",
    "local_name": "Região Metropolitana do Vale do Paraíba e Litoral Norte",
    "name_en": null,
    "all_tags": {
      "name": "Região Metropolitana do Vale do Paraíba e Litoral Norte",
      "boundary": "administrative",
      "way_area": "1.42367",
      "wikidata": "Q10358745",
      "short_name": "RMVPLN;RMVale",
      "admin_level": "6"
    }
  },
  {
    "osm_id": -6256035,
    "boundary": "administrative",
    "admin_level": 6,
    "parents": "-4729310,-297640,-2844750,-59470",
    "name": "Região Metropolitana de Curitiba",
    "local_name": "Região Metropolitana de Curitiba",
    "name_en": null,
    "all_tags": {
      "name": "Região Metropolitana de Curitiba",
      "alt_name": "Grande Curitiba",
      "boundary": "administrative",
      "way_area": "1.38165",
      "wikidata": "Q2311370",
      "wikipedia": "pt:Região Metropolitana de Curitiba",
      "short_name": "RMC",
      "admin_level": "6"
    }
  },
  {
    "osm_id": -1843594,
    "boundary": "administrative",
    "admin_level": 5,
    "parents": "-54882,-3073228,-59470",
    "name": "Região Geográfica Intermediária de São Mateus",
    "local_name": "Região Geográfica Intermediária de São Mateus",
    "name_en": null,
    "all_tags": {
      "name": "Região Geográfica Intermediária de São Mateus",
      "boundary": "administrative",
      "way_area": "1.25775",
      "wikidata": "Q65171436",
      "wikipedia": "pt:Região Geográfica Intermediária de São Mateus",
      "admin_level": "5",
      "IBGE:GEOCODIGO": "3202"
    }
  },
  {
    "osm_id": -1843574,
    "boundary": "administrative",
    "admin_level": 5,
    "parents": "-54882,-3073228,-59470",
    "name": "Região Geográfica Intermediária de Colatina",
    "local_name": "Região Geográfica Intermediária de Colatina",
    "name_en": null,
    "all_tags": {
      "name": "Região Geográfica Intermediária de Colatina",
      "boundary": "administrative",
      "way_area": "1.07149",
      "wikidata": "Q65171423",
      "wikipedia": "pt:Região Geográfica Intermediária de Colatina",
      "admin_level": "5",
      "IBGE:GEOCODIGO": "3203"
    }
  },
  {
    "osm_id": -5138408,
    "boundary": "administrative",
    "admin_level": 5,
    "parents": "-303781,-3360429,-59470",
    "name": "Região Geográfica Intermediária de Maceió",
    "local_name": "Região Geográfica Intermediária de Maceió",
    "name_en": null,
    "all_tags": {
      "name": "Região Geográfica Intermediária de Maceió",
      "boundary": "administrative",
      "way_area": "1.06432",
      "wikidata": "Q65168190",
      "wikipedia": "pt:Região Geográfica Intermediária de Maceió",
      "admin_level": "5",
      "IBGE:GEOCODIGO": "2701"
    }
  },
  {
    "osm_id": -12829441,
    "boundary": "administrative",
    "admin_level": 6,
    "parents": "-4729280,-297640,-2844750,-59470",
    "name": "Região Metropolitana de Umuarama",
    "local_name": "Região Metropolitana de Umuarama",
    "name_en": null,
    "all_tags": {
      "name": "Região Metropolitana de Umuarama",
      "alt_name": "Grande Umuarama",
      "boundary": "administrative",
      "way_area": "1.05692",
      "wikidata": "Q10358740",
      "wikipedia": "pt:Região Metropolitana de Umuarama",
      "short_name": "RMU",
      "admin_level": "6"
    }
  },
  {
    "osm_id": -4791605,
    "boundary": "administrative",
    "admin_level": 5,
    "parents": "-298204,-3073228,-59470",
    "name": "Região Geográfica Intermediária de Araraquara",
    "local_name": "Região Geográfica Intermediária de Araraquara",
    "name_en": null,
    "all_tags": {
      "name": "Região Geográfica Intermediária de Araraquara",
      "boundary": "administrative",
      "way_area": "1.04883",
      "wikidata": "Q48878443",
      "wikipedia": "pt:Região Geográfica Intermediária de Araraquara",
      "admin_level": "5",
      "IBGE:GEOCODIGO": "3509"
    }
  },
  {
    "osm_id": -4807856,
    "boundary": "administrative",
    "admin_level": 5,
    "parents": "-298204,-3073228,-59470",
    "name": "Região Geográfica Intermediária de São Paulo",
    "local_name": "Região Geográfica Intermediária de São Paulo",
    "name_en": null,
    "all_tags": {
      "name": "Região Geográfica Intermediária de São Paulo",
      "boundary": "administrative",
      "way_area": "1.00322",
      "wikidata": "Q48878425",
      "wikipedia": "pt:Região Geográfica Intermediária de São Paulo",
      "admin_level": "5",
      "IBGE:GEOCODIGO": "3501"
    }
  },
  {
    "osm_id": -2662004,
    "boundary": "administrative",
    "admin_level": 6,
    "parents": "-3360429,-59470",
    "name": "Região Integrada de Desenvolvimento da Grande Teresina",
    "local_name": "Região Integrada de Desenvolvimento da Grande Teresina",
    "name_en": null,
    "all_tags": {
      "name": "Região Integrada de Desenvolvimento da Grande Teresina",
      "boundary": "administrative",
      "way_area": "0.866477",
      "wikidata": "Q3931951",
      "wikipedia": "pt:Região Integrada de Desenvolvimento da Grande Teresina",
      "admin_level": "6"
    }
  },
  {
    "osm_id": -1843575,
    "boundary": "administrative",
    "admin_level": 5,
    "parents": "-54882,-3073228,-59470",
    "name": "Região Geográfica Intermediária de Cachoeiro de Itapemirim",
    "local_name": "Região Geográfica Intermediária de Cachoeiro de Itapemirim",
    "name_en": null,
    "all_tags": {
      "name": "Região Geográfica Intermediária de Cachoeiro de Itapemirim",
      "boundary": "administrative",
      "way_area": "0.80203",
      "wikidata": "Q65171420",
      "wikipedia": "pt:Região Geográfica Intermediária de Cachoeiro de Itapemirim",
      "admin_level": "5",
      "IBGE:GEOCODIGO": "3204"
    }
  },
  {
    "osm_id": -2661855,
    "boundary": "administrative",
    "admin_level": 6,
    "parents": "-4807856,-298204,-3073228,-59470",
    "name": "Região Metropolitana de São Paulo",
    "local_name": "Região Metropolitana de São Paulo",
    "name_en": null,
    "all_tags": {
      "name": "Região Metropolitana de São Paulo",
      "alt_name": "Grande São Paulo",
      "boundary": "administrative",
      "way_area": "0.702814",
      "wikidata": "Q1415666",
      "wikipedia": "pt:Região Metropolitana de São Paulo",
      "short_name": "RMSP",
      "admin_level": "6"
    }
  },
  {
    "osm_id": -10588599,
    "boundary": "administrative",
    "admin_level": 6,
    "parents": "-57963,-3073228,-59470",
    "name": "Região Metropolitana do Rio de Janeiro",
    "local_name": "Região Metropolitana do Rio de Janeiro",
    "name_en": null,
    "all_tags": {
      "name": "Região Metropolitana do Rio de Janeiro",
      "alt_name": "Grande Rio",
      "boundary": "administrative",
      "way_area": "0.661491",
      "wikidata": "Q2720540",
      "wikipedia": "pt:Região Metropolitana do Rio de Janeiro",
      "short_name": "RMRJ",
      "admin_level": "6"
    }
  },
  {
    "osm_id": -2662002,
    "boundary": "administrative",
    "admin_level": 6,
    "parents": "-4751558,-242620,-2844750,-59470",
    "name": "Aglomeração Urbana do Sul",
    "local_name": "Aglomeração Urbana do Sul",
    "name_en": null,
    "all_tags": {
      "name": "Aglomeração Urbana do Sul",
      "boundary": "administrative",
      "old_name": "Aglomeração Urbana de Pelotas",
      "way_area": "0.586008",
      "wikidata": "Q9588043",
      "wikipedia": "pt:Aglomeração urbana do Sul",
      "admin_level": "6"
    }
  },
  {
    "osm_id": -11072847,
    "boundary": "administrative",
    "admin_level": 5,
    "parents": "-296584,-2844750,-59470",
    "name": "Região Geográfica Intermediária de Caçador",
    "local_name": "Região Geográfica Intermediária de Caçador",
    "name_en": null,
    "all_tags": {
      "name": "Região Geográfica Intermediária de Caçador",
      "place": "region",
      "boundary": "administrative",
      "way_area": "0.562983",
      "wikidata": "Q65170701",
      "wikipedia": "pt:Região Geográfica Intermediária de Caçador",
      "admin_level": "5",
      "IBGE:GEOCODIGO": "4205"
    }
  },
  {
    "osm_id": -4510785,
    "boundary": "administrative",
    "admin_level": 6,
    "parents": "-301464,-3360429,-59470",
    "name": "Região Metropolitana de Patos",
    "local_name": "Região Metropolitana de Patos",
    "name_en": null,
    "all_tags": {
      "name": "Região Metropolitana de Patos",
      "boundary": "administrative",
      "way_area": "0.499057",
      "wikidata": "Q10358737",
      "wikipedia": "pt:Região Metropolitana de Patos",
      "admin_level": "6"
    }
  },
  {
    "osm_id": -2844354,
    "boundary": "administrative",
    "admin_level": 5,
    "parents": "-242620,-2844750,-59470",
    "name": "Região Geográfica Intermediária de Porto Alegre",
    "local_name": "Região Geográfica Intermediária de Porto Alegre",
    "name_en": null,
    "all_tags": {
      "name": "Região Geográfica Intermediária de Porto Alegre",
      "boundary": "administrative",
      "way_area": "2.75423",
      "wikidata": "Q65174718",
      "wikipedia": "pt:Região Geográfica Intermediária de Porto Alegre",
      "admin_level": "5",
      "IBGE:GEOCODIGO": "4301"
    }
  },
  {
    "osm_id": -2843209,
    "boundary": "administrative",
    "admin_level": 6,
    "parents": "-242620,-2844750,-59470",
    "name": "Metropolitan Region of Porto Alegre",
    "local_name": "Região Metropolitana de Porto Alegre",
    "name_en": "Metropolitan Region of Porto Alegre",
    "all_tags": {
      "name": "Região Metropolitana de Porto Alegre",
      "name:en": "Metropolitan Region of Porto Alegre",
      "name:es": "Región Metropolitana de Porto Alegre",
      "name:fr": "Région métropolitaine de Porto Alegre",
      "name:it": "Regione metropolitana di Porto Alegre",
      "name:nl": "Metropolitaans Regio van Porto Alegre",
      "name:pl": "Region metropolitalny Porto Alegre",
      "alt_name": "Grande Porto Alegre",
      "boundary": "administrative",
      "way_area": "1.00055",
      "wikidata": "Q2460475",
      "wikipedia": "pt:Região Metropolitana de Porto Alegre",
      "admin_level": "6"
    }
  },
  {
    "osm_id": -9309272,
    "boundary": "administrative",
    "admin_level": 5,
    "parents": "-242620,-2844750,-59470",
    "name": "Região Geográfica Intermediária de Ijui",
    "local_name": "Região Geográfica Intermediária de Ijui",
    "name_en": null,
    "all_tags": {
      "name": "Região Geográfica Intermediária de Ijui",
      "boundary": "administrative",
      "way_area": "2.52263",
      "wikidata": "Q65170710",
      "wikipedia": "pt:Região Geográfica Intermediária de Ijuí",
      "admin_level": "5",
      "IBGE:GEOCODIGO": "4305"
    }
  },
  {
    "osm_id": -4096471,
    "boundary": "administrative",
    "admin_level": 5,
    "parents": "-296584,-2844750,-59470",
    "name": "Região Geográfica Intermediária de Chapecó",
    "local_name": "Região Geográfica Intermediária de Chapecó",
    "name_en": null,
    "all_tags": {
      "name": "Região Geográfica Intermediária de Chapecó",
      "place": "region",
      "boundary": "administrative",
      "way_area": "2.23607",
      "wikidata": "Q65171800",
      "wikipedia": "pt:Região Geográfica Intermediária de Chapecó",
      "admin_level": "5",
      "IBGE:GEOCODIGO": "4204"
    }
  },
  {
    "osm_id": -296584,
    "boundary": "administrative",
    "admin_level": 4,
    "parents": "-2844750,-59470",
    "name": "Santa Catarina",
    "local_name": "Santa Catarina",
    "name_en": "Santa Catarina",
    "all_tags": {
      "ref": "SC",
      "flag": "https://upload.wikimedia.org/wikipedia/commons/1/1a/Bandeira_de_Santa_Catarina.svg",
      "name": "Santa Catarina",
      "name:ar": "سانتا كاتارينا",
      "name:ay": "Santa Catarina Istadu",
      "name:az": "Santa-Katarina",
      "name:be": "Санта-Катарына",
      "name:bg": "Санта Катарина",
      "name:br": "Santa Catarina",
      "name:bs": "Santa Catarina",
      "name:ca": "Estat de Santa Catarina",
      "name:cs": "Santa Catarina",
      "name:de": "Santa Catarina",
      "name:el": "Σάντα Καταρίνα",
      "name:en": "Santa Catarina",
      "name:eo": "Sankta Katarino",
      "name:et": "Santa Catarina osariik",
      "name:fa": "سانتا کاتارینا",
      "name:gl": "Santa Catarina, Brasil",
      "name:he": "סנטה קטרינה",
      "name:hi": "सांता कातारीना",
      "name:hr": "Santa Catarina",
      "name:hu": "Santa Catarina",
      "name:hy": "Սանտա Կատարինա",
      "name:is": "Santa Catarina",
      "name:ja": "サンタ カタリーナ",
      "name:ka": "სანტა-კატარინა",
      "name:kk": "Санта Катарина",
      "name:ko": "산타카타리나",
      "name:kw": "Santa Catarina",
      "name:la": "Sancta Catharina",
      "name:lt": "Santa Katarina",
      "name:lv": "Santakatarina",
      "name:mk": "Санта Катарина",
      "name:mr": "सांता कातारिना",
      "name:ms": "Santa Catarina",
      "name:nl": "Santa Catarina",
      "name:no": "Santa Catarina",
      "name:os": "Сантæ-Катаринæ",
      "name:pl": "Santa Catarina",
      "name:pt": "Santa Catarina",
      "name:qu": "Santa Catarina suyu",
      "name:ru": "Санта-Катарина",
      "name:sr": "Санта Катарина",
      "name:sv": "Santa Catarina",
      "name:tg": "Санта Катарина",
      "name:th": "ซันตากาตารีนา",
      "name:tr": "Santa Catarina",
      "name:tt": "Санта-Катарина",
      "name:uk": "Санта-Катаріна",
      "name:ur": "سانتا کاتارینا",
      "name:uz": "Santa-Katarina",
      "name:vi": "Santa Catarina",
      "name:yo": "Santa Catarina",
      "name:zh": "圣卡塔琳娜",
      "website": "http://www.sc.gov.br/",
      "boundary": "administrative",
      "timezone": "America/Sao_Paulo",
      "way_area": "9.82663",
      "wikidata": "Q41115",
      "ISO3166-2": "BR-SC",
      "wikipedia": "pt:Santa Catarina",
      "short_name": "SC",
      "admin_level": "4",
      "is_in:country": "Brasil",
      "IBGE:GEOCODIGO": "42"
    }
  },
  {
    "osm_id": -4730514,
    "boundary": "administrative",
    "admin_level": 5,
    "parents": "-297640,-2844750,-59470",
    "name": "Região Geográfica Intermediária de Londrina",
    "local_name": "Região Geográfica Intermediária de Londrina",
    "name_en": null,
    "all_tags": {
      "name": "Região Geográfica Intermediária de Londrina",
      "boundary": "administrative",
      "way_area": "2.87874",
      "wikidata": "Q65170716",
      "wikipedia": "pt:Região Geográfica Intermediária de Londrina",
      "admin_level": "5",
      "IBGE:GEOCODIGO": "4105"
    }
  },
  {
    "osm_id": -4097614,
    "boundary": "administrative",
    "admin_level": 5,
    "parents": "-296584,-2844750,-59470",
    "name": "Região Geográfica Intermediária de Blumenau",
    "local_name": "Região Geográfica Intermediária de Blumenau",
    "name_en": null,
    "all_tags": {
      "name": "Região Geográfica Intermediária de Blumenau",
      "place": "region",
      "boundary": "administrative",
      "way_area": "1.39139",
      "wikidata": "Q65170694",
      "wikipedia": "pt:Região Geográfica Intermediária de Blumenau",
      "admin_level": "5",
      "IBGE:GEOCODIGO": "4207"
    }
  },
  {
    "osm_id": -4780866,
    "boundary": "administrative",
    "admin_level": 5,
    "parents": "-298204,-3073228,-59470",
    "name": "Região Geográfica Intermediária de Marília",
    "local_name": "Região Geográfica Intermediária de Marília",
    "name_en": null,
    "all_tags": {
      "name": "Região Geográfica Intermediária de Marília",
      "boundary": "administrative",
      "way_area": "1.7128",
      "wikidata": "Q48878431",
      "wikipedia": "pt:Região Geográfica Intermediária de Marília",
      "admin_level": "5",
      "IBGE:GEOCODIGO": "3504"
    }
  },
  {
    "osm_id": -298204,
    "boundary": "administrative",
    "admin_level": 4,
    "parents": "-3073228,-59470",
    "name": "São Paulo",
    "local_name": "São Paulo",
    "name_en": "São Paulo",
    "all_tags": {
      "ref": "SP",
      "flag": "https://upload.wikimedia.org/wikipedia/commons/2/2b/Bandeira_do_estado_de_S%C3%A3o_Paulo.svg",
      "name": "São Paulo",
      "name:am": "ሳው ፓውሉ",
      "name:ar": "ساو باولو",
      "name:ay": "San Pauluw",
      "name:az": "San Paulo",
      "name:ba": "Сан-Паулу",
      "name:be": "Сан-Паўлу",
      "name:bg": "Сао Пауло",
      "name:bn": "সাঁউ পাউলু",
      "name:ce": "Сан-Паулу",
      "name:cv": "Сан-Паулу",
      "name:de": "São Paulo",
      "name:dv": "ސައޮ ޕައުލޯ",
      "name:el": "Σάο Πάολο",
      "name:en": "São Paulo",
      "name:eo": "San-Paŭlo",
      "name:es": "San Pablo",
      "name:fa": "سائوپائولو",
      "name:gl": "San Paulo",
      "name:he": "סאו פאולו",
      "name:hi": "साओ पाउलो",
      "name:hy": "Սան Պաուլո",
      "name:io": "Sao Paulo",
      "name:it": "San Paolo",
      "name:ja": "サンパウロ",
      "name:ka": "სან-პაულუ",
      "name:kk": "Сан-Паулу",
      "name:ko": "상파울루",
      "name:kv": "Сан-Паулу",
      "name:la": "Sanctus Paulus",
      "name:lt": "San Paulas",
      "name:lv": "Sanpaulu",
      "name:mk": "Сао Паоло",
      "name:ml": "സാവോ പോളോ",
      "name:mn": "Сан-Паулу",
      "name:mr": "साओ पाउलो",
      "name:ne": "साओ पाउलो",
      "name:os": "Сан-Паулу",
      "name:pa": "ਸਾਓ ਪਾਓਲੋ",
      "name:pl": "São Paulo",
      "name:pt": "São Paulo",
      "name:ru": "Сан-Паулу",
      "name:sa": "साओ पाओलो",
      "name:sh": "Sao Paulo",
      "name:sr": "Сао Пауло",
      "name:ta": "சாவோ பாவுலோ",
      "name:tg": "Сан-Паулу",
      "name:th": "เซาเปาลู",
      "name:tk": "San-Paulu",
      "name:tr": "Сан Паулу",
      "name:tt": "Сан-Паулу",
      "name:ug": "San Pawlo",
      "name:uk": "Сан-Паулу",
      "name:ur": "ساؤ پالو",
      "name:uz": "San-Paulu",
      "name:wa": "Sawo Pålo",
      "name:yi": "סאו פאולא",
      "name:yo": "Sao Paulo",
      "name:zh": "圣保罗",
      "website": "http://www.sp.gov.br/",
      "boundary": "administrative",
      "timezone": "America/Sao_Paulo",
      "way_area": "23.6122",
      "wikidata": "Q175",
      "ISO3166-2": "BR-SP",
      "wikipedia": "pt:São Paulo (estado)",
      "population": "45538936",
      "short_name": "SP",
      "admin_level": "4",
      "name:zh-Hans": "圣保罗州",
      "name:zh-Hant": "聖保羅州",
      "is_in:country": "Brazil",
      "IBGE:GEOCODIGO": "35",
      "is_in:continent": "South America",
      "population:date": "2018",
      "safety:mask:covid19": "yes"
    }
  },
  {
    "osm_id": -2235303,
    "boundary": "administrative",
    "admin_level": 5,
    "parents": "-315173,-3073228,-59470",
    "name": "Região Geográfica Intermediária de Divinópolis",
    "local_name": "Região Geográfica Intermediária de Divinópolis",
    "name_en": null,
    "all_tags": {
      "name": "Região Geográfica Intermediária de Divinópolis",
      "boundary": "administrative",
      "way_area": "3.15606",
      "wikidata": "Q65171425",
      "wikipedia": "pt:Região Geográfica Intermediária de Divinópolis",
      "admin_level": "5",
      "IBGE:GEOCODIGO": "3113"
    }
  },
  {
    "osm_id": -2661854,
    "boundary": "administrative",
    "admin_level": 6,
    "parents": "-4802907,-298204,-3073228,-59470",
    "name": "Região Metropolitana de Campinas",
    "local_name": "Região Metropolitana de Campinas",
    "name_en": null,
    "all_tags": {
      "name": "Região Metropolitana de Campinas",
      "boundary": "administrative",
      "way_area": "0.333637",
      "wikidata": "Q2307420",
      "wikipedia": "pt:Região Metropolitana de Campinas",
      "short_name": "RMC",
      "admin_level": "6"
    }
  },
  {
    "osm_id": -4748595,
    "boundary": "administrative",
    "admin_level": 5,
    "parents": "-326266,-3360778,-59470",
    "name": "Região Geográfica Intermediária de Cruzeiro do Sul",
    "local_name": "Região Geográfica Intermediária de Cruzeiro do Sul",
    "name_en": null,
    "all_tags": {
      "name": "Região Geográfica Intermediária de Cruzeiro do Sul",
      "boundary": "administrative",
      "way_area": "7.01473",
      "wikidata": "Q65173763",
      "wikipedia": "pt:Região Geográfica Intermediária de Cruzeiro do Sul",
      "admin_level": "5",
      "IBGE:GEOCODIGO": "1202"
    }
  },
  {
    "osm_id": -4775819,
    "boundary": "administrative",
    "admin_level": 5,
    "parents": "-332476,-3360778,-59470",
    "name": "Região Geográfica Intermediária de Tefé",
    "local_name": "Região Geográfica Intermediária de Tefé",
    "name_en": null,
    "all_tags": {
      "name": "Região Geográfica Intermediária de Tefé",
      "boundary": "administrative",
      "way_area": "35.7492",
      "wikidata": "Q56346696",
      "wikipedia": "pt:Região Geográfica Intermediária de Tefé",
      "admin_level": "5",
      "IBGE:GEOCODIGO": "1302"
    }
  },
  {
    "osm_id": -4875160,
    "boundary": "administrative",
    "admin_level": 5,
    "parents": "-333597,-3359944,-59470",
    "name": "Região Geográfica Intermediária de Cáceres",
    "local_name": "Região Geográfica Intermediária de Cáceres",
    "name_en": null,
    "all_tags": {
      "name": "Região Geográfica Intermediária de Cáceres",
      "boundary": "administrative",
      "way_area": "8.68045",
      "wikidata": "Q48884315",
      "wikipedia": "pt:Região Geográfica Intermediária de Cáceres",
      "admin_level": "5",
      "IBGE:GEOCODIGO": "5102"
    }
  },
  {
    "osm_id": -4875155,
    "boundary": "administrative",
    "admin_level": 5,
    "parents": "-333597,-3359944,-59470",
    "name": "Região Geográfica Intermediária de Cuiabá",
    "local_name": "Região Geográfica Intermediária de Cuiabá",
    "name_en": null,
    "all_tags": {
      "name": "Região Geográfica Intermediária de Cuiabá",
      "boundary": "administrative",
      "way_area": "14.4966",
      "wikidata": "Q56346887",
      "wikipedia": "pt:Região Geográfica Intermediária de Cuiabá",
      "admin_level": "5",
      "IBGE:GEOCODIGO": "5101"
    }
  },
  {
    "osm_id": -2731025,
    "boundary": "administrative",
    "admin_level": 5,
    "parents": "-298204,-3073228,-59470",
    "name": "Região Geográfica Intermediária de Araçatuba",
    "local_name": "Região Geográfica Intermediária de Araçatuba",
    "name_en": null,
    "all_tags": {
      "name": "Região Geográfica Intermediária de Araçatuba",
      "boundary": "administrative",
      "way_area": "1.6337",
      "wikidata": "Q48878434",
      "wikipedia": "pt:Região Geográfica Intermediária de Araçatuba",
      "admin_level": "5",
      "IBGE:GEOCODIGO": "3506"
    }
  },
  {
    "osm_id": -4791928,
    "boundary": "administrative",
    "admin_level": 5,
    "parents": "-298204,-3073228,-59470",
    "name": "Região Geográfica Intermediária de Ribeirão Preto",
    "local_name": "Região Geográfica Intermediária de Ribeirão Preto",
    "name_en": null,
    "all_tags": {
      "name": "Região Geográfica Intermediária de Ribeirão Preto",
      "boundary": "administrative",
      "way_area": "2.38328",
      "wikidata": "Q48878441",
      "wikipedia": "pt:Região Geográfica Intermediária de Ribeirão Preto",
      "admin_level": "5",
      "IBGE:GEOCODIGO": "3508"
    }
  },
  {
    "osm_id": -9363716,
    "boundary": "administrative",
    "admin_level": 6,
    "parents": "-298204,-3073228,-59470",
    "name": "Região Metropolitana de Ribeirão Preto",
    "local_name": "Região Metropolitana de Ribeirão Preto",
    "name_en": null,
    "all_tags": {
      "name": "Região Metropolitana de Ribeirão Preto",
      "boundary": "administrative",
      "way_area": "1.28617",
      "wikidata": "Q25441613",
      "wikipedia": "pt:Região Metropolitana de Ribeirão Preto",
      "short_name": "RMRP",
      "admin_level": "6"
    }
  },
  {
    "osm_id": -2235305,
    "boundary": "administrative",
    "admin_level": 5,
    "parents": "-315173,-3073228,-59470",
    "name": "Região Geográfica Intermediária de Uberlândia",
    "local_name": "Região Geográfica Intermediária de Uberlândia",
    "name_en": null,
    "all_tags": {
      "name": "Região Geográfica Intermediária de Uberlândia",
      "boundary": "administrative",
      "way_area": "3.04724",
      "wikidata": "Q56346733",
      "wikipedia": "pt:Região Geográfica Intermediária de Uberlândia",
      "admin_level": "5",
      "IBGE:GEOCODIGO": "3111"
    }
  },
  {
    "osm_id": -2235301,
    "boundary": "administrative",
    "admin_level": 5,
    "parents": "-315173,-3073228,-59470",
    "name": "Região Geográfica Intermediária de Patos de Minas",
    "local_name": "Região Geográfica Intermediária de Patos de Minas",
    "name_en": null,
    "all_tags": {
      "name": "Região Geográfica Intermediária de Patos de Minas",
      "boundary": "administrative",
      "way_area": "7.16819",
      "wikidata": "Q61002025",
      "wikipedia": "pt:Região Geográfica Intermediária de Patos de Minas",
      "admin_level": "5",
      "IBGE:GEOCODIGO": "3112"
    }
  },
  {
    "osm_id": -4873257,
    "boundary": "administrative",
    "admin_level": 5,
    "parents": "-334443,-3359944,-59470",
    "name": "Região Geográfica Intermediária de São Luís de Montes Belos-Iporá",
    "local_name": "Região Geográfica Intermediária de São Luís de Montes Belos-Iporá",
    "name_en": null,
    "all_tags": {
      "name": "Região Geográfica Intermediária de São Luís de Montes Belos-Iporá",
      "boundary": "administrative",
      "way_area": "2.85791",
      "wikidata": "Q65168210",
      "wikipedia": "pt:Região Geográfica Intermediária de São Luís de Montes Belos-Iporá",
      "admin_level": "5",
      "IBGE:GEOCODIGO": "5204"
    }
  },
  {
    "osm_id": -334443,
    "boundary": "administrative",
    "admin_level": 4,
    "parents": "-3359944,-59470",
    "name": "Goiás",
    "local_name": "Goiás",
    "name_en": "Goiás",
    "all_tags": {
      "ref": "GO",
      "flag": "https://upload.wikimedia.org/wikipedia/commons/0/0e/Bandeira_de_Goi%C3%A1s.svg",
      "name": "Goiás",
      "name:ar": "غوياس",
      "name:be": "Гаяс",
      "name:bg": "Гояс",
      "name:de": "Goiás",
      "name:en": "Goiás",
      "name:eo": "Gojaso",
      "name:fa": "گوییاس",
      "name:he": "גויאס",
      "name:hi": "गोइयास",
      "name:hy": "Գոյաս",
      "name:ja": "ゴイアス",
      "name:ka": "გოიასი",
      "name:ko": "고이아스",
      "name:la": "Goyas",
      "name:lt": "Gojasas",
      "name:lv": "Gojasa",
      "name:mk": "Гојаш",
      "name:mr": "गोयाएस",
      "name:os": "Гояс",
      "name:pl": "Goiás",
      "name:pt": "Goiás",
      "name:ru": "Гояс",
      "name:sh": "Gojas",
      "name:sr": "Гојас",
      "name:tg": "Гояс",
      "name:th": "โกยาส",
      "name:uk": "Гояс",
      "name:uz": "Goyas",
      "name:zh": "戈亚斯",
      "website": "http://www.goias.gov.br/",
      "boundary": "administrative",
      "timezone": "America/Sao_Paulo",
      "way_area": "28.7252",
      "wikidata": "Q41587",
      "ISO3166-2": "BR-GO",
      "wikipedia": "pt:Goiás",
      "short_name": "GO",
      "admin_level": "4",
      "is_in:country": "Brazil",
      "IBGE:GEOCODIGO": "52"
    }
  },
  {
    "osm_id": -4873222,
    "boundary": "administrative",
    "admin_level": 5,
    "parents": "-334443,-3359944,-59470",
    "name": "Região Geográfica Intermediária de Goiânia",
    "local_name": "Região Geográfica Intermediária de Goiânia",
    "name_en": null,
    "all_tags": {
      "name": "Região Geográfica Intermediária de Goiânia",
      "boundary": "administrative",
      "way_area": "6.49074",
      "wikidata": "Q56346691",
      "wikipedia": "pt:Região Geográfica Intermediária de Goiânia",
      "admin_level": "5",
      "IBGE:GEOCODIGO": "5201"
    }
  },
  {
    "osm_id": -421151,
    "boundary": "administrative",
    "admin_level": 4,
    "parents": "-3359944,-59470",
    "name": "Federal District",
    "local_name": "Distrito Federal",
    "name_en": "Federal District",
    "all_tags": {
      "ref": "DF",
      "flag": "https://upload.wikimedia.org/wikipedia/commons/3/3c/Bandeira_do_Distrito_Federal_%28Brasil%29.svg",
      "name": "Distrito Federal",
      "name:ar": "القطاع الفدرالي",
      "name:be": "Федэральная акруга",
      "name:bg": "Федерален окръг",
      "name:br": "Distrig kevreadel",
      "name:ca": "Districte Federal",
      "name:cz": "Federální distrikt",
      "name:de": "Bundesdistrikt",
      "name:en": "Federal District",
      "name:eo": "Federacia Distrikto",
      "name:es": "Distrito Federal",
      "name:et": "Liiduringkond",
      "name:eu": "Barruti Federala",
      "name:fa": "منطقه فدرال",
      "name:fr": "District fédéral",
      "name:he": "המחוז הפדרלי",
      "name:hr": "Federalni distrikt",
      "name:hy": "Դաշնային շրջան",
      "name:ia": "Districto Federal",
      "name:id": "Distrik Federal",
      "name:it": "Distretto Federale",
      "name:ja": "連邦直轄区",
      "name:ka": "ფედერალური ოლქი",
      "name:ko": "연방구",
      "name:kw": "Ranndir an Kesunyans",
      "name:la": "Pagus Foederalis",
      "name:lt": "Federalinė teritorija",
      "name:lv": "Federālais distrikts",
      "name:mk": "Федерален округ",
      "name:mr": "शासकीय जिल्हा",
      "name:ms": "Wilayah Persekutuan",
      "name:nl": "Federaal District",
      "name:oc": "Districte federal",
      "name:os": "Федералон зылд",
      "name:pl": "Dystrykt Federalny",
      "name:pt": "Distrito Federal",
      "name:qu": "Tantasqap",
      "name:ro": "Districtul Federal",
      "name:ru": "Федеральный округ",
      "name:sh": "Federalni distrikt",
      "name:sq": "Distrikti Federal",
      "name:sr": "Савезни дистрикт",
      "name:sv": "Federala distrikt",
      "name:tg": "Савезни дистрикт",
      "name:th": "เฟเดอรัลดิสตริกต์",
      "name:tr": "Federal Bölge",
      "name:uk": "Федеральний округ",
      "name:uz": "Federal okrugi",
      "name:vi": "Quận liên bang",
      "name:zh": "联邦区",
      "website": "http://www.df.gov.br/",
      "alt_name": "Brasília",
      "boundary": "administrative",
      "timezone": "America/Sao_Paulo",
      "way_area": "0.487939",
      "wikidata": "Q119158",
      "ISO3166-2": "BR-DF",
      "wikipedia": "pt:Distrito Federal (Brasil)",
      "short_name": "DF",
      "admin_level": "4",
      "is_in:country": "Brazil",
      "IBGE:GEOCODIGO": "53"
    }
  },
  {
    "osm_id": -11083431,
    "boundary": "administrative",
    "admin_level": 5,
    "parents": "-421151,-3359944,-59470",
    "name": "Região Geográfica Intermediária do Distrito Federal",
    "local_name": "Região Geográfica Intermediária do Distrito Federal",
    "name_en": null,
    "all_tags": {
      "name": "Região Geográfica Intermediária do Distrito Federal",
      "boundary": "administrative",
      "way_area": "0.487939",
      "wikidata": "Q48877961",
      "wikipedia": "pt:Região Geográfica Intermediária do Distrito Federal",
      "admin_level": "5",
      "IBGE:GEOCODIGO": "5301"
    }
  },
  {
    "osm_id": -4874109,
    "boundary": "administrative",
    "admin_level": 5,
    "parents": "-334443,-3359944,-59470",
    "name": "Região Geográfica Intermediária de Luziânia-Águas Lindas de Goiás",
    "local_name": "Região Geográfica Intermediária de Luziânia-Águas Lindas de Goiás",
    "name_en": null,
    "all_tags": {
      "name": "Região Geográfica Intermediária de Luziânia-Águas Lindas de Goiás",
      "boundary": "administrative",
      "way_area": "5.68683",
      "wikidata": "Q65170718",
      "wikipedia": "pt:Região Geográfica Intermediária de Luziânia-Águas Lindas de Goiás",
      "admin_level": "5",
      "IBGE:GEOCODIGO": "5206"
    }
  },
  {
    "osm_id": -4553197,
    "boundary": "administrative",
    "admin_level": 5,
    "parents": "-362413,-3360429,-59470",
    "name": "Região Geográfica Intermediária de Barreiras",
    "local_name": "Região Geográfica Intermediária de Barreiras",
    "name_en": null,
    "all_tags": {
      "name": "Região Geográfica Intermediária de Barreiras",
      "boundary": "administrative",
      "way_area": "9.69091",
      "wikidata": "Q65171798",
      "wikipedia": "pt:Região Geográfica Intermediária de Barreiras",
      "admin_level": "5",
      "IBGE:GEOCODIGO": "2906"
    }
  },
  {
    "osm_id": -4875162,
    "boundary": "administrative",
    "admin_level": 5,
    "parents": "-333597,-3359944,-59470",
    "name": "Região Geográfica Intermediária de Sinop",
    "local_name": "Região Geográfica Intermediária de Sinop",
    "name_en": null,
    "all_tags": {
      "name": "Região Geográfica Intermediária de Sinop",
      "boundary": "administrative",
      "way_area": "28.2605",
      "wikidata": "Q56346860",
      "wikipedia": "pt:Região Geográfica Intermediária de Sinop",
      "admin_level": "5",
      "IBGE:GEOCODIGO": "5103"
    }
  },
  {
    "osm_id": -4846888,
    "boundary": "administrative",
    "admin_level": 5,
    "parents": "-336819,-3360778,-59470",
    "name": "Região Geográfica Intermediária de Palmas",
    "local_name": "Região Geográfica Intermediária de Palmas",
    "name_en": null,
    "all_tags": {
      "name": "Região Geográfica Intermediária de Palmas",
      "boundary": "administrative",
      "way_area": "9.12687",
      "wikidata": "Q65167704",
      "wikipedia": "pt:Região Geográfica Intermediária de Palmas",
      "admin_level": "5",
      "IBGE:GEOCODIGO": "1701"
    }
  },
  {
    "osm_id": -4826842,
    "boundary": "administrative",
    "admin_level": 5,
    "parents": "-185579,-3360778,-59470",
    "name": "Região Geográfica Intermediária de Santarém",
    "local_name": "Região Geográfica Intermediária de Santarém",
    "name_en": null,
    "all_tags": {
      "name": "Região Geográfica Intermediária de Santarém",
      "boundary": "administrative",
      "way_area": "35.8324",
      "wikidata": "Q65167712",
      "wikipedia": "pt:Região Geográfica Intermediária de Santarém",
      "admin_level": "5",
      "IBGE:GEOCODIGO": "1505"
    }
  },
  {
    "osm_id": -332924,
    "boundary": "administrative",
    "admin_level": 4,
    "parents": "-3360429,-59470",
    "name": "Maranhão",
    "local_name": "Maranhão",
    "name_en": "Maranhão",
    "all_tags": {
      "ref": "MA",
      "flag": "https://upload.wikimedia.org/wikipedia/commons/4/45/Bandeira_do_Maranh%C3%A3o.svg",
      "name": "Maranhão",
      "name:ar": "مارانهاو",
      "name:be": "Мараньян",
      "name:bg": "Мараняо",
      "name:de": "Maranhão",
      "name:en": "Maranhão",
      "name:eo": "Maranjo",
      "name:fa": "مارانیائو",
      "name:gl": "Marañón",
      "name:he": "מרניאו",
      "name:hi": "मरान्हाओ",
      "name:hy": "Մարանյան",
      "name:ja": "マラニョン",
      "name:ka": "მარანიანი",
      "name:kk": "Мараньян",
      "name:ko": "마라냥",
      "name:la": "Maragnanum",
      "name:lt": "Maranjanas",
      "name:lv": "Maraņauna",
      "name:mk": "Марањао",
      "name:mr": "मरान्याव",
      "name:os": "Мараньян",
      "name:pl": "Maranhão",
      "name:pt": "Maranhão",
      "name:ru": "Мараньян",
      "name:sh": "Maranjao",
      "name:sr": "Марањаоps a",
      "name:tg": "Маранян",
      "name:th": "มารันเยา",
      "name:uk": "Мараньян",
      "name:uz": "Maranyan",
      "name:zh": "马拉尼昂",
      "website": "http://www.ma.gov.br/",
      "boundary": "administrative",
      "timezone": "America/Fortaleza",
      "way_area": "28.9365",
      "wikidata": "Q42362",
      "ISO3166-2": "BR-MA",
      "wikipedia": "pt:Maranhão",
      "short_name": "MA",
      "admin_level": "4",
      "is_in:country": "Brazil",
      "IBGE:GEOCODIGO": "21"
    }
  },
  {
    "osm_id": -4821598,
    "boundary": "administrative",
    "admin_level": 5,
    "parents": "-185579,-3360778,-59470",
    "name": "Região Geográfica Intermediária de Belém",
    "local_name": "Região Geográfica Intermediária de Belém",
    "name_en": null,
    "all_tags": {
      "name": "Região Geográfica Intermediária de Belém",
      "boundary": "administrative",
      "way_area": "3.56856",
      "wikidata": "Q61000240",
      "wikipedia": "pt:Região Geográfica Intermediária de Belém",
      "admin_level": "5",
      "IBGE:GEOCODIGO": "1501"
    }
  },
  {
    "osm_id": -4821368,
    "boundary": "administrative",
    "admin_level": 5,
    "parents": "-185579,-3360778,-59470",
    "name": "Região Geográfica Intermediária de Breves",
    "local_name": "Região Geográfica Intermediária de Breves",
    "name_en": null,
    "all_tags": {
      "name": "Região Geográfica Intermediária de Breves",
      "boundary": "administrative",
      "way_area": "8.46991",
      "wikidata": "Q65167695",
      "wikipedia": "pt:Região Geográfica Intermediária de Breves",
      "admin_level": "5",
      "IBGE:GEOCODIGO": "1507"
    }
  },
  {
    "osm_id": -2220779,
    "boundary": "administrative",
    "admin_level": 5,
    "parents": "-57963,-3073228,-59470",
    "name": "Região Geográfica Intermediária do Rio de Janeiro",
    "local_name": "Região Geográfica Intermediária do Rio de Janeiro",
    "name_en": null,
    "all_tags": {
      "name": "Região Geográfica Intermediária do Rio de Janeiro",
      "boundary": "administrative",
      "way_area": "0.922808",
      "wikidata": "Q56346884",
      "wikipedia": "pt:Região Geográfica Intermediária do Rio de Janeiro",
      "admin_level": "5",
      "IBGE:GEOCODIGO": "3301"
    }
  },
  {
    "osm_id": -4816374,
    "boundary": "administrative",
    "admin_level": 5,
    "parents": "-57963,-3073228,-59470",
    "name": "Região Geográfica Intermediária de Volta Redonda-Barra Mansa",
    "local_name": "Região Geográfica Intermediária de Volta Redonda-Barra Mansa",
    "name_en": null,
    "all_tags": {
      "name": "Região Geográfica Intermediária de Volta Redonda-Barra Mansa",
      "boundary": "administrative",
      "way_area": "0.662338",
      "wikidata": "Q56351399",
      "wikipedia": "pt:Região Geográfica Intermediária de Volta Redonda-Barra Mansa",
      "admin_level": "5",
      "IBGE:GEOCODIGO": "3302"
    }
  },
  {
    "osm_id": -2215526,
    "boundary": "administrative",
    "admin_level": 5,
    "parents": "-57963,-3073228,-59470",
    "name": "Região Geográfica Intermediária de Petrópolis",
    "local_name": "Região Geográfica Intermediária de Petrópolis",
    "name_en": null,
    "all_tags": {
      "name": "Região Geográfica Intermediária de Petrópolis",
      "boundary": "administrative",
      "way_area": "0.753211",
      "wikidata": "Q65174964",
      "wikipedia": "pt:Região Geográfica Intermediária de Petrópolis",
      "admin_level": "5",
      "IBGE:GEOCODIGO": "3303"
    }
  },
  {
    "osm_id": -2954515,
    "boundary": "administrative",
    "admin_level": 6,
    "parents": "-315173,-3073228,-59470",
    "name": "Região Metropolitana de Belo Horizonte",
    "local_name": "Região Metropolitana de Belo Horizonte",
    "name_en": null,
    "all_tags": {
      "name": "Região Metropolitana de Belo Horizonte",
      "boundary": "administrative",
      "way_area": "0.816476",
      "wikidata": "Q2294919",
      "wikipedia": "pt:Região Metropolitana de Belo Horizonte",
      "admin_level": "6"
    }
  },
  {
    "osm_id": -2215571,
    "boundary": "administrative",
    "admin_level": 5,
    "parents": "-57963,-3073228,-59470",
    "name": "Região Geográfica Intermediária de Macaé-Rio das Ostras-Cabo Frio",
    "local_name": "Região Geográfica Intermediária de Macaé-Rio das Ostras-Cabo Frio",
    "name_en": null,
    "all_tags": {
      "name": "Região Geográfica Intermediária de Macaé-Rio das Ostras-Cabo Frio",
      "boundary": "administrative",
      "way_area": "0.432562",
      "wikidata": "Q65174963",
      "wikipedia": "pt:Região Geográfica Intermediária de Macaé-Rio das Ostras-Cabo Frio",
      "admin_level": "5",
      "IBGE:GEOCODIGO": "3305"
    }
  },
  {
    "osm_id": -2212556,
    "boundary": "administrative",
    "admin_level": 5,
    "parents": "-57963,-3073228,-59470",
    "name": "Região Geográfica Intermediária de Campos dos Goytacazes",
    "local_name": "Região Geográfica Intermediária de Campos dos Goytacazes",
    "name_en": null,
    "all_tags": {
      "name": "Região Geográfica Intermediária de Campos dos Goytacazes",
      "boundary": "administrative",
      "way_area": "1.0922",
      "wikidata": "Q65174960",
      "wikipedia": "pt:Região Geográfica Intermediária de Campos dos Goytacazes",
      "admin_level": "5",
      "IBGE:GEOCODIGO": "3304"
    }
  },
  {
    "osm_id": -1843576,
    "boundary": "administrative",
    "admin_level": 6,
    "parents": "-1843572,-54882,-3073228,-59470",
    "name": "Greater Vitória",
    "local_name": "Região Metropolitana da Grande Vitória",
    "name_en": "Greater Vitória",
    "all_tags": {
      "name": "Região Metropolitana da Grande Vitória",
      "name:en": "Greater Vitória",
      "boundary": "administrative",
      "way_area": "0.200174",
      "wikidata": "Q1163503",
      "wikipedia": "pt:Região Metropolitana de Vitória",
      "short_name": "RMGV",
      "admin_level": "6"
    }
  },
  {
    "osm_id": -2235300,
    "boundary": "administrative",
    "admin_level": 5,
    "parents": "-315173,-3073228,-59470",
    "name": "Região Geográfica Intermediária de Belo Horizonte",
    "local_name": "Região Geográfica Intermediária de Belo Horizonte",
    "name_en": null,
    "all_tags": {
      "name": "Região Geográfica Intermediária de Belo Horizonte",
      "boundary": "administrative",
      "way_area": "3.50393",
      "wikidata": "Q65174957",
      "wikipedia": "pt:Região Geográfica Intermediária de Belo Horizonte",
      "admin_level": "5",
      "IBGE:GEOCODIGO": "3101"
    }
  },
  {
    "osm_id": -2954503,
    "boundary": "administrative",
    "admin_level": 6,
    "parents": "-2235299,-315173,-3073228,-59470",
    "name": "Região Metropolitana do Vale do Aço",
    "local_name": "Região Metropolitana do Vale do Aço",
    "name_en": null,
    "all_tags": {
      "name": "Região Metropolitana do Vale do Aço",
      "boundary": "administrative",
      "way_area": "0.0693544",
      "wikidata": "Q1357520",
      "wikipedia": "pt:Região Metropolitana do Vale do Aço",
      "admin_level": "6"
    }
  },
  {
    "osm_id": -2235306,
    "boundary": "administrative",
    "admin_level": 5,
    "parents": "-315173,-3073228,-59470",
    "name": "Região Geográfica Intermediária de Teófilo Otoni",
    "local_name": "Região Geográfica Intermediária de Teófilo Otoni",
    "name_en": null,
    "all_tags": {
      "name": "Região Geográfica Intermediária de Teófilo Otoni",
      "boundary": "administrative",
      "way_area": "6.61961",
      "wikidata": "Q61001070",
      "wikipedia": "pt:Região Geográfica Intermediária de Teófilo Otoni",
      "admin_level": "5",
      "IBGE:GEOCODIGO": "3103"
    }
  },
  {
    "osm_id": -1843572,
    "boundary": "administrative",
    "admin_level": 5,
    "parents": "-54882,-3073228,-59470",
    "name": "Região Geográfica Intermediária de Vitória",
    "local_name": "Região Geográfica Intermediária de Vitória",
    "name_en": null,
    "all_tags": {
      "name": "Região Geográfica Intermediária de Vitória",
      "boundary": "administrative",
      "way_area": "0.836932",
      "wikidata": "Q65171443",
      "wikipedia": "pt:Região Geográfica Intermediária de Vitória",
      "admin_level": "5",
      "IBGE:GEOCODIGO": "3201"
    }
  },
  {
    "osm_id": -2235302,
    "boundary": "administrative",
    "admin_level": 5,
    "parents": "-315173,-3073228,-59470",
    "name": "Região Geográfica Intermediária de Montes Claros",
    "local_name": "Região Geográfica Intermediária de Montes Claros",
    "name_en": null,
    "all_tags": {
      "name": "Região Geográfica Intermediária de Montes Claros",
      "boundary": "administrative",
      "way_area": "10.4779",
      "wikidata": "Q65171432",
      "wikipedia": "pt:Região Geográfica Intermediária de Montes Claros",
      "admin_level": "5",
      "IBGE:GEOCODIGO": "3102"
    }
  },
  {
    "osm_id": -11074970,
    "boundary": "administrative",
    "admin_level": 5,
    "parents": "-362413,-3360429,-59470",
    "name": "Região Geográfica Intermediária de Guanambi",
    "local_name": "Região Geográfica Intermediária de Guanambi",
    "name_en": null,
    "all_tags": {
      "name": "Região Geográfica Intermediária de Guanambi",
      "boundary": "administrative",
      "way_area": "3.93338",
      "wikidata": "Q65174472",
      "wikipedia": "pt:Região Geográfica Intermediária de Guanambi",
      "admin_level": "5",
      "IBGE:GEOCODIGO": "2905"
    }
  },
  {
    "osm_id": -4546823,
    "boundary": "administrative",
    "admin_level": 5,
    "parents": "-362413,-3360429,-59470",
    "name": "Região Geográfica Intermediária de Irecê",
    "local_name": "Região Geográfica Intermediária de Irecê",
    "name_en": null,
    "all_tags": {
      "name": "Região Geográfica Intermediária de Irecê",
      "boundary": "administrative",
      "way_area": "5.07491",
      "wikidata": "Q65174474",
      "wikipedia": "pt:Região Geográfica Intermediária de Irecê",
      "admin_level": "5",
      "IBGE:GEOCODIGO": "2907"
    }
  },
  {
    "osm_id": -4547002,
    "boundary": "administrative",
    "admin_level": 5,
    "parents": "-362413,-3360429,-59470",
    "name": "Região Geográfica Intermediária de Feira de Santana",
    "local_name": "Região Geográfica Intermediária de Feira de Santana",
    "name_en": null,
    "all_tags": {
      "name": "Região Geográfica Intermediária de Feira de Santana",
      "boundary": "administrative",
      "way_area": "6.20607",
      "wikidata": "Q65170015",
      "wikipedia": "pt:Região Geográfica Intermediária de Feira de Santana",
      "admin_level": "5",
      "IBGE:GEOCODIGO": "2910"
    }
  },
  {
    "osm_id": -4555378,
    "boundary": "administrative",
    "admin_level": 6,
    "parents": "-362413,-3360429,-59470",
    "name": "Região Metropolitana de Salvador",
    "local_name": "Região Metropolitana de Salvador",
    "name_en": null,
    "all_tags": {
      "name": "Região Metropolitana de Salvador",
      "boundary": "administrative",
      "way_area": "0.362777",
      "wikidata": "Q2292820",
      "wikipedia": "pt:Região Metropolitana de Salvador",
      "admin_level": "6"
    }
  },
  {
    "osm_id": -4558124,
    "boundary": "administrative",
    "admin_level": 6,
    "parents": "-4547002,-362413,-3360429,-59470",
    "name": "Região Metropolitana de Feira de Santana",
    "local_name": "Região Metropolitana de Feira de Santana",
    "name_en": null,
    "all_tags": {
      "name": "Região Metropolitana de Feira de Santana",
      "boundary": "administrative",
      "way_area": "0.543217",
      "wikidata": "Q10358731",
      "wikipedia": "pt:Região Metropolitana de Feira de Santana",
      "admin_level": "6"
    }
  },
  {
    "osm_id": -302819,
    "boundary": "administrative",
    "admin_level": 4,
    "parents": "-3360429,-59470",
    "name": "Piauí",
    "local_name": "Piauí",
    "name_en": "Piauí",
    "all_tags": {
      "ref": "PI",
      "flag": "https://upload.wikimedia.org/wikipedia/commons/3/33/Bandeira_do_Piau%C3%AD.svg",
      "name": "Piauí",
      "name:ar": "بياوي",
      "name:be": "Піяўі",
      "name:bg": "Пиауи",
      "name:de": "Piauí",
      "name:en": "Piauí",
      "name:eo": "Piaŭio",
      "name:fa": "پیاوی",
      "name:gn": "Piaui",
      "name:he": "פיאאוי",
      "name:hi": "पियाउई",
      "name:hy": "Պիաուի",
      "name:ja": "ピアウイー",
      "name:ka": "პიაუი",
      "name:ko": "피아우이",
      "name:la": "Piauhy",
      "name:lt": "Piaujis",
      "name:lv": "Pjaui",
      "name:mk": "Пјауѝ",
      "name:mr": "पिआवी",
      "name:os": "Пиауи",
      "name:pl": "Piauí",
      "name:pt": "Piauí",
      "name:ru": "Пиауи",
      "name:sh": "Pjaui",
      "name:sr": "Пјауи",
      "name:tg": "Пиауи",
      "name:th": "ปีเอาอี",
      "name:uk": "Піауї",
      "name:uz": "Piaui",
      "name:zh": "皮奧伊",
      "website": "http://www.pi.gov.br/",
      "boundary": "administrative",
      "timezone": "America/Fortaleza",
      "way_area": "20.7295",
      "wikidata": "Q42722",
      "ISO3166-2": "BR-PI",
      "wikipedia": "pt:Piauí",
      "short_name": "PI",
      "state_code": "PI",
      "admin_level": "4",
      "is_in:country": "Brazil",
      "IBGE:GEOCODIGO": "22",
      "is_in:country_code": "BR"
    }
  },
  {
    "osm_id": -5161844,
    "boundary": "administrative",
    "admin_level": 5,
    "parents": "-302635,-3360429,-59470",
    "name": "Região Geográfica Intermediária de Juazeiro do Norte",
    "local_name": "Região Geográfica Intermediária de Juazeiro do Norte",
    "name_en": null,
    "all_tags": {
      "name": "Região Geográfica Intermediária de Juazeiro do Norte",
      "boundary": "administrative",
      "way_area": "1.6249",
      "wikidata": "Q56351072",
      "wikipedia": "pt:Região Geográfica Intermediária de Juazeiro do Norte",
      "admin_level": "5",
      "IBGE:GEOCODIGO": "2304"
    }
  },
  {
    "osm_id": -11074968,
    "boundary": "administrative",
    "admin_level": 5,
    "parents": "-362413,-3360429,-59470",
    "name": "Região Geográfica Intermediária de Paulo Afonso",
    "local_name": "Região Geográfica Intermediária de Paulo Afonso",
    "name_en": null,
    "all_tags": {
      "name": "Região Geográfica Intermediária de Paulo Afonso",
      "boundary": "administrative",
      "way_area": "3.36796",
      "wikidata": "Q65174481",
      "wikipedia": "pt:Região Geográfica Intermediária de Paulo Afonso",
      "admin_level": "5",
      "IBGE:GEOCODIGO": "2909"
    }
  },
  {
    "osm_id": -5139553,
    "boundary": "administrative",
    "admin_level": 5,
    "parents": "-303940,-3360429,-59470",
    "name": "Região Geográfica Intermediária de Aracaju",
    "local_name": "Região Geográfica Intermediária de Aracaju",
    "name_en": null,
    "all_tags": {
      "name": "Região Geográfica Intermediária de Aracaju",
      "boundary": "administrative",
      "way_area": "0.792588",
      "wikidata": "Q65168175",
      "wikipedia": "pt:Região Geográfica Intermediária de Aracaju",
      "admin_level": "5",
      "IBGE:GEOCODIGO": "2801"
    }
  },
  {
    "osm_id": -5122453,
    "boundary": "administrative",
    "admin_level": 5,
    "parents": "-303702,-3360429,-59470",
    "name": "Região Geográfica Intermediária de Caruaru",
    "local_name": "Região Geográfica Intermediária de Caruaru",
    "name_en": null,
    "all_tags": {
      "name": "Região Geográfica Intermediária de Caruaru",
      "boundary": "administrative",
      "way_area": "2.46486",
      "wikidata": "Q65168182",
      "wikipedia": "pt:Região Geográfica Intermediária de Caruaru",
      "admin_level": "5",
      "IBGE:GEOCODIGO": "2602"
    }
  },
  {
    "osm_id": -5122693,
    "boundary": "administrative",
    "admin_level": 5,
    "parents": "-303702,-3360429,-59470",
    "name": "Região Geográfica Intermediária de Serra Talhada",
    "local_name": "Região Geográfica Intermediária de Serra Talhada",
    "name_en": null,
    "all_tags": {
      "name": "Região Geográfica Intermediária de Serra Talhada",
      "boundary": "administrative",
      "way_area": "1.6045",
      "wikidata": "Q65168206",
      "wikipedia": "pt:Região Geográfica Intermediária de Serra Talhada",
      "admin_level": "5",
      "IBGE:GEOCODIGO": "2603"
    }
  },
  {
    "osm_id": -4510788,
    "boundary": "administrative",
    "admin_level": 6,
    "parents": "-4504163,-301464,-3360429,-59470",
    "name": "Região Metropolitana do Vale do Piancó",
    "local_name": "Região Metropolitana do Vale do Piancó",
    "name_en": null,
    "all_tags": {
      "name": "Região Metropolitana do Vale do Piancó",
      "boundary": "administrative",
      "way_area": "0.455353",
      "wikidata": "Q10358750",
      "wikipedia": "pt:Região Metropolitana do Vale do Piancó",
      "admin_level": "6"
    }
  },
  {
    "osm_id": -4510782,
    "boundary": "administrative",
    "admin_level": 6,
    "parents": "-10016745,-301464,-3360429,-59470",
    "name": "Região Metropolitana de Cajazeiras",
    "local_name": "Região Metropolitana de Cajazeiras",
    "name_en": null,
    "all_tags": {
      "name": "Região Metropolitana de Cajazeiras",
      "boundary": "administrative",
      "way_area": "0.279897",
      "wikidata": "Q10358726",
      "wikipedia": "pt:Região Metropolitana de Cajazeiras",
      "admin_level": "6"
    }
  },
  {
    "osm_id": -10016745,
    "boundary": "administrative",
    "admin_level": 5,
    "parents": "-301464,-3360429,-59470",
    "name": "Região Geográfica Intermediária de Sousa-Cajazeiras",
    "local_name": "Região Geográfica Intermediária de Sousa-Cajazeiras",
    "name_en": null,
    "all_tags": {
      "name": "Região Geográfica Intermediária de Sousa-Cajazeiras",
      "boundary": "administrative",
      "way_area": "0.463259",
      "wikidata": "Q48877616",
      "wikipedia": "pt:Região Geográfica Intermediária de Sousa-Cajazeiras",
      "admin_level": "5",
      "IBGE:GEOCODIGO": "2504"
    }
  },
  {
    "osm_id": -4510786,
    "boundary": "administrative",
    "admin_level": 6,
    "parents": "-10016745,-301464,-3360429,-59470",
    "name": "Região Metropolitana de Sousa",
    "local_name": "Região Metropolitana de Sousa",
    "name_en": null,
    "all_tags": {
      "name": "Região Metropolitana de Sousa",
      "boundary": "administrative",
      "way_area": "0.178145",
      "wikidata": "Q10296235",
      "wikipedia": "pt:Região Metropolitana de Sousa",
      "admin_level": "6"
    }
  },
  {
    "osm_id": -10988909,
    "boundary": "administrative",
    "admin_level": 5,
    "parents": "-301079,-3360429,-59470",
    "name": "Região Geográfica Intermediária de Caicó",
    "local_name": "Região Geográfica Intermediária de Caicó",
    "name_en": null,
    "all_tags": {
      "name": "Região Geográfica Intermediária de Caicó",
      "boundary": "administrative",
      "way_area": "0.766461",
      "wikidata": "Q65168178",
      "wikipedia": "pt:Região Geográfica Intermediária de Caicó",
      "admin_level": "5",
      "IBGE:GEOCODIGO": "2402"
    }
  },
  {
    "osm_id": -5163835,
    "boundary": "administrative",
    "admin_level": 5,
    "parents": "-301079,-3360429,-59470",
    "name": "Região Geográfica Intermediária de Mossoró",
    "local_name": "Região Geográfica Intermediária de Mossoró",
    "name_en": null,
    "all_tags": {
      "name": "Região Geográfica Intermediária de Mossoró",
      "boundary": "administrative",
      "way_area": "2.04316",
      "wikidata": "Q65168192",
      "wikipedia": "pt:Região Geográfica Intermediária de Mossoró",
      "admin_level": "5",
      "IBGE:GEOCODIGO": "2403"
    }
  },
  {
    "osm_id": -4504152,
    "boundary": "administrative",
    "admin_level": 6,
    "parents": "-301464,-3360429,-59470",
    "name": "Região Metropolitana de Campina Grande",
    "local_name": "Região Metropolitana de Campina Grande",
    "name_en": null,
    "all_tags": {
      "name": "Região Metropolitana de Campina Grande",
      "boundary": "administrative",
      "way_area": "0.388175",
      "wikidata": "Q10358729",
      "wikipedia": "pt:Região Metropolitana de Campina Grande",
      "admin_level": "6"
    }
  },
  {
    "osm_id": -4504161,
    "boundary": "administrative",
    "admin_level": 5,
    "parents": "-301464,-3360429,-59470",
    "name": "Região Geográfica Intermediária de Campina Grande",
    "local_name": "Região Geográfica Intermediária de Campina Grande",
    "name_en": null,
    "all_tags": {
      "name": "Região Geográfica Intermediária de Campina Grande",
      "boundary": "administrative",
      "way_area": "1.84008",
      "wikidata": "Q48877888",
      "wikipedia": "pt:Região Geográfica Intermediária de Campina Grande",
      "admin_level": "5",
      "IBGE:GEOCODIGO": "2502"
    }
  },
  {
    "osm_id": -4510784,
    "boundary": "administrative",
    "admin_level": 6,
    "parents": "-301464,-3360429,-59470",
    "name": "Região Metropolitana de Itabaiana",
    "local_name": "Região Metropolitana de Itabaiana",
    "name_en": null,
    "all_tags": {
      "name": "Região Metropolitana de Itabaiana",
      "boundary": "administrative",
      "way_area": "0.146412",
      "wikidata": "Q10358732",
      "wikipedia": "pt:Região Metropolitana de Itabaiana (Paraíba)",
      "admin_level": "6"
    }
  },
  {
    "osm_id": -1216662,
    "boundary": "administrative",
    "admin_level": 5,
    "parents": "-301464,-3360429,-59470",
    "name": "Região Geográfica Intermediária de João Pessoa",
    "local_name": "Região Geográfica Intermediária de João Pessoa",
    "name_en": null,
    "all_tags": {
      "name": "Região Geográfica Intermediária de João Pessoa",
      "boundary": "administrative",
      "way_area": "0.793345",
      "wikidata": "Q48877933",
      "wikipedia": "pt:Região Geográfica Intermediária de João Pessoa",
      "admin_level": "5",
      "IBGE:GEOCODIGO": "2501"
    }
  },
  {
    "osm_id": -2750810,
    "boundary": "administrative",
    "admin_level": 6,
    "parents": "-5119905,-303702,-3360429,-59470",
    "name": "Região Metropolitana do Recife",
    "local_name": "Região Metropolitana do Recife",
    "name_en": null,
    "all_tags": {
      "name": "Região Metropolitana do Recife",
      "boundary": "administrative",
      "way_area": "0.268227",
      "wikidata": "Q2549175",
      "wikipedia": "pt:Região Metropolitana do Recife",
      "admin_level": "6"
    }
  },
  {
    "osm_id": -4510783,
    "boundary": "administrative",
    "admin_level": 6,
    "parents": "-4504161,-301464,-3360429,-59470",
    "name": "Região Metropolitana de Esperança",
    "local_name": "Região Metropolitana de Esperança",
    "name_en": null,
    "all_tags": {
      "name": "Região Metropolitana de Esperança",
      "boundary": "administrative",
      "way_area": "0.138734",
      "wikidata": "Q10358727",
      "wikipedia": "pt:Região Metropolitana de Esperança",
      "admin_level": "6"
    }
  },
  {
    "osm_id": -4510781,
    "boundary": "administrative",
    "admin_level": 6,
    "parents": "-4504161,-301464,-3360429,-59470",
    "name": "Região Metropolitana de Barra de Santa Rosa",
    "local_name": "Região Metropolitana de Barra de Santa Rosa",
    "name_en": null,
    "all_tags": {
      "name": "Região Metropolitana de Barra de Santa Rosa",
      "boundary": "administrative",
      "way_area": "0.243988",
      "wikidata": "Q10358725",
      "wikipedia": "pt:Região Metropolitana de Barra de Santa Rosa",
      "admin_level": "6"
    }
  },
  {
    "osm_id": -4504528,
    "boundary": "administrative",
    "admin_level": 6,
    "parents": "-1216662,-301464,-3360429,-59470",
    "name": "Região Metropolitana de Guarabira",
    "local_name": "Região Metropolitana de Guarabira",
    "name_en": null,
    "all_tags": {
      "name": "Região Metropolitana de Guarabira",
      "boundary": "administrative",
      "way_area": "0.11839",
      "wikidata": "Q10358733",
      "wikipedia": "pt:Região Metropolitana de Guarabira",
      "admin_level": "6"
    }
  },
  {
    "osm_id": -4510787,
    "boundary": "administrative",
    "admin_level": 6,
    "parents": "-1216662,-301464,-3360429,-59470",
    "name": "Região Metropolitana do Vale do Mamanguape",
    "local_name": "Região Metropolitana do Vale do Mamanguape",
    "name_en": null,
    "all_tags": {
      "name": "Região Metropolitana do Vale do Mamanguape",
      "boundary": "administrative",
      "way_area": "0.0951736",
      "wikidata": "Q10358747",
      "wikipedia": "pt:Região Metropolitana do Vale do Mamanguape",
      "admin_level": "6"
    }
  },
  {
    "osm_id": -4510780,
    "boundary": "administrative",
    "admin_level": 6,
    "parents": "-301464,-3360429,-59470",
    "name": "Região Metropolitana de Araruna",
    "local_name": "Região Metropolitana de Araruna",
    "name_en": null,
    "all_tags": {
      "name": "Região Metropolitana de Araruna",
      "boundary": "administrative",
      "way_area": "0.0899081",
      "wikidata": "Q10358724",
      "wikipedia": "pt:Região Metropolitana de Araruna",
      "admin_level": "6"
    }
  },
  {
    "osm_id": -5163857,
    "boundary": "administrative",
    "admin_level": 5,
    "parents": "-301079,-3360429,-59470",
    "name": "Região Geográfica Intermediária de Natal",
    "local_name": "Região Geográfica Intermediária de Natal",
    "name_en": null,
    "all_tags": {
      "name": "Região Geográfica Intermediária de Natal",
      "boundary": "administrative",
      "way_area": "1.50299",
      "wikidata": "Q65168196",
      "wikipedia": "pt:Região Geográfica Intermediária de Natal",
      "admin_level": "5",
      "IBGE:GEOCODIGO": "2401"
    }
  },
  {
    "osm_id": -5130387,
    "boundary": "administrative",
    "admin_level": 5,
    "parents": "-332924,-3360429,-59470",
    "name": "Região Geográfica Intermediária de São Luís",
    "local_name": "Região Geográfica Intermediária de São Luís",
    "name_en": null,
    "all_tags": {
      "name": "Região Geográfica Intermediária de São Luís",
      "boundary": "administrative",
      "way_area": "5.76285",
      "wikidata": "Q61002705",
      "wikipedia": "pt:Região Geográfica Intermediária de São Luís",
      "admin_level": "5",
      "IBGE:GEOCODIGO": "2101"
    }
  },
  {
    "osm_id": -303702,
    "boundary": "administrative",
    "admin_level": 4,
    "parents": "-3360429,-59470",
    "name": "Pernambuco",
    "local_name": "Pernambuco",
    "name_en": "Pernambuco",
    "all_tags": {
      "ref": "PE",
      "flag": "https://upload.wikimedia.org/wikipedia/commons/5/59/Bandeira_de_Pernambuco.svg",
      "name": "Pernambuco",
      "name:ar": "بيرنامبوكو",
      "name:be": "Пернамбуку",
      "name:bg": "Пернамбуко",
      "name:de": "Pernambuco",
      "name:en": "Pernambuco",
      "name:eo": "Pernambuko",
      "name:fa": "پرنامبوکو",
      "name:fr": "Pernambouc",
      "name:he": "פרנמבוקו",
      "name:hi": "पेरनाम्बुको",
      "name:hy": "Պերնամբուկու",
      "name:ja": "ペルナンブーコ",
      "name:ka": "პერნამბუკუ",
      "name:ko": "페르남부쿠",
      "name:la": "Pernambucum",
      "name:lt": "Pernambukas",
      "name:lv": "Pernambuku",
      "name:mk": "Пернамбуко",
      "name:mr": "पर्नांबुको",
      "name:os": "Пернамбуку",
      "name:pl": "Pernambuco",
      "name:pt": "Pernambuco",
      "name:ru": "Пернамбуку",
      "name:sr": "Пернамбуко",
      "name:tg": "Пернамбуку",
      "name:th": "เปร์นัมบูกู",
      "name:uk": "Пернамбуку",
      "name:uz": "Prenambuku",
      "name:zh": "伯南布哥",
      "website": "http://www.pe.gov.br/",
      "boundary": "administrative",
      "timezone": "America/Recife",
      "way_area": "8.59177",
      "wikidata": "Q40942",
      "ISO3166-2": "BR-PE",
      "wikipedia": "pt:Pernambuco",
      "short_name": "PE",
      "admin_level": "4",
      "is_in:country": "Brazil",
      "IBGE:GEOCODIGO": "26"
    }
  },
  {
    "osm_id": -331463,
    "boundary": "administrative",
    "admin_level": 4,
    "parents": "-3360778,-59470",
    "name": "Amapá",
    "local_name": "Amapá",
    "name_en": "Amapá",
    "all_tags": {
      "ref": "AP",
      "flag": "https://upload.wikimedia.org/wikipedia/commons/0/0c/Bandeira_do_Amap%C3%A1.svg",
      "name": "Amapá",
      "name:ar": "أمابا",
      "name:be": "Амапа",
      "name:bg": "Амапа",
      "name:de": "Amapá",
      "name:en": "Amapá",
      "name:eo": "Amapao",
      "name:fa": "آماپا",
      "name:gn": "Amapa",
      "name:he": "אמאפה",
      "name:hi": "अमापा",
      "name:hy": "Ամապա",
      "name:ja": "アマパー",
      "name:ka": "ამაპა",
      "name:kk": "Амапа",
      "name:ko": "아마파",
      "name:la": "Amapa",
      "name:lt": "Amapa",
      "name:lv": "Amapa",
      "name:mk": "Амапа",
      "name:mr": "अमापा",
      "name:os": "Амапа",
      "name:pl": "Amapá",
      "name:pt": "Amapá",
      "name:ru": "Амапа",
      "name:sh": "Amapa",
      "name:sr": "Амапа",
      "name:tg": "Амапа",
      "name:th": "อามาปา",
      "name:uk": "Амапа",
      "name:uz": "Amapa",
      "name:zh": "阿马帕",
      "website": "http://www.ap.gov.br/",
      "boundary": "administrative",
      "timezone": "America/Belem",
      "way_area": "12.8116",
      "wikidata": "Q40130",
      "ISO3166-2": "BR-AP",
      "wikipedia": "pt:Amapá",
      "short_name": "AP",
      "admin_level": "4",
      "is_in:country": "Brazil",
      "IBGE:GEOCODIGO": "16"
    }
  },
  {
    "osm_id": -4729280,
    "boundary": "administrative",
    "admin_level": 5,
    "parents": "-297640,-2844750,-59470",
    "name": "Região Geográfica Intermediária de Maringá",
    "local_name": "Região Geográfica Intermediária de Maringá",
    "name_en": null,
    "all_tags": {
      "name": "Região Geográfica Intermediária de Maringá",
      "boundary": "administrative",
      "way_area": "3.80918",
      "wikidata": "Q65170721",
      "wikipedia": "pt:Região Geográfica Intermediária de Maringá",
      "admin_level": "5",
      "IBGE:GEOCODIGO": "4104"
    }
  },
  {
    "osm_id": -5161831,
    "boundary": "administrative",
    "admin_level": 5,
    "parents": "-302635,-3360429,-59470",
    "name": "Região Geográfica Intermediária de Iguatu",
    "local_name": "Região Geográfica Intermediária de Iguatu",
    "name_en": null,
    "all_tags": {
      "name": "Região Geográfica Intermediária de Iguatu",
      "boundary": "administrative",
      "way_area": "1.16545",
      "wikidata": "Q56348224",
      "wikipedia": "pt:Região Geográfica Intermediária de Iguatu",
      "admin_level": "5",
      "IBGE:GEOCODIGO": "2303"
    }
  },
  {
    "osm_id": -315173,
    "boundary": "administrative",
    "admin_level": 4,
    "parents": "-3073228,-59470",
    "name": "Minas Gerais",
    "local_name": "Minas Gerais",
    "name_en": "Minas Gerais",
    "all_tags": {
      "ref": "MG",
      "flag": "https://upload.wikimedia.org/wikipedia/commons/f/f4/Bandeira_de_Minas_Gerais.svg",
      "name": "Minas Gerais",
      "name:ar": "ميناس جيرايس",
      "name:be": "Мінас-Жэрайс",
      "name:bg": "Минас Жерайс",
      "name:de": "Minas Gerais",
      "name:en": "Minas Gerais",
      "name:eo": "Minas-Ĝerajso",
      "name:fa": "میناس گرایس",
      "name:gl": "Minas Xerais",
      "name:he": "מינאס ז'ראיס",
      "name:hi": "मिनास जेरायज़",
      "name:hy": "Մինաս Ժերայս",
      "name:ja": "ミナス ジェライス",
      "name:ka": "მინას-ჟერაისი",
      "name:ko": "미나스제라이스",
      "name:ku": "Minas Grais",
      "name:la": "Fodinae Generales",
      "name:lt": "Minas Žeraisas",
      "name:lv": "Minasžeraisa",
      "name:mk": "Минаш Жераис",
      "name:mr": "मिनास जेराईस",
      "name:os": "Минас-Жерайс",
      "name:pl": "Minas Gerais",
      "name:pt": "Minas Gerais",
      "name:ru": "Минас-Жерайс",
      "name:sr": "Минас Жераис",
      "name:tg": "Минас Жерайс",
      "name:th": "มีนัสเชไรส์",
      "name:uk": "Мінас-Жерайс",
      "name:uz": "Minas-Jerays",
      "name:zh": "米纳斯吉拉斯",
      "website": "https://www.mg.gov.br/",
      "boundary": "administrative",
      "timezone": "America/Sao_Paulo",
      "way_area": "50.1983",
      "wikidata": "Q39109",
      "ISO3166-2": "BR-MG",
      "wikipedia": "pt:Minas Gerais",
      "short_name": "MG",
      "admin_level": "4",
      "is_in:country": "Brazil",
      "IBGE:GEOCODIGO": "31"
    }
  },
  {
    "osm_id": -4820186,
    "boundary": "administrative",
    "admin_level": 5,
    "parents": "-185579,-3360778,-59470",
    "name": "Região Geográfica Intermediária de Altamira",
    "local_name": "Região Geográfica Intermediária de Altamira",
    "name_en": null,
    "all_tags": {
      "name": "Região Geográfica Intermediária de Altamira",
      "boundary": "administrative",
      "way_area": "24.8574",
      "wikidata": "Q65167687",
      "wikipedia": "pt:Região Geográfica Intermediária de Altamira",
      "admin_level": "5",
      "IBGE:GEOCODIGO": "1506"
    }
  },
  {
    "osm_id": -336819,
    "boundary": "administrative",
    "admin_level": 4,
    "parents": "-3360778,-59470",
    "name": "Tocantins",
    "local_name": "Tocantins",
    "name_en": "Tocantins",
    "all_tags": {
      "ref": "TO",
      "flag": "https://upload.wikimedia.org/wikipedia/commons/f/ff/Bandeira_do_Tocantins.svg",
      "name": "Tocantins",
      "name:ar": "توكانتينس",
      "name:be": "Такантынс",
      "name:bg": "Токантинс",
      "name:de": "Tocantins",
      "name:en": "Tocantins",
      "name:eo": "Tokantinso",
      "name:fa": "توکانتینس",
      "name:gn": "Tukãtĩ",
      "name:he": "טוקנטינס",
      "name:hi": "टोकाचिस",
      "name:hy": "Տոկանտինս",
      "name:ja": "トカンティンス",
      "name:ka": "ტოკანტინსი",
      "name:ko": "토칸칭스",
      "name:lt": "Tokantinsas",
      "name:lv": "Tokantinsa",
      "name:mk": "Токантинс",
      "name:mr": "तोकांतिन्स",
      "name:os": "Токантинс",
      "name:pl": "Tocantins",
      "name:pt": "Tocantins",
      "name:ru": "Токантинс",
      "name:sh": "Tokantins",
      "name:sr": "Токантинс",
      "name:tg": "Токантинс",
      "name:th": "โตกันตินส์",
      "name:uk": "Токантінс",
      "name:uz": "Tokantins",
      "name:zh": "托坎廷斯",
      "website": "http://www.to.gov.br/",
      "boundary": "administrative",
      "timezone": "America/Araguaina",
      "way_area": "22.9075",
      "wikidata": "Q43695",
      "ISO3166-2": "BR-TO",
      "wikipedia": "pt:Tocantins",
      "short_name": "TO",
      "admin_level": "4",
      "is_in:country": "Brazil",
      "IBGE:GEOCODIGO": "17"
    }
  },
  {
    "osm_id": -2235299,
    "boundary": "administrative",
    "admin_level": 5,
    "parents": "-315173,-3073228,-59470",
    "name": "Região Geográfica Intermediária de Ipatinga",
    "local_name": "Região Geográfica Intermediária de Ipatinga",
    "name_en": null,
    "all_tags": {
      "name": "Região Geográfica Intermediária de Ipatinga",
      "boundary": "administrative",
      "way_area": "1.13981",
      "wikidata": "Q65171430",
      "wikipedia": "pt:Região Geográfica Intermediária de Ipatinga",
      "admin_level": "5",
      "IBGE:GEOCODIGO": "3105"
    }
  },
  {
    "osm_id": -11074969,
    "boundary": "administrative",
    "admin_level": 5,
    "parents": "-362413,-3360429,-59470",
    "name": "Região Geográfica Intermediária de Juazeiro",
    "local_name": "Região Geográfica Intermediária de Juazeiro",
    "name_en": null,
    "all_tags": {
      "name": "Região Geográfica Intermediária de Juazeiro",
      "boundary": "administrative",
      "way_area": "6.07473",
      "wikidata": "Q65174478",
      "wikipedia": "pt:Região Geográfica Intermediária de Juazeiro",
      "admin_level": "5",
      "IBGE:GEOCODIGO": "2908"
    }
  },
  {
    "osm_id": -4546446,
    "boundary": "administrative",
    "admin_level": 5,
    "parents": "-362413,-3360429,-59470",
    "name": "Região Geográfica Intermediária de Vitória da Conquista",
    "local_name": "Região Geográfica Intermediária de Vitória da Conquista",
    "name_en": null,
    "all_tags": {
      "name": "Região Geográfica Intermediária de Vitória da Conquista",
      "boundary": "administrative",
      "way_area": "5.87992",
      "wikidata": "Q65170022",
      "wikipedia": "pt:Região Geográfica Intermediária de Vitória da Conquista",
      "admin_level": "5",
      "IBGE:GEOCODIGO": "2904"
    }
  },
  {
    "osm_id": -4819138,
    "boundary": "administrative",
    "admin_level": 5,
    "parents": "-331463,-3360778,-59470",
    "name": "Região Geográfica Intermediária de Macapá",
    "local_name": "Região Geográfica Intermediária de Macapá",
    "name_en": null,
    "all_tags": {
      "name": "Região Geográfica Intermediária de Macapá",
      "boundary": "administrative",
      "way_area": "4.54528",
      "wikidata": "Q65173773",
      "wikipedia": "pt:Região Geográfica Intermediária de Macapá",
      "admin_level": "5",
      "IBGE:GEOCODIGO": "1601"
    }
  },
  {
    "osm_id": -4751534,
    "boundary": "administrative",
    "admin_level": 5,
    "parents": "-242620,-2844750,-59470",
    "name": "Região Geográfica Intermediária de Santa Maria",
    "local_name": "Região Geográfica Intermediária de Santa Maria",
    "name_en": null,
    "all_tags": {
      "name": "Região Geográfica Intermediária de Santa Maria",
      "boundary": "administrative",
      "way_area": "4.07896",
      "wikidata": "Q65170730",
      "wikipedia": "pt:Região Geográfica Intermediária de Santa Maria",
      "admin_level": "5",
      "IBGE:GEOCODIGO": "4303"
    }
  },
  {
    "osm_id": -4753474,
    "boundary": "administrative",
    "admin_level": 5,
    "parents": "-242620,-2844750,-59470",
    "name": "Região Geográfica Intermediária de Uruguaiana",
    "local_name": "Região Geográfica Intermediária de Uruguaiana",
    "name_en": null,
    "all_tags": {
      "name": "Região Geográfica Intermediária de Uruguaiana",
      "boundary": "administrative",
      "way_area": "3.65156",
      "wikidata": "Q65170732",
      "wikipedia": "pt:Região Geográfica Intermediária de Uruguaiana",
      "admin_level": "5",
      "IBGE:GEOCODIGO": "4304"
    }
  },
  {
    "osm_id": -5129396,
    "boundary": "administrative",
    "admin_level": 5,
    "parents": "-332924,-3360429,-59470",
    "name": "Região Geográfica Intermediária de Presidente Dutra",
    "local_name": "Região Geográfica Intermediária de Presidente Dutra",
    "name_en": null,
    "all_tags": {
      "name": "Região Geográfica Intermediária de Presidente Dutra",
      "boundary": "administrative",
      "way_area": "3.1242",
      "wikidata": "Q61002711",
      "wikipedia": "pt:Região Geográfica Intermediária de Presidente Dutra",
      "admin_level": "5",
      "IBGE:GEOCODIGO": "2104"
    }
  },
  {
    "osm_id": -5145141,
    "boundary": "administrative",
    "admin_level": 5,
    "parents": "-302819,-3360429,-59470",
    "name": "Região Geográfica Intermediária de Picos",
    "local_name": "Região Geográfica Intermediária de Picos",
    "name_en": null,
    "all_tags": {
      "name": "Região Geográfica Intermediária de Picos",
      "boundary": "administrative",
      "way_area": "3.04846",
      "wikidata": "Q65174486",
      "wikipedia": "pt:Região Geográfica Intermediária de Picos",
      "admin_level": "5",
      "IBGE:GEOCODIGO": "2203"
    }
  },
  {
    "osm_id": -5119905,
    "boundary": "administrative",
    "admin_level": 5,
    "parents": "-303702,-3360429,-59470",
    "name": "Região Geográfica Intermediária do Recife",
    "local_name": "Região Geográfica Intermediária do Recife",
    "name_en": null,
    "all_tags": {
      "name": "Região Geográfica Intermediária do Recife",
      "boundary": "administrative",
      "way_area": "1.08995",
      "wikidata": "Q65174270",
      "wikipedia": "pt:Região Geográfica Intermediária do Recife",
      "admin_level": "5",
      "IBGE:GEOCODIGO": "2601"
    }
  },
  {
    "osm_id": -11075266,
    "boundary": "administrative",
    "admin_level": 5,
    "parents": "-315173,-3073228,-59470",
    "name": "Região Geográfica Intermediária de Pouso Alegre",
    "local_name": "Região Geográfica Intermediária de Pouso Alegre",
    "name_en": null,
    "all_tags": {
      "name": "Região Geográfica Intermediária de Pouso Alegre",
      "boundary": "administrative",
      "way_area": "1.81461",
      "wikidata": "Q65171434",
      "wikipedia": "pt:Região Geográfica Intermediária de Pouso Alegre",
      "admin_level": "5",
      "IBGE:GEOCODIGO": "3109"
    }
  },
  {
    "osm_id": -5155951,
    "boundary": "administrative",
    "admin_level": 5,
    "parents": "-302635,-3360429,-59470",
    "name": "Região Geográfica Intermediária de Crateús",
    "local_name": "Região Geográfica Intermediária de Crateús",
    "name_en": null,
    "all_tags": {
      "name": "Região Geográfica Intermediária de Crateús",
      "boundary": "administrative",
      "way_area": "1.76163",
      "wikidata": "Q56347125",
      "wikipedia": "pt:Região Geográfica Intermediária de Crateús",
      "admin_level": "5",
      "IBGE:GEOCODIGO": "2305"
    }
  },
  {
    "osm_id": -11074971,
    "boundary": "administrative",
    "admin_level": 5,
    "parents": "-362413,-3360429,-59470",
    "name": "Região Geográfica Intermediária de Santo Antônio de Jesus",
    "local_name": "Região Geográfica Intermediária de Santo Antônio de Jesus",
    "name_en": null,
    "all_tags": {
      "name": "Região Geográfica Intermediária de Santo Antônio de Jesus",
      "boundary": "administrative",
      "way_area": "1.27586",
      "wikidata": "Q65174489",
      "wikipedia": "pt:Região Geográfica Intermediária de Santo Antônio de Jesus",
      "admin_level": "5",
      "IBGE:GEOCODIGO": "2902"
    }
  },
  {
    "osm_id": -5138413,
    "boundary": "administrative",
    "admin_level": 5,
    "parents": "-303781,-3360429,-59470",
    "name": "Região Geográfica Intermediária de Arapiraca",
    "local_name": "Região Geográfica Intermediária de Arapiraca",
    "name_en": null,
    "all_tags": {
      "name": "Região Geográfica Intermediária de Arapiraca",
      "boundary": "administrative",
      "way_area": "1.22696",
      "wikidata": "Q65171796",
      "wikipedia": "pt:Região Geográfica Intermediária de Arapiraca",
      "admin_level": "5",
      "IBGE:GEOCODIGO": "2702"
    }
  },
  {
    "osm_id": -5139595,
    "boundary": "administrative",
    "admin_level": 5,
    "parents": "-303940,-3360429,-59470",
    "name": "Região Geográfica Intermediária de Itabaiana",
    "local_name": "Região Geográfica Intermediária de Itabaiana",
    "name_en": null,
    "all_tags": {
      "name": "Região Geográfica Intermediária de Itabaiana",
      "boundary": "administrative",
      "way_area": "1.02082",
      "wikidata": "Q65168186",
      "wikipedia": "pt:Região Geográfica Intermediária de Itabaiana",
      "admin_level": "5",
      "IBGE:GEOCODIGO": "2802"
    }
  },
  {
    "osm_id": -4097612,
    "boundary": "administrative",
    "admin_level": 5,
    "parents": "-296584,-2844750,-59470",
    "name": "Região Geográfica Intermediária de Florianópolis",
    "local_name": "Região Geográfica Intermediária de Florianópolis",
    "name_en": null,
    "all_tags": {
      "name": "Região Geográfica Intermediária de Florianópolis",
      "boundary": "administrative",
      "way_area": "0.550064",
      "wikidata": "Q65170705",
      "wikipedia": "pt:Região Geográfica Intermediária de Florianópolis",
      "admin_level": "5",
      "IBGE:GEOCODIGO": "4201"
    }
  },
  {
    "osm_id": -4748699,
    "boundary": "administrative",
    "admin_level": 5,
    "parents": "-325866,-3360778,-59470",
    "name": "Região Geográfica Intermediária de Porto Velho",
    "local_name": "Região Geográfica Intermediária de Porto Velho",
    "name_en": null,
    "all_tags": {
      "name": "Região Geográfica Intermediária de Porto Velho",
      "boundary": "administrative",
      "way_area": "10.3104",
      "wikidata": "Q65173781",
      "wikipedia": "pt:Região Geográfica Intermediária de Porto Velho",
      "admin_level": "5",
      "IBGE:GEOCODIGO": "1101"
    }
  },
  {
    "osm_id": -11074792,
    "boundary": "administrative",
    "admin_level": 5,
    "parents": "-334443,-3359944,-59470",
    "name": "Região Geográfica Intermediária de Itumbiara",
    "local_name": "Região Geográfica Intermediária de Itumbiara",
    "name_en": null,
    "all_tags": {
      "name": "Região Geográfica Intermediária de Itumbiara",
      "boundary": "administrative",
      "way_area": "1.92608",
      "wikidata": "Q56346693",
      "wikipedia": "pt:Região Geográfica Intermediária de Itumbiara",
      "admin_level": "5",
      "IBGE:GEOCODIGO": "5202"
    }
  },
  {
    "osm_id": -2662001,
    "boundary": "administrative",
    "admin_level": 6,
    "parents": "-2844354,-242620,-2844750,-59470",
    "name": "Aglomeração Urbana do Litoral Norte",
    "local_name": "Aglomeração Urbana do Litoral Norte",
    "name_en": null,
    "all_tags": {
      "name": "Aglomeração Urbana do Litoral Norte",
      "boundary": "administrative",
      "way_area": "0.475687",
      "wikidata": "Q20060177",
      "wikipedia": "pt:Aglomeração urbana do Litoral Norte",
      "admin_level": "6"
    }
  },
  {
    "osm_id": -4097613,
    "boundary": "administrative",
    "admin_level": 5,
    "parents": "-296584,-2844750,-59470",
    "name": "Região Geográfica Intermediária de Criciúma",
    "local_name": "Região Geográfica Intermediária de Criciúma",
    "name_en": null,
    "all_tags": {
      "name": "Região Geográfica Intermediária de Criciúma",
      "place": "region",
      "boundary": "administrative",
      "way_area": "0.867675",
      "wikidata": "Q65170703",
      "wikipedia": "pt:Região Geográfica Intermediária de Criciúma",
      "admin_level": "5",
      "IBGE:GEOCODIGO": "4202"
    }
  },
  {
    "osm_id": -4730498,
    "boundary": "administrative",
    "admin_level": 5,
    "parents": "-297640,-2844750,-59470",
    "name": "Região Geográfica Intermediária de Ponta Grossa",
    "local_name": "Região Geográfica Intermediária de Ponta Grossa",
    "name_en": null,
    "all_tags": {
      "name": "Região Geográfica Intermediária de Ponta Grossa",
      "boundary": "administrative",
      "way_area": "2.65795",
      "wikidata": "Q65170725",
      "wikipedia": "pt:Região Geográfica Intermediária de Ponta Grossa",
      "admin_level": "5",
      "IBGE:GEOCODIGO": "4106"
    }
  },
  {
    "osm_id": -2661853,
    "boundary": "administrative",
    "admin_level": 6,
    "parents": "-4807856,-298204,-3073228,-59470",
    "name": "Região Metropolitana da Baixada Santista",
    "local_name": "Região Metropolitana da Baixada Santista",
    "name_en": null,
    "all_tags": {
      "name": "Região Metropolitana da Baixada Santista",
      "boundary": "administrative",
      "way_area": "0.216506",
      "wikidata": "Q804027",
      "wikipedia": "pt:Região Metropolitana da Baixada Santista",
      "short_name": "RMBS",
      "admin_level": "6"
    }
  },
  {
    "osm_id": -4873344,
    "boundary": "administrative",
    "admin_level": 5,
    "parents": "-334443,-3359944,-59470",
    "name": "Região Geográfica Intermediária de Porangatu-Uruaçu",
    "local_name": "Região Geográfica Intermediária de Porangatu-Uruaçu",
    "name_en": null,
    "all_tags": {
      "name": "Região Geográfica Intermediária de Porangatu-Uruaçu",
      "boundary": "administrative",
      "way_area": "5.53442",
      "wikidata": "Q56350910",
      "wikipedia": "pt:Região Geográfica Intermediária de Porangatu-Uruaçu",
      "admin_level": "5",
      "IBGE:GEOCODIGO": "5205"
    }
  },
  {
    "osm_id": -5129433,
    "boundary": "administrative",
    "admin_level": 5,
    "parents": "-332924,-3360429,-59470",
    "name": "Região Geográfica Intermediária de Imperatriz",
    "local_name": "Região Geográfica Intermediária de Imperatriz",
    "name_en": null,
    "all_tags": {
      "name": "Região Geográfica Intermediária de Imperatriz",
      "boundary": "administrative",
      "way_area": "10.7674",
      "wikidata": "Q61002712",
      "wikipedia": "pt:Região Geográfica Intermediária de Imperatriz",
      "admin_level": "5",
      "IBGE:GEOCODIGO": "2105"
    }
  },
  {
    "osm_id": -5130759,
    "boundary": "administrative",
    "admin_level": 5,
    "parents": "-332924,-3360429,-59470",
    "name": "Região Geográfica Intermediária de Santa Inês-Bacabal",
    "local_name": "Região Geográfica Intermediária de Santa Inês-Bacabal",
    "name_en": null,
    "all_tags": {
      "name": "Região Geográfica Intermediária de Santa Inês-Bacabal",
      "boundary": "administrative",
      "way_area": "5.1513",
      "wikidata": "Q61002706",
      "wikipedia": "pt:Região Geográfica Intermediária de Santa Inês-Bacabal",
      "admin_level": "5",
      "IBGE:GEOCODIGO": "2102"
    }
  },
  {
    "osm_id": -4830230,
    "boundary": "administrative",
    "admin_level": 5,
    "parents": "-185579,-3360778,-59470",
    "name": "Região Geográfica Intermediária de Castanhal",
    "local_name": "Região Geográfica Intermediária de Castanhal",
    "name_en": null,
    "all_tags": {
      "name": "Região Geográfica Intermediária de Castanhal",
      "boundary": "administrative",
      "way_area": "5.84708",
      "wikidata": "Q61000243",
      "wikipedia": "pt:Região Geográfica Intermediária de Castanhal",
      "admin_level": "5",
      "IBGE:GEOCODIGO": "1502"
    }
  },
  {
    "osm_id": -2235307,
    "boundary": "administrative",
    "admin_level": 5,
    "parents": "-315173,-3073228,-59470",
    "name": "Região Geográfica Intermediária de Governador Valadares",
    "local_name": "Região Geográfica Intermediária de Governador Valadares",
    "name_en": null,
    "all_tags": {
      "name": "Região Geográfica Intermediária de Governador Valadares",
      "boundary": "administrative",
      "way_area": "2.23163",
      "wikidata": "Q65171427",
      "wikipedia": "pt:Região Geográfica Intermediária de Governador Valadares",
      "admin_level": "5",
      "IBGE:GEOCODIGO": "3104"
    }
  },
  {
    "osm_id": -4555377,
    "boundary": "administrative",
    "admin_level": 5,
    "parents": "-362413,-3360429,-59470",
    "name": "Região Geográfica Intermediária de Salvador",
    "local_name": "Região Geográfica Intermediária de Salvador",
    "name_en": null,
    "all_tags": {
      "name": "Região Geográfica Intermediária de Salvador",
      "boundary": "administrative",
      "way_area": "1.48977",
      "wikidata": "Q65170019",
      "wikipedia": "pt:Região Geográfica Intermediária de Salvador",
      "admin_level": "5",
      "IBGE:GEOCODIGO": "2901"
    }
  },
  {
    "osm_id": -4504163,
    "boundary": "administrative",
    "admin_level": 5,
    "parents": "-301464,-3360429,-59470",
    "name": "Região Geográfica Intermediária de Patos",
    "local_name": "Região Geográfica Intermediária de Patos",
    "name_en": null,
    "all_tags": {
      "name": "Região Geográfica Intermediária de Patos",
      "boundary": "administrative",
      "way_area": "1.52563",
      "wikidata": "Q48877566",
      "wikipedia": "pt:Região Geográfica Intermediária de Patos",
      "admin_level": "5",
      "IBGE:GEOCODIGO": "2503"
    }
  },
  {
    "osm_id": -303781,
    "boundary": "administrative",
    "admin_level": 4,
    "parents": "-3360429,-59470",
    "name": "Alagoas",
    "local_name": "Alagoas",
    "name_en": "Alagoas",
    "all_tags": {
      "ref": "AL",
      "flag": "https://upload.wikimedia.org/wikipedia/commons/8/88/Bandeira_de_Alagoas.svg",
      "name": "Alagoas",
      "name:ar": "ألاغواس",
      "name:be": "Алагоас",
      "name:bg": "Алагоас",
      "name:de": "Alagoas",
      "name:en": "Alagoas",
      "name:eo": "Alagoaso",
      "name:fa": "آلاگواس",
      "name:he": "אלגואס",
      "name:hi": "अलागोआस",
      "name:hy": "Ալագոաս",
      "name:ja": "アラゴアス",
      "name:ka": "ალაგოასი",
      "name:ko": "알라고아스",
      "name:la": "Alacunae",
      "name:lt": "Alagoasas",
      "name:lv": "Alagoasa",
      "name:mk": "Алагојас",
      "name:mr": "आलागोआस",
      "name:os": "Алагоас",
      "name:pl": "Alagoas",
      "name:pt": "Alagoas",
      "name:ru": "Алагоас",
      "name:sr": "Алагоас",
      "name:tg": "Алагоас",
      "name:th": "อาลาโกอัส",
      "name:uk": "Алагоас",
      "name:zh": "阿拉戈斯",
      "website": "http://www.agenciaalagoas.al.gov.br/",
      "boundary": "administrative",
      "timezone": "America/Maceio",
      "way_area": "2.73026",
      "wikidata": "Q40885",
      "ISO3166-2": "BR-AL",
      "wikipedia": "pt:Alagoas",
      "short_name": "AL",
      "admin_level": "4",
      "is_in:country": "Brazil",
      "IBGE:GEOCODIGO": "27"
    }
  },
  {
    "osm_id": -4504153,
    "boundary": "administrative",
    "admin_level": 6,
    "parents": "-1216662,-301464,-3360429,-59470",
    "name": "Região Metropolitana de João Pessoa",
    "local_name": "Região Metropolitana de João Pessoa",
    "name_en": null,
    "all_tags": {
      "name": "Região Metropolitana de João Pessoa",
      "boundary": "administrative",
      "way_area": "0.228204",
      "wikidata": "Q1405120",
      "wikipedia": "pt:Região Metropolitana de João Pessoa",
      "admin_level": "6"
    }
  },
  {
    "osm_id": -362413,
    "boundary": "administrative",
    "admin_level": 4,
    "parents": "-3360429,-59470",
    "name": "Bahia",
    "local_name": "Bahia",
    "name_en": "Bahia",
    "all_tags": {
      "ref": "BA",
      "flag": "https://upload.wikimedia.org/wikipedia/commons/2/28/Bandeira_da_Bahia.svg",
      "name": "Bahia",
      "name:ar": "باهيا",
      "name:be": "Баія",
      "name:bg": "Баия",
      "name:de": "Bahia",
      "name:en": "Bahia",
      "name:eo": "Bahio",
      "name:es": "Bahía",
      "name:fa": "باهیا",
      "name:gl": "Baía",
      "name:he": "באהיה",
      "name:hi": "बाहिया",
      "name:hy": "Բաիա",
      "name:ja": "バイーア",
      "name:ka": "ბაია",
      "name:ko": "바이아",
      "name:lt": "Bahija",
      "name:lv": "Baija",
      "name:mk": "Баја",
      "name:mr": "बाईया",
      "name:os": "Баия",
      "name:pl": "Bahia",
      "name:pt": "Bahia",
      "name:ru": "Баия",
      "name:sr": "Баија",
      "name:tg": "Баия",
      "name:th": "บาเยีย",
      "name:uk": "Баїя",
      "name:uz": "Baiya",
      "name:zh": "巴伊亚",
      "website": "http://www.ba.gov.br/",
      "boundary": "administrative",
      "timezone": "America/Bahia",
      "way_area": "49.0826",
      "wikidata": "Q40430",
      "ISO3166-2": "BR-BA",
      "wikipedia": "pt:Bahia",
      "short_name": "BA",
      "admin_level": "4",
      "is_in:country": "Brazil",
      "IBGE:GEOCODIGO": "29"
    }
  },
  {
    "osm_id": -326266,
    "boundary": "administrative",
    "admin_level": 4,
    "parents": "-3360778,-59470",
    "name": "Acre",
    "local_name": "Acre",
    "name_en": "Acre",
    "all_tags": {
      "ref": "AC",
      "flag": "https://upload.wikimedia.org/wikipedia/commons/4/4c/Bandeira_do_Acre.svg",
      "name": "Acre",
      "name:ar": "أكري",
      "name:be": "Акры",
      "name:bg": "Акри",
      "name:de": "Acre",
      "name:en": "Acre",
      "name:eo": "Akro",
      "name:fa": "اکری",
      "name:gn": "Akre",
      "name:he": "אקרי",
      "name:hi": "आक्री",
      "name:hy": "Ակրի",
      "name:ja": "アクレ",
      "name:ka": "აკრი",
      "name:ko": "아크리",
      "name:lt": "Akrė",
      "name:lv": "Akri",
      "name:mk": "Акре",
      "name:ml": "അക്രേ",
      "name:mr": "आक्रे",
      "name:os": "Акри",
      "name:pl": "Acre",
      "name:pt": "Acre",
      "name:qu": "Aqri",
      "name:ru": "Акри",
      "name:sr": "Акре",
      "name:tg": "Акри",
      "name:th": "อาเกร",
      "name:uk": "Акрі",
      "name:uz": "Akri",
      "name:zh": "阿克里",
      "website": "http://www.ac.gov.br/",
      "boundary": "administrative",
      "timezone": "America/Rio_Branco",
      "way_area": "13.5013",
      "wikidata": "Q40780",
      "ISO3166-2": "BR-AC",
      "wikipedia": "pt:Acre",
      "short_name": "AC",
      "admin_level": "4",
      "is_in:country": "Brazil",
      "IBGE:GEOCODIGO": "12"
    }
  },
  {
    "osm_id": -332476,
    "boundary": "administrative",
    "admin_level": 4,
    "parents": "-3360778,-59470",
    "name": "Amazonas",
    "local_name": "Amazonas",
    "name_en": "Amazonas",
    "all_tags": {
      "ref": "AM",
      "flag": "https://upload.wikimedia.org/wikipedia/commons/6/6b/Bandeira_do_Amazonas.svg",
      "name": "Amazonas",
      "name:ar": "الأمازون",
      "name:be": "Амазонас",
      "name:bg": "Амазонас",
      "name:ca": "Amazones",
      "name:de": "Amazonas",
      "name:en": "Amazonas",
      "name:eo": "Amazonio",
      "name:fa": "آمازوناس",
      "name:he": "אמזונאס",
      "name:hi": "आमेज़ोनास",
      "name:hy": "Ամազոնաս",
      "name:ja": "アマゾナス",
      "name:ka": "ამაზონასი",
      "name:ko": "아마조나스",
      "name:la": "Amazones",
      "name:lt": "Amazonė",
      "name:lv": "Amazonasa",
      "name:mk": "Амазон",
      "name:mr": "अमेझोनास",
      "name:os": "Амазонас",
      "name:pl": "Amazonas",
      "name:pt": "Amazonas",
      "name:qu": "Amarumayu",
      "name:ru": "Амазонас",
      "name:sr": "Амазонас",
      "name:tg": "Амазонас",
      "name:th": "อามาโซนัส",
      "name:uk": "Амазонас",
      "name:zh": "亚马孙",
      "website": "http://www.amazonas.am.gov.br/",
      "boundary": "administrative",
      "way_area": "127.092",
      "wikidata": "Q40040",
      "ISO3166-2": "BR-AM",
      "wikipedia": "pt:Amazonas",
      "short_name": "AM",
      "admin_level": "4",
      "is_in:country": "Brazil",
      "IBGE:GEOCODIGO": "13"
    }
  },
  {
    "osm_id": -302635,
    "boundary": "administrative",
    "admin_level": 4,
    "parents": "-3360429,-59470",
    "name": "Ceará",
    "local_name": "Ceará",
    "name_en": "Ceará",
    "all_tags": {
      "ref": "CE",
      "flag": "https://upload.wikimedia.org/wikipedia/commons/2/2e/Bandeira_do_Cear%C3%A1.svg",
      "name": "Ceará",
      "name:ar": "سيارا",
      "name:be": "Сеара",
      "name:bg": "Сеара",
      "name:de": "Ceará",
      "name:en": "Ceará",
      "name:eo": "Cearao",
      "name:fa": "سئارا",
      "name:gn": "Ceara",
      "name:he": "סיארה",
      "name:hi": "सियारा",
      "name:hy": "Սեարա",
      "name:ja": "セアラー",
      "name:ka": "სეარა",
      "name:ko": "세아라",
      "name:la": "Ceara",
      "name:lt": "Seara",
      "name:lv": "Seara",
      "name:mk": "Сеара",
      "name:mr": "सियारा",
      "name:os": "Сеара",
      "name:pl": "Ceará",
      "name:pt": "Ceará",
      "name:ru": "Сеара",
      "name:sh": "Seara",
      "name:sr": "Сеара",
      "name:tg": "Сеара",
      "name:th": "เซอารา",
      "name:uk": "Сеара",
      "name:uz": "Seera",
      "name:zh": "塞阿腊",
      "website": "https://www.ceara.gov.br/",
      "boundary": "administrative",
      "timezone": "America/Fortaleza",
      "way_area": "13.1996",
      "wikidata": "Q40123",
      "ISO3166-2": "BR-CE",
      "wikipedia": "pt:Ceará",
      "short_name": "CE",
      "admin_level": "4",
      "is_in:country": "Brazil",
      "IBGE:GEOCODIGO": "23"
    }
  },
  {
    "osm_id": -54882,
    "boundary": "administrative",
    "admin_level": 4,
    "parents": "-3073228,-59470",
    "name": "Espírito Santo",
    "local_name": "Espírito Santo",
    "name_en": "Espírito Santo",
    "all_tags": {
      "ref": "ES",
      "flag": "https://upload.wikimedia.org/wikipedia/commons/4/43/Bandeira_do_Esp%C3%ADrito_Santo.svg",
      "name": "Espírito Santo",
      "name:ar": "إسبيريتو سانتو",
      "name:be": "Эспірыту-Санту",
      "name:bg": "Еспирито Санто",
      "name:de": "Espírito Santo",
      "name:en": "Espírito Santo",
      "name:eo": "Espirito-Santo",
      "name:fa": "اسپیریتو سانتو",
      "name:he": "אספיריטו סאנטו",
      "name:hi": "एस्पिरितो सान्तो",
      "name:hy": "Էսպիրիտու Սանտու",
      "name:ja": "エスピリト サント",
      "name:ka": "ესპირიტუ-სანტუ",
      "name:ko": "이스피리투산투",
      "name:ku": "Espirito Santo",
      "name:la": "Spiritus Sanctus",
      "name:lv": "Espiritu Santu",
      "name:mk": "Еспирито Санто",
      "name:mr": "एस्पिरितो सांतो",
      "name:os": "Эспириту-Санту",
      "name:pl": "Espírito Santo",
      "name:pt": "Espírito Santo",
      "name:qu": "Ch'uya Ispiritu",
      "name:ru": "Эспириту-Санту",
      "name:sh": "Espiritu Santu",
      "name:sr": "Еспирито Санто",
      "name:tg": "Эспириту Санту",
      "name:th": "เอสปีรีตูซานตู",
      "name:uk": "Еспіріту-Санту",
      "name:uz": "Espiritu-Santu",
      "name:zh": "圣埃斯皮里图",
      "website": "http://www.es.gov.br/",
      "boundary": "administrative",
      "timezone": "America/Sao_Paulo",
      "way_area": "5.15616",
      "wikidata": "Q43233",
      "ISO3166-2": "BR-ES",
      "wikipedia": "pt:Espírito Santo (estado)",
      "short_name": "ES",
      "admin_level": "4",
      "is_in:country": "Brazil",
      "IBGE:GEOCODIGO": "32"
    }
  },
  {
    "osm_id": -334051,
    "boundary": "administrative",
    "admin_level": 4,
    "parents": "-3359944,-59470",
    "name": "Mato Grosso do Sul",
    "local_name": "Mato Grosso do Sul",
    "name_en": "Mato Grosso do Sul",
    "all_tags": {
      "ref": "MS",
      "flag": "https://upload.wikimedia.org/wikipedia/commons/6/64/Bandeira_de_Mato_Grosso_do_Sul.svg",
      "name": "Mato Grosso do Sul",
      "name:ar": "ماتو غروسو دو سول",
      "name:be": "Мату-Гросу-ду-Сул",
      "name:bg": "Мато Гросо до Сул",
      "name:de": "Mato Grosso do Sul",
      "name:en": "Mato Grosso do Sul",
      "name:eo": "Suda Mato-Groso",
      "name:es": "Mato Grosso del Sur",
      "name:eu": "Hegoaldeko Mato Grosso",
      "name:fa": "ماتوگروسو جنوبی",
      "name:gl": "Mato Groso do Sur",
      "name:he": "מאטו גרוסו דו סול",
      "name:hi": "मातो ग्रोसो दो सुल",
      "name:hy": "Մատու Գրոսու դու Սուլ",
      "name:ja": "マットグロッソ・ド・スル",
      "name:ka": "მატუ-გროსუ-დუ-სული",
      "name:ko": "마투그로수두술",
      "name:la": "Silva Crassa Meridionalis",
      "name:lt": "Pietų Mato Grosas",
      "name:lv": "Matugrosu du Sula",
      "name:mk": "Јужна Мато Грошо",
      "name:mr": "मातो ग्रोसो दो सुल",
      "name:os": "Мату-Гросу-ду-Сул",
      "name:pl": "Mato Grosso do Sul",
      "name:pt": "Mato Grosso do Sul",
      "name:qu": "Urin Mato Grosso",
      "name:ru": "Мату-Гросу-ду-Сул",
      "name:sh": "Matu Grosu du Sul",
      "name:sr": "Мато Гросо до Сул",
      "name:tg": "Мату Гросу ду Сул",
      "name:th": "มาตูโกรสซูโดซูล",
      "name:uk": "Мату-Гросу-ду-Сул",
      "name:uz": "Matu-Grosu-du-Sul",
      "name:zh": "南马托格罗索",
      "website": "http://www.ms.gov.br/",
      "boundary": "administrative",
      "timezone": "America/Campo_Grande",
      "way_area": "30.902",
      "wikidata": "Q43319",
      "ISO3166-2": "BR-MS",
      "wikipedia": "pt:Mato Grosso do Sul",
      "short_name": "MS",
      "admin_level": "4",
      "is_in:country": "Brazil",
      "IBGE:GEOCODIGO": "50"
    }
  },
  {
    "osm_id": -185579,
    "boundary": "administrative",
    "admin_level": 4,
    "parents": "-3360778,-59470",
    "name": "Pará",
    "local_name": "Pará",
    "name_en": "Pará",
    "all_tags": {
      "ref": "PA",
      "flag": "https://upload.wikimedia.org/wikipedia/commons/0/02/Bandeira_do_Par%C3%A1.svg",
      "name": "Pará",
      "name:ar": "بارا",
      "name:be": "Пара",
      "name:bg": "Пара",
      "name:de": "Pará",
      "name:en": "Pará",
      "name:eo": "Parao",
      "name:fa": "پارا",
      "name:gn": "Para",
      "name:he": "פארה",
      "name:hy": "Պարա",
      "name:ja": "パラー",
      "name:ka": "პარა",
      "name:ko": "파라",
      "name:la": "Para",
      "name:lt": "Para",
      "name:lv": "Para",
      "name:mk": "Пара",
      "name:mr": "पारा",
      "name:os": "Пара",
      "name:pl": "Pará",
      "name:pt": "Pará",
      "name:ru": "Пара",
      "name:sh": "Para",
      "name:sr": "Пара",
      "name:tg": "Пара",
      "name:th": "ปารา",
      "name:uk": "Пара",
      "name:uz": "Para",
      "name:zh": "帕拉",
      "website": "http://www.pa.gov.br/",
      "boundary": "administrative",
      "way_area": "104.106",
      "wikidata": "Q39517",
      "ISO3166-2": "BR-PA",
      "wikipedia": "pt:Pará",
      "short_name": "PA",
      "admin_level": "4",
      "is_in:country": "Brazil",
      "IBGE:GEOCODIGO": "15"
    }
  },
  {
    "osm_id": -5145179,
    "boundary": "administrative",
    "admin_level": 5,
    "parents": "-302819,-3360429,-59470",
    "name": "Região Geográfica Intermediária de São Raimundo Nonato",
    "local_name": "Região Geográfica Intermediária de São Raimundo Nonato",
    "name_en": null,
    "all_tags": {
      "name": "Região Geográfica Intermediária de São Raimundo Nonato",
      "boundary": "administrative",
      "way_area": "2.26666",
      "wikidata": "Q65169683",
      "wikipedia": "pt:Região Geográfica Intermediária de São Raimundo Nonato",
      "admin_level": "5",
      "IBGE:GEOCODIGO": "2204"
    }
  },
  {
    "osm_id": -4813388,
    "boundary": "administrative",
    "admin_level": 5,
    "parents": "-326287,-3360778,-59470",
    "name": "Região Geográfica Intermediária de Rorainópolis-Caracaraí",
    "local_name": "Região Geográfica Intermediária de Rorainópolis-Caracaraí",
    "name_en": null,
    "all_tags": {
      "name": "Região Geográfica Intermediária de Rorainópolis-Caracaraí",
      "boundary": "administrative",
      "way_area": "9.18389",
      "wikidata": "Q56346744",
      "wikipedia": "pt:Região Geográfica Intermediária de Rorainópolis-Caracaraí",
      "admin_level": "5",
      "IBGE:GEOCODIGO": "1402"
    }
  },
  {
    "osm_id": -301079,
    "boundary": "administrative",
    "admin_level": 4,
    "parents": "-3360429,-59470",
    "name": "Rio Grande do Norte",
    "local_name": "Rio Grande do Norte",
    "name_en": "Rio Grande do Norte",
    "all_tags": {
      "ref": "RN",
      "flag": "https://upload.wikimedia.org/wikipedia/commons/3/30/Bandeira_do_Rio_Grande_do_Norte.svg",
      "name": "Rio Grande do Norte",
      "name:ar": "ريو غراندي دو نورتي",
      "name:be": "Рыу-Гранды-ду-Норты",
      "name:bg": "Рио Гранди до Норти",
      "name:de": "Rio Grande do Norte",
      "name:en": "Rio Grande do Norte",
      "name:eo": "Norda Rio-Grando",
      "name:es": "Río Grande del Norte",
      "name:eu": "Iparraldeko Rio Grande",
      "name:fa": "ریو گرانده شمالی",
      "name:gl": "Río Grande do Norte",
      "name:he": "ריו גראנדה דו נורטה",
      "name:hi": "रियो ग्रांदे दो नॉर्ते",
      "name:hy": "Ռիու Գրանդի դու Նորտի",
      "name:ja": "リオグランデ・ド・ノルテ",
      "name:ka": "რიუ-გრანდი-დუ-ნორტი",
      "name:ko": "히우그란지두노르치",
      "name:la": "Flumen Magnum Septentrionale",
      "name:lt": "Šiaurės Rio Grandė",
      "name:lv": "Riugrandi du Norti",
      "name:mk": "Северна Рио Гранџе",
      "name:mr": "Северна Рио Гранџе",
      "name:os": "Риу-Гранди-ду-Норти",
      "name:pl": "Rio Grande do Norte",
      "name:pt": "Rio Grande do Norte",
      "name:qu": "Chinchay Hatunmayu",
      "name:ru": "Риу-Гранди-ду-Норти",
      "name:sh": "Rio Grandi du Norti",
      "name:sr": "Рио Гранде до Норте",
      "name:tg": "Риу Гранди ду Норти",
      "name:th": "รีโอกรันดีโดนอร์เต",
      "name:uk": "Ріу-Гранді-ду-Норті",
      "name:uz": "Riu-Grandi-du-Norti",
      "name:zh": "北里约格朗德",
      "website": "http://www.rn.gov.br/",
      "boundary": "administrative",
      "timezone": "America/Fortaleza",
      "way_area": "5.16796",
      "wikidata": "Q43255",
      "ISO3166-2": "BR-RN",
      "wikipedia": "pt:Rio Grande do Norte",
      "short_name": "RN",
      "admin_level": "4",
      "is_in:country": "Brazil",
      "IBGE:GEOCODIGO": "24"
    }
  },
  {
    "osm_id": -4807763,
    "boundary": "administrative",
    "admin_level": 6,
    "parents": "-4807469,-298204,-3073228,-59470",
    "name": "Região Metropolitana de Sorocaba",
    "local_name": "Região Metropolitana de Sorocaba",
    "name_en": null,
    "all_tags": {
      "name": "Região Metropolitana de Sorocaba",
      "boundary": "administrative",
      "way_area": "1.02743",
      "short_name": "RMS",
      "admin_level": "6"
    }
  },
  {
    "osm_id": -57963,
    "boundary": "administrative",
    "admin_level": 4,
    "parents": "-3073228,-59470",
    "name": "Rio de Janeiro",
    "local_name": "Rio de Janeiro",
    "name_en": "Rio de Janeiro",
    "all_tags": {
      "ref": "RJ",
      "flag": "https://upload.wikimedia.org/wikipedia/commons/7/73/Bandeira_do_estado_do_Rio_de_Janeiro.svg",
      "name": "Rio de Janeiro",
      "name:am": "ሪዮ ዴ ጃኔይሮ",
      "name:ar": "ريو دي جانيرو",
      "name:az": "Rio de Janeyro",
      "name:ba": "Рио-де-Жанейро",
      "name:be": "Рыа-дэ-Жанэйра",
      "name:bg": "Рио де Жанейро",
      "name:bn": "রিউ দি জানেইরু",
      "name:ce": "Рио-де-Жанейро",
      "name:cv": "Рио-де-Жанейро",
      "name:de": "Rio de Janeiro",
      "name:el": "Ρίο ντε Τζανέιρο",
      "name:en": "Rio de Janeiro",
      "name:eo": "Rio-de-Ĵanejro",
      "name:es": "Río de Janeiro",
      "name:fa": "ریودو ژانیرو",
      "name:fy": "Rio de Janêro",
      "name:gl": "Río de Xaneiro",
      "name:he": "ריו דה ז'ניירו",
      "name:hi": "रियो डि जेनेरो",
      "name:hy": "Ռիո դե Ժանեյրո",
      "name:ja": "リオ デ ジャネイロ",
      "name:ka": "რიო-დე-ჟანეირო",
      "name:kk": "Рио-де-Жанейро",
      "name:ko": "리우데자네이루",
      "name:ky": "Рио-де-Жанейро",
      "name:la": "Flumen Ianuarii",
      "name:lt": "Rio de Žaneiras",
      "name:lv": "Riodežaneiro",
      "name:mk": "Рио де Жанеиро",
      "name:ml": "റിയോ ഡി ജനീറോ",
      "name:mn": "Рио-де-Жанейро",
      "name:mr": "रियो दि जानेरो",
      "name:os": "Рио-де-Жанейро",
      "name:pa": "ਰਿਓ ਡੀ ਜਨੇਰੋ",
      "name:pl": "Rio de Janeiro",
      "name:pt": "Rio de Janeiro",
      "name:ru": "Рио-де-Жанейро",
      "name:sh": "Rio de Žaneiro",
      "name:sq": "Rio de Zhaneiro",
      "name:sr": "Рио де Жанеиро",
      "name:ta": "இரியோ டி செனீரோ",
      "name:tg": "Рио-де-Жанейро",
      "name:th": "รีโอเดจาเนโร",
      "name:tk": "Rio-de-Žaneýro",
      "name:tt": "Рио-де-Жанейро",
      "name:ug": "Rio dé Janéyro",
      "name:uk": "Ріо-де-Жанейро",
      "name:ur": "ریو دے جینیرو",
      "name:uz": "Rio-de-Janeyro",
      "name:yi": "ריא דע זשאנערא",
      "name:zh": "里约热内卢",
      "website": "http://www.rj.gov.br/",
      "boundary": "administrative",
      "timezone": "America/Sao_Paulo",
      "way_area": "5.42077",
      "wikidata": "Q41428",
      "ISO3166-2": "BR-RJ",
      "wikipedia": "pt:Rio de Janeiro (estado)",
      "short_name": "RJ",
      "admin_level": "4",
      "alt_name:gl": "Rio de Janeiro",
      "wikipedia:gl": "Estado do Río de Xaneiro",
      "is_in:country": "Brazil",
      "IBGE:GEOCODIGO": "33"
    }
  },
  {
    "osm_id": -2235304,
    "boundary": "administrative",
    "admin_level": 5,
    "parents": "-315173,-3073228,-59470",
    "name": "Região Geográfica Intermediária de Varginha",
    "local_name": "Região Geográfica Intermediária de Varginha",
    "name_en": null,
    "all_tags": {
      "name": "Região Geográfica Intermediária de Varginha",
      "boundary": "administrative",
      "way_area": "3.2018",
      "wikidata": "Q65171441",
      "wikipedia": "pt:Região Geográfica Intermediária de Varginha",
      "admin_level": "5",
      "is_in:country": "Brazil",
      "IBGE:GEOCODIGO": "3108"
    }
  },
  {
    "osm_id": -4775721,
    "boundary": "administrative",
    "admin_level": 5,
    "parents": "-332476,-3360778,-59470",
    "name": "Região Geográfica Intermediária de Parintins",
    "local_name": "Região Geográfica Intermediária de Parintins",
    "name_en": null,
    "all_tags": {
      "name": "Região Geográfica Intermediária de Parintins",
      "boundary": "administrative",
      "way_area": "10.3156",
      "wikidata": "Q56346731",
      "wikipedia": "pt:Região Geográfica Intermediária de Parintins",
      "admin_level": "5",
      "IBGE:GEOCODIGO": "1304"
    }
  },
  {
    "osm_id": -4748592,
    "boundary": "administrative",
    "admin_level": 5,
    "parents": "-326266,-3360778,-59470",
    "name": "Região Geográfica Intermediária de Rio Branco",
    "local_name": "Região Geográfica Intermediária de Rio Branco",
    "name_en": null,
    "all_tags": {
      "name": "Região Geográfica Intermediária de Rio Branco",
      "boundary": "administrative",
      "way_area": "6.48655",
      "wikidata": "Q56346737",
      "wikipedia": "pt:Região Geográfica Intermediária de Rio Branco",
      "admin_level": "5",
      "IBGE:GEOCODIGO": "1201"
    }
  },
  {
    "osm_id": -4775845,
    "boundary": "administrative",
    "admin_level": 5,
    "parents": "-332476,-3360778,-59470",
    "name": "Região Geográfica Intermediária de Lábrea",
    "local_name": "Região Geográfica Intermediária de Lábrea",
    "name_en": null,
    "all_tags": {
      "name": "Região Geográfica Intermediária de Lábrea",
      "boundary": "administrative",
      "way_area": "35.0256",
      "wikidata": "Q56346725",
      "wikipedia": "pt:Região Geográfica Intermediária de Lábrea",
      "admin_level": "5",
      "IBGE:GEOCODIGO": "1303"
    }
  },
  {
    "osm_id": -11072995,
    "boundary": "administrative",
    "admin_level": 5,
    "parents": "-336819,-3360778,-59470",
    "name": "Região Geográfica Intermediária de Gurupi",
    "local_name": "Região Geográfica Intermediária de Gurupi",
    "name_en": null,
    "all_tags": {
      "name": "Região Geográfica Intermediária de Gurupi",
      "boundary": "administrative",
      "way_area": "7.21803",
      "wikidata": "Q65167698",
      "wikipedia": "pt:Região Geográfica Intermediária de Gurupi",
      "admin_level": "5",
      "IBGE:GEOCODIGO": "1703"
    }
  },
  {
    "osm_id": -2662005,
    "boundary": "administrative",
    "admin_level": 6,
    "parents": "-59470",
    "name": "Região Integrada de Desenvolvimento do Distrito Federal e Entorno",
    "local_name": "Região Integrada de Desenvolvimento do Distrito Federal e Entorno",
    "name_en": null,
    "all_tags": {
      "name": "Região Integrada de Desenvolvimento do Distrito Federal e Entorno",
      "boundary": "administrative",
      "way_area": "4.76118",
      "wikidata": "Q1444870",
      "wikipedia": "pt:Região Integrada de Desenvolvimento do Distrito Federal e Entorno",
      "admin_level": "6"
    }
  },
  {
    "osm_id": -4729310,
    "boundary": "administrative",
    "admin_level": 5,
    "parents": "-297640,-2844750,-59470",
    "name": "Região Geográfica Intermediária de Curitiba",
    "local_name": "Região Geográfica Intermediária de Curitiba",
    "name_en": null,
    "all_tags": {
      "name": "Região Geográfica Intermediária de Curitiba",
      "boundary": "administrative",
      "way_area": "2.68929",
      "wikidata": "Q65171803",
      "wikipedia": "pt:Região Geográfica Intermediária de Curitiba",
      "admin_level": "5",
      "IBGE:GEOCODIGO": "4101"
    }
  },
  {
    "osm_id": -3871700,
    "boundary": "administrative",
    "admin_level": 5,
    "parents": "-296584,-2844750,-59470",
    "name": "Região Geográfica Intermediária de Joinville",
    "local_name": "Região Geográfica Intermediária de Joinville",
    "name_en": null,
    "all_tags": {
      "name": "Região Geográfica Intermediária de Joinville",
      "place": "region",
      "boundary": "administrative",
      "way_area": "1.33552",
      "wikidata": "Q65170712",
      "wikipedia": "pt:Região Geográfica Intermediária de Joinville",
      "admin_level": "5",
      "IBGE:GEOCODIGO": "4206"
    }
  },
  {
    "osm_id": -4748686,
    "boundary": "administrative",
    "admin_level": 5,
    "parents": "-325866,-3360778,-59470",
    "name": "Região Geográfica Intermediária de Ji-Paraná",
    "local_name": "Região Geográfica Intermediária de Ji-Paraná",
    "name_en": null,
    "all_tags": {
      "name": "Região Geográfica Intermediária de Ji-Paraná",
      "boundary": "administrative",
      "way_area": "9.3535",
      "wikidata": "Q65173767",
      "wikipedia": "pt:Região Geográfica Intermediária de Ji-Paraná",
      "admin_level": "5",
      "IBGE:GEOCODIGO": "1102"
    }
  },
  {
    "osm_id": -325866,
    "boundary": "administrative",
    "admin_level": 4,
    "parents": "-3360778,-59470",
    "name": "Rondônia",
    "local_name": "Rondônia",
    "name_en": "Rondônia",
    "all_tags": {
      "ref": "RO",
      "flag": "https://upload.wikimedia.org/wikipedia/commons/f/fa/Bandeira_de_Rond%C3%B4nia.svg",
      "name": "Rondônia",
      "name:ar": "روندونيا",
      "name:be": "Рандонія",
      "name:bg": "Рондония",
      "name:de": "Rondônia",
      "name:en": "Rondônia",
      "name:eo": "Rondonio",
      "name:es": "Rondonia",
      "name:fa": "روندونیا",
      "name:gl": "Rondonia",
      "name:he": "רונדוניה",
      "name:hi": "रोन्डोनिया",
      "name:hy": "Ռոնդոնիա",
      "name:io": "Rondonia",
      "name:ja": "ロンドニア",
      "name:ka": "რონდონია",
      "name:ko": "혼도니아",
      "name:la": "Rondonia",
      "name:lt": "Rondonija",
      "name:lv": "Rondonija",
      "name:mk": "Рондонија",
      "name:mr": "रोन्द्योनिया",
      "name:os": "Рондони",
      "name:pl": "Rondônia",
      "name:pt": "Rondônia",
      "name:ru": "Рондония",
      "name:sh": "Rondonija",
      "name:sr": "Рондонија",
      "name:tg": "Рондония",
      "name:th": "รอนโดเนีย",
      "name:uk": "Рондонія",
      "name:uz": "Pondoniya",
      "name:zh": "朗多尼亚",
      "website": "http://www.rondonia.ro.gov.br/",
      "boundary": "administrative",
      "timezone": "America/Porto_Velho",
      "way_area": "19.6639",
      "wikidata": "Q43235",
      "ISO3166-2": "BR-RO",
      "wikipedia": "pt:Rondônia",
      "short_name": "RO",
      "admin_level": "4",
      "is_in:country": "Brazil",
      "IBGE:GEOCODIGO": "11"
    }
  },
  {
    "osm_id": -333597,
    "boundary": "administrative",
    "admin_level": 4,
    "parents": "-3359944,-59470",
    "name": "Mato Grosso",
    "local_name": "Mato Grosso",
    "name_en": "Mato Grosso",
    "all_tags": {
      "ref": "MT",
      "flag": "https://upload.wikimedia.org/wikipedia/commons/0/0b/Bandeira_de_Mato_Grosso.svg",
      "name": "Mato Grosso",
      "name:ar": "ماتو غروسو",
      "name:be": "Мату-Гросу",
      "name:bg": "Мато Гросо",
      "name:de": "Mato Grosso",
      "name:en": "Mato Grosso",
      "name:eo": "Mato-Groso",
      "name:fa": "ماتو گروسو",
      "name:gl": "Mato Groso",
      "name:he": "מאטו גרוסו",
      "name:hi": "मातो ग्रोसो",
      "name:hy": "Մատու Գրոսու",
      "name:ja": "マット グロッソ",
      "name:ka": "მატუ-გროსუ",
      "name:ko": "마투그로수",
      "name:la": "Silva Crassa",
      "name:lt": "Mato Grosas",
      "name:lv": "Matugrosu",
      "name:mk": "Мато Грошо",
      "name:mr": "मातो ग्रोसो",
      "name:os": "Мату-Гросу",
      "name:pl": "Mato Grosso",
      "name:pt": "Mato Grosso",
      "name:ru": "Мату-Гросу",
      "name:sh": "Matu Grosu",
      "name:sr": "Мато Гросо",
      "name:tg": "Мату Гросу",
      "name:th": "มาตูโกรสซู",
      "name:uk": "Мату-Гросу",
      "name:uz": "Matu-Grosu",
      "name:zh": "马托格罗索",
      "website": "http://www.mt.gov.br/",
      "boundary": "administrative",
      "timezone": "America/Cuiaba",
      "way_area": "75.3086",
      "wikidata": "Q42824",
      "ISO3166-2": "BR-MT",
      "wikipedia": "pt:Mato Grosso",
      "short_name": "MT",
      "admin_level": "4",
      "is_in:country": "Brazil",
      "IBGE:GEOCODIGO": "51"
    }
  },
  {
    "osm_id": -326287,
    "boundary": "administrative",
    "admin_level": 4,
    "parents": "-3360778,-59470",
    "name": "Roraima",
    "local_name": "Roraima",
    "name_en": "Roraima",
    "all_tags": {
      "ref": "RR",
      "flag": "https://upload.wikimedia.org/wikipedia/commons/9/98/Bandeira_de_Roraima.svg",
      "name": "Roraima",
      "name:ar": "رورايما",
      "name:be": "Рарайма",
      "name:bg": "Рорайма",
      "name:de": "Roraima",
      "name:en": "Roraima",
      "name:eo": "Rorajmo",
      "name:fa": "رورایما",
      "name:he": "רוריימה",
      "name:hi": "रोरैमा",
      "name:hy": "Ռորայմա",
      "name:ja": "ロライマ",
      "name:ka": "რორაიმა",
      "name:ko": "호라이마",
      "name:mk": "Рораима",
      "name:mr": "रोराईमा",
      "name:os": "Рораймæ",
      "name:pl": "Roraima",
      "name:pt": "Roraima",
      "name:ru": "Рорайма",
      "name:sh": "Rorajma",
      "name:sr": "Рораима",
      "name:tg": "Рорайма",
      "name:th": "รอไรมา",
      "name:uk": "Рорайма",
      "name:uz": "Rorayma",
      "name:zh": "罗赖马",
      "website": "http://www.rr.gov.br/",
      "boundary": "administrative",
      "timezone": "America/Boa_Vista",
      "way_area": "18.2097",
      "wikidata": "Q42508",
      "ISO3166-2": "BR-RR",
      "wikipedia": "pt:Roraima",
      "short_name": "RR",
      "admin_level": "4",
      "IBGE:GEOCODIGO": "14"
    }
  }
]
