[
  {
    "osm_id": -7321165,
    "boundary": "administrative",
    "admin_level": 4,
    "parents": "-1889339",
    "name": "Chobe District",
    "local_name": "Chobe District",
    "name_en": null,
    "all_tags": {
      "name": "Chobe District",
      "name:es": "Distrito Chobe",
      "name:fr": "District de Chobe",
      "boundary": "administrative",
      "way_area": "1.80251",
      "wikidata": "Q165536",
      "ISO3166-2": "BW-CH",
      "admin_level": "4"
    }
  },
  {
    "osm_id": -2104170,
    "boundary": "administrative",
    "admin_level": 4,
    "parents": "-1889339",
    "name": "North-West District",
    "local_name": "North-West District",
    "name_en": "North-West District",
    "all_tags": {
      "name": "North-West District",
      "name:ar": "مقاطغة شمال غرب",
      "name:de": "Nordwest-Distrikt",
      "name:en": "North-West District",
      "name:es": "Distrito Noroeste",
      "name:fr": "District du Nord-Ouest",
      "name:ru": "Северо-Западный округ",
      "boundary": "administrative",
      "way_area": "9.59899",
      "wikidata": "Q57617",
      "ISO3166-2": "BW-NW",
      "wikipedia": "en:North-West District (Botswana)",
      "admin_level": "4"
    }
  },
  {
    "osm_id": -270339,
    "boundary": "administrative",
    "admin_level": 4,
    "parents": "-1889339",
    "name": "Kgalagadi District",
    "local_name": "Kgalagadi District",
    "name_en": "Kgalagadi District",
    "all_tags": {
      "name": "Kgalagadi District",
      "name:ar": "مقاطعة كغالاجادي",
      "name:en": "Kgalagadi District",
      "name:es": "Distrito Kgalagadi",
      "name:fr": "District de Kgalagadi",
      "name:ru": "Кгалагади",
      "boundary": "administrative",
      "way_area": "9.37459",
      "wikidata": "Q57581",
      "ISO3166-2": "BW-KG",
      "wikipedia": "en:Kgalagadi District",
      "admin_level": "4"
    }
  },
  {
    "osm_id": -270338,
    "boundary": "administrative",
    "admin_level": 4,
    "parents": "-1889339",
    "name": "Southern District",
    "local_name": "Southern District",
    "name_en": "Southern District",
    "all_tags": {
      "name": "Southern District",
      "name:ar": "المقاطعة الجنوبية",
      "name:de": "Südlicher Distrikt",
      "name:en": "Southern District",
      "name:es": "Distrito Sur",
      "name:fr": "District du Sud",
      "boundary": "administrative",
      "way_area": "2.44639",
      "wikidata": "Q57609",
      "ISO3166-2": "BW-SO",
      "wikipedia": "en:Southern District (Botswana)",
      "admin_level": "4"
    }
  },
  {
    "osm_id": -270337,
    "boundary": "administrative",
    "admin_level": 4,
    "parents": "-1889339",
    "name": "Kweneng District",
    "local_name": "Kweneng District",
    "name_en": "Kweneng District",
    "all_tags": {
      "name": "Kweneng District",
      "name:ar": "مقاطعة كويننغ",
      "name:en": "Kweneng District",
      "name:es": "Distrito Kweneng",
      "name:fr": "District de Kweneng",
      "boundary": "administrative",
      "way_area": "3.28105",
      "wikidata": "Q57599",
      "ISO3166-2": "BW-KW",
      "wikipedia": "en:Kweneng District",
      "admin_level": "4"
    }
  },
  {
    "osm_id": -270336,
    "boundary": "administrative",
    "admin_level": 4,
    "parents": "-1889339",
    "name": "Ghanzi District",
    "local_name": "Ghanzi District",
    "name_en": "Ghanzi District",
    "all_tags": {
      "name": "Ghanzi District",
      "name:ar": "مقاطعةغانزي",
      "name:en": "Ghanzi District",
      "name:es": "Distrito Ghanzi",
      "name:fr": "District de Ghanzi",
      "name:ru": "Ганзи",
      "boundary": "administrative",
      "way_area": "10.0741",
      "wikidata": "Q57571",
      "ISO3166-2": "BW-GH",
      "wikipedia": "en:Ghanzi District",
      "admin_level": "4"
    }
  },
  {
    "osm_id": -270335,
    "boundary": "administrative",
    "admin_level": 4,
    "parents": "-1889339",
    "name": "Central District",
    "local_name": "Central District",
    "name_en": "Central District",
    "all_tags": {
      "name": "Central District",
      "name:ar": "المقاطعة المركزية",
      "name:de": "Zentral-Distrikt",
      "name:en": "Central District",
      "name:es": "Distrito Central",
      "name:fr": "District Central",
      "name:ru": "Центральный округ",
      "boundary": "administrative",
      "way_area": "12.7896",
      "wikidata": "Q57525",
      "ISO3166-2": "BW-CE",
      "wikipedia": "en:Central District (Botswana)",
      "admin_level": "4"
    }
  },
  {
    "osm_id": -270334,
    "boundary": "administrative",
    "admin_level": 4,
    "parents": "-1889339",
    "name": "North-East District",
    "local_name": "North-East District",
    "name_en": "North-East District",
    "all_tags": {
      "name": "North-East District",
      "name:ar": "مقاطعة الشمال الشرقي",
      "name:de": "Nordost-Distrikt",
      "name:en": "North-East District",
      "name:es": "Distrito Noreste",
      "name:fr": "District du Nord-Est",
      "boundary": "administrative",
      "way_area": "0.461895",
      "wikidata": "Q57636",
      "ISO3166-2": "BW-NE",
      "wikipedia": "en:North-East District (Botswana)",
      "admin_level": "4"
    }
  },
  {
    "osm_id": -270333,
    "boundary": "administrative",
    "admin_level": 4,
    "parents": "-1889339",
    "name": "Kgatleng District",
    "local_name": "Kgatleng District",
    "name_en": "Kgatleng District",
    "all_tags": {
      "name": "Kgatleng District",
      "name:ar": "مقاطعة كغاتلنغ",
      "name:en": "Kgatleng District",
      "name:es": "Distrito Kgatleng",
      "name:fr": "District de Kgatleng",
      "boundary": "administrative",
      "way_area": "0.677042",
      "wikidata": "Q57593",
      "ISO3166-2": "BW-KL",
      "wikipedia": "en:Kgatleng District",
      "admin_level": "4"
    }
  },
  {
    "osm_id": -270332,
    "boundary": "administrative",
    "admin_level": 4,
    "parents": "-1889339",
    "name": "South-East District",
    "local_name": "South-East District",
    "name_en": "South-East District",
    "all_tags": {
      "name": "South-East District",
      "name:ar": "المقاطعة الجنوب شرقية",
      "name:en": "South-East District",
      "name:es": "Distrito Sudeste",
      "name:fr": "District du Sud-Est",
      "boundary": "administrative",
      "way_area": "0.156541",
      "wikidata": "Q57695",
      "ISO3166-2": "BW-SE",
      "wikipedia": "en:South-East District (Botswana)",
      "admin_level": "4"
    }
  }
]
