[
  {
    "osm_id": -70542,
    "boundary": "administrative",
    "admin_level": 6,
    "parents": "-59752,-59065",
    "name": "Lahojsk District",
    "local_name": "Логойский район",
    "name_en": "Lahojsk District",
    "all_tags": {
      "name": "Логойский район",
      "name:be": "Лагойскі раён",
      "name:en": "Lahojsk District",
      "name:lt": "Lahoisko rajonas",
      "name:pl": "rejon łohojski",
      "name:ru": "Логойский район",
      "name:uk": "Лагойський район",
      "website": "http://logoysk.gov.by/",
      "boundary": "administrative",
      "int_name": "Lahojski rajon",
      "way_area": "0.329579",
      "wikidata": "Q950923",
      "wikipedia": "ru:Логойский район",
      "population": "35631",
      "addr:region": "Минская область",
      "admin_level": "6",
      "old_name:uk": "Логойський район",
      "addr:country": "BY",
      "wikipedia:pl": "Rejon łohojski",
      "population:date": "2018-01-01"
    }
  },
  {
    "osm_id": -70610,
    "boundary": "administrative",
    "admin_level": 6,
    "parents": "-59162,-59065",
    "name": "Klimavichy District",
    "local_name": "Климовичский район",
    "name_en": "Klimavichy District",
    "all_tags": {
      "name": "Климовичский район",
      "name:be": "Клімавіцкі раён",
      "name:en": "Klimavichy District",
      "name:lt": "Klimavičų rajonas",
      "name:pl": "rejon klimowicki",
      "name:ru": "Климовичский район",
      "name:uk": "Климовицький район",
      "website": "http://klimovichi.mogilev.by/",
      "boundary": "administrative",
      "int_name": "Klimavicki rajon",
      "way_area": "0.209574",
      "wikidata": "Q1997073",
      "wikipedia": "ru:Климовичский район",
      "population": "24497",
      "addr:region": "Могилёвская область",
      "admin_level": "6",
      "addr:country": "BY",
      "wikipedia:pl": "Rejon klimowicki",
      "population:date": "2018-01-01"
    }
  },
  {
    "osm_id": -71094,
    "boundary": "administrative",
    "admin_level": 6,
    "parents": "-59189,-59065",
    "name": "Pruzhany District",
    "local_name": "Пружанский район",
    "name_en": "Pruzhany District",
    "all_tags": {
      "name": "Пружанский район",
      "name:be": "Пружанскі раён",
      "name:de": "Rajon Pruschany",
      "name:en": "Pruzhany District",
      "name:pl": "rejon prużański",
      "name:ru": "Пружанский район",
      "name:uk": "Пружанський район",
      "website": "http://pruzhany.brest-region.by/",
      "boundary": "administrative",
      "int_name": "Pružanski rajon",
      "way_area": "0.376109",
      "wikidata": "Q1885543",
      "wikipedia": "ru:Пружанский район",
      "population": "46864",
      "addr:region": "Брестская область",
      "admin_level": "6",
      "addr:country": "BY",
      "wikipedia:pl": "Rejon prużański",
      "population:date": "2018-01-01"
    }
  },
  {
    "osm_id": -71133,
    "boundary": "administrative",
    "admin_level": 6,
    "parents": "-59752,-59065",
    "name": "Salihorsk District",
    "local_name": "Солигорский район",
    "name_en": "Salihorsk District",
    "all_tags": {
      "name": "Солигорский район",
      "name:be": "Салігорскі раён",
      "name:en": "Salihorsk District",
      "name:lt": "Salihorsko rajonas",
      "name:pl": "rejon soligorski",
      "name:ru": "Солигорский район",
      "name:uk": "Салігорський район",
      "website": "http://soligorsk.by/",
      "boundary": "administrative",
      "int_name": "Salihorski rajon",
      "way_area": "0.331206",
      "wikidata": "Q2091658",
      "wikipedia": "ru:Солигорский_район_Минской_области",
      "population": "134309",
      "addr:region": "Минская область",
      "admin_level": "6",
      "old_name:uk": "Солігорський район",
      "addr:country": "BY",
      "population:date": "2018-01-01"
    }
  },
  {
    "osm_id": -70586,
    "boundary": "administrative",
    "admin_level": 6,
    "parents": "-59162,-59065",
    "name": "Bychaw District",
    "local_name": "Быховский район",
    "name_en": "Bychaw District",
    "all_tags": {
      "name": "Быховский район",
      "name:be": "Быхаўскі раён",
      "name:en": "Bychaw District",
      "name:lt": "Bychavo rajonas",
      "name:pl": "rejon bychowski",
      "name:ru": "Быховский район",
      "name:uk": "Бихавський район",
      "website": "http://bykhov.mogilev-region.by/",
      "boundary": "administrative",
      "int_name": "Bychaŭski rajon",
      "way_area": "0.305619",
      "wikidata": "Q537700",
      "wikipedia": "ru:Быховский район",
      "population": "29254",
      "addr:region": "Могилёвская область",
      "admin_level": "6",
      "old_name:uk": "Биховський район",
      "addr:country": "BY",
      "population:date": "2018-01-01"
    }
  },
  {
    "osm_id": -70690,
    "boundary": "administrative",
    "admin_level": 6,
    "parents": "-59506,-59065",
    "name": "Myory District",
    "local_name": "Миорский район",
    "name_en": "Myory District",
    "all_tags": {
      "name": "Миорский район",
      "name:be": "Міёрскі раён",
      "name:en": "Myory District",
      "name:lt": "Miorų rajonas",
      "name:pl": "rejon miorski",
      "name:ru": "Миорский район",
      "name:uk": "Мьорський район",
      "website": "http://miory.vitebsk-region.gov.by/",
      "boundary": "administrative",
      "int_name": "Mijorski rajon",
      "way_area": "0.253954",
      "wikidata": "Q2024225",
      "wikipedia": "ru:Миорский район",
      "population": "19921",
      "addr:region": "Витебская область",
      "admin_level": "6",
      "old_name:uk": "Міорський район",
      "addr:country": "BY",
      "population:date": "2018-01-01"
    }
  },
  {
    "osm_id": -70746,
    "boundary": "administrative",
    "admin_level": 6,
    "parents": "-59506,-59065",
    "name": "Chashniki District",
    "local_name": "Чашникский район",
    "name_en": "Chashniki District",
    "all_tags": {
      "name": "Чашникский район",
      "name:be": "Чашніцкі раён",
      "name:en": "Chashniki District",
      "name:lt": "Čašnikų rajonas",
      "name:pl": "rejon czaśnicki",
      "name:ru": "Чашникский район",
      "name:uk": "Чашницький район",
      "website": "http://chashniki.vitebsk-region.gov.by/",
      "boundary": "administrative",
      "int_name": "Čašnicki rajon",
      "way_area": "0.207244",
      "wikidata": "Q2023954",
      "wikipedia": "ru:Чашникский район",
      "population": "30450",
      "addr:region": "Витебская область",
      "admin_level": "6",
      "addr:country": "BY",
      "wikipedia:pl": "Rejon czaśnicki",
      "population:date": "2018-01-01"
    }
  },
  {
    "osm_id": -71117,
    "boundary": "administrative",
    "admin_level": 6,
    "parents": "-59189,-59065",
    "name": "Lyakhavichy District",
    "local_name": "Ляховичский район",
    "name_en": "Lyakhavichy District",
    "all_tags": {
      "name": "Ляховичский район",
      "name:be": "Ляхавіцкі раён",
      "name:en": "Lyakhavichy District",
      "name:pl": "rejon lachowicki",
      "name:ru": "Ляховичский район",
      "name:uk": "Ляховицький район",
      "website": "http://liahovichi.brest-region.by/",
      "boundary": "administrative",
      "int_name": "Liachavicki rajon",
      "way_area": "0.181686",
      "wikidata": "Q1415052",
      "wikipedia": "ru:Ляховичский_район",
      "population": "25436",
      "addr:region": "Брестская область",
      "admin_level": "6",
      "addr:country": "BY",
      "wikipedia:pl": "Rejon lachowicki",
      "population:date": "2018-01-01"
    }
  },
  {
    "osm_id": -71145,
    "boundary": "administrative",
    "admin_level": 6,
    "parents": "-59161,-59065",
    "name": "Pyetrykaw District",
    "local_name": "Петриковский район",
    "name_en": "Pyetrykaw District",
    "all_tags": {
      "name": "Петриковский район",
      "name:be": "Петрыкаўскі раён",
      "name:en": "Pyetrykaw District",
      "name:pl": "rejon petrykowski",
      "name:ru": "Петриковский район",
      "name:uk": "Петриковський район",
      "website": "http://petrikov.gomel-region.by/",
      "boundary": "administrative",
      "int_name": "Pietrykaŭski rajon",
      "way_area": "0.371923",
      "wikidata": "Q571994",
      "wikipedia": "ru:Петриковский_район_(Гомельская_область)",
      "population": "27001",
      "addr:region": "Гомельская область",
      "admin_level": "6",
      "addr:country": "BY",
      "wikipedia:pl": "Rejon petrykowski",
      "population:date": "2018-01-01"
    }
  },
  {
    "osm_id": -70691,
    "boundary": "administrative",
    "admin_level": 6,
    "parents": "-59506,-59065",
    "name": "Braslaw District",
    "local_name": "Браславский район",
    "name_en": "Braslaw District",
    "all_tags": {
      "name": "Браславский район",
      "name:be": "Браслаўскі раён",
      "name:de": "Bezirk Braslaw",
      "name:en": "Braslaw District",
      "name:lt": "Breslaujos rajonas",
      "name:pl": "rejon brasławski",
      "name:ru": "Браславский район",
      "name:uk": "Браславський район",
      "website": "http://braslav.vitebsk-region.gov.by/",
      "boundary": "administrative",
      "int_name": "Braslaŭski rajon",
      "way_area": "0.324109",
      "wikidata": "Q1517382",
      "wikipedia": "ru:Браславский район",
      "population": "25508",
      "addr:region": "Витебская область",
      "admin_level": "6",
      "addr:country": "BY",
      "wikipedia:pl": "Rejon brasławski",
      "population:date": "2018-01-01"
    }
  },
  {
    "osm_id": -70719,
    "boundary": "administrative",
    "admin_level": 6,
    "parents": "-59752,-59065",
    "name": "Myadzel District",
    "local_name": "Мядельский район",
    "name_en": "Myadzel District",
    "all_tags": {
      "name": "Мядельский район",
      "name:be": "Мядзельскі раён",
      "name:de": "Rajon Mjadsel",
      "name:en": "Myadzel District",
      "name:lt": "Medilo rajonas",
      "name:pl": "rejon miadziolski",
      "name:ru": "Мядельский район",
      "name:uk": "Мядельський район",
      "website": "http://myadel.minsk-region.by/",
      "boundary": "administrative",
      "int_name": "Miadzieĺski rajon",
      "way_area": "0.275853",
      "wikidata": "Q1637855",
      "wikipedia": "ru:Мядельский район Минской области",
      "population": "25733",
      "addr:region": "Минская область",
      "admin_level": "6",
      "alt_name:pl": "Rejon miadzielski",
      "addr:country": "BY",
      "wikipedia:pl": "Rejon miadzielski",
      "population:date": "2018-01-01"
    }
  },
  {
    "osm_id": -71101,
    "boundary": "administrative",
    "admin_level": 6,
    "parents": "-59189,-59065",
    "name": "Kobryn District",
    "local_name": "Кобринский район",
    "name_en": "Kobryn District",
    "all_tags": {
      "name": "Кобринский район",
      "name:be": "Кобрынскі раён",
      "name:en": "Kobryn District",
      "name:pl": "rejon kobryński",
      "name:ru": "Кобринский район",
      "name:uk": "Кобринський район",
      "website": "http://kobrin.brest-region.by/",
      "boundary": "administrative",
      "int_name": "Kobrynski rajon",
      "way_area": "0.264524",
      "wikidata": "Q944303",
      "wikipedia": "ru:Кобринский район",
      "population": "85047",
      "addr:region": "Брестская область",
      "admin_level": "6",
      "addr:country": "BY",
      "wikipedia:pl": "Rejon kobryński",
      "population:date": "2018-01-01"
    }
  },
  {
    "osm_id": -1469691,
    "boundary": "administrative",
    "admin_level": 6,
    "parents": "-59161,-59065",
    "name": "Homyel District",
    "local_name": "Гомельский район",
    "name_en": "Homyel District",
    "all_tags": {
      "name": "Гомельский район",
      "name:be": "Гомельскі раён",
      "name:en": "Homyel District",
      "name:pl": "rejon homelski",
      "name:ru": "Гомельский район",
      "name:uk": "Гомєльський район",
      "website": "http://gomelisp.gov.by/",
      "boundary": "administrative",
      "int_name": "Homieĺski rajon",
      "way_area": "0.256698",
      "wikidata": "Q966473",
      "wikipedia": "ru:Гомельский район",
      "population": "68306",
      "addr:region": "Гомельская область",
      "admin_level": "6",
      "old_name:uk": "Гомельський район",
      "addr:country": "BY",
      "population:date": "2018-01-01"
    }
  },
  {
    "osm_id": -71140,
    "boundary": "administrative",
    "admin_level": 6,
    "parents": "-59752,-59065",
    "name": "Lyuban District",
    "local_name": "Любанский район",
    "name_en": "Lyuban District",
    "all_tags": {
      "name": "Любанский район",
      "name:be": "Любанскі раён",
      "name:en": "Lyuban District",
      "name:lt": "Liubanės rajonas",
      "name:pl": "rejon lubański",
      "name:ru": "Любанский район",
      "name:uk": "Любанський район",
      "website": "http://lyuban.minsk-region.by/",
      "boundary": "administrative",
      "int_name": "Liubanski rajon",
      "way_area": "0.254885",
      "wikidata": "Q2091734",
      "wikipedia": "ru:Любанский район Минской области",
      "population": "31163",
      "addr:region": "Минская область",
      "admin_level": "6",
      "addr:country": "BY",
      "wikipedia:pl": "Rejon lubański",
      "population:date": "2018-01-01"
    }
  },
  {
    "osm_id": -70677,
    "boundary": "administrative",
    "admin_level": 6,
    "parents": "-59506,-59065",
    "name": "Shumilina District",
    "local_name": "Шумилинский район",
    "name_en": "Shumilina District",
    "all_tags": {
      "name": "Шумилинский район",
      "name:be": "Шумілінскі раён",
      "name:en": "Shumilina District",
      "name:lt": "Šumilino rajonas",
      "name:pl": "rejon szumiliński",
      "name:ru": "Шумилинский район",
      "name:uk": "Шумілінський район",
      "website": "http://shumilino.vitebsk-region.gov.by/",
      "boundary": "administrative",
      "int_name": "Šumilinski rajon",
      "way_area": "0.239568",
      "wikidata": "Q2025054",
      "wikipedia": "ru:Шумилинский район",
      "population": "17808",
      "addr:region": "Витебская область",
      "admin_level": "6",
      "addr:country": "BY",
      "wikipedia:pl": "Rejon szumiliński",
      "population:date": "2018-01-01"
    }
  },
  {
    "osm_id": -59751,
    "boundary": "administrative",
    "admin_level": 6,
    "parents": "-59752,-59065",
    "name": "Chervyen District",
    "local_name": "Червенский район",
    "name_en": "Chervyen District",
    "all_tags": {
      "name": "Червенский район",
      "name:be": "Чэрвеньскі раён",
      "name:de": "Rajon Tscherwen",
      "name:en": "Chervyen District",
      "name:lt": "Červenės rajonas",
      "name:pl": "rejon czerwieński",
      "name:ru": "Червенский район",
      "name:uk": "Червєнський район",
      "website": "http://cherven.minsk-region.by/",
      "boundary": "administrative",
      "int_name": "Červieński rajon",
      "way_area": "0.221268",
      "wikidata": "Q2091744",
      "wikipedia": "ru:Червенский район",
      "population": "31870",
      "addr:region": "Минская область",
      "admin_level": "6",
      "addr:country": "BY",
      "population:date": "2018-01-01"
    }
  },
  {
    "osm_id": -71135,
    "boundary": "administrative",
    "admin_level": 6,
    "parents": "-59752,-59065",
    "name": "Staryya Darohi District",
    "local_name": "Стародорожский район",
    "name_en": "Staryya Darohi District",
    "all_tags": {
      "name": "Стародорожский район",
      "name:be": "Старадарожскі раён",
      "name:en": "Staryya Darohi District",
      "name:pl": "rejon starodoroski",
      "name:ru": "Стародорожский район",
      "name:uk": "Старадарозький район",
      "website": "http://staryedorogi.minsk-region.by/",
      "boundary": "administrative",
      "int_name": "Staradarožski rajon",
      "way_area": "0.184219",
      "wikidata": "Q977019",
      "wikipedia": "ru:Стародорожский_район_Минской_области",
      "population": "19166",
      "addr:region": "Минская область",
      "admin_level": "6",
      "old_name:uk": "Стародорозький район",
      "addr:country": "BY",
      "population:date": "2018-01-01"
    }
  },
  {
    "osm_id": -59755,
    "boundary": "administrative",
    "admin_level": 6,
    "parents": "-59161,-59065",
    "name": "Akciabrski District",
    "local_name": "Октябрьский район",
    "name_en": "Akciabrski District",
    "all_tags": {
      "name": "Октябрьский район",
      "name:be": "Акцябрскі раён",
      "name:en": "Akciabrski District",
      "name:lt": "Oktiabrsko rajonas",
      "name:pl": "rejon oktiabrski",
      "name:ru": "Октябрьский район",
      "name:uk": "Октябрський район",
      "website": "http://oktiabrskiy.gomel-region.by/",
      "boundary": "administrative",
      "int_name": "Akciabrski rajon",
      "way_area": "0.18343",
      "wikidata": "Q1649029",
      "wikipedia": "ru:Октябрьский_район_(Гомельская_область)",
      "population": "13414",
      "addr:region": "Гомельская область",
      "admin_level": "6",
      "addr:country": "BY",
      "wikipedia:pl": "Rejon oktiabrski (Białoruś)",
      "population:date": "2018-01-01"
    }
  },
  {
    "osm_id": -71138,
    "boundary": "administrative",
    "admin_level": 6,
    "parents": "-59162,-59065",
    "name": "Hlusk District",
    "local_name": "Глусский район",
    "name_en": "Hlusk District",
    "all_tags": {
      "name": "Глусский район",
      "name:be": "Глускі раён",
      "name:en": "Hlusk District",
      "name:pl": "rejon hłuski",
      "name:ru": "Глусский район",
      "name:uk": "Глуський район",
      "website": "http://glusk.mogilev-region.by/",
      "boundary": "administrative",
      "int_name": "Hluski rajon",
      "way_area": "0.181259",
      "wikidata": "Q2024375",
      "wikipedia": "ru:Глусский_район",
      "population": "13341",
      "addr:region": "Могилёвская область",
      "admin_level": "6",
      "addr:country": "BY",
      "wikipedia:pl": "Rejon hłuski",
      "population:date": "2018-01-01"
    }
  },
  {
    "osm_id": -71100,
    "boundary": "administrative",
    "admin_level": 6,
    "parents": "-59189,-59065",
    "name": "Malaryta District",
    "local_name": "Малоритский район",
    "name_en": "Malaryta District",
    "all_tags": {
      "name": "Малоритский район",
      "name:be": "Маларыцкі раён",
      "name:en": "Malaryta District",
      "name:pl": "rejon małorycki",
      "name:ru": "Малоритский район",
      "name:uk": "Малоритський район",
      "website": "http://malorita.brest-region.by/",
      "boundary": "administrative",
      "int_name": "Malarycki rajon",
      "way_area": "0.179012",
      "wikidata": "Q656512",
      "wikipedia": "ru:Малоритский район",
      "population": "24306",
      "addr:region": "Брестская область",
      "admin_level": "6",
      "addr:country": "BY",
      "wikipedia:pl": "Rejon małorycki",
      "population:date": "2018-01-01"
    }
  },
  {
    "osm_id": -59149,
    "boundary": "administrative",
    "admin_level": 6,
    "parents": "-59161,-59065",
    "name": "Karma District",
    "local_name": "Кормянский район",
    "name_en": "Karma District",
    "all_tags": {
      "name": "Кормянский район",
      "name:be": "Кармянскі раён",
      "name:en": "Karma District",
      "name:lt": "Kormos rajonas",
      "name:pl": "rejon kormiański",
      "name:ru": "Кормянский район",
      "name:uk": "Кормянський район",
      "website": "http://korma.gomel-region.by/",
      "boundary": "administrative",
      "int_name": "Karmianski rajon",
      "way_area": "0.127656",
      "wikidata": "Q1952857",
      "wikipedia": "ru:Кормянский район",
      "population": "13213",
      "addr:region": "Гомельская область",
      "admin_level": "6",
      "addr:country": "BY",
      "wikipedia:pl": "Rejon kormański",
      "population:date": "2018-01-01"
    }
  },
  {
    "osm_id": -71130,
    "boundary": "administrative",
    "admin_level": 6,
    "parents": "-59752,-59065",
    "name": "Kletsk District",
    "local_name": "Клецкий район",
    "name_en": "Kletsk District",
    "all_tags": {
      "name": "Клецкий район",
      "name:be": "Клецкі раён",
      "name:en": "Kletsk District",
      "name:pl": "rejon klecki",
      "name:ru": "Клецкий район",
      "name:uk": "Клецький район",
      "website": "http://kletsk.minsk-region.by/",
      "boundary": "administrative",
      "int_name": "Kliecki rajon",
      "way_area": "0.13119",
      "wikidata": "Q2091557",
      "wikipedia": "ru:Клецкий_район_Минской_области",
      "population": "27323",
      "addr:region": "Минская область",
      "admin_level": "6",
      "addr:country": "BY",
      "wikipedia:pl": "Rejon klecki",
      "population:date": "2018-01-01"
    }
  },
  {
    "osm_id": -71128,
    "boundary": "administrative",
    "admin_level": 6,
    "parents": "-59752,-59065",
    "name": "Nesvizh District",
    "local_name": "Несвижский район",
    "name_en": "Nesvizh District",
    "all_tags": {
      "name": "Несвижский район",
      "name:be": "Нясвіжскі раён",
      "name:de": "Rajon Njaswisch",
      "name:en": "Nesvizh District",
      "name:lt": "Nesvyžiaus rajonas",
      "name:pl": "rejon Nieświeski",
      "name:ru": "Несвижский район",
      "name:uk": "Несвізький район",
      "website": "http://nesvizh.minsk-region.by/",
      "boundary": "administrative",
      "int_name": "Niasvižski rajon",
      "way_area": "0.1161",
      "wikidata": "Q2091651",
      "wikipedia": "ru:Несвижский район",
      "population": "39022",
      "addr:region": "Минская область",
      "admin_level": "6",
      "addr:country": "BY",
      "wikipedia:pl": "Rejon nieświeski",
      "population:date": "2018-01-01"
    }
  },
  {
    "osm_id": -71099,
    "boundary": "administrative",
    "admin_level": 6,
    "parents": "-59189,-59065",
    "name": "Zhabinka District",
    "local_name": "Жабинковский район",
    "name_en": "Zhabinka District",
    "all_tags": {
      "name": "Жабинковский район",
      "name:be": "Жабінкаўскі раён",
      "name:en": "Zhabinka District",
      "name:lt": "Žabinkos rajonas",
      "name:pl": "rejon żabinecki",
      "name:ru": "Жабинковский район",
      "name:uk": "Жабінківський район",
      "website": "http://zhabinka.brest-region.by/",
      "boundary": "administrative",
      "int_name": "Žabinkaŭski rajon",
      "way_area": "0.0890834",
      "wikidata": "Q1630126",
      "wikipedia": "ru:Жабинковский район",
      "population": "24329",
      "addr:region": "Брестская область",
      "admin_level": "6",
      "old_name:uk": "Жабинківський район",
      "addr:country": "BY",
      "population:date": "2018-01-01"
    }
  },
  {
    "osm_id": -3629362,
    "boundary": "administrative",
    "admin_level": 6,
    "parents": "-59189,-59065",
    "name": "Baranavichy",
    "local_name": "Барановичи",
    "name_en": "Baranavichy",
    "all_tags": {
      "name": "Барановичи",
      "place": "city",
      "name:be": "Баранавічы",
      "name:de": "Baranawitschy",
      "name:en": "Baranavichy",
      "name:eo": "Baranaviĉi",
      "name:fr": "Baranavitchy",
      "name:lt": "Baranovičiai",
      "name:pl": "Baranowicze",
      "name:ru": "Барановичи",
      "name:sr": "Баранавичи",
      "name:uk": "Баранавічи",
      "boundary": "administrative",
      "int_name": "Baranavičy",
      "way_area": "0.00973087",
      "wikidata": "Q237655",
      "wikipedia": "ru:Барановичи",
      "population": "179166",
      "addr:region": "Брестская область",
      "admin_level": "6",
      "name:prefix": "город",
      "old_name:uk": "Баранавічи",
      "addr:country": "BY",
      "name:be-tarask": "Баранавічы",
      "contact:website": "http://baranovichy.by/",
      "population:date": "2018-01-01"
    }
  },
  {
    "osm_id": -70668,
    "boundary": "administrative",
    "admin_level": 6,
    "parents": "-59506,-59065",
    "name": "Beshankovichy District",
    "local_name": "Бешенковичский район",
    "name_en": "Beshankovichy District",
    "all_tags": {
      "name": "Бешенковичский район",
      "name:be": "Бешанковіцкі раён",
      "name:en": "Beshankovichy District",
      "name:lt": "Bešenkovičių rajonas",
      "name:pl": "rejon bieszenkowicki",
      "name:ru": "Бешенковичский район",
      "name:uk": "Бєшанковіцький район",
      "website": "http://beshenkovichi.vitebsk-region.gov.by/",
      "boundary": "administrative",
      "int_name": "Biešankovicki rajon",
      "way_area": "0.178572",
      "wikidata": "Q1378251",
      "wikipedia": "ru:Бешенковичский район",
      "population": "15469",
      "addr:region": "Витебская область",
      "admin_level": "6",
      "old_name:uk": "Бешенковицький район",
      "addr:country": "BY",
      "population:date": "2018-01-01"
    }
  },
  {
    "osm_id": -71105,
    "boundary": "administrative",
    "admin_level": 6,
    "parents": "-59189,-59065",
    "name": "Drahichyn District",
    "local_name": "Дрогичинский район",
    "name_en": "Drahichyn District",
    "all_tags": {
      "name": "Дрогичинский район",
      "name:be": "Драгічынскі раён",
      "name:en": "Drahichyn District",
      "name:pl": "rejon drohiczyński",
      "name:ru": "Дрогичинский район",
      "name:uk": "Дрогичинський район",
      "website": "http://drogichin.brest-region.by/",
      "boundary": "administrative",
      "int_name": "Drahičynski rajon",
      "way_area": "0.245597",
      "wikidata": "Q1888829",
      "wikipedia": "ru:Дрогичинский район",
      "population": "36433",
      "addr:region": "Брестская область",
      "admin_level": "6",
      "addr:country": "BY",
      "population:date": "2018-01-01"
    }
  },
  {
    "osm_id": -71107,
    "boundary": "administrative",
    "admin_level": 6,
    "parents": "-59189,-59065",
    "name": "Byaroza District",
    "local_name": "Берёзовский район",
    "name_en": "Byaroza District",
    "all_tags": {
      "name": "Берёзовский район",
      "name:be": "Бярозаўскі раён",
      "name:de": "Rajon Bjarosa",
      "name:en": "Byaroza District",
      "name:pl": "rejon bereski",
      "name:ru": "Берёзовский район",
      "name:uk": "Березівський район",
      "website": "http://bereza.brest-region.by/",
      "boundary": "administrative",
      "int_name": "Biarozaŭski rajon",
      "way_area": "0.186443",
      "wikidata": "Q545069",
      "wikipedia": "ru:Берёзовский район (Брестская область)",
      "population": "62882",
      "addr:region": "Брестская область",
      "admin_level": "6",
      "addr:country": "BY",
      "wikipedia:pl": "Rejon bereski",
      "population:date": "2018-01-01"
    }
  },
  {
    "osm_id": -71093,
    "boundary": "administrative",
    "admin_level": 6,
    "parents": "-59275,-59065",
    "name": "Svislach District",
    "local_name": "Свислочский район",
    "name_en": "Svislach District",
    "all_tags": {
      "name": "Свислочский район",
      "name:be": "Свіслацкі раён",
      "name:en": "Svislach District",
      "name:pl": "rejon świsłocki",
      "name:ru": "Свислочский район",
      "name:uk": "Свіслоцький район",
      "website": "http://svisloch.grodno-region.by/",
      "boundary": "administrative",
      "int_name": "Svislacki rajon",
      "way_area": "0.193049",
      "wikidata": "Q1953413",
      "wikipedia": "ru:Свислочский_район",
      "population": "15205",
      "addr:region": "Гродненская область",
      "admin_level": "6",
      "addr:country": "BY",
      "wikipedia:pl": "Rejon świsłocki",
      "population:date": "2018-01-01"
    }
  },
  {
    "osm_id": -70790,
    "boundary": "administrative",
    "admin_level": 6,
    "parents": "-59275,-59065",
    "name": "Byerastavitsa District",
    "local_name": "Берестовицкий район",
    "name_en": "Byerastavitsa District",
    "all_tags": {
      "name": "Берестовицкий район",
      "name:be": "Бераставіцкі раён",
      "name:en": "Byerastavitsa District",
      "name:lt": "Berastavicos rajonas",
      "name:pl": "rejon brzostowicki",
      "name:ru": "Берестовицкий район",
      "name:uk": "Бєраставіцький район",
      "website": "http://berestovitsa.grodno-region.by/",
      "boundary": "administrative",
      "int_name": "Bierastavicki rajon",
      "way_area": "0.10012",
      "wikidata": "Q1952942",
      "wikipedia": "ru:Берестовицкий район",
      "population": "15440",
      "addr:region": "Гродненская область",
      "admin_level": "6",
      "old_name:uk": "Берестовицький район",
      "addr:country": "BY",
      "population:date": "2018-01-01"
    }
  },
  {
    "osm_id": -71114,
    "boundary": "administrative",
    "admin_level": 6,
    "parents": "-59275,-59065",
    "name": "Slonim District",
    "local_name": "Слонимский район",
    "name_en": "Slonim District",
    "all_tags": {
      "name": "Слонимский район",
      "name:be": "Слонімскі раён",
      "name:en": "Slonim District",
      "name:lt": "Slanimo rajonas",
      "name:pl": "rejon słonimski",
      "name:ru": "Слонимский район",
      "name:uk": "Слонімський район",
      "website": "http://slonim.grodno-region.by/",
      "boundary": "administrative",
      "int_name": "Slonimski rajon",
      "way_area": "0.196573",
      "wikidata": "Q1953359",
      "wikipedia": "ru:Слонимский_район",
      "population": "64117",
      "addr:region": "Гродненская область",
      "admin_level": "6",
      "addr:country": "BY",
      "wikipedia:pl": "Rejon słonimski",
      "population:date": "2018-01-01"
    }
  },
  {
    "osm_id": -70772,
    "boundary": "administrative",
    "admin_level": 6,
    "parents": "-59275,-59065",
    "name": "Zelva District",
    "local_name": "Зельвенский район",
    "name_en": "Zelva District",
    "all_tags": {
      "name": "Зельвенский район",
      "name:be": "Зэльвенскі раён",
      "name:en": "Zelva District",
      "name:lt": "Zelvos rajonas",
      "name:pl": "rejon zelwieński",
      "name:ru": "Зельвенский район",
      "name:uk": "Зельвенський район",
      "website": "http://zelva.grodno-region.by/",
      "boundary": "administrative",
      "int_name": "Zeĺvienski rajon",
      "way_area": "0.117689",
      "wikidata": "Q934137",
      "wikipedia": "ru:Зельвенский район",
      "population": "14754",
      "addr:region": "Гродненская область",
      "admin_level": "6",
      "addr:country": "BY",
      "wikipedia:pl": "Rejon zelwieński",
      "population:date": "2018-01-01"
    }
  },
  {
    "osm_id": -71125,
    "boundary": "administrative",
    "admin_level": 6,
    "parents": "-59189,-59065",
    "name": "Stolin District",
    "local_name": "Столинский район",
    "name_en": "Stolin District",
    "all_tags": {
      "name": "Столинский район",
      "name:be": "Столінскі раён",
      "name:en": "Stolin District",
      "name:lt": "Stolino rajonas",
      "name:pl": "rejon stoliński",
      "name:ru": "Столинский район",
      "name:uk": "Столінський район",
      "website": "http://stolin.brest-region.by/",
      "boundary": "administrative",
      "int_name": "Stolinski rajon",
      "way_area": "0.442039",
      "wikidata": "Q1885570",
      "wikipedia": "ru:Столинский район",
      "population": "73101",
      "addr:region": "Брестская область",
      "admin_level": "6",
      "addr:country": "BY",
      "wikipedia:pl": "Rejon stoliński",
      "population:date": "2018-01-01"
    }
  },
  {
    "osm_id": -59189,
    "boundary": "administrative",
    "admin_level": 4,
    "parents": "-59065",
    "name": "Brest Region",
    "local_name": "Брестская область",
    "name_en": "Brest Region",
    "all_tags": {
      "name": "Брестская область",
      "name:be": "Брэсцкая вобласць",
      "name:de": "Woblast Brest",
      "name:en": "Brest Region",
      "name:eo": "Bresta regiono",
      "name:es": "Provincia de Brest",
      "name:fr": "Voblast de Brest",
      "name:hu": "Breszti terület",
      "name:ja": "ブレスト州",
      "name:lt": "Bresto sritis",
      "name:pl": "obwód brzeski",
      "name:ru": "Брестская область",
      "name:sk": "Brestská oblasť",
      "name:uk": "Берестейська область",
      "website": "http://brest-region.by/",
      "boundary": "administrative",
      "int_name": "Bresckaja voblasć",
      "way_area": "4.3286",
      "wikidata": "Q173822",
      "ISO3166-2": "BY-BR",
      "wikipedia": "ru:Брестская область",
      "population": "1384476",
      "admin_level": "4",
      "addr:country": "BY",
      "wikipedia:pl": "Obwód brzeski",
      "is_in:country": "Belarus",
      "name:be-tarask": "Берасьцейская вобласьць",
      "is_in:continent": "Europe",
      "population:date": "2018-01-01",
      "is_in:country_code": "BY"
    }
  },
  {
    "osm_id": -71112,
    "boundary": "administrative",
    "admin_level": 6,
    "parents": "-59189,-59065",
    "name": "Ivatsevichy District",
    "local_name": "Ивацевичский район",
    "name_en": "Ivatsevichy District",
    "all_tags": {
      "name": "Ивацевичский район",
      "name:be": "Івацэвіцкі раён",
      "name:de": "Rajon Iwazewitschy",
      "name:en": "Ivatsevichy District",
      "name:pl": "rejon iwacewicki",
      "name:ru": "Ивацевичский район",
      "name:uk": "Івацевицький район",
      "website": "http://ivacevichi.brest-region.by/",
      "boundary": "administrative",
      "int_name": "Ivacevicki rajon",
      "way_area": "0.399574",
      "wikidata": "Q1885601",
      "wikipedia": "ru:Ивацевичский_район",
      "population": "54158",
      "addr:region": "Брестская область",
      "admin_level": "6",
      "addr:country": "BY",
      "wikipedia:pl": "Rejon iwacewicki",
      "population:date": "2018-01-01"
    }
  },
  {
    "osm_id": -71119,
    "boundary": "administrative",
    "admin_level": 6,
    "parents": "-59189,-59065",
    "name": "Pinsk District",
    "local_name": "Пинский район",
    "name_en": "Pinsk District",
    "all_tags": {
      "name": "Пинский район",
      "name:be": "Пінскі раён",
      "name:en": "Pinsk District",
      "name:lt": "Pinsko rajonas",
      "name:pl": "rejon piński",
      "name:ru": "Пинский район",
      "name:uk": "Пінський район",
      "website": "https://brest.belstat.gov.by/ofitsialnaya-statistika/demograficheskaya-i-sotsialnaya-statistika/naselenie-i-migratsiya/naselenie/",
      "boundary": "administrative",
      "int_name": "Pinski rajon",
      "way_area": "0.428925",
      "wikidata": "Q1885558",
      "wikipedia": "ru:Пинский район",
      "population": "43060",
      "addr:region": "Брестская область",
      "admin_level": "6",
      "addr:country": "BY",
      "wikipedia:pl": "Rejon piński",
      "population:date": "2021"
    }
  },
  {
    "osm_id": -71121,
    "boundary": "administrative",
    "admin_level": 6,
    "parents": "-59189,-59065",
    "name": "Hantsavichy District",
    "local_name": "Ганцевичский район",
    "name_en": "Hantsavichy District",
    "all_tags": {
      "name": "Ганцевичский район",
      "name:be": "Ганцавіцкі раён",
      "name:de": "Rajon Hanzawitschy",
      "name:en": "Hantsavichy District",
      "name:pl": "rejon hancewicki",
      "name:ru": "Ганцевичский район",
      "name:uk": "Ганцовицький район",
      "website": "http://gantsevichi.brest-region.by/",
      "boundary": "administrative",
      "int_name": "Hancavicki rajon",
      "way_area": "0.223604",
      "wikidata": "Q1566438",
      "wikipedia": "ru:Ганцевичский_район",
      "population": "27297",
      "addr:region": "Брестская область",
      "admin_level": "6",
      "addr:country": "BY",
      "population:date": "2018-01-01"
    }
  },
  {
    "osm_id": -70754,
    "boundary": "administrative",
    "admin_level": 6,
    "parents": "-59275,-59065",
    "name": "Masty District",
    "local_name": "Мостовский район",
    "name_en": "Masty District",
    "all_tags": {
      "name": "Мостовский район",
      "name:be": "Мастоўскі раён",
      "name:en": "Masty District",
      "name:lt": "Mastų rajonas",
      "name:pl": "rejon mostowski",
      "name:ru": "Мостовский район",
      "name:uk": "Мостівський район",
      "website": "http://mosty.grodno-region.by/",
      "boundary": "administrative",
      "int_name": "Mastoŭski rajon",
      "way_area": "0.182339",
      "wikidata": "Q959364",
      "wikipedia": "ru:Мостовский_район_Гродненской_области",
      "population": "28233",
      "addr:region": "Гродненская область",
      "admin_level": "6",
      "addr:country": "BY",
      "wikipedia:pl": "Rejon mostowski",
      "population:date": "2018-01-01"
    }
  },
  {
    "osm_id": -71149,
    "boundary": "administrative",
    "admin_level": 6,
    "parents": "-59161,-59065",
    "name": "Zhytkavichy District",
    "local_name": "Житковичский район",
    "name_en": "Zhytkavichy District",
    "all_tags": {
      "name": "Житковичский район",
      "name:be": "Жыткавіцкі раён",
      "name:en": "Zhytkavichy District",
      "name:pl": "rejon żytkowicki",
      "name:ru": "Житковичский район",
      "name:uk": "Житковичский район",
      "website": "http://zhitkovichi.gomel-region.by/",
      "boundary": "administrative",
      "int_name": "Žytkavicki rajon",
      "way_area": "0.385089",
      "wikidata": "Q367015",
      "wikipedia": "ru:Житковичский_район",
      "population": "35510",
      "addr:region": "Гомельская область",
      "admin_level": "6",
      "addr:country": "BY",
      "wikipedia:pl": "Rejon żytkowicki",
      "population:date": "2018-01-01"
    }
  },
  {
    "osm_id": -70748,
    "boundary": "administrative",
    "admin_level": 6,
    "parents": "-59275,-59065",
    "name": "Shchuchyn District",
    "local_name": "Щучинский район",
    "name_en": "Shchuchyn District",
    "all_tags": {
      "name": "Щучинский район",
      "name:be": "Шчучынскі раён",
      "name:en": "Shchuchyn District",
      "name:lt": "Ščiutino rajonas",
      "name:pl": "rejon szczuczyński",
      "name:ru": "Щучинский район",
      "name:uk": "Щучинський район",
      "website": "http://schuchin.grodno-region.by/",
      "boundary": "administrative",
      "int_name": "Ščučynski rajon",
      "way_area": "0.258513",
      "wikidata": "Q1953351",
      "wikipedia": "ru:Щучинский район",
      "population": "39375",
      "addr:region": "Гродненская область",
      "admin_level": "6",
      "addr:country": "BY",
      "wikipedia:pl": "Rejon szczuczyński",
      "population:date": "2018-01-01"
    }
  },
  {
    "osm_id": -70747,
    "boundary": "administrative",
    "admin_level": 6,
    "parents": "-59275,-59065",
    "name": "Lida District",
    "local_name": "Лидский район",
    "name_en": "Lida District",
    "all_tags": {
      "name": "Лидский район",
      "name:be": "Лідскі раён",
      "name:en": "Lida District",
      "name:lt": "Lydos rajonas",
      "name:pl": "rejon lidzki",
      "name:ru": "Лидский район",
      "name:uk": "Лідський район",
      "website": "http://lida.by/",
      "boundary": "administrative",
      "int_name": "Lidski rajon",
      "way_area": "0.21038",
      "wikidata": "Q1953388",
      "ref:COATO": "4236000000",
      "wikipedia": "ru:Лидский район",
      "population": "131860",
      "addr:region": "Гродненская область",
      "admin_level": "6",
      "addr:country": "BY",
      "wikipedia:pl": "Rejon lidzki",
      "addr:region:be": "Гродзенская вобласць",
      "addr:region:ru": "Гродненская область",
      "population:date": "2018-01-01"
    }
  },
  {
    "osm_id": -70749,
    "boundary": "administrative",
    "admin_level": 6,
    "parents": "-59275,-59065",
    "name": "Navahrudak District",
    "local_name": "Новогрудский район",
    "name_en": "Navahrudak District",
    "all_tags": {
      "name": "Новогрудский район",
      "name:be": "Навагрудскі раён",
      "name:en": "Navahrudak District",
      "name:lt": "Naugarduko rajonas",
      "name:pl": "rejon nowogródzki",
      "name:ru": "Новогрудский район",
      "name:uk": "Новогрудський район",
      "website": "http://novogrudok.grodno-region.by/",
      "boundary": "administrative",
      "int_name": "Navahrudski rajon",
      "way_area": "0.227847",
      "wikidata": "Q1952755",
      "wikipedia": "ru:Новогрудский_район",
      "population": "45019",
      "addr:region": "Гродненская область",
      "admin_level": "6",
      "addr:country": "BY",
      "wikipedia:pl": "Rejon nowogródzki",
      "population:date": "2018-01-01"
    }
  },
  {
    "osm_id": -70751,
    "boundary": "administrative",
    "admin_level": 6,
    "parents": "-59275,-59065",
    "name": "Karelichy District",
    "local_name": "Кореличский район",
    "name_en": "Karelichy District",
    "all_tags": {
      "name": "Кореличский район",
      "name:be": "Карэліцкі раён",
      "name:en": "Karelichy District",
      "name:lt": "Kareličių rajonas",
      "name:pl": "rejon korelicki",
      "name:ru": "Кореличский район",
      "name:uk": "Корелицький район",
      "website": "http://korelichi.grodno.by/",
      "boundary": "administrative",
      "int_name": "Karelicki rajon",
      "way_area": "0.147818",
      "wikidata": "Q1953342",
      "wikipedia": "ru:Кореличский район",
      "population": "19691",
      "addr:region": "Гродненская область",
      "admin_level": "6",
      "addr:country": "BY",
      "wikipedia:pl": "Rejon korelicki",
      "population:date": "2018-01-01"
    }
  },
  {
    "osm_id": -70565,
    "boundary": "administrative",
    "admin_level": 6,
    "parents": "-59752,-59065",
    "name": "Valozhyn District",
    "local_name": "Воложинский район",
    "name_en": "Valozhyn District",
    "all_tags": {
      "name": "Воложинский район",
      "name:be": "Валожынскі раён",
      "name:de": "Rajon Waloschyn",
      "name:en": "Valozhyn District",
      "name:lt": "Valažino rajonas",
      "name:pl": "rejon wołożyński",
      "name:ru": "Воложинский район",
      "name:uk": "Валожинський район",
      "website": "http://volozhin.gov.by/",
      "boundary": "administrative",
      "int_name": "Valožynski rajon",
      "way_area": "0.26267",
      "wikidata": "Q1817324",
      "wikipedia": "ru:Воложинский район Минской области",
      "population": "33179",
      "addr:region": "Минская область",
      "admin_level": "6",
      "old_name:uk": "Воложинський район",
      "addr:country": "BY",
      "population:date": "2018-01-01"
    }
  },
  {
    "osm_id": -70721,
    "boundary": "administrative",
    "admin_level": 6,
    "parents": "-59275,-59065",
    "name": "Astravyets District",
    "local_name": "Островецкий район",
    "name_en": "Astravyets District",
    "all_tags": {
      "name": "Островецкий район",
      "name:be": "Астравецкі раён",
      "name:de": "Rajon Astrawez",
      "name:en": "Astravyets District",
      "name:lt": "Ostroveco rajonas",
      "name:pl": "rejon ostrowiecki",
      "name:ru": "Островецкий район",
      "name:uk": "Островецький район",
      "website": "http://ostrovets.grodno-region.by/",
      "boundary": "administrative",
      "int_name": "Astraviecki rajon",
      "way_area": "0.219436",
      "wikidata": "Q1953368",
      "wikipedia": "ru:Островецкий район",
      "population": "24554",
      "addr:region": "Гродненская область",
      "admin_level": "6",
      "addr:country": "BY",
      "wikipedia:pl": "Rejon ostrowiecki",
      "population:date": "2018-01-01"
    }
  },
  {
    "osm_id": -70725,
    "boundary": "administrative",
    "admin_level": 6,
    "parents": "-59275,-59065",
    "name": "Smarhon' District",
    "local_name": "Сморгонский район",
    "name_en": "Smarhon' District",
    "all_tags": {
      "name": "Сморгонский район",
      "name:be": "Смаргонскі раён",
      "name:en": "Smarhon' District",
      "name:lt": "Smurgainių rajonas",
      "name:pl": "rejon smorgoński",
      "name:ru": "Сморгонский район",
      "name:uk": "Сморгонський район",
      "website": "http://smorgon.grodno-region.by/",
      "boundary": "administrative",
      "int_name": "Smarhonski rajon",
      "way_area": "0.206557",
      "wikidata": "Q954534",
      "wikipedia": "ru:Сморгонский район",
      "population": "51930",
      "addr:region": "Гродненская область",
      "admin_level": "6",
      "addr:country": "BY",
      "wikipedia:pl": "Rejon smorgoński",
      "population:date": "2018-01-01"
    }
  },
  {
    "osm_id": -59752,
    "boundary": "administrative",
    "admin_level": 4,
    "parents": "-59065",
    "name": "Minsk Region",
    "local_name": "Минская область",
    "name_en": "Minsk Region",
    "all_tags": {
      "name": "Минская область",
      "name:be": "Мінская вобласць",
      "name:de": "Minskaja Woblasz",
      "name:en": "Minsk Region",
      "name:eo": "Minska regiono",
      "name:es": "Provincia de Minsk",
      "name:fi": "Minskin alue",
      "name:fr": "Voblast de Minsk",
      "name:ja": "ミンスク州",
      "name:lt": "Minsko sritis",
      "name:pl": "obwód miński",
      "name:ru": "Минская область",
      "name:sk": "Minská oblasť",
      "name:uk": "Мінська область",
      "website": "http://minsk-region.gov.by/",
      "boundary": "administrative",
      "int_name": "Minskaja voblasć",
      "way_area": "5.43009",
      "wikidata": "Q192959",
      "ISO3166-2": "BY-MI",
      "wikipedia": "ru:Минская область",
      "population": "1426525",
      "admin_level": "4",
      "addr:country": "BY",
      "wikipedia:pl": "Obwód miński",
      "is_in:country": "Belarus",
      "name:be-tarask": "Менская вобласьць",
      "is_in:continent": "Europe",
      "population:date": "2018-01-01",
      "is_in:country_code": "BY"
    }
  },
  {
    "osm_id": -70549,
    "boundary": "administrative",
    "admin_level": 6,
    "parents": "-59752,-59065",
    "name": "Pukhavichy District",
    "local_name": "Пуховичский район",
    "name_en": "Pukhavichy District",
    "all_tags": {
      "name": "Пуховичский район",
      "name:be": "Пухавіцкі раён",
      "name:en": "Pukhavichy District",
      "name:lt": "Puchavičų rajonas",
      "name:pl": "rejon puchowicki",
      "name:ru": "Пуховичский район",
      "name:uk": "Пуховицький район",
      "website": "http://pukhovichi.minsk-region.by/",
      "boundary": "administrative",
      "int_name": "Puchavicki rajon",
      "way_area": "0.3322",
      "wikidata": "Q2091726",
      "wikipedia": "ru:Пуховичский район Минской области",
      "population": "65113",
      "addr:region": "Минская область",
      "admin_level": "6",
      "addr:country": "BY",
      "wikipedia:pl": "Rejon puchowicki",
      "population:date": "2018-01-01"
    }
  },
  {
    "osm_id": -59190,
    "boundary": "administrative",
    "admin_level": 6,
    "parents": "-59752,-59065",
    "name": "Minsk District",
    "local_name": "Минский район",
    "name_en": "Minsk District",
    "all_tags": {
      "name": "Минский район",
      "name:be": "Мінскі раён",
      "name:de": "Minsk Region",
      "name:en": "Minsk District",
      "name:lt": "Minsko rajonas",
      "name:pl": "rejon miński",
      "name:ru": "Минский район",
      "name:uk": "Мінський район",
      "website": "http://mrik.gov.by/",
      "boundary": "administrative",
      "int_name": "Minski rajon",
      "way_area": "0.258796",
      "wikidata": "Q1636191",
      "wikipedia": "ru:Минский район",
      "population": "215404",
      "addr:region": "Минская область",
      "admin_level": "6",
      "addr:country": "BY",
      "wikipedia:pl": "Rejon miński",
      "population:date": "2018-01-01"
    }
  },
  {
    "osm_id": -59195,
    "boundary": "administrative",
    "admin_level": 4,
    "parents": "-59065",
    "name": "Minsk",
    "local_name": "Минск",
    "name_en": "Minsk",
    "all_tags": {
      "name": "Минск",
      "place": "city",
      "capital": "yes",
      "name:be": "Мінск",
      "name:cs": "Minsk",
      "name:cu": "Мѣньскъ",
      "name:cv": "Минск",
      "name:de": "Minsk",
      "name:el": "Μινσκ",
      "name:en": "Minsk",
      "name:eo": "Minsko",
      "name:es": "Minsk",
      "name:et": "Minsk",
      "name:fa": "مینسک",
      "name:fi": "Minsk",
      "name:fr": "Minsk",
      "name:ga": "Minsc",
      "name:gl": "Minsk",
      "name:he": "מינסק",
      "name:hi": "मिन्‍स्‍क",
      "name:hr": "Minsk",
      "name:hu": "Minszk",
      "name:hy": "Մինսկ",
      "name:ia": "Minsk",
      "name:io": "Minsk",
      "name:is": "Minsk",
      "name:ja": "ミンスク",
      "name:ka": "მინსკი",
      "name:kk": "Минск",
      "name:kn": "ಮಿನ್ಸ್ಕ್",
      "name:ko": "민스크",
      "name:ku": "Mînsk",
      "name:kv": "Минск",
      "name:ky": "Минск",
      "name:la": "Minscum",
      "name:lt": "Minskas",
      "name:lv": "Minska",
      "name:mk": "Минск",
      "name:ml": "മിൻസ്ക്",
      "name:mr": "मिन्‍स्‍क",
      "name:nl": "Minsk",
      "name:no": "Minsk",
      "name:os": "Минск",
      "name:pl": "Mińsk",
      "name:ru": "Минск",
      "name:sk": "Minsk",
      "name:sl": "Minsk",
      "name:sr": "Минск",
      "name:sv": "Minsk",
      "name:ta": "மின்ஸ்க்",
      "name:tg": "Минск",
      "name:th": "มินสก์",
      "name:tt": "Минск",
      "name:ug": "مىنىسكى",
      "name:uk": "Мінськ",
      "name:ur": "منسک",
      "name:vi": "Minxcơ",
      "name:vo": "Minsk",
      "name:yi": "מינסק",
      "name:zh": "明斯克",
      "website": "https://minsk.gov.by/",
      "boundary": "administrative",
      "int_name": "Minsk",
      "name:ckb": "مینسک",
      "name:csb": "Mińsk",
      "name:jbo": "misk",
      "name:mhr": "Минск",
      "name:myv": "Минск ош",
      "name:nds": "Minsk",
      "name:pnb": "منسک",
      "name:rue": "Мінск",
      "name:sah": "Минскай",
      "name:szl": "Mińsk",
      "name:udm": "Минск",
      "name:wuu": "明斯克",
      "nat_name": "Мінск",
      "old_name": "Менск",
      "way_area": "0.047876",
      "wikidata": "Q2280",
      "ISO3166-2": "BY-HM",
      "wikipedia": "be:Мінск",
      "population": "1982444",
      "admin_level": "4",
      "alt_name:be": "Менск",
      "alt_name:gl": "Мінск",
      "alt_name:vi": "Minsk;Minxcơva",
      "name:prefix": "город",
      "old_name:be": "Менск",
      "addr:country": "BY",
      "is_in:country": "Belarus",
      "name:be-tarask": "Менск",
      "is_in:continent": "Europe",
      "population:date": "2018-01-01",
      "is_in:country_code": "BY"
    }
  },
  {
    "osm_id": -70566,
    "boundary": "administrative",
    "admin_level": 6,
    "parents": "-59752,-59065",
    "name": "Maladzyechna District",
    "local_name": "Молодечненский район",
    "name_en": "Maladzyechna District",
    "all_tags": {
      "name": "Молодечненский район",
      "name:be": "Маладзечанскі раён",
      "name:de": "Rajon Maladsetschna",
      "name:en": "Maladzyechna District",
      "name:lt": "Maladečinos rajonas",
      "name:pl": "rejon mołodeczański",
      "name:ru": "Молодечненский район",
      "name:uk": "Маладзєчненський район",
      "website": "http://molodechno.minsk-region.by/",
      "boundary": "administrative",
      "int_name": "Maladziečanski rajon",
      "way_area": "0.192391",
      "wikidata": "Q2061340",
      "wikipedia": "ru:Молодечненский район",
      "population": "136835",
      "addr:region": "Минская область",
      "admin_level": "6",
      "old_name:uk": "Молодечненський район",
      "addr:country": "BY",
      "population:date": "2018-01-01"
    }
  },
  {
    "osm_id": -70568,
    "boundary": "administrative",
    "admin_level": 6,
    "parents": "-59752,-59065",
    "name": "Vileyka District",
    "local_name": "Вилейский район",
    "name_en": "Vileyka District",
    "all_tags": {
      "name": "Вилейский район",
      "name:be": "Вілейскі раён",
      "name:de": "Rajon Wilejka",
      "name:en": "Vileyka District",
      "name:lt": "Vileikos rajonas",
      "name:pl": "rejon wilejski",
      "name:ru": "Вилейский район",
      "name:uk": "Вілєйський район",
      "website": "http://vileyka.minsk-region.by/",
      "boundary": "administrative",
      "int_name": "Viliejski rajon",
      "way_area": "0.338478",
      "wikidata": "Q2061377",
      "wikipedia": "ru:Вилейский район",
      "population": "47349",
      "addr:region": "Минская область",
      "admin_level": "6",
      "old_name:uk": "Вілейський район",
      "addr:country": "BY",
      "population:date": "2018-01-01"
    }
  },
  {
    "osm_id": -62145,
    "boundary": "administrative",
    "admin_level": 6,
    "parents": "-59162,-59065",
    "name": "Mahilyow",
    "local_name": "Могилёв",
    "name_en": "Mahilyow",
    "all_tags": {
      "name": "Могилёв",
      "place": "city",
      "name:ar": "موغيلوف",
      "name:be": "Магілёў",
      "name:cs": "Mohylev",
      "name:de": "Mahiljou",
      "name:en": "Mahilyow",
      "name:eo": "Mahilovo",
      "name:es": "Maguilov",
      "name:fr": "Mahiliow",
      "name:lt": "Mogiliovas",
      "name:pl": "Mohylew",
      "name:ru": "Могилёв",
      "name:sr": "Могиљов",
      "name:uk": "Могильов",
      "website": "http://city.mogilev.by/",
      "boundary": "administrative",
      "int_name": "Mahilioŭ",
      "name:szl": "Mohylew",
      "old_name": "Могилёв",
      "way_area": "0.0157895",
      "wikidata": "Q154835",
      "wikipedia": "ru:Могилёв",
      "population": "381353",
      "addr:region": "Могилёвская область",
      "admin_level": "6",
      "alt_name:ar": "موجيلوف",
      "alt_name:eo": "Mahiljoŭ",
      "name:prefix": "город",
      "old_name:fr": "Moguilev",
      "addr:country": "BY",
      "wikipedia:be": "Магілёў",
      "wikipedia:en": "Mogilev",
      "name:be-tarask": "Магілёў",
      "population:date": "2018-01-01"
    }
  },
  {
    "osm_id": -70707,
    "boundary": "administrative",
    "admin_level": 6,
    "parents": "-59506,-59065",
    "name": "Pastavy District",
    "local_name": "Поставский район",
    "name_en": "Pastavy District",
    "all_tags": {
      "name": "Поставский район",
      "name:be": "Пастаўскі раён",
      "name:de": "Rajon Pastawy",
      "name:en": "Pastavy District",
      "name:lt": "Pastovų rajonas",
      "name:pl": "rejon postawski",
      "name:ru": "Поставский район",
      "name:uk": "Поставський район",
      "website": "http://postavy.vitebsk-region.gov.by/",
      "boundary": "administrative",
      "int_name": "Pastaŭski rajon",
      "way_area": "0.294278",
      "wikidata": "Q2023948",
      "wikipedia": "ru:Поставский район",
      "population": "35642",
      "addr:region": "Витебская область",
      "admin_level": "6",
      "addr:country": "BY",
      "wikipedia:pl": "Rejon postawski",
      "population:date": "2018-01-01"
    }
  },
  {
    "osm_id": -70703,
    "boundary": "administrative",
    "admin_level": 6,
    "parents": "-59506,-59065",
    "name": "Hlybokaye District",
    "local_name": "Глубокский район",
    "name_en": "Hlybokaye District",
    "all_tags": {
      "name": "Глубокский район",
      "name:be": "Глыбоцкі раён",
      "name:en": "Hlybokaye District",
      "name:lt": "Gluboko rajonas",
      "name:pl": "rejon głębocki",
      "name:ru": "Глубокский район",
      "name:uk": "Глибоцький район",
      "website": "http://glubokoe.vitebsk-region.gov.by/",
      "boundary": "administrative",
      "int_name": "Hlybocki rajon",
      "way_area": "0.250521",
      "wikidata": "Q2092119",
      "wikipedia": "ru:Глубокский район",
      "population": "36975",
      "addr:region": "Витебская область",
      "admin_level": "6",
      "addr:country": "BY",
      "population:date": "2018-01-01"
    }
  },
  {
    "osm_id": -70701,
    "boundary": "administrative",
    "admin_level": 6,
    "parents": "-59506,-59065",
    "name": "Sharkawshchyna District",
    "local_name": "Шарковщинский район",
    "name_en": "Sharkawshchyna District",
    "all_tags": {
      "name": "Шарковщинский район",
      "name:be": "Шаркаўшчынскі раён",
      "name:en": "Sharkawshchyna District",
      "name:lt": "Šarkauščynos rajonas",
      "name:pl": "rejon szarkowszczyński",
      "name:ru": "Шарковщинский район",
      "name:uk": "Шарковщинський район",
      "website": "http://sharkovshchina.vitebsk-region.gov.by/",
      "boundary": "administrative",
      "int_name": "Šarkaŭščynski rajon",
      "way_area": "0.168619",
      "wikidata": "Q1997084",
      "wikipedia": "ru:Шарковщинский район",
      "population": "14781",
      "addr:region": "Витебская область",
      "admin_level": "6",
      "addr:country": "BY",
      "wikipedia:pl": "Rejon szarkowszczyński",
      "population:date": "2018-01-01"
    }
  },
  {
    "osm_id": -71147,
    "boundary": "administrative",
    "admin_level": 6,
    "parents": "-59161,-59065",
    "name": "Lyelchytsy District",
    "local_name": "Лельчицкий район",
    "name_en": "Lyelchytsy District",
    "all_tags": {
      "name": "Лельчицкий район",
      "name:be": "Лельчыцкі раён",
      "name:en": "Lyelchytsy District",
      "name:lt": "Lelčycų rajonas",
      "name:pl": "rejon lelczycki",
      "name:ru": "Лельчицкий район",
      "name:uk": "Лєльчицький район",
      "website": "http://lelchitsy.gomel-region.by/",
      "boundary": "administrative",
      "int_name": "Lieĺčycki rajon",
      "way_area": "0.418764",
      "wikidata": "Q944464",
      "wikipedia": "ru:Лельчицкий район",
      "population": "23833",
      "addr:region": "Гомельская область",
      "admin_level": "6",
      "old_name:uk": "Лельчицький район",
      "addr:country": "BY",
      "population:date": "2018-01-01"
    }
  },
  {
    "osm_id": -70768,
    "boundary": "administrative",
    "admin_level": 6,
    "parents": "-59275,-59065",
    "name": "Dzyatlava District",
    "local_name": "Дятловский район",
    "name_en": "Dzyatlava District",
    "all_tags": {
      "name": "Дятловский район",
      "name:be": "Дзятлаўскі раён",
      "name:en": "Dzyatlava District",
      "name:pl": "rejon zdzięcielski",
      "name:ru": "Дятловский район",
      "name:uk": "Дзятлавський район",
      "website": "http://dyatlovo.grodno-region.by/",
      "boundary": "administrative",
      "int_name": "Dziatlaŭski rajon",
      "way_area": "0.211459",
      "wikidata": "Q1754468",
      "wikipedia": "ru:Дятловский_район",
      "population": "24351",
      "addr:region": "Гродненская область",
      "admin_level": "6",
      "old_name:uk": "Дятловський район",
      "addr:country": "BY",
      "population:date": "2018-01-01"
    }
  },
  {
    "osm_id": -70815,
    "boundary": "administrative",
    "admin_level": 6,
    "parents": "-59161,-59065",
    "name": "Mazyr District",
    "local_name": "Мозырский район",
    "name_en": "Mazyr District",
    "all_tags": {
      "name": "Мозырский район",
      "name:be": "Мазырскі раён",
      "name:de": "Rajon Mazyr",
      "name:en": "Mazyr District",
      "name:es": "Raión de Mazyr",
      "name:fi": "Mazyrin piiri",
      "name:fr": "Raïon de Mazyr",
      "name:it": "Distretto di Mazyr",
      "name:ka": "მოზირის რაიონი",
      "name:lt": "Mozyriaus rajonas",
      "name:lv": "Maziras rajons",
      "name:pl": "rejon mozyrski",
      "name:ru": "Мозырский район",
      "name:sr": "Mazyrský rajón",
      "name:sv": "Mazyrski rajon",
      "name:uk": "Мазирський район",
      "name:zh": "馬濟爾斯基區",
      "website": "http://mozyr.gomel-region.by/",
      "boundary": "administrative",
      "int_name": "Mazyrski rajon",
      "way_area": "0.208521",
      "wikidata": "Q1952838",
      "wikipedia": "ru:Мозырский район",
      "name:zh-CN": "马济尔斯基区",
      "population": "133437",
      "addr:region": "Гомельская область",
      "admin_level": "6",
      "old_name:uk": "Мозирський район",
      "addr:country": "BY",
      "population:date": "2018-01-01"
    }
  },
  {
    "osm_id": -70809,
    "boundary": "administrative",
    "admin_level": 6,
    "parents": "-59161,-59065",
    "name": "Naroulia District",
    "local_name": "Наровлянский район",
    "name_en": "Naroulia District",
    "all_tags": {
      "name": "Наровлянский район",
      "name:be": "Нараўлянскі раён",
      "name:en": "Naroulia District",
      "name:lt": "Narovlios rajonas",
      "name:pl": "rejon narowelski",
      "name:ru": "Наровлянский район",
      "name:uk": "Наровлянський район",
      "website": "http://narovlya.gomel-region.by/",
      "boundary": "administrative",
      "int_name": "Naraŭlianski rajon",
      "way_area": "0.203198",
      "wikidata": "Q787181",
      "wikipedia": "ru:Наровлянский район",
      "population": "10427",
      "addr:region": "Гомельская область",
      "admin_level": "6",
      "addr:country": "BY",
      "population:date": "2018-01-01"
    }
  },
  {
    "osm_id": -70801,
    "boundary": "administrative",
    "admin_level": 6,
    "parents": "-59161,-59065",
    "name": "Brahin District",
    "local_name": "Брагинский район",
    "name_en": "Brahin District",
    "all_tags": {
      "name": "Брагинский район",
      "name:be": "Брагінскі раён",
      "name:en": "Brahin District",
      "name:lt": "Bragino rajonas",
      "name:pl": "rejon brahiński",
      "name:ru": "Брагинский район",
      "name:uk": "Брагінський район",
      "website": "http://bragin.gomel-region.by/",
      "boundary": "administrative",
      "int_name": "Brahinski rajon",
      "way_area": "0.257125",
      "wikidata": "Q1808720",
      "wikipedia": "ru:Брагинский район",
      "population": "11887",
      "addr:region": "Гомельская область",
      "admin_level": "6",
      "addr:country": "BY",
      "wikipedia:pl": "Rejon brahiński",
      "population:date": "2018-01-01"
    }
  },
  {
    "osm_id": -59148,
    "boundary": "administrative",
    "admin_level": 6,
    "parents": "-59162,-59065",
    "name": "Babruysk District",
    "local_name": "Бобруйский район",
    "name_en": "Babruysk District",
    "all_tags": {
      "name": "Бобруйский район",
      "name:be": "Бабруйскі раён",
      "name:en": "Babruysk District",
      "name:lt": "Babruisko rajonas",
      "name:pl": "rejon bobrujski",
      "name:ru": "Бобруйский район",
      "name:uk": "Бабруйський район",
      "website": "http://bobruisk.mogilev-region.by/",
      "boundary": "administrative",
      "int_name": "Babrujski rajon",
      "way_area": "0.212935",
      "wikidata": "Q2025091",
      "wikipedia": "ru:Бобруйский район",
      "population": "16683",
      "addr:region": "Могилёвская область",
      "admin_level": "6",
      "old_name:uk": "Бобруйський район",
      "addr:country": "BY",
      "population:date": "2018-01-01"
    }
  },
  {
    "osm_id": -59137,
    "boundary": "administrative",
    "admin_level": 6,
    "parents": "-59161,-59065",
    "name": "Svietlahorsk District",
    "local_name": "Светлогорский район",
    "name_en": "Svietlahorsk District",
    "all_tags": {
      "name": "Светлогорский район",
      "name:be": "Светлагорскі раён",
      "name:en": "Svietlahorsk District",
      "name:lt": "Svetlogorsko rajonas",
      "name:pl": "rejon świetłohorski",
      "name:ru": "Светлогорский район",
      "name:uk": "Свєтлогорський район",
      "website": "http://svetlogorsk.gov.by/",
      "boundary": "administrative",
      "int_name": "Svietlahorski rajon",
      "way_area": "0.254101",
      "wikidata": "Q1952866",
      "wikipedia": "ru:Светлогорский район (Гомельская область)",
      "population": "83200",
      "addr:region": "Гомельская область",
      "admin_level": "6",
      "addr:country": "BY",
      "wikipedia:pl": "Rejon swietłahorski",
      "population:date": "2018-01-01"
    }
  },
  {
    "osm_id": -59167,
    "boundary": "administrative",
    "admin_level": 6,
    "parents": "-59161,-59065",
    "name": "Zhlobin District",
    "local_name": "Жлобинский район",
    "name_en": "Zhlobin District",
    "all_tags": {
      "name": "Жлобинский район",
      "name:be": "Жлобінскі раён",
      "name:en": "Zhlobin District",
      "name:lt": "Žlobino rajonas",
      "name:pl": "rejon żłobiński",
      "name:ru": "Жлобинский район",
      "name:uk": "Жлобінський район",
      "website": "http://zhlobin.gomel-region.by/",
      "boundary": "administrative",
      "int_name": "Žlobinski rajon",
      "way_area": "0.277443",
      "wikidata": "Q1808712",
      "wikipedia": "ru:Жлобинский район",
      "population": "102017",
      "addr:region": "Гомельская область",
      "admin_level": "6",
      "old_name:uk": "Жлобинський район",
      "addr:country": "BY",
      "population:date": "2018-01-01"
    }
  },
  {
    "osm_id": -59092,
    "boundary": "administrative",
    "admin_level": 6,
    "parents": "-59161,-59065",
    "name": "Dobrush District",
    "local_name": "Добрушский район",
    "name_en": "Dobrush District",
    "all_tags": {
      "name": "Добрушский район",
      "name:be": "Добрушскі раён",
      "name:en": "Dobrush District",
      "name:lt": "Dobrušo rajonas",
      "name:pl": "rejon dobruski",
      "name:ru": "Добрушский район",
      "name:uk": "Добруський район",
      "name:zh": "多布魯什斯基區",
      "website": "http://dobrush.gomel-region.by/",
      "boundary": "administrative",
      "int_name": "Dobrušski rajon",
      "way_area": "0.190481",
      "wikidata": "Q1702264",
      "wikipedia": "ru:Добрушский район",
      "population": "36110",
      "addr:region": "Гомельская область",
      "admin_level": "6",
      "addr:country": "BY",
      "population:date": "2018-01-01"
    }
  },
  {
    "osm_id": -70795,
    "boundary": "administrative",
    "admin_level": 6,
    "parents": "-59161,-59065",
    "name": "Vietka District",
    "local_name": "Ветковский район",
    "name_en": "Vietka District",
    "all_tags": {
      "name": "Ветковский район",
      "name:be": "Веткаўскі раён",
      "name:en": "Vietka District",
      "name:pl": "rejon wietecki",
      "name:ru": "Ветковский район",
      "name:uk": "Вєткавський район",
      "website": "http://vetka.gov.by/",
      "boundary": "administrative",
      "int_name": "Vietkaŭski rajon",
      "way_area": "0.207502",
      "wikidata": "Q385458",
      "wikipedia": "ru:Ветковский_район",
      "population": "17838",
      "addr:region": "Гомельская область",
      "admin_level": "6",
      "old_name:uk": "Вітківський район",
      "addr:country": "BY",
      "population:date": "2018-01-01"
    }
  },
  {
    "osm_id": -69554,
    "boundary": "administrative",
    "admin_level": 6,
    "parents": "-59752,-59065",
    "name": "Smalyavichy District",
    "local_name": "Смолевичский район",
    "name_en": "Smalyavichy District",
    "all_tags": {
      "name": "Смолевичский район",
      "name:be": "Смалявіцкі раён",
      "name:en": "Smalyavichy District",
      "name:lt": "Smaliavičų rajonas",
      "name:pl": "rejon smolewicki",
      "name:ru": "Смолевичский район",
      "name:uk": "Смолевицький район",
      "website": "http://smolevichi.minsk-region.by/",
      "boundary": "administrative",
      "int_name": "Smaliavicki rajon",
      "way_area": "0.189006",
      "wikidata": "Q675294",
      "wikipedia": "ru:Смолевичский район Минской области",
      "population": "46225",
      "addr:region": "Минская область",
      "admin_level": "6",
      "addr:country": "BY",
      "wikipedia:pl": "Rejon smolewicki",
      "population:date": "2018-01-01"
    }
  },
  {
    "osm_id": -70679,
    "boundary": "administrative",
    "admin_level": 6,
    "parents": "-59506,-59065",
    "name": "Lepiel District",
    "local_name": "Лепельский район",
    "name_en": "Lepiel District",
    "all_tags": {
      "name": "Лепельский район",
      "name:be": "Лепельскі раён",
      "name:en": "Lepiel District",
      "name:lt": "Lepelio rajonas",
      "name:pl": "rejon lepelski",
      "name:ru": "Лепельский район",
      "name:uk": "Лепельський район",
      "website": "http://lepel.vitebsk-region.gov.by/",
      "boundary": "administrative",
      "int_name": "Liepieĺski rajon",
      "way_area": "0.25446",
      "wikidata": "Q268331",
      "wikipedia": "ru:Лепельский район",
      "population": "32764",
      "addr:region": "Витебская область",
      "admin_level": "6",
      "addr:country": "BY",
      "wikipedia:pl": "Rejon lepelski",
      "population:date": "2018-01-01"
    }
  },
  {
    "osm_id": -70639,
    "boundary": "administrative",
    "admin_level": 6,
    "parents": "-59752,-59065",
    "name": "Krupki District",
    "local_name": "Крупский район",
    "name_en": "Krupki District",
    "all_tags": {
      "name": "Крупский район",
      "name:be": "Крупскі раён",
      "name:en": "Krupki District",
      "name:lt": "Krupkų rajonas",
      "name:pl": "rejon krupski",
      "name:ru": "Крупский район",
      "name:uk": "Крупський район",
      "website": "http://krupki.gov.by/",
      "boundary": "administrative",
      "int_name": "Krupski rajon",
      "way_area": "0.296961",
      "wikidata": "Q2092848",
      "wikipedia": "ru:Крупский район Минской области",
      "population": "22557",
      "addr:region": "Минская область",
      "admin_level": "6",
      "alt_name:pl": "Rejon krupkowski",
      "addr:country": "BY",
      "wikipedia:pl": "Rejon krupkowski",
      "population:date": "2018-01-01"
    }
  },
  {
    "osm_id": -59162,
    "boundary": "administrative",
    "admin_level": 4,
    "parents": "-59065",
    "name": "Mahilyow Region",
    "local_name": "Могилёвская область",
    "name_en": "Mahilyow Region",
    "all_tags": {
      "name": "Могилёвская область",
      "name:az": "Mogilyov vilayəti",
      "name:be": "Магілёўская вобласць",
      "name:de": "Woblast Mahiljou",
      "name:en": "Mahilyow Region",
      "name:eo": "Mahilova regiono",
      "name:es": "Provincia de Maguilov",
      "name:fr": "Voblast de Mahiliow",
      "name:hu": "Mahiljovi terület",
      "name:ja": "マヒリョウ州",
      "name:ka": "მოგილევის ოლქი",
      "name:kk": "Могилев облысы",
      "name:ky": "Могилёв областы",
      "name:lt": "Mogiliovo sritis",
      "name:nl": "Oblast Mahiljow",
      "name:pl": "obwód mohylewski",
      "name:pt": "Voblast de Mahilou",
      "name:ro": "Regiunea Moghilău",
      "name:ru": "Могилёвская область",
      "name:sk": "Mahiľovská oblasť",
      "name:tr": "Mahilyov Voblastı",
      "name:uk": "Могильовська область",
      "name:uz": "Mogilyov viloyati",
      "website": "http://region.mogilev.by/",
      "boundary": "administrative",
      "int_name": "Mahilioŭskaja voblasć",
      "way_area": "3.94413",
      "wikidata": "Q189822",
      "ISO3166-2": "BY-MA",
      "wikipedia": "be:Магілёўская вобласць",
      "population": "1058746",
      "admin_level": "4",
      "old_name:en": "Mogilev Region",
      "old_name:fr": "Voblast de Moguilev",
      "addr:country": "BY",
      "is_in:country": "Belarus",
      "name:be-tarask": "Магілёўская вобласьць",
      "is_in:continent": "Europe",
      "population:date": "2018-01-01",
      "is_in:country_code": "BY"
    }
  },
  {
    "osm_id": -70589,
    "boundary": "administrative",
    "admin_level": 6,
    "parents": "-59162,-59065",
    "name": "Slawharad District",
    "local_name": "Славгородский район",
    "name_en": "Slawharad District",
    "all_tags": {
      "name": "Славгородский район",
      "name:be": "Слаўгарадскі раён",
      "name:en": "Slawharad District",
      "name:lt": "Slavhorodo rajonas",
      "name:pl": "rejon sławogradzki",
      "name:ru": "Славгородский район",
      "name:uk": "Славгородський район",
      "website": "http://slavgorod.mogilev-region.by/",
      "boundary": "administrative",
      "int_name": "Slaŭharadski rajon",
      "way_area": "0.178528",
      "wikidata": "Q2024248",
      "wikipedia": "ru:Славгородский_район_(Могилёвская_область)",
      "population": "12781",
      "addr:region": "Могилёвская область",
      "admin_level": "6",
      "addr:country": "BY",
      "wikipedia:pl": "Rejon sławogradzki",
      "population:date": "2018-01-01"
    }
  },
  {
    "osm_id": -70618,
    "boundary": "administrative",
    "admin_level": 6,
    "parents": "-59162,-59065",
    "name": "Drybin District",
    "local_name": "Дрибинский район",
    "name_en": "Drybin District",
    "all_tags": {
      "name": "Дрибинский район",
      "name:be": "Дрыбінскі раён",
      "name:en": "Drybin District",
      "name:lt": "Drybino rajonas",
      "name:pl": "rejon drybiński",
      "name:ru": "Дрибинский район",
      "name:uk": "Дрибінський район",
      "website": "http://dribin.mogilev-region.by/",
      "boundary": "administrative",
      "int_name": "Drybinski rajon",
      "way_area": "0.104699",
      "wikidata": "Q675279",
      "wikipedia": "ru:Дрибинский район",
      "population": "9661",
      "addr:region": "Могилёвская область",
      "admin_level": "6",
      "old_name:uk": "Дрибинський район",
      "addr:country": "BY",
      "population:date": "2018-01-01"
    }
  },
  {
    "osm_id": -70638,
    "boundary": "administrative",
    "admin_level": 6,
    "parents": "-59162,-59065",
    "name": "Kruhlaye District",
    "local_name": "Круглянский район",
    "name_en": "Kruhlaye District",
    "all_tags": {
      "name": "Круглянский район",
      "name:be": "Круглянскі раён",
      "name:en": "Kruhlaye District",
      "name:lt": "Kruhlajės rajonas",
      "name:pl": "rejon kruhelski",
      "name:ru": "Круглянский район",
      "name:uk": "Круглянський район",
      "website": "http://krugloe.mogilev-region.by/",
      "boundary": "administrative",
      "int_name": "Kruhlianski rajon",
      "way_area": "0.12095",
      "wikidata": "Q1997096",
      "wikipedia": "ru:Круглянский район",
      "population": "13827",
      "addr:region": "Могилёвская область",
      "admin_level": "6",
      "addr:country": "BY",
      "wikipedia:pl": "Rejon kruhelski",
      "population:date": "2018-01-01"
    }
  },
  {
    "osm_id": -70649,
    "boundary": "administrative",
    "admin_level": 6,
    "parents": "-59506,-59065",
    "name": "Talachyn District",
    "local_name": "Толочинский район",
    "name_en": "Talachyn District",
    "all_tags": {
      "name": "Толочинский район",
      "name:be": "Талачынскі раён",
      "name:en": "Talachyn District",
      "name:lt": "Talačyno rajonas",
      "name:pl": "rejon tołoczyński",
      "name:ru": "Толочинский район",
      "name:uk": "Толочицький район",
      "website": "http://tolochin.vitebsk-region.gov.by/",
      "boundary": "administrative",
      "int_name": "Talačynski rajon",
      "way_area": "0.207373",
      "wikidata": "Q1235840",
      "wikipedia": "ru:Толочинский район",
      "population": "24478",
      "addr:region": "Витебская область",
      "admin_level": "6",
      "addr:country": "BY",
      "wikipedia:pl": "Rejon tołoczyński",
      "population:date": "2018-01-01"
    }
  },
  {
    "osm_id": -70662,
    "boundary": "administrative",
    "admin_level": 6,
    "parents": "-59506,-59065",
    "name": "Syanno District",
    "local_name": "Сенненский район",
    "name_en": "Syanno District",
    "all_tags": {
      "name": "Сенненский район",
      "name:be": "Сенненскі раён",
      "name:en": "Syanno District",
      "name:lt": "Siano rajonas",
      "name:pl": "rejon sienneński",
      "name:ru": "Сенненский район",
      "name:uk": "Сєнненський район",
      "website": "http://senno.vitebsk-region.gov.by/",
      "boundary": "administrative",
      "int_name": "Siennienski rajon",
      "way_area": "0.274998",
      "wikidata": "Q1353622",
      "wikipedia": "ru:Сенненский район",
      "population": "21128",
      "addr:region": "Витебская область",
      "admin_level": "6",
      "addr:country": "BY",
      "wikipedia:pl": "Rejon sieneński",
      "population:date": "2018-01-01"
    }
  },
  {
    "osm_id": -70660,
    "boundary": "administrative",
    "admin_level": 6,
    "parents": "-59506,-59065",
    "name": "Orsha District",
    "local_name": "Оршанский район",
    "name_en": "Orsha District",
    "all_tags": {
      "name": "Оршанский район",
      "name:be": "Аршанскі раён",
      "name:de": "Rajon Orscha",
      "name:en": "Orsha District",
      "name:lt": "Oršos rajonas",
      "name:pl": "rejon orszański",
      "name:ru": "Оршанский район",
      "name:uk": "Оршанський район",
      "website": "http://orsha.vitebsk-region.gov.by/",
      "boundary": "administrative",
      "int_name": "Aršanski rajon",
      "way_area": "0.237038",
      "wikidata": "Q1245303",
      "wikipedia": "ru:Оршанский район (Витебская область)",
      "population": "146042",
      "addr:region": "Витебская область",
      "admin_level": "6",
      "addr:country": "BY",
      "wikipedia:pl": "Rejon orszański",
      "population:date": "2021-01-01"
    }
  },
  {
    "osm_id": -70669,
    "boundary": "administrative",
    "admin_level": 6,
    "parents": "-59506,-59065",
    "name": "Ushachy District",
    "local_name": "Ушачский район",
    "name_en": "Ushachy District",
    "all_tags": {
      "name": "Ушачский район",
      "name:be": "Ушацкі раён",
      "name:en": "Ushachy District",
      "name:lt": "Ušačių rajonas",
      "name:pl": "rejon uszacki",
      "name:ru": "Ушачский район",
      "name:uk": "Ушацький район",
      "website": "http://ushachi.vitebsk-region.gov.by/",
      "boundary": "administrative",
      "int_name": "Ušacki rajon",
      "way_area": "0.211154",
      "wikidata": "Q2025099",
      "wikipedia": "ru:Ушачский район",
      "population": "13236",
      "addr:region": "Витебская область",
      "admin_level": "6",
      "addr:country": "BY",
      "wikipedia:pl": "Rejon uszacki",
      "population:date": "2018-01-01"
    }
  },
  {
    "osm_id": -59506,
    "boundary": "administrative",
    "admin_level": 4,
    "parents": "-59065",
    "name": "Vitsebsk Region",
    "local_name": "Витебская область",
    "name_en": "Vitsebsk Region",
    "all_tags": {
      "name": "Витебская область",
      "name:be": "Віцебская вобласць",
      "name:ca": "Província de Vítsiebsk",
      "name:de": "Wizebskaja Woblasz",
      "name:en": "Vitsebsk Region",
      "name:eo": "Vicebska regiono",
      "name:es": "Provincia de Vítebsk",
      "name:fr": "Voblast de Vitsebsk",
      "name:hu": "Vicebszki terület",
      "name:ja": "ヴィーツェプスク州",
      "name:lt": "Vitebsko sritis",
      "name:pl": "obwód witebski",
      "name:ru": "Витебская область",
      "name:sk": "Vicebská oblasť",
      "name:uk": "Вітебська область",
      "website": "http://vitebsk-region.gov.by/",
      "boundary": "administrative",
      "int_name": "Viciebskaja voblasć",
      "way_area": "5.65397",
      "wikidata": "Q185700",
      "ISO3166-2": "BY-VI",
      "wikipedia": "ru:Витебская область",
      "population": "1180202",
      "admin_level": "4",
      "old_name:en": "Vitebsk region",
      "old_name:fr": "Voblast de Vitebsk",
      "addr:country": "BY",
      "is_in:country": "Belarus",
      "name:be-tarask": "Віцебская вобласьць",
      "is_in:continent": "Europe",
      "population:date": "2018-01-01",
      "is_in:country_code": "BY"
    }
  },
  {
    "osm_id": -70671,
    "boundary": "administrative",
    "admin_level": 6,
    "parents": "-59506,-59065",
    "name": "Polatsk District",
    "local_name": "Полоцкий район",
    "name_en": "Polatsk District",
    "all_tags": {
      "name": "Полоцкий район",
      "name:be": "Полацкі раён",
      "name:de": "Rajon Polazk",
      "name:en": "Polatsk District",
      "name:lt": "Polocko rajonas",
      "name:pl": "rejon połocki",
      "name:ru": "Полоцкий район",
      "name:uk": "Полацький район",
      "website": "http://polotsk.vitebsk-region.gov.by/",
      "boundary": "administrative",
      "int_name": "Polacki rajon",
      "way_area": "0.450015",
      "wikidata": "Q1423032",
      "wikipedia": "ru:Полоцкий район",
      "population": "107480",
      "addr:region": "Витебская область",
      "admin_level": "6",
      "old_name:uk": "Полоцький район",
      "addr:country": "BY",
      "wikipedia:pl": "Rejon połocki",
      "population:date": "2018-01-01"
    }
  },
  {
    "osm_id": -70680,
    "boundary": "administrative",
    "admin_level": 6,
    "parents": "-59506,-59065",
    "name": "Rasony District",
    "local_name": "Россонский район",
    "name_en": "Rasony District",
    "all_tags": {
      "name": "Россонский район",
      "name:be": "Расонскі раён",
      "name:de": "Rajon Rasony",
      "name:en": "Rasony District",
      "name:lt": "Rasonų rajonas",
      "name:pl": "rejon rossoński",
      "name:ru": "Россонский район",
      "website": "http://rossony.vitebsk-region.gov.by/",
      "boundary": "administrative",
      "int_name": "Rasonski rajon",
      "way_area": "0.277188",
      "wikidata": "Q2024283",
      "wikipedia": "ru:Россонский_район",
      "population": "9180",
      "addr:region": "Витебская область",
      "admin_level": "6",
      "addr:country": "BY",
      "wikipedia:pl": "Rejon rossoński",
      "population:date": "2018-01-01"
    }
  },
  {
    "osm_id": -70665,
    "boundary": "administrative",
    "admin_level": 6,
    "parents": "-59506,-59065",
    "name": "Liozna District",
    "local_name": "Лиозненский район",
    "name_en": "Liozna District",
    "all_tags": {
      "name": "Лиозненский район",
      "name:be": "Лёзненскі раён",
      "name:en": "Liozna District",
      "name:lt": "Liozno rajonas",
      "name:pl": "rejon łoźnieński",
      "name:ru": "Лиозненский район",
      "name:uk": "Ліозненський район",
      "website": "http://liozno.vitebsk-region.gov.by/",
      "boundary": "administrative",
      "int_name": "Lioznienski rajon",
      "way_area": "0.195956",
      "wikidata": "Q1388657",
      "wikipedia": "ru:Лиозненский район",
      "population": "15285",
      "addr:region": "Витебская область",
      "admin_level": "6",
      "addr:country": "BY",
      "wikipedia:pl": "Rejon łoźnieński",
      "population:date": "2018-01-01"
    }
  },
  {
    "osm_id": -70676,
    "boundary": "administrative",
    "admin_level": 6,
    "parents": "-59506,-59065",
    "name": "Haradok District",
    "local_name": "Городокский район",
    "name_en": "Haradok District",
    "all_tags": {
      "name": "Городокский район",
      "name:be": "Гарадоцкі раён",
      "name:en": "Haradok District",
      "name:lt": "Haradoko rajonas",
      "name:pl": "rejon horodecki",
      "name:ru": "Городокский район",
      "name:uk": "Гарадоцький район",
      "website": "http://gorodok.vitebsk-region.gov.by/",
      "boundary": "administrative",
      "int_name": "Haradocki rajon",
      "way_area": "0.424137",
      "wikidata": "Q2005718",
      "wikipedia": "ru:Городокский район (Витебская область)",
      "population": "22932",
      "addr:region": "Витебская область",
      "admin_level": "6",
      "old_name:uk": "Городоцький район",
      "addr:country": "BY",
      "population:date": "2018-01-01"
    }
  },
  {
    "osm_id": -70616,
    "boundary": "administrative",
    "admin_level": 6,
    "parents": "-59162,-59065",
    "name": "Mstsislaw District",
    "local_name": "Мстиславский район",
    "name_en": "Mstsislaw District",
    "all_tags": {
      "name": "Мстиславский район",
      "name:be": "Мсціслаўскі раён",
      "name:en": "Mstsislaw District",
      "name:lt": "Mscislavo rajonas",
      "name:pl": "rejon mścisławski",
      "name:ru": "Мстиславский район",
      "name:uk": "Мстиславський район",
      "website": "http://mstislavl.mogilev-region.by/",
      "boundary": "administrative",
      "int_name": "Mscislaŭski rajon",
      "way_area": "0.182864",
      "wikidata": "Q1644438",
      "wikipedia": "ru:Мстиславский район",
      "population": "20781",
      "addr:region": "Могилёвская область",
      "admin_level": "6",
      "addr:country": "BY",
      "wikipedia:pl": "Rejon mścisławski",
      "population:date": "2018-01-01"
    }
  },
  {
    "osm_id": -59504,
    "boundary": "administrative",
    "admin_level": 6,
    "parents": "-59506,-59065",
    "name": "Vitebsk District",
    "local_name": "Витебский район",
    "name_en": "Vitebsk District",
    "all_tags": {
      "name": "Витебский район",
      "name:be": "Віцебскі раён",
      "name:en": "Vitebsk District",
      "name:lt": "Vitebsko rajonas",
      "name:pl": "rejon witebski",
      "name:ru": "Витебский район",
      "name:uk": "Вітебський район",
      "website": "http://vitebsk.vitebsk-region.gov.by/",
      "boundary": "administrative",
      "int_name": "Viciebski rajon",
      "way_area": "0.37894",
      "wikidata": "Q1587133",
      "wikipedia": "ru:Витебский район",
      "population": "37051",
      "addr:region": "Витебская область",
      "admin_level": "6",
      "addr:country": "BY",
      "wikipedia:pl": "Rejon witebski",
      "population:date": "2018-01-01"
    }
  },
  {
    "osm_id": -1749248,
    "boundary": "administrative",
    "admin_level": 6,
    "parents": "-59189,-59065",
    "name": "Pinsk",
    "local_name": "Пинск",
    "name_en": "Pinsk",
    "all_tags": {
      "name": "Пинск",
      "place": "city",
      "name:be": "Пінск",
      "name:de": "Pinsk",
      "name:en": "Pinsk",
      "name:eo": "Pinsk",
      "name:fr": "Pinsk",
      "name:hu": "Pinszk",
      "name:ko": "핀스크",
      "name:la": "Pinscum",
      "name:lt": "Pinskas",
      "name:pl": "Pińsk",
      "name:ru": "Пинск",
      "name:sr": "Пинск",
      "name:uk": "Пінськ",
      "boundary": "administrative",
      "int_name": "Pinsk",
      "name:szl": "Pińsk",
      "way_area": "0.00621259",
      "wikidata": "Q204150",
      "wikipedia": "ru:Пинск",
      "population": "126189",
      "addr:region": "Брестская область",
      "admin_level": "6",
      "name:prefix": "город",
      "addr:country": "BY",
      "wikipedia:pl": "Pińsk",
      "name:be-tarask": "Пінск",
      "population:date": "2019"
    }
  },
  {
    "osm_id": -59161,
    "boundary": "administrative",
    "admin_level": 4,
    "parents": "-59065",
    "name": "Homyel Region",
    "local_name": "Гомельская область",
    "name_en": "Homyel Region",
    "all_tags": {
      "name": "Гомельская область",
      "name:be": "Гомельская вобласць",
      "name:de": "Woblast Homel",
      "name:en": "Homyel Region",
      "name:eo": "Homela regiono",
      "name:es": "Provincia de Gómel",
      "name:fr": "Voblast de Homiel",
      "name:hu": "Homeli terület",
      "name:ja": "ホメリ州",
      "name:lt": "Gomelio sritis",
      "name:pl": "obwód homelski",
      "name:ru": "Гомельская область",
      "name:sk": "Homeľská oblasť",
      "name:uk": "Гомєльська область",
      "website": "http://gomel-region.gov.by/",
      "boundary": "administrative",
      "int_name": "Homieĺskaja voblasć",
      "way_area": "5.31698",
      "wikidata": "Q188732",
      "ISO3166-2": "BY-HO",
      "wikipedia": "ru:Гомельская область",
      "population": "1415749",
      "admin_level": "4",
      "old_name:uk": "Гомельська область",
      "addr:country": "BY",
      "name:be-tarask": "Гомельская вобласьць",
      "population:date": "2018-01-01"
    }
  },
  {
    "osm_id": -70591,
    "boundary": "administrative",
    "admin_level": 6,
    "parents": "-59162,-59065",
    "name": "Chavusy District",
    "local_name": "Чаусский район",
    "name_en": "Chavusy District",
    "all_tags": {
      "name": "Чаусский район",
      "name:be": "Чавускі раён",
      "name:en": "Chavusy District",
      "name:lt": "Čavusų rajonas",
      "name:pl": "rejon czauski",
      "name:ru": "Чаусский район",
      "name:uk": "Чауський район",
      "website": "http://chausy.mogilev-region.by/",
      "boundary": "administrative",
      "int_name": "Čavuski rajon",
      "way_area": "0.199586",
      "wikidata": "Q2024276",
      "wikipedia": "ru:Чаусский район",
      "population": "18125",
      "addr:region": "Могилёвская область",
      "admin_level": "6",
      "addr:country": "BY",
      "population:date": "2018-01-01"
    }
  },
  {
    "osm_id": -163244,
    "boundary": "administrative",
    "admin_level": 6,
    "parents": "-59161,-59065",
    "name": "Homyel",
    "local_name": "Гомель",
    "name_en": "Homyel",
    "all_tags": {
      "name": "Гомель",
      "place": "city",
      "name:ar": "غوميل",
      "name:be": "Гомель",
      "name:bg": "Гомел",
      "name:de": "Homel",
      "name:el": "Γόμελ",
      "name:en": "Homyel",
      "name:eo": "Homel",
      "name:fa": "گومل",
      "name:fr": "Homiel",
      "name:he": "הומל",
      "name:hu": "Homel",
      "name:ja": "ホメリ",
      "name:ka": "გომელი",
      "name:ko": "호몔",
      "name:lt": "Gomelis",
      "name:lv": "Homjeļa",
      "name:no": "Homjel",
      "name:pl": "Homel",
      "name:ru": "Гомель",
      "name:sg": "戈梅利",
      "name:sk": "Homeľ",
      "name:sr": "Гомељ",
      "name:ta": "கோமெல்",
      "name:th": "กอเมล",
      "name:tr": "Gomel",
      "name:tw": "戈梅利",
      "name:uk": "Гомєль",
      "name:ur": "گومل",
      "name:vo": "Homyel",
      "boundary": "administrative",
      "int_name": "Homieĺ",
      "name:mzn": "گومل",
      "name:sah": "Гомель",
      "name:war": "Homyel",
      "way_area": "0.0191755",
      "wikidata": "Q2678",
      "wikipedia": "be:Гомель",
      "name:zh-cn": "戈梅利",
      "name:zh-hk": "戈梅利",
      "name:zh-mo": "戈梅利",
      "name:zh-sg": "戈梅利",
      "name:zh-tw": "戈梅利",
      "name:zn-hk": "戈梅利",
      "population": "535693",
      "addr:region": "Гомельская область",
      "admin_level": "6",
      "alt_name:eo": "Gomel",
      "alt_name:lv": "Gomeļa",
      "name:prefix": "город",
      "old_name:uk": "Гомель",
      "addr:country": "BY",
      "name:be-tarask": "Гомель",
      "population:date": "2018-01-01"
    }
  },
  {
    "osm_id": -59273,
    "boundary": "administrative",
    "admin_level": 6,
    "parents": "-59275,-59065",
    "name": "Hrodna District",
    "local_name": "Гродненский район",
    "name_en": "Hrodna District",
    "all_tags": {
      "name": "Гродненский район",
      "name:be": "Гродзенскі раён",
      "name:en": "Hrodna District",
      "name:lt": "Gardino rajonas",
      "name:pl": "rejon grodzieński",
      "name:ru": "Гродненский район",
      "name:uk": "Гродненський район",
      "website": "http://rik.by/",
      "boundary": "administrative",
      "int_name": "Hrodzienski rajon",
      "way_area": "0.352545",
      "wikidata": "Q1965697",
      "wikipedia": "ru:Гродненский район",
      "population": "49803",
      "addr:region": "Гродненская область",
      "admin_level": "6",
      "addr:country": "BY",
      "population:date": "2018-01-01"
    }
  },
  {
    "osm_id": -70814,
    "boundary": "administrative",
    "admin_level": 6,
    "parents": "-59161,-59065",
    "name": "Kalinkavichy District",
    "local_name": "Калинковичский район",
    "name_en": "Kalinkavichy District",
    "all_tags": {
      "name": "Калинковичский район",
      "name:be": "Калінкавіцкі раён",
      "name:bg": "Калинковички район",
      "name:cs": "Kalinkavický rajón",
      "name:de": "Rajon Kalinkawitschy",
      "name:en": "Kalinkavichy District",
      "name:es": "Raión de Kalinkavichy",
      "name:fr": "Raïon de Kalinkavitchy",
      "name:hu": "Kalinkavicsi járás",
      "name:it": "Distretto di Kalinkavičy",
      "name:lt": "Kalinkavičų rajonas",
      "name:lv": "Kaļinkaviču rajons",
      "name:pl": "rejon kalinkowicki",
      "name:ru": "Калинковичский район",
      "name:uk": "Калінкавіцький район",
      "name:zh": "卡林卡維茨基區",
      "website": "http://kalinkovichi.gomel-region.by/",
      "boundary": "administrative",
      "int_name": "Kalinkavicki rajon",
      "way_area": "0.363681",
      "wikidata": "Q1786486",
      "wikipedia": "ru:Калинковичский район",
      "population": "59308",
      "addr:region": "Гомельская область",
      "admin_level": "6",
      "old_name:uk": "Калинковицький район",
      "addr:country": "BY",
      "population:date": "2018-01-01"
    }
  },
  {
    "osm_id": -71124,
    "boundary": "administrative",
    "admin_level": 6,
    "parents": "-59189,-59065",
    "name": "Luninets District",
    "local_name": "Лунинецкий район",
    "name_en": "Luninets District",
    "all_tags": {
      "name": "Лунинецкий район",
      "name:be": "Лунінецкі раён",
      "name:en": "Luninets District",
      "name:lt": "Lunineco rajonas",
      "name:pl": "rejon łuniniecki",
      "name:ru": "Лунинецкий район",
      "name:uk": "Лунинецький район",
      "website": "http://luninets.brest-region.by/",
      "boundary": "administrative",
      "int_name": "Luniniecki rajon",
      "way_area": "0.351699",
      "wikidata": "Q1885628",
      "wikipedia": "ru:Лунинецкий район",
      "population": "66826",
      "addr:region": "Брестская область",
      "admin_level": "6",
      "addr:country": "BY",
      "wikipedia:pl": "Rejon łuniniecki",
      "population:date": "2018-01-01"
    }
  },
  {
    "osm_id": -59753,
    "boundary": "administrative",
    "admin_level": 6,
    "parents": "-59162,-59065",
    "name": "Asipovichy District",
    "local_name": "Осиповичский район",
    "name_en": "Asipovichy District",
    "all_tags": {
      "name": "Осиповичский район",
      "name:be": "Асіповіцкі раён",
      "name:en": "Asipovichy District",
      "name:lt": "Asipovičų rajonas",
      "name:pl": "rejon osipowicki",
      "name:ru": "Осиповичский район",
      "name:uk": "Осиповицький район",
      "website": "http://osipovichi.gov.by/",
      "boundary": "administrative",
      "int_name": "Asipovicki rajon",
      "way_area": "0.265365",
      "wikidata": "Q2025083",
      "wikipedia": "ru:Осиповичский район",
      "population": "47347",
      "addr:region": "Могилёвская область",
      "admin_level": "6",
      "addr:country": "BY",
      "wikipedia:pl": "Rejon osipowicki",
      "population:date": "2018-01-01"
    }
  },
  {
    "osm_id": -71134,
    "boundary": "administrative",
    "admin_level": 6,
    "parents": "-59752,-59065",
    "name": "Slutsk District",
    "local_name": "Слуцкий район",
    "name_en": "Slutsk District",
    "all_tags": {
      "name": "Слуцкий район",
      "name:be": "Слуцкі раён",
      "name:de": "Rajon Sluzk",
      "name:en": "Slutsk District",
      "name:pl": "rejon słucki",
      "name:ru": "Слуцкий район",
      "name:uk": "Слуцький район",
      "website": "http://slutsk.minsk-region.by/",
      "boundary": "administrative",
      "int_name": "Slucki rajon",
      "way_area": "0.244768",
      "wikidata": "Q2091666",
      "wikipedia": "ru:Слуцкий район Минской области",
      "population": "91059",
      "addr:region": "Минская область",
      "admin_level": "6",
      "addr:country": "BY",
      "wikipedia:pl": "Rejon słucki",
      "population:date": "2018-01-01"
    }
  },
  {
    "osm_id": -70595,
    "boundary": "administrative",
    "admin_level": 6,
    "parents": "-59162,-59065",
    "name": "Cherykaw District",
    "local_name": "Чериковский район",
    "name_en": "Cherykaw District",
    "all_tags": {
      "name": "Чериковский район",
      "name:be": "Чэрыкаўскі раён",
      "name:en": "Cherykaw District",
      "name:lt": "Čerykavo rajonas",
      "name:pl": "rejon czerykowski",
      "name:ru": "Чериковский район",
      "name:uk": "Чериковський район",
      "website": "http://cherikov.mogilev-region.by/",
      "boundary": "administrative",
      "int_name": "Čerykaŭski rajon",
      "way_area": "0.139543",
      "wikidata": "Q2024293",
      "wikipedia": "ru:Чериковский район",
      "population": "13152",
      "addr:region": "Могилёвская область",
      "admin_level": "6",
      "addr:country": "BY",
      "wikipedia:pl": "Rejon czerykowski",
      "population:date": "2018-01-01"
    }
  },
  {
    "osm_id": -70716,
    "boundary": "administrative",
    "admin_level": 6,
    "parents": "-59506,-59065",
    "name": "Dokshytsy District",
    "local_name": "Докшицкий район",
    "name_en": "Dokshytsy District",
    "all_tags": {
      "name": "Докшицкий район",
      "name:be": "Докшыцкі раён",
      "name:de": "Rajon Dokschyzy",
      "name:en": "Dokshytsy District",
      "name:lt": "Dokšicos rajonas",
      "name:pl": "rejon dokszycki",
      "name:ru": "Докшицкий район",
      "name:uk": "Докшицький район",
      "website": "http://dokshitsy.vitebsk-region.gov.by/",
      "boundary": "administrative",
      "int_name": "Dokšycki rajon",
      "way_area": "0.318044",
      "wikidata": "Q2023929",
      "wikipedia": "ru:Докшицкий район",
      "population": "22794",
      "addr:region": "Витебская область",
      "admin_level": "6",
      "addr:country": "BY",
      "population:date": "2018-01-01"
    }
  },
  {
    "osm_id": -70656,
    "boundary": "administrative",
    "admin_level": 6,
    "parents": "-59506,-59065",
    "name": "Dubrowna District",
    "local_name": "Дубровенский район",
    "name_en": "Dubrowna District",
    "all_tags": {
      "name": "Дубровенский район",
      "name:be": "Дубровенскі раён",
      "name:de": "Rajon Dubrouna",
      "name:en": "Dubrowna District",
      "name:lt": "Dubrounos rajonas",
      "name:pl": "rejon dubrowieński",
      "name:ru": "Дубровенский район",
      "name:uk": "Дубровенський район",
      "website": "http://dubrovno.vitebsk-region.gov.by/",
      "boundary": "administrative",
      "int_name": "Dubrovienski rajon",
      "way_area": "0.174119",
      "wikidata": "Q2024268",
      "wikipedia": "ru:Дубровенский район",
      "population": "14196",
      "addr:region": "Витебская область",
      "admin_level": "6",
      "addr:country": "BY",
      "population:date": "2018-01-01"
    }
  },
  {
    "osm_id": -70626,
    "boundary": "administrative",
    "admin_level": 6,
    "parents": "-59162,-59065",
    "name": "Shklow District",
    "local_name": "Шкловский район",
    "name_en": "Shklow District",
    "all_tags": {
      "name": "Шкловский район",
      "name:be": "Шклоўскі раён",
      "name:en": "Shklow District",
      "name:lt": "Šklovo rajonas",
      "name:pl": "rejon szkłowski",
      "name:ru": "Шкловский район",
      "name:uk": "Шкловський район",
      "website": "http://shklov.mogilev-region.by/",
      "boundary": "administrative",
      "int_name": "Škloŭski rajon",
      "way_area": "0.183995",
      "wikidata": "Q1253060",
      "wikipedia": "ru:Шкловский район",
      "population": "27332",
      "addr:region": "Могилёвская область",
      "admin_level": "6",
      "addr:country": "BY",
      "wikipedia:pl": "Rejon szkłowski",
      "population:date": "2018-01-01"
    }
  },
  {
    "osm_id": -167857,
    "boundary": "administrative",
    "admin_level": 6,
    "parents": "-59162,-59065",
    "name": "Babruysk",
    "local_name": "Бобруйск",
    "name_en": "Babruysk",
    "all_tags": {
      "name": "Бобруйск",
      "place": "city",
      "name:be": "Бабруйск",
      "name:de": "Babrujsk",
      "name:en": "Babruysk",
      "name:eo": "Babrujsk",
      "name:fr": "Babrouïsk",
      "name:lt": "Babruiskas",
      "name:pl": "Bobrujsk",
      "name:ru": "Бобруйск",
      "name:sr": "Бабрујск",
      "name:uk": "Бабруйськ",
      "website": "http://bobruisk.by",
      "boundary": "administrative",
      "int_name": "Babrujsk",
      "way_area": "0.0100076",
      "wikidata": "Q207294",
      "wikipedia": "be-tarask:Бабруйск",
      "population": "217546",
      "addr:region": "Могилёвская область",
      "admin_level": "6",
      "name:prefix": "город",
      "old_name:uk": "Бобруйськ",
      "addr:country": "BY",
      "name:be-tarask": "Бабруйск",
      "population:date": "2018-01-01"
    }
  },
  {
    "osm_id": -6825778,
    "boundary": "administrative",
    "admin_level": 6,
    "parents": "-59506,-59065",
    "name": "Navapolatsk",
    "local_name": "Новополоцк",
    "name_en": "Navapolatsk",
    "all_tags": {
      "name": "Новополоцк",
      "place": "city",
      "name:be": "Наваполацк",
      "name:de": "Nawapolazk",
      "name:en": "Navapolatsk",
      "name:eo": "Navapolack",
      "name:es": "Navapolack",
      "name:et": "Navapolack",
      "name:fr": "Navapolack",
      "name:lt": "Navapolackas",
      "name:pl": "Nowopołock",
      "name:ru": "Новополоцк",
      "name:sr": "Наваполацк",
      "name:uk": "Наваполацьк",
      "website": "http://www.novopolotsk.by/",
      "boundary": "administrative",
      "int_name": "Navapolack",
      "way_area": "0.00920317",
      "wikidata": "Q750424",
      "wikipedia": "be:Горад Наваполацк",
      "population": "101596",
      "addr:region": "Витебская область",
      "admin_level": "6",
      "name:prefix": "город",
      "old_name:uk": "Новополоцьк",
      "addr:country": "BY",
      "name:sr-Latn": "Novopolock",
      "wikipedia:be": "Горад Наваполацк",
      "wikipedia:pl": "Nowopołock",
      "wikipedia:ru": "Новополоцк",
      "name:be-tarask": "Наваполацак",
      "population:date": "2018-01-01",
      "population:source": "http://www.belstat.gov.by/"
    }
  },
  {
    "osm_id": -6825777,
    "boundary": "administrative",
    "admin_level": 6,
    "parents": "-59506,-59065",
    "name": "Vitsebsk",
    "local_name": "Витебск",
    "name_en": "Vitsebsk",
    "all_tags": {
      "name": "Витебск",
      "place": "city",
      "name:be": "Віцебск",
      "name:ca": "Vítsiebsk",
      "name:de": "Wizebsk",
      "name:en": "Vitsebsk",
      "name:eo": "Vicebsko",
      "name:es": "Vítebsk",
      "name:fr": "Vitebsk",
      "name:ja": "ヴィーツェプスク州",
      "name:lt": "Vitebskas",
      "name:pl": "Witebsk",
      "name:ru": "Витебск",
      "name:sr": "Витепск",
      "name:uk": "Вітебськ",
      "boundary": "administrative",
      "int_name": "Viciebsk",
      "name:szl": "Witebsk",
      "way_area": "0.0191705",
      "wikidata": "Q102217",
      "wikipedia": "ru:Витебск",
      "population": "370298",
      "addr:region": "Витебская область",
      "admin_level": "6",
      "name:prefix": "город",
      "addr:country": "BY",
      "wikipedia:be": "Віцебск",
      "wikipedia:en": "Vitebsk",
      "wikipedia:pl": "Witebsk",
      "name:be-tarask": "Віцебск",
      "contact:website": "http://www.vitebsk.gov.by/ru/",
      "population:date": "2018-01-01",
      "population:source": "http://www.belstat.gov.by/"
    }
  },
  {
    "osm_id": -71097,
    "boundary": "administrative",
    "admin_level": 6,
    "parents": "-59189,-59065",
    "name": "Kamenets District",
    "local_name": "Каменецкий район",
    "name_en": "Kamenets District",
    "all_tags": {
      "name": "Каменецкий район",
      "name:be": "Камянецкі раён",
      "name:de": "Rajon Kamenez",
      "name:en": "Kamenets District",
      "name:es": "Raión de Kámieniets",
      "name:pl": "rejon kamieniecki",
      "name:ru": "Каменецкий район",
      "name:uk": "Кам'янецький район",
      "website": "http://kamenec.brest-region.by/",
      "boundary": "administrative",
      "int_name": "Kamianiecki rajon",
      "way_area": "0.22605",
      "wikidata": "Q1103893",
      "wikipedia": "ru:Каменецкий район",
      "population": "34954",
      "addr:region": "Брестская область",
      "admin_level": "6",
      "addr:country": "BY",
      "name:be-tarask": "Камянецкі раён",
      "population:date": "2018-01-01"
    }
  },
  {
    "osm_id": -70577,
    "boundary": "administrative",
    "admin_level": 6,
    "parents": "-59162,-59065",
    "name": "Klichaw District",
    "local_name": "Кличевский район",
    "name_en": "Klichaw District",
    "all_tags": {
      "name": "Кличевский район",
      "name:be": "Клічаўскі раён",
      "name:en": "Klichaw District",
      "name:lt": "Kličavo rajonas",
      "name:pl": "rejon kliczewski",
      "name:ru": "Кличевский район",
      "name:uk": "Кличевський район",
      "website": "http://klichev.gov.by/",
      "boundary": "administrative",
      "int_name": "Kličaŭski rajon",
      "way_area": "0.244193",
      "wikidata": "Q586238",
      "wikipedia": "ru:Кличевский район",
      "population": "14923",
      "addr:region": "Могилёвская область",
      "admin_level": "6",
      "addr:country": "BY",
      "wikipedia:pl": "Rejon kliczewski",
      "population:date": "2018-01-01"
    }
  },
  {
    "osm_id": -62147,
    "boundary": "administrative",
    "admin_level": 6,
    "parents": "-59162,-59065",
    "name": "Mogilev District",
    "local_name": "Могилёвский район",
    "name_en": "Mogilev District",
    "all_tags": {
      "name": "Могилёвский район",
      "name:be": "Магілёўскі раён",
      "name:en": "Mogilev District",
      "name:lt": "Mogiliovo rajonas",
      "name:pl": "rejon mohylewski",
      "name:ru": "Могилёвский район",
      "name:uk": "Могильовський район",
      "website": "http://mogilev.mogilev-region.by/",
      "boundary": "administrative",
      "int_name": "Mahilioŭski rajon",
      "way_area": "0.259265",
      "wikidata": "Q2024261",
      "wikipedia": "ru:Могилёвский район",
      "population": "40230",
      "addr:region": "Могилёвская область",
      "admin_level": "6",
      "addr:country": "BY",
      "population:date": "2018-01-01"
    }
  },
  {
    "osm_id": -70771,
    "boundary": "administrative",
    "admin_level": 6,
    "parents": "-59275,-59065",
    "name": "Vawkavysk District",
    "local_name": "Волковысский район",
    "name_en": "Vawkavysk District",
    "all_tags": {
      "name": "Волковысский район",
      "name:be": "Ваўкавыскі раён",
      "name:en": "Vawkavysk District",
      "name:lt": "Valkavisko rajonas",
      "name:pl": "rejon wołkowyski",
      "name:ru": "Волковысский район",
      "name:uk": "Вавкависький район",
      "website": "http://volkovysk.grodno-region.by/",
      "boundary": "administrative",
      "int_name": "Vaŭkavyski rajon",
      "way_area": "0.159796",
      "wikidata": "Q1953376",
      "wikipedia": "ru:Волковысский район",
      "population": "69720",
      "addr:region": "Гродненская область",
      "admin_level": "6",
      "old_name:uk": "Волковиський район",
      "addr:country": "BY",
      "population:date": "2018-01-01"
    }
  },
  {
    "osm_id": -71118,
    "boundary": "administrative",
    "admin_level": 6,
    "parents": "-59189,-59065",
    "name": "Ivanava District",
    "local_name": "Ивановский район",
    "name_en": "Ivanava District",
    "all_tags": {
      "name": "Ивановский район",
      "name:be": "Іванаўскі раён",
      "name:en": "Ivanava District",
      "name:pl": "rejon janowski",
      "name:ru": "Ивановский район",
      "name:uk": "Іванавський район",
      "website": "http://ivanovo.brest-region.by/",
      "boundary": "administrative",
      "int_name": "Ivanaŭski rajon",
      "way_area": "0.201979",
      "wikidata": "Q1885588",
      "wikipedia": "ru:Ивановский район (Брестская область)",
      "population": "38353",
      "addr:region": "Брестская область",
      "admin_level": "6",
      "old_name:uk": "Івановський район",
      "addr:country": "BY",
      "population:date": "2018-01-01"
    }
  },
  {
    "osm_id": -71116,
    "boundary": "administrative",
    "admin_level": 6,
    "parents": "-59189,-59065",
    "name": "Baranavichy District",
    "local_name": "Барановичский район",
    "name_en": "Baranavichy District",
    "all_tags": {
      "name": "Барановичский район",
      "name:be": "Баранавіцкі раён",
      "name:de": "Rajon Baranawitschy",
      "name:en": "Baranavichy District",
      "name:lt": "Baranovičių rajonas",
      "name:pl": "rejon baranowicki",
      "name:ru": "Барановичский район",
      "name:uk": "Баранавіцький район",
      "website": "http://baranovichi.brest-region.by/",
      "boundary": "administrative",
      "int_name": "Baranavicki rajon",
      "way_area": "0.294094",
      "wikidata": "Q1885613",
      "wikipedia": "ru:Барановичский район",
      "population": "29110",
      "addr:region": "Брестская область",
      "admin_level": "6",
      "old_name:uk": "Барановицький район",
      "addr:country": "BY",
      "population:date": "2021"
    }
  },
  {
    "osm_id": -59275,
    "boundary": "administrative",
    "admin_level": 4,
    "parents": "-59065",
    "name": "Hrodna Region",
    "local_name": "Гродненская область",
    "name_en": "Hrodna Region",
    "all_tags": {
      "name": "Гродненская область",
      "name:be": "Гродзенская вобласць",
      "name:de": "Hrodsenskaja Woblasz",
      "name:en": "Hrodna Region",
      "name:eo": "Grodna regiono",
      "name:es": "Provincia de Grodno",
      "name:fr": "Voblast de Hrodna",
      "name:hr": "Grodnenska oblast",
      "name:hu": "Hrodnai terület",
      "name:ja": "フロドナ州",
      "name:lt": "Gardino sritis",
      "name:pl": "obwód grodzieński",
      "name:ru": "Гродненская область",
      "name:sk": "Hrodnianska oblasť",
      "name:uk": "Гродненська область",
      "website": "http://region.grodno.by/",
      "boundary": "administrative",
      "int_name": "Hrodzienskaja voblasć",
      "way_area": "3.41874",
      "wikidata": "Q191061",
      "ISO3166-2": "BY-HR",
      "ref:COATO": "4000000000",
      "wikipedia": "ru:Гродненская область",
      "population": "1043681",
      "admin_level": "4",
      "alt_name:eo": "Hrodna regiono",
      "addr:country": "BY",
      "wikipedia:en": "en:Grodno Region",
      "is_in:country": "Belarus",
      "name:be-tarask": "Гарадзенская вобласьць",
      "is_in:continent": "Europe",
      "population:date": "2018-01-01",
      "is_in:country_code": "BY"
    }
  },
  {
    "osm_id": -70732,
    "boundary": "administrative",
    "admin_level": 6,
    "parents": "-59275,-59065",
    "name": "Iwye District",
    "local_name": "Ивьевский район",
    "name_en": "Iwye District",
    "all_tags": {
      "name": "Ивьевский район",
      "name:be": "Іўеўскі раён",
      "name:en": "Iwye District",
      "name:lt": "Vijos rajonas",
      "name:pl": "rejon iwiejski",
      "name:ru": "Ивьевский район",
      "name:uk": "Ів'євський район",
      "website": "http://ivje.grodno.by/",
      "boundary": "administrative",
      "int_name": "Iŭjeŭski rajon",
      "way_area": "0.253453",
      "wikidata": "Q508510",
      "wikipedia": "ru:Ивьевский район",
      "population": "23003",
      "addr:region": "Гродненская область",
      "admin_level": "6",
      "addr:country": "BY",
      "wikipedia:pl": "Rejon iwiejski",
      "population:date": "2018-01-01"
    }
  },
  {
    "osm_id": -70810,
    "boundary": "administrative",
    "admin_level": 6,
    "parents": "-59161,-59065",
    "name": "Yelsk District",
    "local_name": "Ельский район",
    "name_en": "Yelsk District",
    "all_tags": {
      "name": "Ельский район",
      "name:be": "Ельскі раён",
      "name:en": "Yelsk District",
      "name:lt": "Jelsko rajonas",
      "name:pl": "rejon jelski",
      "name:ru": "Ельский район",
      "name:uk": "Єльський район",
      "website": "http://yelsk.gomel-region.by/",
      "boundary": "administrative",
      "int_name": "Jeĺski rajon",
      "way_area": "0.176856",
      "wikidata": "Q1808741",
      "wikipedia": "ru:Ельский район",
      "population": "15128",
      "addr:region": "Гомельская область",
      "admin_level": "6",
      "addr:country": "BY",
      "population:date": "2018-01-01"
    }
  },
  {
    "osm_id": -70602,
    "boundary": "administrative",
    "admin_level": 6,
    "parents": "-59162,-59065",
    "name": "Krasnapolle District",
    "local_name": "Краснопольский район",
    "name_en": "Krasnapolle District",
    "all_tags": {
      "name": "Краснопольский район",
      "name:be": "Краснапольскі раён",
      "name:en": "Krasnapolle District",
      "name:lt": "Krasnapolės rajonas",
      "name:pl": "rejon krasnopolski",
      "name:ru": "Краснопольский район",
      "name:uk": "Краснопільський район",
      "website": "http://krasnopolie.mogilev-region.by/",
      "boundary": "administrative",
      "int_name": "Krasnapoĺski rajon",
      "way_area": "0.163286",
      "wikidata": "Q745264",
      "wikipedia": "ru:Краснопольский_район_(Могилёвская_область)",
      "population": "9363",
      "addr:region": "Могилёвская область",
      "admin_level": "6",
      "addr:country": "BY",
      "wikipedia:pl": "Rejon krasnopolski (Białoruś)",
      "population:date": "2018-01-01"
    }
  },
  {
    "osm_id": -70569,
    "boundary": "administrative",
    "admin_level": 6,
    "parents": "-59752,-59065",
    "name": "Barysaw District",
    "local_name": "Борисовский район",
    "name_en": "Barysaw District",
    "all_tags": {
      "name": "Борисовский район",
      "name:be": "Барысаўскі раён",
      "name:de": "Rajon Baryssau",
      "name:en": "Barysaw District",
      "name:lt": "Barysavo rajonas",
      "name:pl": "rejon borysowski",
      "name:ru": "Борисовский район",
      "name:uk": "Барисавський район",
      "website": "http://borisov.minsk-region.by/",
      "boundary": "administrative",
      "int_name": "Barysaŭski rajon",
      "way_area": "0.410137",
      "wikidata": "Q2092836",
      "wikipedia": "ru:Борисовский район Минской области",
      "population": "180639",
      "addr:region": "Минская область",
      "admin_level": "6",
      "old_name:uk": "Борисовський район",
      "addr:country": "BY",
      "population:date": "2018-01-01"
    }
  },
  {
    "osm_id": -70620,
    "boundary": "administrative",
    "admin_level": 6,
    "parents": "-59162,-59065",
    "name": "Horki District",
    "local_name": "Горецкий район",
    "name_en": "Horki District",
    "all_tags": {
      "name": "Горецкий район",
      "name:be": "Горацкі раён",
      "name:en": "Horki District",
      "name:lt": "Horkų rajonas",
      "name:pl": "rejon horecki",
      "name:ru": "Горецкий район",
      "name:uk": "Горацький район",
      "website": "http://gorki.gov.by/",
      "boundary": "administrative",
      "int_name": "Horacki rajon",
      "way_area": "0.176984",
      "wikidata": "Q2024126",
      "wikipedia": "ru:Горецкий район",
      "population": "45887",
      "addr:region": "Могилёвская область",
      "admin_level": "6",
      "old_name:uk": "Горецький район",
      "addr:country": "BY",
      "population:date": "2018-01-01"
    }
  },
  {
    "osm_id": -59174,
    "boundary": "administrative",
    "admin_level": 6,
    "parents": "-59161,-59065",
    "name": "Rahačoŭ District",
    "local_name": "Рогачёвский район",
    "name_en": "Rahačoŭ District",
    "all_tags": {
      "name": "Рогачёвский район",
      "name:be": "Рагачоўскі раён",
      "name:en": "Rahačoŭ District",
      "name:lt": "Rogačiovo rajonas",
      "name:pl": "rejon rohaczowski",
      "name:ru": "Рогачёвский район",
      "name:uk": "Рогачовський район",
      "website": "http://rogachev.gov.by/",
      "boundary": "administrative",
      "int_name": "Rahačoŭski rajon",
      "way_area": "0.278296",
      "wikidata": "Q1953403",
      "wikipedia": "ru:Рогачёвский_район",
      "population": "56768",
      "addr:region": "Гомельская область",
      "admin_level": "6",
      "addr:country": "BY",
      "wikipedia:pl": "Rejon rohaczowski",
      "population:date": "2018-01-01"
    }
  },
  {
    "osm_id": -79911,
    "boundary": "administrative",
    "admin_level": 6,
    "parents": "-59752,-59065",
    "name": "Zhodzina",
    "local_name": "Жодино",
    "name_en": "Zhodzina",
    "all_tags": {
      "name": "Жодино",
      "place": "town",
      "name:be": "Жодзіна",
      "name:de": "Schodsina",
      "name:en": "Zhodzina",
      "name:eo": "Ĵodzina",
      "name:fr": "Jodzina",
      "name:lt": "Žodzina",
      "name:pl": "Żodzino",
      "name:ru": "Жодино",
      "name:sr": "Жодзина",
      "boundary": "administrative",
      "int_name": "Žodzina",
      "way_area": "0.00344906",
      "wikidata": "Q200905",
      "wikipedia": "ru:Жодино",
      "population": "64559",
      "addr:region": "Минская область",
      "admin_level": "6",
      "name:prefix": "город",
      "addr:country": "BY",
      "name:be-tarask": "Жодзіна",
      "population:date": "2018-01-01"
    }
  },
  {
    "osm_id": -59188,
    "boundary": "administrative",
    "admin_level": 6,
    "parents": "-59189,-59065",
    "name": "Brest District",
    "local_name": "Брестский район",
    "name_en": "Brest District",
    "all_tags": {
      "name": "Брестский район",
      "name:be": "Брэсцкі раён",
      "name:en": "Brest District",
      "name:lt": "Bresto rajonas",
      "name:lv": "Brestas rajons",
      "name:pl": "rejon brzeski",
      "name:ru": "Брестский район",
      "name:uk": "Берестейський район",
      "website": "http://brest.brest-region.by/",
      "boundary": "administrative",
      "int_name": "Brescki rajon",
      "way_area": "0.203141",
      "wikidata": "Q1888816",
      "wikipedia": "be:Брэсцкі раён",
      "population": "42400",
      "addr:region": "Брестская область",
      "admin_level": "6",
      "addr:country": "BY",
      "wikipedia:pl": "Rejon brzeski",
      "population:date": "2018-01-01"
    }
  },
  {
    "osm_id": -70799,
    "boundary": "administrative",
    "admin_level": 6,
    "parents": "-59161,-59065",
    "name": "Loyew District",
    "local_name": "Лоевский район",
    "name_en": "Loyew District",
    "all_tags": {
      "name": "Лоевский район",
      "name:be": "Лоеўскі раён",
      "name:en": "Loyew District",
      "name:pl": "rejon łojowski",
      "name:ru": "Лоевский район",
      "name:uk": "Лоєвський район",
      "website": "http://loev.gomel-region.by/",
      "boundary": "administrative",
      "int_name": "Lojeŭski rajon",
      "way_area": "0.136045",
      "wikidata": "Q1952845",
      "wikipedia": "ru:Лоевский район",
      "population": "11799",
      "addr:region": "Гомельская область",
      "admin_level": "6",
      "addr:country": "BY",
      "wikipedia:pl": "Rejon łojowski",
      "population:date": "2018-01-01"
    }
  },
  {
    "osm_id": -70728,
    "boundary": "administrative",
    "admin_level": 6,
    "parents": "-59275,-59065",
    "name": "Ashmyany District",
    "local_name": "Ошмянский район",
    "name_en": "Ashmyany District",
    "all_tags": {
      "name": "Ошмянский район",
      "name:be": "Ашмянскі раён",
      "name:de": "Rajon Aschmjany",
      "name:en": "Ashmyany District",
      "name:lt": "Ašmenos rajonas",
      "name:pl": "rejon oszmiański",
      "name:ru": "Ошмянский район",
      "name:uk": "Ошмянський район",
      "website": "http://oshmiany.grodno.by/",
      "boundary": "administrative",
      "int_name": "Ašmianski rajon",
      "way_area": "0.168103",
      "wikidata": "Q1817340",
      "wikipedia": "ru:Ошмянский район",
      "population": "30796",
      "addr:region": "Гродненская область",
      "admin_level": "6",
      "addr:country": "BY",
      "wikipedia:pl": "Rejon oszmiański",
      "population:date": "2018-01-01"
    }
  },
  {
    "osm_id": -59178,
    "boundary": "administrative",
    "admin_level": 6,
    "parents": "-59161,-59065",
    "name": "Chachersk Distric",
    "local_name": "Чечерский район",
    "name_en": "Chachersk Distric",
    "all_tags": {
      "name": "Чечерский район",
      "name:be": "Чачэрскі раён",
      "name:en": "Chachersk Distric",
      "name:lt": "Čečeros rajonas",
      "name:pl": "rejon czeczerski",
      "name:ru": "Чечерский район",
      "name:uk": "Чечерський район",
      "website": "http://chechersk.gomel-region.by/",
      "boundary": "administrative",
      "int_name": "Čačerski rajon",
      "way_area": "0.164633",
      "wikidata": "Q671126",
      "wikipedia": "ru:Чечерский район",
      "population": "14308",
      "addr:region": "Гомельская область",
      "admin_level": "6",
      "addr:country": "BY",
      "wikipedia:pl": "Rejon czeczerski",
      "population:date": "2018-01-01"
    }
  },
  {
    "osm_id": -130921,
    "boundary": "administrative",
    "admin_level": 6,
    "parents": "-59275,-59065",
    "name": "Hrodna",
    "local_name": "Гродно",
    "name_en": "Hrodna",
    "all_tags": {
      "name": "Гродно",
      "place": "city",
      "name:ar": "غرودنو",
      "name:be": "Гродна",
      "name:cs": "Hrodna",
      "name:de": "Hrodna",
      "name:en": "Hrodna",
      "name:eo": "Grodno",
      "name:he": "גרודנו",
      "name:la": "Grodna",
      "name:lt": "Gardinas",
      "name:pl": "Grodno",
      "name:ru": "Гродно",
      "name:sr": "Гродно",
      "name:uk": "Гродна",
      "boundary": "administrative",
      "int_name": "Hrodna",
      "name:szl": "Grodno",
      "way_area": "0.0194197",
      "wikidata": "Q181376",
      "wikipedia": "ru:Гродно",
      "population": "370919",
      "addr:region": "Гродненская область",
      "admin_level": "6",
      "alt_name:ar": "هرودنا",
      "alt_name:be": "Гародня;Горадня",
      "alt_name:eo": "Hrodno",
      "name:prefix": "город",
      "old_name:de": "Garten",
      "old_name:uk": "Гродно",
      "addr:country": "BY",
      "wikipedia:be": "Горад_Гродна",
      "wikipedia:en": "Grodno",
      "name:be-tarask": "Горадня",
      "contact:website": "http://grodno.gov.by/",
      "population:date": "2018-01-01"
    }
  },
  {
    "osm_id": -70561,
    "boundary": "administrative",
    "admin_level": 6,
    "parents": "-59752,-59065",
    "name": "Uzda District",
    "local_name": "Узденский район",
    "name_en": "Uzda District",
    "all_tags": {
      "name": "Узденский район",
      "name:be": "Уздзенскі раён",
      "name:en": "Uzda District",
      "name:lt": "Uzdos rajonas",
      "name:pl": "rejon uździeński",
      "name:ru": "Узденский район",
      "name:uk": "Узденський район",
      "website": "http://uzda.minsk-region.by/",
      "boundary": "administrative",
      "int_name": "Uzdzienski rajon",
      "way_area": "0.158957",
      "wikidata": "Q2092398",
      "wikipedia": "ru:Узденский район Минской области",
      "population": "23481",
      "addr:region": "Минская область",
      "admin_level": "6",
      "alt_name:pl": "Rejon uzdowski",
      "addr:country": "BY",
      "wikipedia:pl": "Rejon uzdowski",
      "population:date": "2018-01-01"
    }
  },
  {
    "osm_id": -70684,
    "boundary": "administrative",
    "admin_level": 6,
    "parents": "-59506,-59065",
    "name": "Verkhnyadzvinsk District",
    "local_name": "Верхнедвинский район",
    "name_en": "Verkhnyadzvinsk District",
    "all_tags": {
      "name": "Верхнедвинский район",
      "name:be": "Верхнядзвінскі раён",
      "name:de": "Rajon Werchnjadswinsk",
      "name:en": "Verkhnyadzvinsk District",
      "name:lt": "Verchniadzvinsko rajonas",
      "name:pl": "rejon wierchniedźwiński",
      "name:ru": "Верхнедвинский район",
      "name:uk": "Вєрхнядзвінський район",
      "website": "http://verkhnedvinsk.vitebsk-region.gov.by/",
      "boundary": "administrative",
      "int_name": "Vierchniadzvinski rajon",
      "way_area": "0.305312",
      "wikidata": "Q474626",
      "wikipedia": "ru:Верхнедвинский район",
      "population": "21302",
      "addr:region": "Витебская область",
      "admin_level": "6",
      "addr:country": "BY",
      "population:date": "2018-01-01"
    }
  },
  {
    "osm_id": -70563,
    "boundary": "administrative",
    "admin_level": 6,
    "parents": "-59752,-59065",
    "name": "Dzyarzhynsk District",
    "local_name": "Дзержинский район",
    "name_en": "Dzyarzhynsk District",
    "all_tags": {
      "name": "Дзержинский район",
      "name:be": "Дзяржынскі раён",
      "name:de": "Rajon Dsjarschynsk",
      "name:en": "Dzyarzhynsk District",
      "name:lt": "Dziaržynsko rajonas",
      "name:pl": "rejon dzierżyński",
      "name:ru": "Дзержинский район",
      "name:uk": "Дзяржинський район",
      "website": "http://dzerzhinsk.minsk-region.by/",
      "boundary": "administrative",
      "int_name": "Dziaržynski rajon",
      "way_area": "0.161919",
      "wikidata": "Q595480",
      "wikipedia": "ru:Дзержинский район (Минская область)",
      "population": "66776",
      "addr:region": "Минская область",
      "admin_level": "6",
      "old_name:uk": "Дзержинський район",
      "addr:country": "BY",
      "population:date": "2018-01-01"
    }
  },
  {
    "osm_id": -70604,
    "boundary": "administrative",
    "admin_level": 6,
    "parents": "-59162,-59065",
    "name": "Kastsyukovichy District",
    "local_name": "Костюковичский район",
    "name_en": "Kastsyukovichy District",
    "all_tags": {
      "name": "Костюковичский район",
      "name:be": "Касцюковіцкі раён",
      "name:en": "Kastsyukovichy District",
      "name:lt": "Kasciukovičų rajonas",
      "name:pl": "rejon kościukowicki",
      "name:ru": "Костюковичский район",
      "name:uk": "Костюковицький район",
      "website": "http://kostukovichi.mogilev-region.by/",
      "boundary": "administrative",
      "int_name": "Kasciukovicki rajon",
      "way_area": "0.201086",
      "wikidata": "Q1318696",
      "wikipedia": "ru:Костюковичский район",
      "population": "22894",
      "addr:region": "Могилёвская область",
      "admin_level": "6",
      "addr:country": "BY",
      "wikipedia:pl": "Rejon kościukowicki",
      "population:date": "2018-01-01"
    }
  },
  {
    "osm_id": -70614,
    "boundary": "administrative",
    "admin_level": 6,
    "parents": "-59162,-59065",
    "name": "Krychaw District",
    "local_name": "Кричевский район",
    "name_en": "Krychaw District",
    "all_tags": {
      "name": "Кричевский район",
      "name:be": "Крычаўскі раён",
      "name:en": "Krychaw District",
      "name:lt": "Kryčavo rajonas",
      "name:pl": "rejon krzyczewski",
      "name:ru": "Кричевский район",
      "name:uk": "Кричевський район",
      "website": "http://krichev.mogilev-region.by/",
      "boundary": "administrative",
      "int_name": "Kryčaŭski rajon",
      "way_area": "0.10573",
      "wikidata": "Q1997107",
      "wikipedia": "ru:Кричевский район",
      "population": "31815",
      "addr:region": "Могилёвская область",
      "admin_level": "6",
      "addr:country": "BY",
      "wikipedia:pl": "Rejon krzyczewski",
      "population:date": "2018-01-01"
    }
  },
  {
    "osm_id": -70575,
    "boundary": "administrative",
    "admin_level": 6,
    "parents": "-59752,-59065",
    "name": "Byerazino District",
    "local_name": "Березинский район",
    "name_en": "Byerazino District",
    "all_tags": {
      "name": "Березинский район",
      "name:be": "Бярэзінскі раён",
      "name:en": "Byerazino District",
      "name:lt": "Berazino rajonas",
      "name:pl": "rejon berezyński",
      "name:ru": "Березинский район",
      "name:uk": "Бярезинський район",
      "website": "http://berezino.minsk-region.gov.by/",
      "boundary": "administrative",
      "int_name": "Biarezinski rajon",
      "way_area": "0.265144",
      "wikidata": "Q2091552",
      "wikipedia": "ru:Березинский_район",
      "population": "22015",
      "addr:region": "Минская область",
      "admin_level": "6",
      "old_name:uk": "Березинський район",
      "addr:country": "BY",
      "population:date": "2018-01-01"
    }
  },
  {
    "osm_id": -72615,
    "boundary": "administrative",
    "admin_level": 6,
    "parents": "-59189,-59065",
    "name": "Brest",
    "local_name": "Брест",
    "name_en": "Brest",
    "all_tags": {
      "name": "Брест",
      "place": "city",
      "name:be": "Брэст",
      "name:en": "Brest",
      "name:eo": "Bresto",
      "name:hr": "Brest",
      "name:ko": "브레스트",
      "name:lt": "Brestas",
      "name:pl": "Brześć",
      "name:ru": "Брест",
      "name:sk": "Brest",
      "name:uk": "Берестя",
      "website": "http://city.brest.by",
      "boundary": "administrative",
      "int_name": "Brest",
      "way_area": "0.0190938",
      "wikidata": "Q140147",
      "wikipedia": "be:Горад Брэст",
      "population": "347576",
      "addr:region": "Брестская область",
      "admin_level": "6",
      "alt_name:be": "Берасце",
      "alt_name:eo": "Bresto apud Bugo",
      "alt_name:ko": "베레스탸",
      "name:prefix": "город",
      "addr:country": "BY",
      "wikipedia:pl": "Brześć",
      "name:be-tarask": "Берасьце",
      "population:date": "2018-01-01"
    }
  },
  {
    "osm_id": -59175,
    "boundary": "administrative",
    "admin_level": 6,
    "parents": "-59161,-59065",
    "name": "Buda-Kashalyova District",
    "local_name": "Буда-Кошелёвский район",
    "name_en": "Buda-Kashalyova District",
    "all_tags": {
      "name": "Буда-Кошелёвский район",
      "name:be": "Буда-Кашалёўскі раён",
      "name:de": "Rajon Buda-Kaschaljowa",
      "name:en": "Buda-Kashalyova District",
      "name:lt": "Buda Košeliovo rajonas",
      "name:pl": "rejon budzki",
      "name:ru": "Буда-Кошелёвский район",
      "name:uk": "Буда-Кашальовський район",
      "website": "http://buda-koshelevo.gomel-region.by/",
      "boundary": "administrative",
      "int_name": "Buda-Kašalioŭski rajon",
      "way_area": "0.212297",
      "wikidata": "Q1638285",
      "wikipedia": "ru:Буда-Кошелёвский_район",
      "population": "29530",
      "addr:region": "Гомельская область",
      "admin_level": "6",
      "old_name:uk": "Буда-Кошельовський район",
      "addr:country": "BY",
      "population:date": "2018-01-01"
    }
  },
  {
    "osm_id": -70605,
    "boundary": "administrative",
    "admin_level": 6,
    "parents": "-59162,-59065",
    "name": "Khotsimsk District",
    "local_name": "Хотимский район",
    "name_en": "Khotsimsk District",
    "all_tags": {
      "name": "Хотимский район",
      "name:be": "Хоцімскі раён",
      "name:en": "Khotsimsk District",
      "name:fi": "H’otsimskin piiri",
      "name:hu": "Hocimszki járás",
      "name:lt": "Chocimsko rajonas",
      "name:pl": "rejon chocimski",
      "name:ru": "Хотимский район",
      "name:uk": "Хоцімський район",
      "website": "http://khotimsk.mogilev-region.by/",
      "boundary": "administrative",
      "int_name": "Chocimski rajon",
      "way_area": "0.116397",
      "wikidata": "Q1574966",
      "wikipedia": "be:Хоцімскі раён",
      "population": "10389",
      "addr:region": "Могилёвская область",
      "admin_level": "6",
      "old_name:uk": "Хотимський район",
      "addr:country": "BY",
      "population:date": "2018-01-01"
    }
  },
  {
    "osm_id": -71132,
    "boundary": "administrative",
    "admin_level": 6,
    "parents": "-59752,-59065",
    "name": "Kapyl District",
    "local_name": "Копыльский район",
    "name_en": "Kapyl District",
    "all_tags": {
      "name": "Копыльский район",
      "name:be": "Капыльскі раён",
      "name:en": "Kapyl District",
      "name:lt": "Kapyliaus rajonas",
      "name:pl": "rejon kopylski",
      "name:ru": "Копыльский район",
      "name:uk": "Копильський район",
      "website": "http://kopyl.gov.by/",
      "boundary": "administrative",
      "int_name": "Kapyĺski rajon",
      "way_area": "0.214327",
      "wikidata": "Q518815",
      "wikipedia": "ru:Копыльский район Минской области",
      "population": "27901",
      "addr:region": "Минская область",
      "admin_level": "6",
      "addr:country": "BY",
      "wikipedia:pl": "Rejon kopylski",
      "population:date": "2018-01-01"
    }
  },
  {
    "osm_id": -70812,
    "boundary": "administrative",
    "admin_level": 6,
    "parents": "-59161,-59065",
    "name": "Rechytsa District",
    "local_name": "Речицкий район",
    "name_en": "Rechytsa District",
    "all_tags": {
      "name": "Речицкий район",
      "name:be": "Рэчыцкі раён",
      "name:en": "Rechytsa District",
      "name:lt": "Rečycos rajonas",
      "name:pl": "rejon rzeczycki",
      "name:ru": "Речицкий район",
      "name:uk": "Речицький район",
      "website": "http://rechitsa.by/",
      "boundary": "administrative",
      "int_name": "Rečycki rajon",
      "way_area": "0.357852",
      "wikidata": "Q1586359",
      "wikipedia": "ru:Речицкий_район",
      "population": "97979",
      "addr:region": "Гомельская область",
      "admin_level": "6",
      "old_name:uk": "Річицький район",
      "addr:country": "BY",
      "population:date": "2018-01-01"
    }
  },
  {
    "osm_id": -70752,
    "boundary": "administrative",
    "admin_level": 6,
    "parents": "-59752,-59065",
    "name": "Stowbtsy District",
    "local_name": "Столбцовский район",
    "name_en": "Stowbtsy District",
    "all_tags": {
      "name": "Столбцовский район",
      "name:be": "Стаўбцоўскі раён",
      "name:en": "Stowbtsy District",
      "name:lt": "Stolpcų rajonas",
      "name:pl": "rejon stołpecki",
      "name:ru": "Столбцовский район",
      "name:uk": "Ставбцовський район",
      "website": "http://stolbtsy.minsk-region.by/",
      "boundary": "administrative",
      "int_name": "Staŭbcoŭski rajon",
      "way_area": "0.256589",
      "wikidata": "Q2061349",
      "wikipedia": "ru:Столбцовский район",
      "population": "39216",
      "addr:region": "Минская область",
      "admin_level": "6",
      "addr:country": "BY",
      "wikipedia:pl": "Rejon stołpecki",
      "population:date": "2018-01-01"
    }
  },
  {
    "osm_id": -70802,
    "boundary": "administrative",
    "admin_level": 6,
    "parents": "-59161,-59065",
    "name": "Khoiniki District",
    "local_name": "Хойникский район",
    "name_en": "Khoiniki District",
    "all_tags": {
      "name": "Хойникский район",
      "name:be": "Хойніцкі раён",
      "name:en": "Khoiniki District",
      "name:lt": "Choinikų rajonas",
      "name:pl": "rejon chojnicki",
      "name:ru": "Хойникский район",
      "name:uk": "Хойніцький район",
      "website": "http://khoiniki.gomel-region.by/",
      "boundary": "administrative",
      "int_name": "Chojnicki rajon",
      "way_area": "0.266254",
      "wikidata": "Q1808704",
      "wikipedia": "ru:Хойникский район",
      "population": "19043",
      "addr:region": "Гомельская область",
      "admin_level": "6",
      "old_name:uk": "Хойницький район",
      "addr:country": "BY",
      "population:date": "2018-01-01"
    }
  },
  {
    "osm_id": -70580,
    "boundary": "administrative",
    "admin_level": 6,
    "parents": "-59162,-59065",
    "name": "Kirawsk District",
    "local_name": "Кировский район",
    "name_en": "Kirawsk District",
    "all_tags": {
      "name": "Кировский район",
      "name:be": "Кіраўскі раён",
      "name:en": "Kirawsk District",
      "name:lt": "Kirausko rajonas",
      "name:pl": "rejon kirowski",
      "name:ru": "Кировский район",
      "name:uk": "Кіровський район",
      "website": "http://kirovsk.gov.by/",
      "boundary": "administrative",
      "int_name": "Kiraŭski rajon",
      "way_area": "0.172775",
      "wikidata": "Q2024239",
      "wikipedia": "ru:Кировский район (Могилёвская область)",
      "population": "19106",
      "addr:region": "Могилёвская область",
      "admin_level": "6",
      "addr:country": "BY",
      "wikipedia:pl": "Rejon kirowski (Białoruś)",
      "population:date": "2018-01-01"
    }
  },
  {
    "osm_id": -70737,
    "boundary": "administrative",
    "admin_level": 6,
    "parents": "-59275,-59065",
    "name": "Voranava District",
    "local_name": "Вороновский район",
    "name_en": "Voranava District",
    "all_tags": {
      "name": "Вороновский район",
      "name:be": "Воранаўскі раён",
      "name:en": "Voranava District",
      "name:lt": "Varanavo rajonas",
      "name:pl": "rejon werenowski",
      "name:ru": "Вороновский район",
      "name:uk": "Воранавський район",
      "website": "http://voronovo.grodno-region.by/",
      "boundary": "administrative",
      "int_name": "Voranaŭski rajon",
      "way_area": "0.193645",
      "wikidata": "Q385156",
      "wikipedia": "ru:Вороновский район",
      "population": "24911",
      "addr:region": "Гродненская область",
      "admin_level": "6",
      "old_name:uk": "Вороновський район",
      "addr:country": "BY",
      "population:date": "2018-01-01"
    }
  },
  {
    "osm_id": -70637,
    "boundary": "administrative",
    "admin_level": 6,
    "parents": "-59162,-59065",
    "name": "Byalynichy District",
    "local_name": "Белыничский район",
    "name_en": "Byalynichy District",
    "all_tags": {
      "name": "Белыничский район",
      "name:be": "Бялыніцкі раён",
      "name:en": "Byalynichy District",
      "name:lt": "Bialyničų rajonas",
      "name:pl": "rejon białynicki",
      "name:ru": "Белыничский район",
      "name:uk": "Бяльніцький район",
      "website": "http://belynichi.mogilev-region.by/",
      "boundary": "administrative",
      "int_name": "Bialynicki rajon",
      "way_area": "0.193698",
      "wikidata": "Q1997119",
      "wikipedia": "ru:Белыничский_район",
      "population": "18459",
      "addr:region": "Могилёвская область",
      "admin_level": "6",
      "old_name:uk": "Бєлиницький район",
      "addr:country": "BY",
      "population:date": "2018-01-01"
    }
  }
]
