[
  {
    "osm_id": -7322726,
    "boundary": "administrative",
    "admin_level": 4,
    "parents": "-192790",
    "name": "Bangui",
    "local_name": "Bangî - Bangui",
    "name_en": "Bangui",
    "all_tags": {
      "name": "Bangî - Bangui",
      "name:ar": "بانغي",
      "name:en": "Bangui",
      "name:fr": "Bangui",
      "name:sg": "Bangî",
      "boundary": "administrative",
      "way_area": "0.00563533",
      "wikidata": "Q3832",
      "ISO3166-2": "CF-BGF",
      "admin_level": "4"
    }
  },
  {
    "osm_id": -3564719,
    "boundary": "administrative",
    "admin_level": 4,
    "parents": "-192790",
    "name": "Lobaye",
    "local_name": "Lobaye",
    "name_en": null,
    "all_tags": {
      "name": "Lobaye",
      "name:ru": "Лобае",
      "name:uk": "Лобае",
      "boundary": "administrative",
      "way_area": "1.51138",
      "wikidata": "Q821037",
      "ISO3166-2": "CF-LB",
      "wikipedia": "fr:Lobaye (préfecture)",
      "admin_level": "4"
    }
  },
  {
    "osm_id": -2954788,
    "boundary": "administrative",
    "admin_level": 4,
    "parents": "-192790",
    "name": "Sangha-Mbaéré",
    "local_name": "Sangha-Mbaéré",
    "name_en": null,
    "all_tags": {
      "name": "Sangha-Mbaéré",
      "name:ru": "Санга-Мбаэре",
      "name:uk": "Санга-Мбаере",
      "boundary": "administrative",
      "way_area": "1.46754",
      "wikidata": "Q856237",
      "ISO3166-2": "CF-SE",
      "wikipedia": "fr:Sangha-Mbaéré",
      "admin_level": "4"
    }
  },
  {
    "osm_id": -2954787,
    "boundary": "administrative",
    "admin_level": 4,
    "parents": "-192790",
    "name": "Ouham",
    "local_name": "Ouham",
    "name_en": null,
    "all_tags": {
      "name": "Ouham",
      "name:ar": "أوهام",
      "name:ru": "Уам",
      "name:uk": "Уам",
      "boundary": "administrative",
      "way_area": "4.32467",
      "wikidata": "Q726620",
      "ISO3166-2": "CF-AC",
      "wikipedia": "fr:Ouham",
      "admin_level": "4"
    }
  },
  {
    "osm_id": -2954786,
    "boundary": "administrative",
    "admin_level": 4,
    "parents": "-192790",
    "name": "Ouaka",
    "local_name": "Ouaka",
    "name_en": null,
    "all_tags": {
      "name": "Ouaka",
      "name:ru": "Уака",
      "name:uk": "Уака",
      "boundary": "administrative",
      "way_area": "3.99852",
      "wikidata": "Q848560",
      "ISO3166-2": "CF-UK",
      "wikipedia": "fr:Ouaka",
      "admin_level": "4"
    }
  },
  {
    "osm_id": -2954785,
    "boundary": "administrative",
    "admin_level": 4,
    "parents": "-192790",
    "name": "Nana-Mambéré",
    "local_name": "Nana-Mambéré",
    "name_en": null,
    "all_tags": {
      "name": "Nana-Mambéré",
      "name:ru": "Нана-Мамбере",
      "name:uk": "Нана-Мамбере",
      "boundary": "administrative",
      "way_area": "2.22245",
      "wikidata": "Q742455",
      "ISO3166-2": "CF-NM",
      "wikipedia": "fr:Nana-Mambéré",
      "admin_level": "4"
    }
  },
  {
    "osm_id": -2954784,
    "boundary": "administrative",
    "admin_level": 4,
    "parents": "-192790",
    "name": "Nana-Grébizi",
    "local_name": "Nana-Grébizi",
    "name_en": null,
    "all_tags": {
      "name": "Nana-Grébizi",
      "name:ru": "Нана-Гребизи",
      "name:uk": "Нана-Гребізі",
      "boundary": "administrative",
      "way_area": "1.61745",
      "wikidata": "Q856227",
      "ISO3166-2": "CF-KB",
      "wikipedia": "fr:Nana-Grébizi",
      "admin_level": "4"
    }
  },
  {
    "osm_id": -2954783,
    "boundary": "administrative",
    "admin_level": 4,
    "parents": "-192790",
    "name": "Mambéré-Kadéï",
    "local_name": "Mambéré-Kadéï",
    "name_en": null,
    "all_tags": {
      "name": "Mambéré-Kadéï",
      "name:ru": "Мамбере-Кадеи",
      "name:uk": "Мамбере-Кадеї",
      "boundary": "administrative",
      "way_area": "2.42696",
      "wikidata": "Q848567",
      "ISO3166-2": "CF-HS",
      "wikipedia": "fr:Mambéré-Kadéï",
      "admin_level": "4"
    }
  },
  {
    "osm_id": -2954782,
    "boundary": "administrative",
    "admin_level": 4,
    "parents": "-192790",
    "name": "Kémo",
    "local_name": "Kémo",
    "name_en": null,
    "all_tags": {
      "name": "Kémo",
      "name:ru": "Кемо",
      "name:uk": "Кемо",
      "boundary": "administrative",
      "way_area": "1.33864",
      "wikidata": "Q848572",
      "ISO3166-2": "CF-KG",
      "wikipedia": "fr:Kémo",
      "admin_level": "4"
    }
  },
  {
    "osm_id": -2954675,
    "boundary": "administrative",
    "admin_level": 4,
    "parents": "-192790",
    "name": "Ombella M'Poko",
    "local_name": "Ombella M'Poko",
    "name_en": null,
    "all_tags": {
      "name": "Ombella M'Poko",
      "name:ru": "Омбелла-Мпоко",
      "name:uk": "Омбелла-Мпоко",
      "boundary": "administrative",
      "way_area": "2.55261",
      "wikidata": "Q378970",
      "ISO3166-2": "CF-MP",
      "wikipedia": "fr:Ombella-M'Poko",
      "admin_level": "4"
    }
  },
  {
    "osm_id": -2954276,
    "boundary": "administrative",
    "admin_level": 4,
    "parents": "-192790",
    "name": "Ouham-Pendé",
    "local_name": "Ouham-Pendé",
    "name_en": null,
    "all_tags": {
      "name": "Ouham-Pendé",
      "name:ru": "Уам-Пенде",
      "name:uk": "Уам-Пенде",
      "boundary": "administrative",
      "way_area": "2.63681",
      "wikidata": "Q848591",
      "ISO3166-2": "CF-OP",
      "wikipedia": "fr:Ouham-Pendé",
      "admin_level": "4"
    }
  },
  {
    "osm_id": -2634533,
    "boundary": "administrative",
    "admin_level": 4,
    "parents": "-192790",
    "name": "Basse-Kotto",
    "local_name": "Basse-Kotto",
    "name_en": null,
    "all_tags": {
      "name": "Basse-Kotto",
      "name:de": "Niederkotto",
      "name:ru": "Нижнее Котто",
      "name:uk": "Нижнє Котто",
      "boundary": "administrative",
      "way_area": "1.35401",
      "wikidata": "Q810484",
      "ISO3166-2": "CF-BK",
      "wikipedia": "sg:Sêse tî kömändâ-kötä tî Do-Kötö",
      "admin_level": "4",
      "is_in:country": "Central African Republic",
      "is_in:country_code": "CF"
    }
  },
  {
    "osm_id": -2634531,
    "boundary": "administrative",
    "admin_level": 4,
    "parents": "-192790",
    "name": "Mbomou",
    "local_name": "Mbomou",
    "name_en": null,
    "all_tags": {
      "name": "Mbomou",
      "name:ru": "Мбому",
      "name:uk": "Мбому",
      "boundary": "administrative",
      "way_area": "4.89428",
      "wikidata": "Q848582",
      "ISO3166-2": "CF-MB",
      "wikipedia": "sg:Sêse tî kömändâ-kötä tî Mbömü",
      "population": "132740",
      "admin_level": "4",
      "is_in:country": "Central African Republic",
      "population:date": "2003",
      "is_in:country_code": "CF"
    }
  },
  {
    "osm_id": -2634528,
    "boundary": "administrative",
    "admin_level": 4,
    "parents": "-192790",
    "name": "Haut-Mbomou",
    "local_name": "Haut-Mbomou",
    "name_en": null,
    "all_tags": {
      "name": "Haut-Mbomou",
      "name:de": "Obermbomou",
      "name:ru": "Верхнее Мбому",
      "name:uk": "Верхнє Мбому",
      "boundary": "administrative",
      "way_area": "4.63651",
      "wikidata": "Q848578",
      "ISO3166-2": "CF-HM",
      "wikipedia": "en:Haut-Mbomou",
      "admin_level": "4",
      "is_in:country": "Central African Republic",
      "is_in:country_code": "CF"
    }
  },
  {
    "osm_id": -2634510,
    "boundary": "administrative",
    "admin_level": 4,
    "parents": "-192790",
    "name": "Haute-Kotto",
    "local_name": "Haute-Kotto",
    "name_en": null,
    "all_tags": {
      "name": "Haute-Kotto",
      "name:de": "Oberkotto",
      "name:ru": "Верхнее Котто",
      "name:uk": "Верхнє Котто",
      "boundary": "administrative",
      "way_area": "7.06939",
      "wikidata": "Q848596",
      "ISO3166-2": "CF-HK",
      "wikipedia": "en:Haute-Kotto",
      "admin_level": "4",
      "is_in:country": "Central African Republic",
      "is_in:country_code": "CF"
    }
  },
  {
    "osm_id": -2634506,
    "boundary": "administrative",
    "admin_level": 4,
    "parents": "-192790",
    "name": "Bamingui-Bangoran",
    "local_name": "Bamingui-Bangoran",
    "name_en": null,
    "all_tags": {
      "name": "Bamingui-Bangoran",
      "name:ru": "Бамбинги-Бангоран",
      "name:uk": "Бамбінґі-Банґоран",
      "boundary": "administrative",
      "way_area": "4.73789",
      "wikidata": "Q741025",
      "ISO3166-2": "CF-BB",
      "wikipedia": "en:Bamingui-Bangoran",
      "population": "38437",
      "admin_level": "4",
      "population:date": "2003"
    }
  },
  {
    "osm_id": -2634498,
    "boundary": "administrative",
    "admin_level": 4,
    "parents": "-192790",
    "name": "Vakaga",
    "local_name": "Vakaga",
    "name_en": null,
    "all_tags": {
      "name": "Vakaga",
      "name:ru": "Вакага",
      "name:uk": "Вакага",
      "boundary": "administrative",
      "way_area": "3.80662",
      "wikidata": "Q848585",
      "ISO3166-2": "CF-VK",
      "wikipedia": "en:Vakaga",
      "population": "37595",
      "admin_level": "4",
      "population:date": "2003"
    }
  }
]
