[
  {
    "osm_id": -1687006,
    "boundary": "administrative",
    "admin_level": 4,
    "parents": "-51701",
    "name": "St. Gallen",
    "local_name": "Sankt Gallen",
    "name_en": "St. Gallen",
    "all_tags": {
      "ref": "SG",
      "name": "Sankt Gallen",
      "name:ca": "Sankt Gallen",
      "name:de": "Sankt Gallen",
      "name:en": "St. Gallen",
      "name:es": "San Galo",
      "name:fr": "Saint-Gall",
      "name:hu": "Szentgallen",
      "name:it": "San Gallo",
      "name:ja": "ザンクト・ガレン州",
      "name:lt": "Sankt Galenas",
      "name:rm": "Son Gagl",
      "name:ru": "Санкт-Галлен",
      "alt_name": "Kanton Sankt Gallen",
      "boundary": "administrative",
      "name:gsw": "San Galle",
      "way_area": "0.240608",
      "wikidata": "Q12746",
      "ISO3166-2": "CH-SG",
      "wikipedia": "de:Kanton St. Gallen",
      "admin_level": "4",
      "alt_name:ca": "Cantó de Sankt Gallen",
      "alt_name:de": "Kanton Sankt Gallen",
      "alt_name:fr": "Canton de Saint-Gall",
      "alt_name:it": "Canton San Gallo",
      "name:prefix": "Kanton",
      "official_name": "St. Gallen",
      "swisstopo:KANTONSNUM": "17"
    }
  },
  {
    "osm_id": -6205021,
    "boundary": "historic",
    "admin_level": 6,
    "parents": "-1702421,-51701",
    "name": "Ancien district d'Oron",
    "local_name": "Ancien district d'Oron",
    "name_en": null,
    "all_tags": {
      "name": "Ancien district d'Oron",
      "boundary": "historic",
      "end_date": "2007",
      "way_area": "0.00892379",
      "start_date": "1798",
      "admin_level": "6"
    }
  },
  {
    "osm_id": -1684823,
    "boundary": "administrative",
    "admin_level": 6,
    "parents": "-1684606,-1686344,-51701",
    "name": "Interlaken-Oberhasli administrative district",
    "local_name": "Verwaltungskreis Interlaken-Oberhasli",
    "name_en": "Interlaken-Oberhasli administrative district",
    "all_tags": {
      "name": "Verwaltungskreis Interlaken-Oberhasli",
      "name:en": "Interlaken-Oberhasli administrative district",
      "name:fr": "Arrondissement administratif d'Interlaken-Oberhasli",
      "boundary": "administrative",
      "way_area": "0.148117",
      "wikidata": "Q678742",
      "wikipedia": "de:Verwaltungskreis Interlaken-Oberhasli",
      "admin_level": "6",
      "wikimedia_commons": "Category:Interlaken-Oberhasli (administrative district)",
      "swisstopo:BEZIRKSNUM": "250"
    }
  },
  {
    "osm_id": -6206567,
    "boundary": "historic",
    "admin_level": 6,
    "parents": "-1702421,-51701",
    "name": "Ancien district de Cossonay",
    "local_name": "Ancien district de Cossonay",
    "name_en": null,
    "all_tags": {
      "name": "Ancien district de Cossonay",
      "boundary": "historic",
      "end_date": "2007",
      "way_area": "0.0232985",
      "start_date": "1798",
      "admin_level": "6"
    }
  },
  {
    "osm_id": -1691158,
    "boundary": "administrative",
    "admin_level": 6,
    "parents": "-1690227,-51701",
    "name": "Bezirk Hinwil",
    "local_name": "Bezirk Hinwil",
    "name_en": null,
    "all_tags": {
      "name": "Bezirk Hinwil",
      "place": "county",
      "boundary": "administrative",
      "way_area": "0.0213451",
      "wikidata": "Q660382",
      "wikipedia": "de:Bezirk Hinwil",
      "admin_level": "6",
      "is_in:country_code": "CH",
      "swisstopo:BEZIRKSNUM": "105",
      "swisstopo:KANTONSNUM": "1"
    }
  },
  {
    "osm_id": -1684602,
    "boundary": "administrative",
    "admin_level": 5,
    "parents": "-1686344,-51701",
    "name": "Emmental-Oberaargau administrative region",
    "local_name": "Verwaltungsregion Emmental-Oberaargau",
    "name_en": "Emmental-Oberaargau administrative region",
    "all_tags": {
      "name": "Verwaltungsregion Emmental-Oberaargau",
      "name:en": "Emmental-Oberaargau administrative region",
      "name:fr": "Région administrative d'Emmental-Haute Argovie",
      "boundary": "administrative",
      "way_area": "0.120889",
      "wikidata": "Q690186",
      "wikipedia": "de:Verwaltungsregion Emmental-Oberaargau",
      "admin_level": "5"
    }
  },
  {
    "osm_id": -1686703,
    "boundary": "administrative",
    "admin_level": 6,
    "parents": "-1686699,-51701",
    "name": "Goms",
    "local_name": "Goms",
    "name_en": null,
    "all_tags": {
      "name": "Goms",
      "name:fr": "Conches",
      "boundary": "administrative",
      "way_area": "0.0690371",
      "wikidata": "Q660663",
      "wikipedia": "de:Goms (Bezirk)",
      "admin_level": "6",
      "default_language": "de",
      "swisstopo:BEZIRKSNUM": "2304"
    }
  },
  {
    "osm_id": -1685673,
    "boundary": "administrative",
    "admin_level": 4,
    "parents": "-51701",
    "name": "Glarus",
    "local_name": "Glarus",
    "name_en": "Glarus",
    "all_tags": {
      "ref": "GL",
      "name": "Glarus",
      "name:ca": "Cantó de Glarus",
      "name:de": "Glarus",
      "name:en": "Glarus",
      "name:es": "Glaris",
      "name:fr": "Glaris",
      "name:it": "Glarona",
      "name:rm": "Glaruna",
      "name:ru": "Гларус",
      "alt_name": "Kanton Glarus",
      "boundary": "administrative",
      "way_area": "0.0810271",
      "wikidata": "Q11922",
      "ISO3166-2": "CH-GL",
      "wikipedia": "de:Kanton Glarus",
      "admin_level": "4",
      "name:prefix": "Kanton",
      "swisstopo:BEZIRKSNUM": "800",
      "swisstopo:KANTONSNUM": "8"
    }
  },
  {
    "osm_id": -1688750,
    "boundary": "administrative",
    "admin_level": 6,
    "parents": "-1687730,-51701",
    "name": "Distretto di Lugano",
    "local_name": "Distretto di Lugano",
    "name_en": null,
    "all_tags": {
      "name": "Distretto di Lugano",
      "place": "county",
      "name:de": "Bezirk Lugano",
      "name:fr": "District de Lugano",
      "name:it": "Distretto di Lugano",
      "name:rm": "District da Lugano",
      "name:ru": "Лугано",
      "boundary": "administrative",
      "way_area": "0.0392671",
      "wikidata": "Q660612",
      "wikipedia": "it:Distretto di Lugano",
      "admin_level": "6",
      "swisstopo:BEZIRKSNUM": "2105"
    }
  },
  {
    "osm_id": -1688290,
    "boundary": "administrative",
    "admin_level": 6,
    "parents": "-1687730,-51701",
    "name": "Distretto di Leventina",
    "local_name": "Distretto di Leventina",
    "name_en": null,
    "all_tags": {
      "name": "Distretto di Leventina",
      "place": "county",
      "name:de": "Bezirk Leventina",
      "name:fr": "District de Léventine",
      "name:it": "Distretto di Leventina",
      "name:rm": "District Leventina",
      "name:ru": "Левентина",
      "boundary": "administrative",
      "way_area": "0.0561619",
      "wikidata": "Q539271",
      "wikipedia": "it:Distretto di Leventina",
      "admin_level": "6",
      "swisstopo:BEZIRKSNUM": "2103"
    }
  },
  {
    "osm_id": -373330,
    "boundary": "administrative",
    "admin_level": 6,
    "parents": "-1702421,-51701",
    "name": "District du Jura-Nord vaudois",
    "local_name": "District du Jura-Nord vaudois",
    "name_en": null,
    "all_tags": {
      "name": "District du Jura-Nord vaudois",
      "name:ru": "округ Жюра-Северная Водуа",
      "boundary": "administrative",
      "way_area": "0.0835825",
      "wikidata": "Q660762",
      "wikipedia": "fr:District du Jura-Nord vaudois",
      "admin_level": "6",
      "swisstopo:BEZIRKSNUM": "2224"
    }
  },
  {
    "osm_id": -2013131,
    "boundary": "administrative",
    "admin_level": 6,
    "parents": "-1686631,-51701",
    "name": "Albula",
    "local_name": "Albula",
    "name_en": null,
    "all_tags": {
      "name": "Albula",
      "name:rm": "Regiun Alvra",
      "boundary": "administrative",
      "way_area": "0.0802502",
      "wikidata": "Q21916797",
      "wikipedia": "de:Region Albula",
      "admin_level": "6",
      "official_name": "Region Albula",
      "swisstopo:BEZIRKSNUM": "1841"
    }
  },
  {
    "osm_id": -1687214,
    "boundary": "administrative",
    "admin_level": 6,
    "parents": "-1687006,-51701",
    "name": "Wahlkreis Sarganserland",
    "local_name": "Wahlkreis Sarganserland",
    "name_en": null,
    "all_tags": {
      "name": "Wahlkreis Sarganserland",
      "is_in": "St. Gallen;Switzerland;Europe",
      "boundary": "administrative",
      "way_area": "0.0629846",
      "wikidata": "Q661066",
      "wikipedia": "de:Wahlkreis Sarganserland",
      "admin_level": "6",
      "is_in:state": "St. Gallen",
      "is_in:country": "Switzerland",
      "is_in:continent": "Europe",
      "is_in:country_code": "CH",
      "swisstopo:BEZIRKSNUM": "1725",
      "swisstopo:KANTONSNUM": "17"
    }
  },
  {
    "osm_id": -1702419,
    "boundary": "administrative",
    "admin_level": 4,
    "parents": "-51701",
    "name": "Geneva",
    "local_name": "Genève",
    "name_en": "Geneva",
    "all_tags": {
      "ref": "GE",
      "name": "Genève",
      "name:an": "Chinebra",
      "name:ar": "جنيف",
      "name:az": "Cenevrə",
      "name:be": "Жэнева",
      "name:bg": "Женева",
      "name:bo": "རི་ནོས་ཝ",
      "name:bs": "Ženeva",
      "name:ca": "Cantó de Ginebra",
      "name:cs": "Ženeva",
      "name:cy": "Genefa",
      "name:da": "Geneve",
      "name:de": "Genf",
      "name:el": "Γενεύη",
      "name:en": "Geneva",
      "name:eo": "Ĝenevo",
      "name:es": "Ginebra",
      "name:et": "Genf",
      "name:eu": "Geneva",
      "name:fa": "ژنو",
      "name:fi": "Geneve",
      "name:fr": "Genève",
      "name:gl": "Xenebra",
      "name:he": "ז'נבה",
      "name:hu": "Genf",
      "name:id": "Jenewa",
      "name:it": "Ginevra",
      "name:ja": "ジュネーヴ",
      "name:lv": "Ženēva",
      "name:nl": "Genève",
      "name:pl": "Genewa",
      "name:rm": "Genevra",
      "name:ru": "Женева",
      "name:sd": "جنيوا",
      "name:sk": "Ženeva",
      "name:sl": "Ženeva",
      "name:sr": "Женева",
      "name:th": "เจนีวา",
      "name:tr": "Cenevre",
      "name:ur": "جنیوا",
      "name:vi": "Giơ-ne-vơ",
      "name:zh": "日內瓦",
      "alt_name": "Canton de Genève",
      "boundary": "administrative",
      "name:azb": "ژنو",
      "name:pnb": "جنیوا",
      "way_area": "0.0330209",
      "wikidata": "Q11917",
      "ISO3166-2": "CH-GE",
      "wikipedia": "fr:Canton de Genève",
      "admin_level": "4",
      "border_type": "region",
      "name:prefix": "Kanton",
      "old_name:vi": "Nhật Nội Ngỏa",
      "name:kk-Arab": "جەنەۆا",
      "is_in:country": "Switzerland",
      "name:zh_pinyin": "Rìnèiwǎ",
      "is_in:continent": "Europe",
      "default_language": "fr",
      "is_in:country_code": "CH",
      "swisstopo:BEZIRKSNUM": "2500",
      "swisstopo:KANTONSNUM": "25"
    }
  },
  {
    "osm_id": -1686706,
    "boundary": "administrative",
    "admin_level": 6,
    "parents": "-1686699,-51701",
    "name": "Martigny",
    "local_name": "Martigny",
    "name_en": null,
    "all_tags": {
      "name": "Martigny",
      "name:de": "Martinach",
      "name:fr": "Martigny",
      "name:ru": "Мартиньи",
      "boundary": "administrative",
      "way_area": "0.0306586",
      "wikidata": "Q656949",
      "wikipedia": "fr:District de Martigny",
      "admin_level": "6",
      "swisstopo:BEZIRKSNUM": "2307"
    }
  },
  {
    "osm_id": -1686704,
    "boundary": "administrative",
    "admin_level": 6,
    "parents": "-1686699,-51701",
    "name": "Conthey",
    "local_name": "Conthey",
    "name_en": null,
    "all_tags": {
      "name": "Conthey",
      "name:de": "Gundis",
      "name:fr": "Conthey",
      "boundary": "administrative",
      "way_area": "0.0272965",
      "wikidata": "Q660562",
      "wikipedia": "fr:District de Conthey",
      "admin_level": "6",
      "postal_code": "1964",
      "swisstopo:BEZIRKSNUM": "2302"
    }
  },
  {
    "osm_id": -1686710,
    "boundary": "administrative",
    "admin_level": 6,
    "parents": "-1686699,-51701",
    "name": "Sion",
    "local_name": "Sion",
    "name_en": null,
    "all_tags": {
      "name": "Sion",
      "name:de": "Sitten",
      "boundary": "administrative",
      "way_area": "0.0152619",
      "wikidata": "Q282169",
      "wikipedia": "fr:District de Sion",
      "admin_level": "6",
      "swisstopo:BEZIRKSNUM": "2312"
    }
  },
  {
    "osm_id": -1686702,
    "boundary": "administrative",
    "admin_level": 6,
    "parents": "-1686699,-51701",
    "name": "Hérens",
    "local_name": "Hérens",
    "name_en": null,
    "all_tags": {
      "name": "Hérens",
      "name:de": "Ering",
      "boundary": "administrative",
      "way_area": "0.0542334",
      "wikidata": "Q633980",
      "wikipedia": "fr:District d'Hérens",
      "admin_level": "6",
      "postal_code": "2305",
      "swisstopo:BEZIRKSNUM": "2305"
    }
  },
  {
    "osm_id": -1686709,
    "boundary": "administrative",
    "admin_level": 6,
    "parents": "-1686699,-51701",
    "name": "Sierre",
    "local_name": "Sierre",
    "name_en": null,
    "all_tags": {
      "name": "Sierre",
      "name:de": "Siders",
      "boundary": "administrative",
      "way_area": "0.0487705",
      "wikidata": "Q651884",
      "wikipedia": "fr:District de Sierre",
      "admin_level": "6",
      "postal_code": "3960",
      "swisstopo:BEZIRKSNUM": "2311"
    }
  },
  {
    "osm_id": -1686705,
    "boundary": "administrative",
    "admin_level": 6,
    "parents": "-1686699,-51701",
    "name": "Leuk",
    "local_name": "Leuk",
    "name_en": null,
    "all_tags": {
      "name": "Leuk",
      "name:de": "Leuk",
      "name:fr": "Loèche",
      "boundary": "administrative",
      "way_area": "0.0391375",
      "wikidata": "Q661326",
      "wikipedia": "de:Leuk (Bezirk)",
      "admin_level": "6",
      "default_language": "de",
      "swisstopo:BEZIRKSNUM": "2306"
    }
  },
  {
    "osm_id": -1686711,
    "boundary": "administrative",
    "admin_level": 6,
    "parents": "-1686699,-51701",
    "name": "Visp",
    "local_name": "Visp",
    "name_en": null,
    "all_tags": {
      "name": "Visp",
      "name:de": "Visp",
      "name:fr": "Viège",
      "name:ru": "Фисп",
      "boundary": "administrative",
      "way_area": "0.100517",
      "wikidata": "Q660348",
      "wikipedia": "de:Visp (Bezirk)",
      "admin_level": "6",
      "default_language": "de",
      "swisstopo:BEZIRKSNUM": "2313"
    }
  },
  {
    "osm_id": -6206616,
    "boundary": "historic",
    "admin_level": 6,
    "parents": "-1702421,-51701",
    "name": "Ancien district de Nyon",
    "local_name": "Ancien district de Nyon",
    "name_en": null,
    "all_tags": {
      "name": "Ancien district de Nyon",
      "boundary": "historic",
      "end_date": "2007",
      "way_area": "0.0271557",
      "start_date": "1798",
      "admin_level": "6"
    }
  },
  {
    "osm_id": -365575,
    "boundary": "administrative",
    "admin_level": 6,
    "parents": "-1702421,-51701",
    "name": "District de Nyon",
    "local_name": "District de Nyon",
    "name_en": null,
    "all_tags": {
      "name": "District de Nyon",
      "name:fr": "District de Nyon",
      "name:ru": "округ Ньон",
      "boundary": "administrative",
      "way_area": "0.0359759",
      "wikidata": "Q675501",
      "wikipedia": "fr:District de Nyon",
      "admin_level": "6",
      "swisstopo:BEZIRKSNUM": "2228"
    }
  },
  {
    "osm_id": -6206610,
    "boundary": "historic",
    "admin_level": 6,
    "parents": "-1702421,-51701",
    "name": "Ancien district de Rolle",
    "local_name": "Ancien district de Rolle",
    "name_en": null,
    "all_tags": {
      "name": "Ancien district de Rolle",
      "boundary": "historic",
      "end_date": "2007",
      "way_area": "0.00516938",
      "start_date": "1798",
      "admin_level": "6"
    }
  },
  {
    "osm_id": -6206601,
    "boundary": "historic",
    "admin_level": 6,
    "parents": "-1702421,-51701",
    "name": "Ancien district d'Aubonne",
    "local_name": "Ancien district d'Aubonne",
    "name_en": null,
    "all_tags": {
      "name": "Ancien district d'Aubonne",
      "boundary": "historic",
      "end_date": "2007",
      "way_area": "0.0179783",
      "start_date": "1798",
      "admin_level": "6"
    }
  },
  {
    "osm_id": -373333,
    "boundary": "administrative",
    "admin_level": 6,
    "parents": "-1702421,-51701",
    "name": "District de Morges",
    "local_name": "District de Morges",
    "name_en": null,
    "all_tags": {
      "name": "District de Morges",
      "boundary": "administrative",
      "way_area": "0.0437774",
      "wikidata": "Q660462",
      "wikipedia": "fr:District de Morges",
      "admin_level": "6",
      "swisstopo:BEZIRKSNUM": "2227"
    }
  },
  {
    "osm_id": -6206602,
    "boundary": "historic",
    "admin_level": 6,
    "parents": "-1702421,-51701",
    "name": "Ancien district de Morges",
    "local_name": "Ancien district de Morges",
    "name_en": null,
    "all_tags": {
      "name": "Ancien district de Morges",
      "boundary": "historic",
      "end_date": "2007",
      "way_area": "0.0126765",
      "start_date": "1798",
      "admin_level": "6"
    }
  },
  {
    "osm_id": -6205453,
    "boundary": "historic",
    "admin_level": 6,
    "parents": "-1702421,-51701",
    "name": "Ancien district de Lausanne",
    "local_name": "Ancien district de Lausanne",
    "name_en": null,
    "all_tags": {
      "name": "Ancien district de Lausanne",
      "boundary": "historic",
      "end_date": "2007",
      "way_area": "0.00994342",
      "start_date": "1798",
      "admin_level": "6"
    }
  },
  {
    "osm_id": -365551,
    "boundary": "administrative",
    "admin_level": 6,
    "parents": "-1702421,-51701",
    "name": "District de Lausanne",
    "local_name": "District de Lausanne",
    "name_en": null,
    "all_tags": {
      "name": "District de Lausanne",
      "boundary": "administrative",
      "way_area": "0.0076394",
      "wikidata": "Q660628",
      "wikipedia": "fr:District de Lausanne",
      "admin_level": "6",
      "swisstopo:BEZIRKSNUM": "2225"
    }
  },
  {
    "osm_id": -1702421,
    "boundary": "administrative",
    "admin_level": 4,
    "parents": "-51701",
    "name": "Vaud",
    "local_name": "Vaud",
    "name_en": "Vaud",
    "all_tags": {
      "ref": "VD",
      "name": "Vaud",
      "name:ar": "فود",
      "name:ca": "Vaud",
      "name:de": "Waadt",
      "name:en": "Vaud",
      "name:es": "Valdia",
      "name:fr": "Vaud",
      "name:it": "Vaud",
      "name:lt": "Vo",
      "name:nl": "Waadland",
      "name:rm": "Vad",
      "name:ru": "Во",
      "alt_name": "Canton de Vaud",
      "boundary": "administrative",
      "way_area": "0.376754",
      "wikidata": "Q12771",
      "ISO3166-2": "CH-VD",
      "wikipedia": "fr:Canton de Vaud",
      "admin_level": "4",
      "name:prefix": "Kanton",
      "is_in:country": "Switzerland",
      "is_in:continent": "Europe",
      "default_language": "fr",
      "official_name:ar": "كانتون فود",
      "is_in:country_code": "CH",
      "swisstopo:KANTONSNUM": "22"
    }
  },
  {
    "osm_id": -373331,
    "boundary": "administrative",
    "admin_level": 6,
    "parents": "-1702421,-51701",
    "name": "District du Gros-de-Vaud",
    "local_name": "District du Gros-de-Vaud",
    "name_en": null,
    "all_tags": {
      "name": "District du Gros-de-Vaud",
      "boundary": "administrative",
      "way_area": "0.0272849",
      "wikidata": "Q681215",
      "wikipedia": "fr:District du Gros-de-Vaud",
      "admin_level": "6",
      "swisstopo:BEZIRKSNUM": "2223"
    }
  },
  {
    "osm_id": -6710941,
    "boundary": "historic",
    "admin_level": 6,
    "parents": "-1702421,-51701",
    "name": "Ancien district de Lavaux",
    "local_name": "Ancien district de Lavaux",
    "name_en": null,
    "all_tags": {
      "name": "Ancien district de Lavaux",
      "boundary": "historic",
      "end_date": "2007",
      "way_area": "0.00924393",
      "start_date": "1798",
      "admin_level": "6"
    }
  },
  {
    "osm_id": -365552,
    "boundary": "administrative",
    "admin_level": 6,
    "parents": "-1702421,-51701",
    "name": "District de Lavaux-Oron",
    "local_name": "District de Lavaux-Oron",
    "name_en": null,
    "all_tags": {
      "name": "District de Lavaux-Oron",
      "boundary": "administrative",
      "way_area": "0.0164228",
      "wikidata": "Q660985",
      "wikipedia": "fr:District de Lavaux-Oron",
      "admin_level": "6",
      "swisstopo:BEZIRKSNUM": "2226"
    }
  },
  {
    "osm_id": -6204946,
    "boundary": "historic",
    "admin_level": 6,
    "parents": "-1702421,-51701",
    "name": "Ancien district de Vevey",
    "local_name": "Ancien district de Vevey",
    "name_en": null,
    "all_tags": {
      "name": "Ancien district de Vevey",
      "boundary": "historic",
      "end_date": "2007",
      "way_area": "0.011424",
      "start_date": "1798",
      "admin_level": "6"
    }
  },
  {
    "osm_id": -365576,
    "boundary": "administrative",
    "admin_level": 6,
    "parents": "-1702421,-51701",
    "name": "District de la Riviera-Pays-d’Enhaut",
    "local_name": "District de la Riviera-Pays-d’Enhaut",
    "name_en": null,
    "all_tags": {
      "name": "District de la Riviera-Pays-d’Enhaut",
      "boundary": "administrative",
      "way_area": "0.0331663",
      "wikidata": "Q665689",
      "wikipedia": "fr:District de la Riviera-Pays-d'Enhaut",
      "admin_level": "6",
      "swisstopo:BEZIRKSNUM": "2230"
    }
  },
  {
    "osm_id": -1699155,
    "boundary": "administrative",
    "admin_level": 6,
    "parents": "-1698314,-51701",
    "name": "District de la Veveyse",
    "local_name": "District de la Veveyse",
    "name_en": null,
    "all_tags": {
      "name": "District de la Veveyse",
      "name:de": "Vivisbachbezirk",
      "name:fr": "District de la Veveyse",
      "name:it": "Distretto della Veveyse",
      "boundary": "administrative",
      "way_area": "0.0157537",
      "wikidata": "Q25841",
      "wikipedia": "fr:District de la Veveyse",
      "admin_level": "6",
      "swisstopo:BEZIRKSNUM": "1007"
    }
  },
  {
    "osm_id": -6205057,
    "boundary": "historic",
    "admin_level": 6,
    "parents": "-1702421,-51701",
    "name": "Ancien district de Moudon",
    "local_name": "Ancien district de Moudon",
    "name_en": null,
    "all_tags": {
      "name": "Ancien district de Moudon",
      "boundary": "historic",
      "end_date": "2007",
      "way_area": "0.0140663",
      "start_date": "1798",
      "admin_level": "6"
    }
  },
  {
    "osm_id": -6205152,
    "boundary": "historic",
    "admin_level": 6,
    "parents": "-1702421,-51701",
    "name": "Ancien district d'Yverdon",
    "local_name": "Ancien district d'Yverdon",
    "name_en": null,
    "all_tags": {
      "name": "Ancien district d'Yverdon",
      "boundary": "historic",
      "end_date": "2007",
      "way_area": "0.0184587",
      "start_date": "1798",
      "admin_level": "6"
    }
  },
  {
    "osm_id": -1689428,
    "boundary": "historic",
    "admin_level": 6,
    "parents": "-1702420,-51701",
    "name": "District du Locle",
    "local_name": "District du Locle",
    "name_en": null,
    "all_tags": {
      "name": "District du Locle",
      "name:ru": "община Ле-Локль",
      "boundary": "historic",
      "way_area": "0.016997",
      "wikidata": "Q138960",
      "wikipedia": "fr:District du Locle",
      "admin_level": "6"
    }
  },
  {
    "osm_id": -373332,
    "boundary": "administrative",
    "admin_level": 6,
    "parents": "-1702421,-51701",
    "name": "District de la Broye-Vully",
    "local_name": "District de la Broye-Vully",
    "name_en": null,
    "all_tags": {
      "name": "District de la Broye-Vully",
      "boundary": "administrative",
      "way_area": "0.0308615",
      "wikidata": "Q495882",
      "wikipedia": "fr:District de la Broye-Vully",
      "admin_level": "6",
      "swisstopo:BEZIRKSNUM": "2222"
    }
  },
  {
    "osm_id": -6205085,
    "boundary": "historic",
    "admin_level": 6,
    "parents": "-1702421,-51701",
    "name": "Ancien district de Payerne",
    "local_name": "Ancien district de Payerne",
    "name_en": null,
    "all_tags": {
      "name": "Ancien district de Payerne",
      "boundary": "historic",
      "end_date": "2007",
      "way_area": "0.0128362",
      "start_date": "1798",
      "admin_level": "6"
    }
  },
  {
    "osm_id": -1698881,
    "boundary": "administrative",
    "admin_level": 6,
    "parents": "-1698314,-51701",
    "name": "District de la Broye",
    "local_name": "District de la Broye",
    "name_en": null,
    "all_tags": {
      "name": "District de la Broye",
      "name:de": "Broye Bezirk",
      "name:fr": "District de la Broye",
      "boundary": "administrative",
      "way_area": "0.0267878",
      "wikidata": "Q660600",
      "wikipedia": "fr:District de la Broye",
      "admin_level": "6",
      "swisstopo:BEZIRKSNUM": "1001"
    }
  },
  {
    "osm_id": -1697530,
    "boundary": "administrative",
    "admin_level": 6,
    "parents": "-1697347,-51701",
    "name": "District des Franches-Montagnes",
    "local_name": "District des Franches-Montagnes",
    "name_en": null,
    "all_tags": {
      "name": "District des Franches-Montagnes",
      "place": "county",
      "name:de": "Freiberge",
      "name:fr": "District des Franches-Montagnes",
      "name:ru": "община Франш-Монтань",
      "boundary": "administrative",
      "name:gsw": "Dichtrict des Fraintches-Montaignes",
      "way_area": "0.0237867",
      "wikidata": "Q167627",
      "wikipedia": "fr:District des Franches-Montagnes",
      "admin_level": "6",
      "is_in:country_code": "CH",
      "swisstopo:BEZIRKSNUM": "2602",
      "swisstopo:KANTONSNUM": "26"
    }
  },
  {
    "osm_id": -6204950,
    "boundary": "historic",
    "admin_level": 6,
    "parents": "-1702421,-51701",
    "name": "Ancien district du Pays-d'Enhaut",
    "local_name": "Ancien district du Pays-d'Enhaut",
    "name_en": null,
    "all_tags": {
      "name": "Ancien district du Pays-d'Enhaut",
      "boundary": "historic",
      "end_date": "2007",
      "way_area": "0.0217423",
      "start_date": "1798",
      "admin_level": "6"
    }
  },
  {
    "osm_id": -1698314,
    "boundary": "administrative",
    "admin_level": 4,
    "parents": "-51701",
    "name": "Fribourg",
    "local_name": "Fribourg/Freiburg",
    "name_en": "Fribourg",
    "all_tags": {
      "ref": "FR",
      "name": "Fribourg/Freiburg",
      "name:br": "Friboua",
      "name:ca": "Cantó de Friburg",
      "name:de": "Freiburg",
      "name:en": "Fribourg",
      "name:es": "Friburgo",
      "name:fr": "Fribourg",
      "name:hr": "Kanton Fribourg",
      "name:it": "Friburgo",
      "name:pl": "Fryburg",
      "name:rm": "Friburg",
      "name:ru": "Фрибур",
      "alt_name": "Canton de Fribourg",
      "boundary": "administrative",
      "name:frp": "Friboua",
      "way_area": "0.196694",
      "wikidata": "Q12640",
      "ISO3166-2": "CH-FR",
      "wikipedia": "fr:Canton de Fribourg",
      "admin_level": "4",
      "alt_name:de": "Kanton Freiburg",
      "name:prefix": "Kanton",
      "default_language": "fr",
      "swisstopo:KANTONSNUM": "10"
    }
  },
  {
    "osm_id": -1684825,
    "boundary": "administrative",
    "admin_level": 6,
    "parents": "-1684606,-1686344,-51701",
    "name": "Thun administrative district",
    "local_name": "Verwaltungskreis Thun",
    "name_en": "Thun administrative district",
    "all_tags": {
      "name": "Verwaltungskreis Thun",
      "name:en": "Thun administrative district",
      "name:fr": "Arrondissement administratif de Thoune",
      "boundary": "administrative",
      "way_area": "0.038145",
      "wikidata": "Q678914",
      "wikipedia": "de:Verwaltungskreis Thun",
      "admin_level": "6",
      "wikimedia_commons": "Category:Thun (administrative district)",
      "swisstopo:BEZIRKSNUM": "247"
    }
  },
  {
    "osm_id": -1698884,
    "boundary": "administrative",
    "admin_level": 6,
    "parents": "-1698314,-51701",
    "name": "Sarine District",
    "local_name": "District de la Sarine",
    "name_en": "Sarine District",
    "all_tags": {
      "name": "District de la Sarine",
      "name:af": "Saanebezirk",
      "name:en": "Sarine District",
      "name:fr": "District de la Sarine",
      "name:it": "Distretto della Sarine",
      "boundary": "administrative",
      "way_area": "0.0256666",
      "wikidata": "Q660688",
      "wikipedia": "en:Sarine District",
      "admin_level": "6",
      "swisstopo:BEZIRKSNUM": "1004"
    }
  },
  {
    "osm_id": -1699156,
    "boundary": "administrative",
    "admin_level": 6,
    "parents": "-1698314,-51701",
    "name": "See District",
    "local_name": "Seebezirk / District du Lac",
    "name_en": "See District",
    "all_tags": {
      "name": "Seebezirk / District du Lac",
      "name:de": "Seebezirk",
      "name:en": "See District",
      "name:fr": "District du Lac",
      "name:it": "Distretto di See",
      "boundary": "administrative",
      "way_area": "0.0189242",
      "wikidata": "Q659778",
      "wikipedia": "de:Seebezirk (Freiburg)",
      "admin_level": "6",
      "swisstopo:BEZIRKSNUM": "1005"
    }
  },
  {
    "osm_id": -1684783,
    "boundary": "administrative",
    "admin_level": 5,
    "parents": "-1686344,-51701",
    "name": "Seeland administrative region",
    "local_name": "Verwaltungsregion Seeland",
    "name_en": "Seeland administrative region",
    "all_tags": {
      "name": "Verwaltungsregion Seeland",
      "name:en": "Seeland administrative region",
      "name:fr": "Région administrative du Seeland",
      "boundary": "administrative",
      "way_area": "0.0563367",
      "wikidata": "Q691156",
      "wikipedia": "de:Verwaltungsregion Seeland",
      "admin_level": "5"
    }
  },
  {
    "osm_id": -1684821,
    "boundary": "administrative",
    "admin_level": 6,
    "parents": "-1684745,-1686344,-51701",
    "name": "Bern-Mittelland administrative district",
    "local_name": "Verwaltungskreis Bern-Mittelland",
    "name_en": "Bern-Mittelland administrative district",
    "all_tags": {
      "name": "Verwaltungskreis Bern-Mittelland",
      "name:en": "Bern-Mittelland administrative district",
      "name:fr": "Arrondissement administratif de Berne-Mittelland",
      "boundary": "administrative",
      "way_area": "0.111246",
      "wikidata": "Q666217",
      "wikipedia": "de:Verwaltungskreis Bern-Mittelland",
      "admin_level": "6",
      "wikimedia_commons": "Category:Bern-Mittelland (administrative district)",
      "swisstopo:BEZIRKSNUM": "246"
    }
  },
  {
    "osm_id": -1684745,
    "boundary": "administrative",
    "admin_level": 5,
    "parents": "-1686344,-51701",
    "name": "Bernese Mittelland administrative region",
    "local_name": "Verwaltungsregion Bern-Mittelland",
    "name_en": "Bernese Mittelland administrative region",
    "all_tags": {
      "name": "Verwaltungsregion Bern-Mittelland",
      "name:en": "Bernese Mittelland administrative region",
      "name:fr": "Région administrative de Berne-Mittelland",
      "boundary": "administrative",
      "way_area": "0.111246",
      "wikidata": "Q690266",
      "wikipedia": "de:Verwaltungsregion Bern-Mittelland",
      "admin_level": "5"
    }
  },
  {
    "osm_id": -1686344,
    "boundary": "administrative",
    "admin_level": 4,
    "parents": "-51701",
    "name": "Bern",
    "local_name": "Bern/Berne",
    "name_en": "Bern",
    "all_tags": {
      "ref": "BE",
      "name": "Bern/Berne",
      "name:am": "ቤርን",
      "name:an": "Berna",
      "name:ar": "برن",
      "name:be": "Берн",
      "name:bg": "Берн",
      "name:bn": "বের্ন",
      "name:bo": "པོར་ནི",
      "name:br": "Bern",
      "name:ca": "Berna",
      "name:cs": "Bern",
      "name:cv": "Берн",
      "name:de": "Bern",
      "name:el": "Βέρνη",
      "name:en": "Bern",
      "name:eo": "Berno",
      "name:es": "Berna",
      "name:eu": "Berna",
      "name:fa": "برن",
      "name:fr": "Berne",
      "name:gd": "Berne",
      "name:gl": "Berna",
      "name:gv": "Berne",
      "name:he": "ברן",
      "name:hi": "बर्न",
      "name:ht": "Bèn",
      "name:hy": "Բեռն",
      "name:is": "Bern",
      "name:it": "Berna",
      "name:ja": "ベルン",
      "name:ka": "ბერნი",
      "name:ko": "베른",
      "name:ks": "برن",
      "name:la": "Berna",
      "name:lt": "Bernas",
      "name:lv": "Berne",
      "name:mk": "Берн",
      "name:ml": "ബേണ്",
      "name:mr": "बर्न",
      "name:oc": "Bèrna",
      "name:os": "Берн",
      "name:pl": "Berno",
      "name:ps": "برن",
      "name:pt": "Berna",
      "name:rm": "Berna",
      "name:ro": "Berna",
      "name:ru": "Берн",
      "name:sk": "Bern",
      "name:sq": "Berni",
      "name:sr": "Берн",
      "name:tg": "Берн",
      "name:th": "เบิร์น",
      "name:tt": "Берн",
      "name:ug": "بېرن",
      "name:uk": "Берн",
      "name:ur": "برن",
      "name:yi": "בערן",
      "name:zh": "伯尔尼 / 伯恩 / 伯爾尼",
      "alt_name": "Kanton Bern",
      "boundary": "administrative",
      "loc_name": "Bärn",
      "name:arc": "ܒܪܢ",
      "name:ast": "Berna",
      "name:azb": "برن",
      "name:ckb": "بێرن",
      "name:frp": "Bèrna",
      "name:fur": "Berna",
      "name:gsw": "Bärn",
      "name:kmr": "بەرن",
      "name:lij": "Berna",
      "name:lmo": "Berna",
      "name:lrc": "برن",
      "name:lzh": "伯恩",
      "name:nah": "Berna",
      "name:ota": "برن",
      "name:pdc": "Bann",
      "name:pms": "Berna",
      "name:pnb": "برن",
      "name:scn": "Berna",
      "name:vec": "Berna",
      "name:wuu": "办合纳",
      "way_area": "0.702379",
      "wikidata": "Q11911",
      "ISO3166-2": "CH-BE",
      "wikipedia": "de:Kanton Bern",
      "name:zh-HK": "伯爾尼",
      "name:zh-TW": "伯恩",
      "admin_level": "4",
      "alt_name:ar": "كانتون برن",
      "alt_name:ca": "Cantó de Berna",
      "alt_name:de": "Kanton Bern",
      "alt_name:en": "Canton of Bern",
      "alt_name:es": "Cantón de Berna",
      "alt_name:fr": "Canton de Berne",
      "alt_name:it": "Canton Berna",
      "alt_name:pt": "Cantão de Bern",
      "alt_name:rm": "Chantun Berna",
      "name:prefix": "Kanton",
      "alt_name:gsw": "Kanton Bärn",
      "name:kk-Arab": "بەرن",
      "name:ku-Arab": "بەرن",
      "name:zh-Hans": "伯尔尼",
      "name:zh-Hant": "伯恩 / 伯爾尼",
      "name:kab-Arab": "بيرن",
      "swisstopo:KANTONSNUM": "2"
    }
  },
  {
    "osm_id": -1684606,
    "boundary": "administrative",
    "admin_level": 5,
    "parents": "-1686344,-51701",
    "name": "Oberland administrative region",
    "local_name": "Verwaltungsregion Oberland",
    "name_en": "Oberland administrative region",
    "all_tags": {
      "name": "Verwaltungsregion Oberland",
      "name:en": "Oberland administrative region",
      "name:fr": "Région administrative de l'Oberland",
      "boundary": "administrative",
      "way_area": "0.349598",
      "wikidata": "Q692144",
      "wikipedia": "de:Oberland (Verwaltungsregion)",
      "admin_level": "5"
    }
  },
  {
    "osm_id": -1686448,
    "boundary": "administrative",
    "admin_level": 4,
    "parents": "-51701",
    "name": "Obwalden",
    "local_name": "Obwalden",
    "name_en": "Obwalden",
    "all_tags": {
      "ref": "OW",
      "name": "Obwalden",
      "name:ca": "Obwalden",
      "name:de": "Obwalden",
      "name:en": "Obwalden",
      "name:fr": "Obwald",
      "name:it": "Obvaldo",
      "name:rm": "Sursilvania",
      "name:ru": "Обвальден",
      "alt_name": "Kanton Obwalden",
      "boundary": "administrative",
      "name:gsw": "Obwaldä",
      "way_area": "0.0578632",
      "wikidata": "Q12573",
      "ISO3166-2": "CH-OW",
      "wikipedia": "de:Kanton Obwalden",
      "admin_level": "4",
      "name:prefix": "Kanton",
      "swisstopo:BEZIRKSNUM": "600",
      "swisstopo:KANTONSNUM": "6"
    }
  },
  {
    "osm_id": -1686449,
    "boundary": "administrative",
    "admin_level": 4,
    "parents": "-51701",
    "name": "Nidwalden",
    "local_name": "Nidwalden",
    "name_en": "Nidwalden",
    "all_tags": {
      "ref": "NW",
      "name": "Nidwalden",
      "name:ca": "Nidwalden",
      "name:de": "Nidwalden",
      "name:en": "Nidwalden",
      "name:fr": "Nidwald",
      "name:it": "Nidvaldo",
      "name:rm": "Sutsilvania",
      "name:ru": "Нидвальден",
      "alt_name": "Kanton Nidwalden",
      "boundary": "administrative",
      "way_area": "0.0325758",
      "wikidata": "Q12592",
      "ISO3166-2": "CH-NW",
      "wikipedia": "de:Kanton Nidwalden",
      "admin_level": "4",
      "name:prefix": "Kanton",
      "swisstopo:BEZIRKSNUM": "700",
      "swisstopo:KANTONSNUM": "7"
    }
  },
  {
    "osm_id": -1685677,
    "boundary": "administrative",
    "admin_level": 4,
    "parents": "-51701",
    "name": "Lucerne",
    "local_name": "Luzern",
    "name_en": "Lucerne",
    "all_tags": {
      "ref": "LU",
      "name": "Luzern",
      "name:ca": "Cantó de Lucerna",
      "name:de": "Luzern",
      "name:en": "Lucerne",
      "name:es": "Lucerna",
      "name:fr": "Lucerne",
      "name:it": "Lucerna",
      "name:pl": "Lucerna",
      "name:rm": "Lucerna",
      "name:ru": "Люцерн",
      "alt_name": "Kanton Luzern",
      "boundary": "administrative",
      "way_area": "0.176859",
      "wikidata": "Q12121",
      "ISO3166-2": "CH-LU",
      "wikipedia": "de:Kanton Luzern",
      "admin_level": "4",
      "name:prefix": "Kanton",
      "swisstopo:KANTONSNUM": "3"
    }
  },
  {
    "osm_id": -1684782,
    "boundary": "administrative",
    "admin_level": 5,
    "parents": "-1686344,-51701",
    "name": "Bernese Jura administrative region",
    "local_name": "Région administrative du Jura bernois",
    "name_en": "Bernese Jura administrative region",
    "all_tags": {
      "name": "Région administrative du Jura bernois",
      "name:de": "Verwaltungsregion Berner Jura",
      "name:en": "Bernese Jura administrative region",
      "name:it": "Circondario del Giura Bernese",
      "boundary": "administrative",
      "way_area": "0.0643088",
      "wikidata": "Q636280",
      "admin_level": "5"
    }
  },
  {
    "osm_id": -1684807,
    "boundary": "administrative",
    "admin_level": 6,
    "parents": "-1684782,-1686344,-51701",
    "name": "Bernese Jura administrative district",
    "local_name": "Arrondissement administratif du Jura bernois",
    "name_en": "Bernese Jura administrative district",
    "all_tags": {
      "name": "Arrondissement administratif du Jura bernois",
      "name:de": "Verwaltungskreis Berner Jura",
      "name:en": "Bernese Jura administrative district",
      "boundary": "administrative",
      "way_area": "0.0643088",
      "wikidata": "Q535897",
      "wikipedia": "fr:Arrondissement administratif du Jura bernois",
      "admin_level": "6",
      "wikimedia_commons": "Category:Jura bernois (administrative district)",
      "swisstopo:BEZIRKSNUM": "241"
    }
  },
  {
    "osm_id": -1697347,
    "boundary": "administrative",
    "admin_level": 4,
    "parents": "-51701",
    "name": "Jura",
    "local_name": "Jura",
    "name_en": "Jura",
    "all_tags": {
      "ref": "JU",
      "name": "Jura",
      "name:ca": "Jura",
      "name:de": "Jura",
      "name:en": "Jura",
      "name:fr": "Jura",
      "name:it": "Giura",
      "name:rm": "Giura",
      "name:ru": "Юра",
      "alt_name": "Canton du Jura",
      "boundary": "administrative",
      "way_area": "0.0998176",
      "wikidata": "Q12755",
      "ISO3166-2": "CH-JU",
      "wikipedia": "fr:Canton du Jura",
      "admin_level": "4",
      "name:prefix": "Kanton",
      "default_language": "fr",
      "is_in:country_code": "CH",
      "swisstopo:KANTONSNUM": "26"
    }
  },
  {
    "osm_id": -1697529,
    "boundary": "administrative",
    "admin_level": 6,
    "parents": "-1697347,-51701",
    "name": "District de Porrentruy",
    "local_name": "District de Porrentruy",
    "name_en": null,
    "all_tags": {
      "name": "District de Porrentruy",
      "place": "county",
      "name:de": "Bezirk Pruntrut",
      "name:ru": "община Поррентрю",
      "boundary": "administrative",
      "way_area": "0.0399421",
      "wikidata": "Q659764",
      "wikipedia": "fr:District de Porrentruy",
      "admin_level": "6",
      "is_in:country_code": "CH",
      "swisstopo:BEZIRKSNUM": "2603",
      "swisstopo:KANTONSNUM": "26"
    }
  },
  {
    "osm_id": -1697465,
    "boundary": "administrative",
    "admin_level": 6,
    "parents": "-1697347,-51701",
    "name": "District de Delémont",
    "local_name": "District de Delémont",
    "name_en": null,
    "all_tags": {
      "name": "District de Delémont",
      "place": "county",
      "name:de": "Bezirk Delsberg",
      "name:ru": "община Делемон",
      "boundary": "administrative",
      "way_area": "0.0360888",
      "wikidata": "Q659702",
      "wikipedia": "fr:District de Delémont",
      "admin_level": "6",
      "is_in:country_code": "CH",
      "swisstopo:BEZIRKSNUM": "2601",
      "swisstopo:KANTONSNUM": "26"
    }
  },
  {
    "osm_id": -1701206,
    "boundary": "administrative",
    "admin_level": 6,
    "parents": "-1701322,-1701133,-51701",
    "name": "Bezirk Bucheggberg",
    "local_name": "Bezirk Bucheggberg",
    "name_en": null,
    "all_tags": {
      "name": "Bezirk Bucheggberg",
      "boundary": "administrative",
      "way_area": "0.00743102",
      "wikidata": "Q660846",
      "wikipedia": "de:Bucheggberg (Bezirk)",
      "admin_level": "6",
      "swisstopo:BEZIRKSNUM": "1103",
      "swisstopo:KANTONSNUM": "11"
    }
  },
  {
    "osm_id": -1701322,
    "boundary": "administrative",
    "admin_level": 5,
    "parents": "-1701133,-51701",
    "name": "Amtei Bucheggberg-Wasseramt",
    "local_name": "Amtei Bucheggberg-Wasseramt",
    "name_en": null,
    "all_tags": {
      "name": "Amtei Bucheggberg-Wasseramt",
      "place": "county",
      "boundary": "administrative",
      "way_area": "0.01653",
      "wikidata": "Q998044",
      "wikipedia": "de:Bucheggberg-Wasseramt",
      "admin_level": "5",
      "swisstopo:KANTONSNUM": "11"
    }
  },
  {
    "osm_id": -1701325,
    "boundary": "administrative",
    "admin_level": 5,
    "parents": "-1701133,-51701",
    "name": "Amtei Solothurn-Lebern",
    "local_name": "Amtei Solothurn-Lebern",
    "name_en": null,
    "all_tags": {
      "name": "Amtei Solothurn-Lebern",
      "place": "county",
      "boundary": "administrative",
      "way_area": "0.0146607",
      "wikidata": "Q2299305",
      "wikipedia": "de:Solothurn-Lebern",
      "admin_level": "5",
      "swisstopo:KANTONSNUM": "11"
    }
  },
  {
    "osm_id": -1701264,
    "boundary": "administrative",
    "admin_level": 6,
    "parents": "-1701325,-1701133,-51701",
    "name": "Bezirk Lebern",
    "local_name": "Bezirk Lebern",
    "name_en": null,
    "all_tags": {
      "name": "Bezirk Lebern",
      "boundary": "administrative",
      "way_area": "0.0139153",
      "wikidata": "Q661119",
      "wikipedia": "de:Lebern (Bezirk)",
      "admin_level": "6",
      "swisstopo:BEZIRKSNUM": "1107",
      "swisstopo:KANTONSNUM": "11"
    }
  },
  {
    "osm_id": -1701301,
    "boundary": "administrative",
    "admin_level": 6,
    "parents": "-1701322,-1701133,-51701",
    "name": "Bezirk Wasseramt",
    "local_name": "Bezirk Wasseramt",
    "name_en": null,
    "all_tags": {
      "name": "Bezirk Wasseramt",
      "boundary": "administrative",
      "way_area": "0.00909895",
      "wikidata": "Q660262",
      "wikipedia": "de:Wasseramt (Bezirk)",
      "admin_level": "6",
      "swisstopo:BEZIRKSNUM": "1106",
      "swisstopo:KANTONSNUM": "11"
    }
  },
  {
    "osm_id": -1701287,
    "boundary": "administrative",
    "admin_level": 6,
    "parents": "-1701323,-1701133,-51701",
    "name": "Bezirk Thierstein",
    "local_name": "Bezirk Thierstein",
    "name_en": null,
    "all_tags": {
      "name": "Bezirk Thierstein",
      "name:ru": "Тирштайн",
      "boundary": "administrative",
      "way_area": "0.0121815",
      "wikidata": "Q854081",
      "wikipedia": "de:Thierstein (Bezirk)",
      "admin_level": "6",
      "is_in:country_code": "CH",
      "swisstopo:BEZIRKSNUM": "1110",
      "swisstopo:KANTONSNUM": "11"
    }
  },
  {
    "osm_id": -1684494,
    "boundary": "administrative",
    "admin_level": 6,
    "parents": "-1686366,-51701",
    "name": "Bezirk Laufen",
    "local_name": "Bezirk Laufen",
    "name_en": null,
    "all_tags": {
      "name": "Bezirk Laufen",
      "name:ru": "Лауфен",
      "boundary": "administrative",
      "way_area": "0.0106749",
      "wikidata": "Q113474",
      "wikipedia": "de:Laufen (Bezirk)",
      "admin_level": "6",
      "swisstopo:BEZIRKSNUM": "1302"
    }
  },
  {
    "osm_id": -1701326,
    "boundary": "administrative",
    "admin_level": 5,
    "parents": "-1701133,-51701",
    "name": "Amtei Thal-Gäu",
    "local_name": "Amtei Thal-Gäu",
    "name_en": null,
    "all_tags": {
      "name": "Amtei Thal-Gäu",
      "place": "county",
      "boundary": "administrative",
      "way_area": "0.0239606",
      "wikidata": "Q2408658",
      "wikipedia": "de:Thal-Gäu",
      "admin_level": "5",
      "is_in:country_code": "CH",
      "swisstopo:KANTONSNUM": "11"
    }
  },
  {
    "osm_id": -1701133,
    "boundary": "administrative",
    "admin_level": 4,
    "parents": "-51701",
    "name": "Solothurn",
    "local_name": "Solothurn",
    "name_en": "Solothurn",
    "all_tags": {
      "ref": "SO",
      "name": "Solothurn",
      "name:ca": "Cantó de Solothurn",
      "name:de": "Solothurn",
      "name:en": "Solothurn",
      "name:es": "Soleura",
      "name:fr": "Soleure",
      "name:it": "Soletta",
      "name:lt": "Zoloturnas",
      "name:rm": "Soloturn",
      "name:ru": "Золотурн",
      "alt_name": "Kanton Solothurn",
      "boundary": "administrative",
      "way_area": "0.094011",
      "wikidata": "Q11929",
      "ISO3166-2": "CH-SO",
      "wikipedia": "de:Kanton Solothurn",
      "admin_level": "4",
      "name:prefix": "Kanton",
      "swisstopo:KANTONSNUM": "11"
    }
  },
  {
    "osm_id": -1701228,
    "boundary": "administrative",
    "admin_level": 6,
    "parents": "-1701323,-1701133,-51701",
    "name": "Bezirk Dorneck",
    "local_name": "Bezirk Dorneck",
    "name_en": null,
    "all_tags": {
      "name": "Bezirk Dorneck",
      "name:ru": "Дорнек",
      "boundary": "administrative",
      "way_area": "0.00890889",
      "wikidata": "Q660275",
      "wikipedia": "de:Dorneck (Bezirk)",
      "admin_level": "6",
      "is_in:country_code": "CH",
      "swisstopo:BEZIRKSNUM": "1104",
      "swisstopo:KANTONSNUM": "11"
    }
  },
  {
    "osm_id": -1686366,
    "boundary": "administrative",
    "admin_level": 4,
    "parents": "-51701",
    "name": "Basel-Country",
    "local_name": "Basel-Landschaft",
    "name_en": "Basel-Country",
    "all_tags": {
      "ref": "BL",
      "name": "Basel-Landschaft",
      "name:ca": "Basilea-Camp",
      "name:de": "Basel-Landschaft",
      "name:en": "Basel-Country",
      "name:es": "Basilea-Campiña",
      "name:fr": "Bâle-Campagne",
      "name:it": "Basilea Campagna",
      "name:nl": "Bazel-Land",
      "name:rm": "Basilea-Champagna",
      "name:ru": "Базель-Ланд",
      "alt_name": "Kanton Basel-Landschaft",
      "boundary": "administrative",
      "loc_name": "Baselland;Baselbiet",
      "way_area": "0.0617337",
      "wikidata": "Q12146",
      "ISO3166-2": "CH-BL",
      "wikipedia": "de:Kanton Basel-Landschaft",
      "admin_level": "4",
      "name:prefix": "Kanton",
      "swisstopo:KANTONSNUM": "13"
    }
  },
  {
    "osm_id": -1684487,
    "boundary": "administrative",
    "admin_level": 6,
    "parents": "-1686366,-51701",
    "name": "Bezirk Arlesheim",
    "local_name": "Bezirk Arlesheim",
    "name_en": null,
    "all_tags": {
      "name": "Bezirk Arlesheim",
      "name:ru": "Арлесхайм",
      "boundary": "administrative",
      "way_area": "0.0114845",
      "wikidata": "Q688961",
      "wikipedia": "de:Arlesheim (Bezirk)",
      "admin_level": "6",
      "swisstopo:BEZIRKSNUM": "1301"
    }
  },
  {
    "osm_id": -1684250,
    "boundary": "administrative",
    "admin_level": 6,
    "parents": "-1686366,-51701",
    "name": "Bezirk Liestal",
    "local_name": "Bezirk Liestal",
    "name_en": null,
    "all_tags": {
      "name": "Bezirk Liestal",
      "boundary": "administrative",
      "way_area": "0.0102472",
      "wikidata": "Q659800",
      "wikipedia": "de:Liestal (Bezirk)",
      "admin_level": "6",
      "swisstopo:BEZIRKSNUM": "1303"
    }
  },
  {
    "osm_id": -1684477,
    "boundary": "administrative",
    "admin_level": 6,
    "parents": "-1686366,-51701",
    "name": "Bezirk Sissach",
    "local_name": "Bezirk Sissach",
    "name_en": null,
    "all_tags": {
      "name": "Bezirk Sissach",
      "boundary": "administrative",
      "way_area": "0.016821",
      "wikidata": "Q660249",
      "wikipedia": "de:Sissach (Bezirk)",
      "admin_level": "6",
      "swisstopo:BEZIRKSNUM": "1304"
    }
  },
  {
    "osm_id": -1685568,
    "boundary": "administrative",
    "admin_level": 6,
    "parents": "-1686359,-51701",
    "name": "Bezirk Zofingen",
    "local_name": "Bezirk Zofingen",
    "name_en": null,
    "all_tags": {
      "name": "Bezirk Zofingen",
      "boundary": "administrative",
      "way_area": "0.0168871",
      "wikidata": "Q659332",
      "wikipedia": "de:Zofingen (Bezirk)",
      "admin_level": "6",
      "swisstopo:BEZIRKSNUM": "1910"
    }
  },
  {
    "osm_id": -1701276,
    "boundary": "administrative",
    "admin_level": 6,
    "parents": "-1701324,-1701133,-51701",
    "name": "Bezirk Olten",
    "local_name": "Bezirk Olten",
    "name_en": null,
    "all_tags": {
      "name": "Bezirk Olten",
      "boundary": "administrative",
      "way_area": "0.00958857",
      "wikidata": "Q660133",
      "wikipedia": "de:Olten (Bezirk)",
      "admin_level": "6",
      "is_in:country_code": "CH",
      "swisstopo:BEZIRKSNUM": "1108",
      "swisstopo:KANTONSNUM": "11"
    }
  },
  {
    "osm_id": -1701324,
    "boundary": "administrative",
    "admin_level": 5,
    "parents": "-1701133,-51701",
    "name": "Amtei Olten-Gösgen",
    "local_name": "Amtei Olten-Gösgen",
    "name_en": null,
    "all_tags": {
      "name": "Amtei Olten-Gösgen",
      "place": "county",
      "alt_name": "Niederamt",
      "boundary": "administrative",
      "way_area": "0.0177693",
      "wikidata": "Q2021295",
      "wikipedia": "de:Olten-Gösgen",
      "admin_level": "5",
      "is_in:country_code": "CH",
      "swisstopo:KANTONSNUM": "11"
    }
  },
  {
    "osm_id": -1701238,
    "boundary": "administrative",
    "admin_level": 6,
    "parents": "-1701324,-1701133,-51701",
    "name": "Bezirk Gösgen",
    "local_name": "Bezirk Gösgen",
    "name_en": null,
    "all_tags": {
      "name": "Bezirk Gösgen",
      "boundary": "administrative",
      "way_area": "0.00818077",
      "wikidata": "Q660753",
      "wikipedia": "de:Gösgen (Bezirk)",
      "admin_level": "6",
      "is_in:country_code": "CH",
      "swisstopo:BEZIRKSNUM": "1105",
      "swisstopo:KANTONSNUM": "11"
    }
  },
  {
    "osm_id": -1685564,
    "boundary": "administrative",
    "admin_level": 6,
    "parents": "-1686359,-51701",
    "name": "Bezirk Aarau",
    "local_name": "Bezirk Aarau",
    "name_en": null,
    "all_tags": {
      "name": "Bezirk Aarau",
      "boundary": "administrative",
      "way_area": "0.0124446",
      "wikidata": "Q121410",
      "wikipedia": "de:Bezirk Aarau",
      "admin_level": "6",
      "swisstopo:BEZIRKSNUM": "1901"
    }
  },
  {
    "osm_id": -1686359,
    "boundary": "administrative",
    "admin_level": 4,
    "parents": "-51701",
    "name": "Aargau",
    "local_name": "Aargau",
    "name_en": "Aargau",
    "all_tags": {
      "ref": "AG",
      "name": "Aargau",
      "name:ca": "Argòvia",
      "name:cs": "Argov",
      "name:de": "Aargau",
      "name:en": "Aargau",
      "name:fr": "Argovie",
      "name:it": "Argovia",
      "name:rm": "Argovia",
      "name:ru": "Аргау",
      "alt_name": "Kanton Aargau",
      "boundary": "administrative",
      "name:gsw": "Aargou",
      "way_area": "0.167275",
      "wikidata": "Q11972",
      "ISO3166-2": "CH-AG",
      "wikipedia": "de:Kanton Aargau",
      "admin_level": "4",
      "alt_name:en": "Argovia",
      "name:prefix": "Kanton",
      "swisstopo:KANTONSNUM": "19"
    }
  },
  {
    "osm_id": -1685565,
    "boundary": "administrative",
    "admin_level": 6,
    "parents": "-1686359,-51701",
    "name": "Bezirk Kulm",
    "local_name": "Bezirk Kulm",
    "name_en": null,
    "all_tags": {
      "name": "Bezirk Kulm",
      "boundary": "administrative",
      "way_area": "0.0115658",
      "wikidata": "Q659715",
      "wikipedia": "de:Kulm (Bezirk)",
      "admin_level": "6",
      "swisstopo:BEZIRKSNUM": "1905"
    }
  },
  {
    "osm_id": -1685442,
    "boundary": "administrative",
    "admin_level": 6,
    "parents": "-1686359,-51701",
    "name": "Bezirk Muri",
    "local_name": "Bezirk Muri",
    "name_en": null,
    "all_tags": {
      "name": "Bezirk Muri",
      "boundary": "administrative",
      "way_area": "0.0165045",
      "wikidata": "Q656740",
      "wikipedia": "de:Muri (Bezirk)",
      "admin_level": "6",
      "swisstopo:BEZIRKSNUM": "1908"
    }
  },
  {
    "osm_id": -1685566,
    "boundary": "administrative",
    "admin_level": 6,
    "parents": "-1686359,-51701",
    "name": "Bezirk Lenzburg",
    "local_name": "Bezirk Lenzburg",
    "name_en": null,
    "all_tags": {
      "name": "Bezirk Lenzburg",
      "boundary": "administrative",
      "way_area": "0.0116825",
      "wikidata": "Q659293",
      "wikipedia": "de:Lenzburg (Bezirk)",
      "admin_level": "6",
      "swisstopo:BEZIRKSNUM": "1907"
    }
  },
  {
    "osm_id": -1685438,
    "boundary": "administrative",
    "admin_level": 6,
    "parents": "-1686359,-51701",
    "name": "Bezirk Baden",
    "local_name": "Bezirk Baden",
    "name_en": null,
    "all_tags": {
      "name": "Bezirk Baden",
      "boundary": "administrative",
      "way_area": "0.0182598",
      "wikidata": "Q659597",
      "wikipedia": "de:Bezirk Baden (Aargau)",
      "admin_level": "6",
      "swisstopo:BEZIRKSNUM": "1902"
    }
  },
  {
    "osm_id": -1691473,
    "boundary": "administrative",
    "admin_level": 6,
    "parents": "-1690227,-51701",
    "name": "Bezirk Dietikon",
    "local_name": "Bezirk Dietikon",
    "name_en": null,
    "all_tags": {
      "name": "Bezirk Dietikon",
      "place": "county",
      "boundary": "administrative",
      "way_area": "0.00716079",
      "wikidata": "Q180792",
      "wikipedia": "de:Dietikon (Bezirk)",
      "admin_level": "6",
      "is_in:country_code": "CH",
      "swisstopo:BEZIRKSNUM": "111",
      "swisstopo:KANTONSNUM": "1"
    }
  },
  {
    "osm_id": -1685567,
    "boundary": "administrative",
    "admin_level": 6,
    "parents": "-1686359,-51701",
    "name": "Bezirk Rheinfelden",
    "local_name": "Bezirk Rheinfelden",
    "name_en": null,
    "all_tags": {
      "name": "Bezirk Rheinfelden",
      "boundary": "administrative",
      "way_area": "0.0133539",
      "wikidata": "Q854013",
      "wikipedia": "de:Rheinfelden (Bezirk)",
      "admin_level": "6",
      "swisstopo:BEZIRKSNUM": "1909"
    }
  },
  {
    "osm_id": -1685441,
    "boundary": "administrative",
    "admin_level": 6,
    "parents": "-1686359,-51701",
    "name": "Bezirk Laufenburg",
    "local_name": "Bezirk Laufenburg",
    "name_en": null,
    "all_tags": {
      "name": "Bezirk Laufenburg",
      "boundary": "administrative",
      "way_area": "0.0178475",
      "wikidata": "Q533676",
      "wikipedia": "de:Laufenburg (Bezirk)",
      "admin_level": "6",
      "swisstopo:BEZIRKSNUM": "1906"
    }
  },
  {
    "osm_id": -1685440,
    "boundary": "administrative",
    "admin_level": 6,
    "parents": "-1686359,-51701",
    "name": "Bezirk Brugg",
    "local_name": "Bezirk Brugg",
    "name_en": null,
    "all_tags": {
      "name": "Bezirk Brugg",
      "boundary": "administrative",
      "way_area": "0.0181804",
      "wikidata": "Q658994",
      "wikipedia": "de:Bezirk Brugg",
      "admin_level": "6",
      "swisstopo:BEZIRKSNUM": "1904"
    }
  },
  {
    "osm_id": -1688759,
    "boundary": "administrative",
    "admin_level": 6,
    "parents": "-1687730,-51701",
    "name": "Distretto di Mendrisio",
    "local_name": "Distretto di Mendrisio",
    "name_en": null,
    "all_tags": {
      "name": "Distretto di Mendrisio",
      "place": "county",
      "name:de": "Bezirk Mendrisio",
      "name:fr": "District de Mendrisio",
      "name:it": "Distretto di Mendrisio",
      "name:rm": "District da Mendrisio",
      "name:ru": "Мендризио",
      "alt_name": "Mendrisiotto",
      "boundary": "administrative",
      "way_area": "0.0116832",
      "wikidata": "Q869646",
      "wikipedia": "it:Distretto di Mendrisio",
      "admin_level": "6",
      "swisstopo:BEZIRKSNUM": "2106"
    }
  },
  {
    "osm_id": -1687730,
    "boundary": "administrative",
    "admin_level": 4,
    "parents": "-51701",
    "name": "Ticino",
    "local_name": "Ticino",
    "name_en": "Ticino",
    "all_tags": {
      "ref": "TI",
      "name": "Ticino",
      "name:br": "Ticino",
      "name:ca": "Tessí",
      "name:de": "Tessin",
      "name:en": "Ticino",
      "name:es": "Tesino",
      "name:fr": "Tessin",
      "name:it": "Ticino",
      "name:ja": "ティチーノ州",
      "name:lt": "Tičinas",
      "name:pt": "Tessino",
      "name:rm": "Tessin",
      "name:ru": "Тичино",
      "alt_name": "Canton Ticino",
      "boundary": "administrative",
      "way_area": "0.328271",
      "wikidata": "Q12724",
      "ISO3166-2": "CH-TI",
      "wikipedia": "it:Canton Ticino",
      "admin_level": "4",
      "name:prefix": "Kanton",
      "is_in:country": "Switzerland",
      "is_in:continent": "Europe",
      "default_language": "it",
      "is_in:country_code": "CH",
      "swisstopo:KANTONSNUM": "21"
    }
  },
  {
    "osm_id": -1688679,
    "boundary": "administrative",
    "admin_level": 6,
    "parents": "-1687730,-51701",
    "name": "Distretto di Locarno",
    "local_name": "Distretto di Locarno",
    "name_en": null,
    "all_tags": {
      "name": "Distretto di Locarno",
      "place": "county",
      "name:de": "Bezirk Locarno",
      "name:fr": "District de Locarno",
      "name:it": "Distretto di Locarno",
      "name:rm": "District Locarno",
      "name:ru": "Локарно",
      "boundary": "administrative",
      "way_area": "0.0689802",
      "wikidata": "Q660653",
      "wikipedia": "it:Distretto di Locarno",
      "admin_level": "6",
      "swisstopo:BEZIRKSNUM": "2104"
    }
  },
  {
    "osm_id": -1688773,
    "boundary": "administrative",
    "admin_level": 6,
    "parents": "-1687730,-51701",
    "name": "Distretto di Vallemaggia",
    "local_name": "Distretto di Vallemaggia",
    "name_en": null,
    "all_tags": {
      "name": "Distretto di Vallemaggia",
      "place": "county",
      "name:de": "Bezirk Mendrisio",
      "name:fr": "District de Vallemaggia",
      "name:it": "Distretto di Vallemaggia",
      "name:rm": "District da Vallemaggia",
      "name:ru": "Валлемаджа",
      "boundary": "administrative",
      "way_area": "0.066531",
      "wikidata": "Q660418",
      "wikipedia": "it:Distretto di Vallemaggia",
      "admin_level": "6",
      "swisstopo:BEZIRKSNUM": "2108"
    }
  },
  {
    "osm_id": -1688231,
    "boundary": "administrative",
    "admin_level": 6,
    "parents": "-1687730,-51701",
    "name": "Distretto di Bellinzona",
    "local_name": "Distretto di Bellinzona",
    "name_en": null,
    "all_tags": {
      "name": "Distretto di Bellinzona",
      "place": "county",
      "name:de": "Bezirk Bellinzona",
      "name:fr": "District de Bellinzone",
      "name:it": "Distretto di Bellinzona",
      "name:rm": "District Bellinzona",
      "name:ru": "Беллинцона",
      "boundary": "administrative",
      "way_area": "0.026373",
      "wikidata": "Q206164",
      "wikipedia": "it:Distretto di Bellinzona",
      "admin_level": "6",
      "swisstopo:BEZIRKSNUM": "2101"
    }
  },
  {
    "osm_id": -1688769,
    "boundary": "administrative",
    "admin_level": 6,
    "parents": "-1687730,-51701",
    "name": "Distretto di Riviera",
    "local_name": "Distretto di Riviera",
    "name_en": null,
    "all_tags": {
      "name": "Distretto di Riviera",
      "place": "county",
      "name:de": "Bezirk Mendrisio",
      "name:fr": "District de Riviera",
      "name:it": "Distretto di Riviera",
      "name:rm": "District da Riviera",
      "boundary": "administrative",
      "way_area": "0.0170221",
      "wikidata": "Q659663",
      "wikipedia": "it:Distretto di Riviera",
      "admin_level": "6",
      "swisstopo:BEZIRKSNUM": "2107"
    }
  },
  {
    "osm_id": -1688767,
    "boundary": "administrative",
    "admin_level": 6,
    "parents": "-1686631,-51701",
    "name": "Moësa",
    "local_name": "Moësa",
    "name_en": null,
    "all_tags": {
      "name": "Moësa",
      "name:ru": "Моэза",
      "name:rw": "Regiun Moesa",
      "boundary": "administrative",
      "way_area": "0.057967",
      "wikidata": "Q23013974",
      "wikipedia": "de:Region Moesa",
      "admin_level": "6",
      "official_name": "Region Moesa",
      "default_language": "it",
      "swisstopo:BEZIRKSNUM": "1847"
    }
  },
  {
    "osm_id": -9366563,
    "boundary": "administrative",
    "admin_level": 6,
    "parents": "-1693971,-51701",
    "name": "Korporation Ursern",
    "local_name": "Korporation Ursern",
    "name_en": null,
    "all_tags": {
      "name": "Korporation Ursern",
      "website": "http://www.korporation-ursern.ch/",
      "boundary": "administrative",
      "way_area": "0.0205794",
      "wikipedia": "de:Ursern",
      "admin_level": "6"
    }
  },
  {
    "osm_id": -1693971,
    "boundary": "administrative",
    "admin_level": 4,
    "parents": "-51701",
    "name": "Uri",
    "local_name": "Uri",
    "name_en": "Uri",
    "all_tags": {
      "ref": "UR",
      "name": "Uri",
      "name:ca": "Uri",
      "name:de": "Uri",
      "name:en": "Uri",
      "name:fr": "Uri",
      "name:it": "Uri",
      "name:rm": "Uri",
      "name:ru": "Ури",
      "alt_name": "Kanton Uri",
      "boundary": "administrative",
      "way_area": "0.12679",
      "wikidata": "Q12404",
      "ISO3166-2": "CH-UR",
      "wikipedia": "de:Kanton Uri",
      "admin_level": "4",
      "name:prefix": "Kanton",
      "is_in:continent": "Europe",
      "swisstopo:BEZIRKSNUM": "400",
      "swisstopo:KANTONSNUM": "4"
    }
  },
  {
    "osm_id": -1688583,
    "boundary": "administrative",
    "admin_level": 4,
    "parents": "-51701",
    "name": "Schwyz",
    "local_name": "Schwyz",
    "name_en": "Schwyz",
    "all_tags": {
      "ref": "SZ",
      "name": "Schwyz",
      "name:ca": "Cantó de Schwyz",
      "name:de": "Schwyz",
      "name:en": "Schwyz",
      "name:fr": "Schwyz",
      "name:it": "Svitto",
      "name:lt": "Švicas (Švico kantonas)",
      "name:rm": "Sviz",
      "name:ru": "Швиц",
      "alt_name": "Kanton Schwyz",
      "boundary": "administrative",
      "way_area": "0.107492",
      "wikidata": "Q12433",
      "ISO3166-2": "CH-SZ",
      "wikipedia": "de:Kanton Schwyz",
      "admin_level": "4",
      "alt_name:fr": "Schwytz",
      "name:prefix": "Kanton",
      "swisstopo:KANTONSNUM": "5"
    }
  },
  {
    "osm_id": -1688589,
    "boundary": "administrative",
    "admin_level": 6,
    "parents": "-1688583,-51701",
    "name": "Schwyz",
    "local_name": "Schwyz",
    "name_en": null,
    "all_tags": {
      "name": "Schwyz",
      "boundary": "administrative",
      "way_area": "0.0599336",
      "wikidata": "Q74818",
      "wikipedia": "de:Bezirk Schwyz",
      "admin_level": "6",
      "swisstopo:BEZIRKSNUM": "506"
    }
  },
  {
    "osm_id": -2018281,
    "boundary": "administrative",
    "admin_level": 6,
    "parents": "-1686631,-51701",
    "name": "Maloja",
    "local_name": "Maloja",
    "name_en": null,
    "all_tags": {
      "name": "Maloja",
      "name:ru": "Малоя",
      "boundary": "administrative",
      "way_area": "0.114031",
      "wikidata": "Q23732284",
      "wikipedia": "de:Region Maloja",
      "population": "18294",
      "admin_level": "6",
      "official_name": "Region Maloja / Regione Maloja / Regiun Malögia",
      "population:date": "2020-12-31",
      "official_name:de": "Region Maloja",
      "official_name:it": "Regione Maloja",
      "official_name:rm": "Regiun Malögia"
    }
  },
  {
    "osm_id": -1686631,
    "boundary": "administrative",
    "admin_level": 4,
    "parents": "-51701",
    "name": "Grisons",
    "local_name": "Graubünden/Grischun/Grigioni",
    "name_en": "Grisons",
    "all_tags": {
      "ref": "GR",
      "name": "Graubünden/Grischun/Grigioni",
      "name:ar": "غروبندن",
      "name:br": "Grischun",
      "name:ca": "Grisons",
      "name:de": "Graubünden",
      "name:en": "Grisons",
      "name:es": "Grisones",
      "name:fr": "Grisons",
      "name:it": "Grigioni",
      "name:la": "Grisonia",
      "name:nl": "Graubünden",
      "name:pl": "Gryzonia",
      "name:pt": "Grisões",
      "name:rm": "Grischun",
      "name:ru": "Граубюнден (Гризон)",
      "alt_name": "Kanton Graubünden",
      "boundary": "administrative",
      "way_area": "0.835017",
      "wikidata": "Q11925",
      "ISO3166-2": "CH-GR",
      "wikipedia": "de:Kanton Graubünden",
      "admin_level": "4",
      "name:prefix": "Kanton",
      "old_name:nl": "Grauwbunderland",
      "swisstopo:KANTONSNUM": "18"
    }
  },
  {
    "osm_id": -2018098,
    "boundary": "administrative",
    "admin_level": 6,
    "parents": "-1686631,-51701",
    "name": "Imboden",
    "local_name": "Imboden",
    "name_en": null,
    "all_tags": {
      "name": "Imboden",
      "name:rw": "Regiun Plaun",
      "boundary": "administrative",
      "way_area": "0.0240354",
      "wikidata": "Q23013977",
      "wikipedia": "de:Region Imboden",
      "admin_level": "6",
      "official_name": "Region Imboden",
      "swisstopo:BEZIRKSNUM": "1844"
    }
  },
  {
    "osm_id": -2018282,
    "boundary": "administrative",
    "admin_level": 6,
    "parents": "-1686631,-51701",
    "name": "Plessur",
    "local_name": "Plessur",
    "name_en": null,
    "all_tags": {
      "name": "Plessur",
      "name:rw": "Regiun Plessur",
      "alt_name": "Bezirk Plessur",
      "boundary": "administrative",
      "way_area": "0.0336284",
      "wikidata": "Q23013973",
      "wikipedia": "de:Region Plessur",
      "admin_level": "6",
      "official_name": "Region Plessur",
      "swisstopo:BEZIRKSNUM": "1848"
    }
  },
  {
    "osm_id": -2018280,
    "boundary": "administrative",
    "admin_level": 6,
    "parents": "-1686631,-51701",
    "name": "Landquart",
    "local_name": "Landquart",
    "name_en": null,
    "all_tags": {
      "name": "Landquart",
      "boundary": "administrative",
      "way_area": "0.0206434",
      "wikidata": "Q23013948",
      "wikipedia": "de:Region Landquart",
      "admin_level": "6",
      "official_name": "Region Landquart",
      "swisstopo:BEZIRKSNUM": "1845"
    }
  },
  {
    "osm_id": -1691005,
    "boundary": "administrative",
    "admin_level": 6,
    "parents": "-1690227,-51701",
    "name": "Bezirk Affoltern",
    "local_name": "Bezirk Affoltern",
    "name_en": null,
    "all_tags": {
      "name": "Bezirk Affoltern",
      "place": "county",
      "boundary": "administrative",
      "way_area": "0.0134346",
      "wikidata": "Q656635",
      "wikipedia": "de:Affoltern (Bezirk)",
      "admin_level": "6",
      "is_in:country_code": "CH",
      "swisstopo:BEZIRKSNUM": "101",
      "swisstopo:KANTONSNUM": "1"
    }
  },
  {
    "osm_id": -1688584,
    "boundary": "administrative",
    "admin_level": 6,
    "parents": "-1688583,-51701",
    "name": "Einsiedeln",
    "local_name": "Einsiedeln",
    "name_en": null,
    "all_tags": {
      "name": "Einsiedeln",
      "boundary": "administrative",
      "way_area": "0.0130075",
      "wikidata": "Q74874",
      "wikipedia": "de:Einsiedeln (Bezirk)",
      "admin_level": "6",
      "postal_code": "8840",
      "swisstopo:BEZIRKSNUM": "501",
      "swisstopo:KANTONSNUM": "5"
    }
  },
  {
    "osm_id": -1691046,
    "boundary": "administrative",
    "admin_level": 6,
    "parents": "-1690227,-51701",
    "name": "Bezirk Horgen",
    "local_name": "Bezirk Horgen",
    "name_en": null,
    "all_tags": {
      "name": "Bezirk Horgen",
      "place": "county",
      "boundary": "administrative",
      "way_area": "0.0152769",
      "wikidata": "Q660579",
      "wikipedia": "de:Bezirk Horgen",
      "admin_level": "6",
      "is_in:country_code": "CH",
      "swisstopo:BEZIRKSNUM": "106",
      "swisstopo:KANTONSNUM": "1"
    }
  },
  {
    "osm_id": -1691150,
    "boundary": "administrative",
    "admin_level": 6,
    "parents": "-1690227,-51701",
    "name": "Bezirk Meilen",
    "local_name": "Bezirk Meilen",
    "name_en": null,
    "all_tags": {
      "name": "Bezirk Meilen",
      "place": "county",
      "boundary": "administrative",
      "way_area": "0.0138053",
      "wikidata": "Q656714",
      "wikipedia": "de:Bezirk Meilen",
      "admin_level": "6",
      "is_in:country_code": "CH",
      "swisstopo:BEZIRKSNUM": "107",
      "swisstopo:KANTONSNUM": "1"
    }
  },
  {
    "osm_id": -1690941,
    "boundary": "administrative",
    "admin_level": 6,
    "parents": "-1690227,-51701",
    "name": "District Zurich",
    "local_name": "Bezirk Zürich",
    "name_en": "District Zurich",
    "all_tags": {
      "name": "Bezirk Zürich",
      "place": "county",
      "name:ca": "Districte de Zuric",
      "name:de": "Bezirk Zürich",
      "name:en": "District Zurich",
      "name:fr": "District de Zurich",
      "name:it": "Distretto di Zurigo",
      "boundary": "administrative",
      "way_area": "0.0109431",
      "wikidata": "Q660732",
      "wikipedia": "de:Bezirk Zürich",
      "admin_level": "6",
      "swisstopo:BEZIRKSNUM": "112",
      "swisstopo:KANTONSNUM": "1"
    }
  },
  {
    "osm_id": -1688588,
    "boundary": "administrative",
    "admin_level": 6,
    "parents": "-1688583,-51701",
    "name": "March",
    "local_name": "March",
    "name_en": null,
    "all_tags": {
      "name": "March",
      "boundary": "administrative",
      "way_area": "0.0221665",
      "wikidata": "Q74768",
      "wikipedia": "de:March (Bezirk)",
      "admin_level": "6",
      "swisstopo:BEZIRKSNUM": "505"
    }
  },
  {
    "osm_id": -1687181,
    "boundary": "administrative",
    "admin_level": 6,
    "parents": "-1687006,-51701",
    "name": "Wahlkreis Wil",
    "local_name": "Wahlkreis Wil",
    "name_en": null,
    "all_tags": {
      "name": "Wahlkreis Wil",
      "boundary": "administrative",
      "way_area": "0.0173126",
      "wikidata": "Q661216",
      "wikipedia": "de:Wil (Wahlkreis)",
      "admin_level": "6",
      "is_in:state": "St. Gallen",
      "is_in:country": "Switzerland",
      "is_in:continent": "Europe",
      "is_in:country_code": "CH",
      "swisstopo:BEZIRKSNUM": "1728",
      "swisstopo:KANTONSNUM": "17"
    }
  },
  {
    "osm_id": -1691293,
    "boundary": "administrative",
    "admin_level": 6,
    "parents": "-1690227,-51701",
    "name": "Bezirk Dielsdorf",
    "local_name": "Bezirk Dielsdorf",
    "name_en": null,
    "all_tags": {
      "name": "Bezirk Dielsdorf",
      "place": "county",
      "boundary": "administrative",
      "way_area": "0.0182416",
      "wikidata": "Q660407",
      "wikipedia": "de:Dielsdorf (Bezirk)",
      "admin_level": "6",
      "is_in:country_code": "CH",
      "swisstopo:BEZIRKSNUM": "104",
      "swisstopo:KANTONSNUM": "1"
    }
  },
  {
    "osm_id": -1691279,
    "boundary": "administrative",
    "admin_level": 6,
    "parents": "-1690227,-51701",
    "name": "Bezirk Bülach",
    "local_name": "Bezirk Bülach",
    "name_en": null,
    "all_tags": {
      "name": "Bezirk Bülach",
      "place": "county",
      "name:de": "Bezirk Bülach",
      "name:ru": "Бюлах",
      "boundary": "administrative",
      "way_area": "0.0220731",
      "wikidata": "Q680996",
      "wikipedia": "de:Bülach (Bezirk)",
      "admin_level": "6",
      "is_in:country_code": "CH",
      "swisstopo:BEZIRKSNUM": "103",
      "swisstopo:KANTONSNUM": "1"
    }
  },
  {
    "osm_id": -1691239,
    "boundary": "administrative",
    "admin_level": 6,
    "parents": "-1690227,-51701",
    "name": "Bezirk Winterthur",
    "local_name": "Bezirk Winterthur",
    "name_en": null,
    "all_tags": {
      "name": "Bezirk Winterthur",
      "place": "county",
      "boundary": "administrative",
      "way_area": "0.030052",
      "wikidata": "Q644300",
      "wikipedia": "de:Bezirk Winterthur",
      "admin_level": "6",
      "is_in:country_code": "CH",
      "swisstopo:BEZIRKSNUM": "110",
      "swisstopo:KANTONSNUM": "1"
    }
  },
  {
    "osm_id": -1691254,
    "boundary": "administrative",
    "admin_level": 6,
    "parents": "-1690227,-51701",
    "name": "Bezirk Andelfingen",
    "local_name": "Bezirk Andelfingen",
    "name_en": null,
    "all_tags": {
      "name": "Bezirk Andelfingen",
      "place": "county",
      "boundary": "administrative",
      "way_area": "0.0199196",
      "wikidata": "Q660721",
      "wikipedia": "de:Andelfingen (Bezirk)",
      "admin_level": "6",
      "is_in:country_code": "CH",
      "swisstopo:BEZIRKSNUM": "102",
      "swisstopo:KANTONSNUM": "1"
    }
  },
  {
    "osm_id": -1874920,
    "boundary": "administrative",
    "admin_level": 6,
    "parents": "-1696112,-51701",
    "name": "Bezirk Unterklettgau",
    "local_name": "Bezirk Unterklettgau",
    "name_en": null,
    "all_tags": {
      "name": "Bezirk Unterklettgau",
      "boundary": "administrative",
      "way_area": "0.00557952",
      "wikidata": "Q854069",
      "wikipedia": "de:Unterklettgau (Bezirk)",
      "admin_level": "6",
      "swisstopo:BEZIRKSNUM": "1406",
      "swisstopo:KANTONSNUM": "14"
    }
  },
  {
    "osm_id": -1696112,
    "boundary": "administrative",
    "admin_level": 4,
    "parents": "-51701",
    "name": "Schaffhausen",
    "local_name": "Schaffhausen",
    "name_en": null,
    "all_tags": {
      "ref": "SH",
      "name": "Schaffhausen",
      "name:ca": "Schaffhausen",
      "name:de": "Schaffhausen",
      "name:es": "Escafusa",
      "name:fr": "Schaffhouse",
      "name:it": "Sciaffusa",
      "name:lt": "Šafhauzenas (Šafhauzeno kantonas)",
      "name:pl": "Szafuza",
      "name:rm": "Schaffusa",
      "name:ru": "Шаффхаузен",
      "alt_name": "Kanton Schaffhausen",
      "boundary": "administrative",
      "way_area": "0.0357673",
      "wikidata": "Q12697",
      "ISO3166-2": "CH-SH",
      "wikipedia": "de:Kanton Schaffhausen",
      "admin_level": "4",
      "name:prefix": "Kanton",
      "swisstopo:KANTONSNUM": "14"
    }
  },
  {
    "osm_id": -1836567,
    "boundary": "administrative",
    "admin_level": 6,
    "parents": "-1693811,-51701",
    "name": "Bezirk Frauenfeld",
    "local_name": "Bezirk Frauenfeld",
    "name_en": null,
    "all_tags": {
      "name": "Bezirk Frauenfeld",
      "boundary": "administrative",
      "way_area": "0.0334452",
      "wikidata": "Q660546",
      "wikipedia": "de:Bezirk Frauenfeld",
      "admin_level": "6",
      "swisstopo:BEZIRKSNUM": "2012"
    }
  },
  {
    "osm_id": -1693811,
    "boundary": "administrative",
    "admin_level": 4,
    "parents": "-51701",
    "name": "Thurgau",
    "local_name": "Thurgau",
    "name_en": "Thurgau",
    "all_tags": {
      "ref": "TG",
      "name": "Thurgau",
      "name:be": "Тургаў",
      "name:ca": "Turgòvia",
      "name:de": "Thurgau",
      "name:en": "Thurgau",
      "name:eo": "Turgovio",
      "name:es": "Turgovia",
      "name:fr": "Thurgovie",
      "name:it": "Turgovia",
      "name:la": "Turgovia",
      "name:rm": "Turgovia",
      "name:ru": "Тургау",
      "alt_name": "Kanton Thurgau",
      "boundary": "administrative",
      "way_area": "0.118431",
      "wikidata": "Q12713",
      "ISO3166-2": "CH-TG",
      "wikipedia": "de:Kanton Thurgau",
      "admin_level": "4",
      "name:prefix": "Kanton",
      "swisstopo:KANTONSNUM": "20"
    }
  },
  {
    "osm_id": -1687219,
    "boundary": "administrative",
    "admin_level": 6,
    "parents": "-1687006,-51701",
    "name": "Wahlkreis Werdenberg",
    "local_name": "Wahlkreis Werdenberg",
    "name_en": null,
    "all_tags": {
      "name": "Wahlkreis Werdenberg",
      "is_in": "St. Gallen;Switzerland;Europe",
      "boundary": "administrative",
      "way_area": "0.0244948",
      "wikidata": "Q75069",
      "wikipedia": "de:Werdenberg (Wahlkreis)",
      "admin_level": "6",
      "is_in:state": "St. Gallen",
      "is_in:country": "Switzerland",
      "is_in:continent": "Europe",
      "is_in:country_code": "CH",
      "swisstopo:BEZIRKSNUM": "1724",
      "swisstopo:KANTONSNUM": "17"
    }
  },
  {
    "osm_id": -1686655,
    "boundary": "administrative",
    "admin_level": 6,
    "parents": "-1686649,-51701",
    "name": "Hinterland",
    "local_name": "Hinterland",
    "name_en": null,
    "all_tags": {
      "name": "Hinterland",
      "boundary": "administrative",
      "way_area": "0.0162055",
      "wikidata": "Q853773",
      "wikipedia": "de:Bezirk Hinterland",
      "admin_level": "6",
      "swisstopo:BEZIRKSNUM": "1501"
    }
  },
  {
    "osm_id": -1686659,
    "boundary": "administrative",
    "admin_level": 6,
    "parents": "-1686649,-51701",
    "name": "Mittelland",
    "local_name": "Mittelland",
    "name_en": null,
    "all_tags": {
      "name": "Mittelland",
      "boundary": "administrative",
      "way_area": "0.0071774",
      "wikidata": "Q853875",
      "wikipedia": "de:Bezirk Mittelland",
      "admin_level": "6",
      "swisstopo:BEZIRKSNUM": "1502"
    }
  },
  {
    "osm_id": -1687101,
    "boundary": "administrative",
    "admin_level": 6,
    "parents": "-1687006,-51701",
    "name": "Wahlkreis Rheintal",
    "local_name": "Wahlkreis Rheintal",
    "name_en": null,
    "all_tags": {
      "name": "Wahlkreis Rheintal",
      "boundary": "administrative",
      "way_area": "0.0165449",
      "wikidata": "Q188220",
      "wikipedia": "de:Rheintal (Wahlkreis)",
      "admin_level": "6",
      "is_in:state": "St. Gallen",
      "is_in:country": "Switzerland",
      "is_in:continent": "Europe",
      "is_in:country_code": "CH",
      "swisstopo:BEZIRKSNUM": "1723",
      "swisstopo:KANTONSNUM": "17"
    }
  },
  {
    "osm_id": -1686660,
    "boundary": "administrative",
    "admin_level": 6,
    "parents": "-1686649,-51701",
    "name": "Vorderland",
    "local_name": "Vorderland",
    "name_en": null,
    "all_tags": {
      "name": "Vorderland",
      "boundary": "administrative",
      "way_area": "0.00553472",
      "wikidata": "Q854083",
      "wikipedia": "de:Bezirk Vorderland",
      "admin_level": "6",
      "swisstopo:BEZIRKSNUM": "1503"
    }
  },
  {
    "osm_id": -1854100,
    "boundary": "administrative",
    "admin_level": 6,
    "parents": "-1693811,-51701",
    "name": "Bezirk Weinfelden",
    "local_name": "Bezirk Weinfelden",
    "name_en": null,
    "all_tags": {
      "name": "Bezirk Weinfelden",
      "boundary": "administrative",
      "way_area": "0.0271275",
      "wikidata": "Q175071",
      "wikipedia": "de:Weinfelden (Bezirk)",
      "admin_level": "6",
      "swisstopo:BEZIRKSNUM": "2015",
      "swisstopo:KANTONSNUM": "20"
    }
  },
  {
    "osm_id": -1836631,
    "boundary": "administrative",
    "admin_level": 6,
    "parents": "-1693811,-51701",
    "name": "Bezirk Kreuzlingen",
    "local_name": "Bezirk Kreuzlingen",
    "name_en": null,
    "all_tags": {
      "name": "Bezirk Kreuzlingen",
      "boundary": "administrative",
      "way_area": "0.0154661",
      "wikidata": "Q660450",
      "wikipedia": "de:Kreuzlingen (Bezirk)",
      "admin_level": "6",
      "swisstopo:BEZIRKSNUM": "2013",
      "swisstopo:KANTONSNUM": "20"
    }
  },
  {
    "osm_id": -1687161,
    "boundary": "administrative",
    "admin_level": 6,
    "parents": "-1687006,-51701",
    "name": "Wahlkreis St. Gallen",
    "local_name": "Wahlkreis St. Gallen",
    "name_en": null,
    "all_tags": {
      "name": "Wahlkreis St. Gallen",
      "boundary": "administrative",
      "way_area": "0.018803",
      "wikidata": "Q661143",
      "wikipedia": "de:St. Gallen (Wahlkreis)",
      "admin_level": "6",
      "is_in:state": "St. Gallen",
      "is_in:country": "Switzerland",
      "is_in:continent": "Europe",
      "is_in:country_code": "CH",
      "swisstopo:BEZIRKSNUM": "1721",
      "swisstopo:KANTONSNUM": "17"
    }
  },
  {
    "osm_id": -1845517,
    "boundary": "administrative",
    "admin_level": 6,
    "parents": "-1693811,-51701",
    "name": "Bezirk Arbon",
    "local_name": "Bezirk Arbon",
    "name_en": null,
    "all_tags": {
      "name": "Bezirk Arbon",
      "boundary": "administrative",
      "way_area": "0.0106904",
      "wikidata": "Q546803",
      "wikipedia": "de:Bezirk Arbon",
      "admin_level": "6",
      "swisstopo:BEZIRKSNUM": "2011",
      "swisstopo:KANTONSNUM": "20"
    }
  },
  {
    "osm_id": -6205170,
    "boundary": "historic",
    "admin_level": 6,
    "parents": "-1702421,-51701",
    "name": "Ancien district de Grandson",
    "local_name": "Ancien district de Grandson",
    "name_en": null,
    "all_tags": {
      "name": "Ancien district de Grandson",
      "boundary": "historic",
      "end_date": "2007",
      "way_area": "0.0207819",
      "start_date": "1798",
      "admin_level": "6"
    }
  },
  {
    "osm_id": -1701323,
    "boundary": "administrative",
    "admin_level": 5,
    "parents": "-1701133,-51701",
    "name": "Amtei Dorneck-Thierstein",
    "local_name": "Amtei Dorneck-Thierstein",
    "name_en": null,
    "all_tags": {
      "name": "Amtei Dorneck-Thierstein",
      "place": "county",
      "alt_name": "Schwarzbubenland",
      "boundary": "administrative",
      "way_area": "0.0210904",
      "wikidata": "Q1245681",
      "wikipedia": "de:Dorneck-Thierstein",
      "admin_level": "5",
      "is_in:country_code": "CH",
      "swisstopo:KANTONSNUM": "11"
    }
  },
  {
    "osm_id": -6205346,
    "boundary": "historic",
    "admin_level": 6,
    "parents": "-1702421,-51701",
    "name": "Ancien district de la Vallée de Joux",
    "local_name": "Ancien district de la Vallée de Joux",
    "name_en": null,
    "all_tags": {
      "name": "Ancien district de la Vallée de Joux",
      "boundary": "historic",
      "end_date": "2007",
      "way_area": "0.0202464",
      "start_date": "1798",
      "admin_level": "6"
    }
  },
  {
    "osm_id": -1698882,
    "boundary": "administrative",
    "admin_level": 6,
    "parents": "-1698314,-51701",
    "name": "District de la Glâne",
    "local_name": "District de la Glâne",
    "name_en": null,
    "all_tags": {
      "name": "District de la Glâne",
      "name:de": "Glanebezirk",
      "name:fr": "District de la Glâne",
      "boundary": "administrative",
      "way_area": "0.01983",
      "wikidata": "Q660374",
      "wikipedia": "fr:District de la Glâne",
      "admin_level": "6",
      "swisstopo:BEZIRKSNUM": "1002"
    }
  },
  {
    "osm_id": -1689430,
    "boundary": "historic",
    "admin_level": 6,
    "parents": "-1702420,-51701",
    "name": "District du Val-de-Travers",
    "local_name": "District du Val-de-Travers",
    "name_en": null,
    "all_tags": {
      "name": "District du Val-de-Travers",
      "name:ru": "община Вал-де-Травер",
      "boundary": "historic",
      "way_area": "0.0196527",
      "wikidata": "Q648339",
      "wikipedia": "fr:District du Val-de-Travers",
      "admin_level": "6"
    }
  },
  {
    "osm_id": -1684808,
    "boundary": "administrative",
    "admin_level": 6,
    "parents": "-1684602,-1686344,-51701",
    "name": "Emmental administrative district",
    "local_name": "Verwaltungskreis Emmental",
    "name_en": "Emmental administrative district",
    "all_tags": {
      "name": "Verwaltungskreis Emmental",
      "name:en": "Emmental administrative district",
      "name:fr": "Arrondissement administratif de l'Emmental",
      "boundary": "administrative",
      "way_area": "0.0816326",
      "wikidata": "Q666253",
      "wikipedia": "de:Verwaltungskreis Emmental",
      "admin_level": "6",
      "wikimedia_commons": "Category:Emmental (administrative district)",
      "swisstopo:BEZIRKSNUM": "245"
    }
  },
  {
    "osm_id": -1684809,
    "boundary": "administrative",
    "admin_level": 6,
    "parents": "-1684602,-1686344,-51701",
    "name": "Oberaargau administrative district",
    "local_name": "Verwaltungskreis Oberaargau",
    "name_en": "Oberaargau administrative district",
    "all_tags": {
      "name": "Verwaltungskreis Oberaargau",
      "name:en": "Oberaargau administrative district",
      "name:fr": "Arrondissement administratif de Haute-Argovie",
      "boundary": "administrative",
      "way_area": "0.0392566",
      "wikidata": "Q678827",
      "wikipedia": "de:Verwaltungskreis Oberaargau",
      "admin_level": "6",
      "wikimedia_commons": "Category:Oberaargau (administrative district)",
      "swisstopo:BEZIRKSNUM": "244"
    }
  },
  {
    "osm_id": -1701283,
    "boundary": "administrative",
    "admin_level": 6,
    "parents": "-1701326,-1701133,-51701",
    "name": "Bezirk Thal",
    "local_name": "Bezirk Thal",
    "name_en": null,
    "all_tags": {
      "name": "Bezirk Thal",
      "boundary": "administrative",
      "way_area": "0.0165814",
      "wikidata": "Q598278",
      "wikipedia": "de:Thal (Bezirk)",
      "admin_level": "6",
      "is_in:country_code": "CH",
      "swisstopo:BEZIRKSNUM": "1102",
      "swisstopo:KANTONSNUM": "11"
    }
  },
  {
    "osm_id": -1689429,
    "boundary": "historic",
    "admin_level": 6,
    "parents": "-1702420,-51701",
    "name": "District du Val-de-Ruz",
    "local_name": "District du Val-de-Ruz",
    "name_en": null,
    "all_tags": {
      "name": "District du Val-de-Ruz",
      "boundary": "historic",
      "way_area": "0.0151644",
      "wikidata": "Q661256",
      "wikipedia": "fr:District du Val-de-Ruz",
      "admin_level": "6"
    }
  },
  {
    "osm_id": -1684824,
    "boundary": "administrative",
    "admin_level": 6,
    "parents": "-1684606,-1686344,-51701",
    "name": "Obersimmental-Saanen administrative district",
    "local_name": "Verwaltungskreis Obersimmental-Saanen",
    "name_en": "Obersimmental-Saanen administrative district",
    "all_tags": {
      "name": "Verwaltungskreis Obersimmental-Saanen",
      "name:en": "Obersimmental-Saanen administrative district",
      "name:fr": "Arrondissement administratif du Haut-Simmental et Gessenay",
      "boundary": "administrative",
      "way_area": "0.0673416",
      "wikidata": "Q869479",
      "wikipedia": "de:Verwaltungskreis Obersimmental-Saanen",
      "admin_level": "6",
      "wikimedia_commons": "Category:Obersimmental-Saanen (administrative district)",
      "swisstopo:BEZIRKSNUM": "248"
    }
  },
  {
    "osm_id": -1702420,
    "boundary": "administrative",
    "admin_level": 4,
    "parents": "-51701",
    "name": "Neuchâtel",
    "local_name": "Neuchâtel",
    "name_en": "Neuchâtel",
    "all_tags": {
      "ref": "NE",
      "name": "Neuchâtel",
      "name:ca": "Cantó de Neuchâtel",
      "name:de": "Neuenburg",
      "name:en": "Neuchâtel",
      "name:fr": "Neuchâtel",
      "name:it": "Neuchâtel",
      "name:lt": "Nešatelis (Nešatelio kantonas)",
      "name:rm": "Neuchâtel",
      "name:ru": "Невшатель",
      "alt_name": "Canton de Neuchâtel",
      "boundary": "administrative",
      "way_area": "0.0949539",
      "wikidata": "Q12738",
      "ISO3166-2": "CH-NE",
      "wikipedia": "fr:Canton de Neuchâtel",
      "admin_level": "4",
      "name:prefix": "Kanton",
      "default_language": "fr",
      "swisstopo:BEZIRKSNUM": "2400",
      "swisstopo:KANTONSNUM": "24"
    }
  },
  {
    "osm_id": -1684478,
    "boundary": "administrative",
    "admin_level": 6,
    "parents": "-1686366,-51701",
    "name": "Bezirk Waldenburg",
    "local_name": "Bezirk Waldenburg",
    "name_en": null,
    "all_tags": {
      "name": "Bezirk Waldenburg",
      "boundary": "administrative",
      "way_area": "0.0125062",
      "wikidata": "Q598365",
      "wikipedia": "de:Waldenburg (Bezirk)",
      "admin_level": "6",
      "swisstopo:BEZIRKSNUM": "1305"
    }
  },
  {
    "osm_id": -1684810,
    "boundary": "administrative",
    "admin_level": 6,
    "parents": "-1684783,-1686344,-51701",
    "name": "Seeland administrative district",
    "local_name": "Verwaltungskreis Seeland",
    "name_en": "Seeland administrative district",
    "all_tags": {
      "name": "Verwaltungskreis Seeland",
      "name:en": "Seeland administrative district",
      "name:fr": "Arrondissement administratif du Seeland",
      "boundary": "administrative",
      "way_area": "0.040209",
      "wikidata": "Q660822",
      "wikipedia": "de:Verwaltungskreis Seeland",
      "admin_level": "6",
      "wikimedia_commons": "Category:Seeland (administrative district)",
      "swisstopo:BEZIRKSNUM": "243"
    }
  },
  {
    "osm_id": -1686712,
    "boundary": "administrative",
    "admin_level": 6,
    "parents": "-1686699,-51701",
    "name": "Westlich Raron",
    "local_name": "Westlich Raron",
    "name_en": null,
    "all_tags": {
      "name": "Westlich Raron",
      "name:fr": "Rarogne occidental",
      "boundary": "administrative",
      "way_area": "0.0317438",
      "wikidata": "Q660861",
      "wikipedia": "de:Westlich Raron (Bezirk)",
      "admin_level": "6",
      "default_language": "de",
      "swisstopo:BEZIRKSNUM": "2309"
    }
  },
  {
    "osm_id": -1689426,
    "boundary": "historic",
    "admin_level": 6,
    "parents": "-1702420,-51701",
    "name": "District de La Chaux-de-Fonds",
    "local_name": "District de La Chaux-de-Fonds",
    "name_en": null,
    "all_tags": {
      "name": "District de La Chaux-de-Fonds",
      "name:ru": "община Ла-Шо-де-Фон",
      "boundary": "historic",
      "way_area": "0.0110184",
      "wikidata": "Q661152",
      "wikipedia": "fr:District de La Chaux-de-Fonds",
      "admin_level": "6"
    }
  },
  {
    "osm_id": -1684806,
    "boundary": "administrative",
    "admin_level": 6,
    "parents": "-1684783,-1686344,-51701",
    "name": "Biel/Bienne administrative district",
    "local_name": "Verwaltungskreis Biel/Bienne",
    "name_en": "Biel/Bienne administrative district",
    "all_tags": {
      "name": "Verwaltungskreis Biel/Bienne",
      "name:en": "Biel/Bienne administrative district",
      "name:fr": "Arrondissement administratif de Bienne",
      "boundary": "administrative",
      "way_area": "0.0116511",
      "wikidata": "Q660893",
      "wikipedia": "de:Biel/Bienne (Verwaltungskreis)",
      "admin_level": "6",
      "swisstopo:BEZIRKSNUM": "242"
    }
  },
  {
    "osm_id": -1686707,
    "boundary": "administrative",
    "admin_level": 6,
    "parents": "-1686699,-51701",
    "name": "Monthey",
    "local_name": "Monthey",
    "name_en": null,
    "all_tags": {
      "name": "Monthey",
      "name:fr": "Monthey",
      "name:ru": "Монте",
      "boundary": "administrative",
      "way_area": "0.0311994",
      "wikidata": "Q660517",
      "wikipedia": "fr:District de Monthey",
      "admin_level": "6",
      "swisstopo:BEZIRKSNUM": "2308"
    }
  },
  {
    "osm_id": -1687207,
    "boundary": "administrative",
    "admin_level": 6,
    "parents": "-1687006,-51701",
    "name": "Wahlkreis See-Gaster",
    "local_name": "Wahlkreis See-Gaster",
    "name_en": null,
    "all_tags": {
      "name": "Wahlkreis See-Gaster",
      "boundary": "administrative",
      "way_area": "0.0310811",
      "wikidata": "Q661193",
      "wikipedia": "de:Wahlkreis See-Gaster",
      "admin_level": "6",
      "swisstopo:BEZIRKSNUM": "1726",
      "swisstopo:KANTONSNUM": "17"
    }
  },
  {
    "osm_id": -1684822,
    "boundary": "administrative",
    "admin_level": 6,
    "parents": "-1684606,-1686344,-51701",
    "name": "Frutigen-Niedersimmental administrative district",
    "local_name": "Verwaltungskreis Frutigen-Niedersimmental",
    "name_en": "Frutigen-Niedersimmental administrative district",
    "all_tags": {
      "name": "Verwaltungskreis Frutigen-Niedersimmental",
      "name:en": "Frutigen-Niedersimmental administrative district",
      "name:fr": "Arrondissement administratif de Frutigen-Bas-Simmental",
      "boundary": "administrative",
      "way_area": "0.0910143",
      "wikidata": "Q661974",
      "wikipedia": "de:Verwaltungskreis Frutigen-Niedersimmental",
      "admin_level": "6",
      "wikimedia_commons": "Category:Frutigen-Niedersimmental (administrative district)",
      "swisstopo:BEZIRKSNUM": "249"
    }
  },
  {
    "osm_id": -1701231,
    "boundary": "administrative",
    "admin_level": 6,
    "parents": "-1701326,-1701133,-51701",
    "name": "Bezirk Gäu",
    "local_name": "Bezirk Gäu",
    "name_en": null,
    "all_tags": {
      "name": "Bezirk Gäu",
      "boundary": "administrative",
      "way_area": "0.00737927",
      "wikidata": "Q660290",
      "wikipedia": "de:Gäu (Bezirk)",
      "admin_level": "6",
      "is_in:country_code": "CH",
      "swisstopo:BEZIRKSNUM": "1101",
      "swisstopo:KANTONSNUM": "11"
    }
  },
  {
    "osm_id": -6205091,
    "boundary": "historic",
    "admin_level": 6,
    "parents": "-1702421,-51701",
    "name": "Ancien district d'Avenches",
    "local_name": "Ancien district d'Avenches",
    "name_en": null,
    "all_tags": {
      "name": "Ancien district d'Avenches",
      "boundary": "historic",
      "end_date": "2007",
      "way_area": "0.00722313",
      "start_date": "1798",
      "admin_level": "6"
    }
  },
  {
    "osm_id": -1687136,
    "boundary": "administrative",
    "admin_level": 6,
    "parents": "-1687006,-51701",
    "name": "Wahlkreis Rorschach",
    "local_name": "Wahlkreis Rorschach",
    "name_en": null,
    "all_tags": {
      "name": "Wahlkreis Rorschach",
      "boundary": "administrative",
      "way_area": "0.00604829",
      "wikidata": "Q661312",
      "wikipedia": "de:Rorschach (Wahlkreis)",
      "admin_level": "6",
      "is_in:state": "St. Gallen",
      "is_in:country": "Switzerland",
      "is_in:continent": "Europe",
      "is_in:country_code": "CH",
      "swisstopo:BEZIRKSNUM": "1722",
      "swisstopo:KANTONSNUM": "17"
    }
  },
  {
    "osm_id": -2013172,
    "boundary": "administrative",
    "admin_level": 6,
    "parents": "-1686631,-51701",
    "name": "Bernina",
    "local_name": "Bernina",
    "name_en": null,
    "all_tags": {
      "name": "Bernina",
      "name:ru": "Regiun Bernina",
      "boundary": "administrative",
      "way_area": "0.0277261",
      "wikidata": "Q23013963",
      "wikipedia": "de:Region Bernina",
      "admin_level": "6",
      "official_name": "Region Bernina",
      "default_language": "it",
      "swisstopo:BEZIRKSNUM": "1842"
    }
  },
  {
    "osm_id": -1686701,
    "boundary": "administrative",
    "admin_level": 6,
    "parents": "-1686699,-51701",
    "name": "Entremont",
    "local_name": "Entremont",
    "name_en": null,
    "all_tags": {
      "name": "Entremont",
      "name:ru": "Энтремон",
      "boundary": "administrative",
      "way_area": "0.0734807",
      "wikidata": "Q660495",
      "wikipedia": "fr:District d'Entremont",
      "admin_level": "6",
      "postal_code": "2303",
      "swisstopo:BEZIRKSNUM": "2303"
    }
  },
  {
    "osm_id": -365577,
    "boundary": "administrative",
    "admin_level": 6,
    "parents": "-1702421,-51701",
    "name": "District d'Aigle",
    "local_name": "District d'Aigle",
    "name_en": null,
    "all_tags": {
      "name": "District d'Aigle",
      "boundary": "administrative",
      "way_area": "0.0507859",
      "wikidata": "Q647923",
      "wikipedia": "fr:District d'Aigle",
      "admin_level": "6",
      "swisstopo:BEZIRKSNUM": "2221"
    }
  },
  {
    "osm_id": -1686700,
    "boundary": "administrative",
    "admin_level": 6,
    "parents": "-1686699,-51701",
    "name": "Brig",
    "local_name": "Brig",
    "name_en": null,
    "all_tags": {
      "name": "Brig",
      "name:fr": "Brigue",
      "boundary": "administrative",
      "way_area": "0.0506677",
      "wikidata": "Q659687",
      "wikipedia": "als:Bezirk Brig",
      "admin_level": "6",
      "default_language": "de",
      "swisstopo:BEZIRKSNUM": "2301"
    }
  },
  {
    "osm_id": -365554,
    "boundary": "administrative",
    "admin_level": 6,
    "parents": "-1702421,-51701",
    "name": "District de l'Ouest lausannois",
    "local_name": "District de l'Ouest lausannois",
    "name_en": null,
    "all_tags": {
      "name": "District de l'Ouest lausannois",
      "boundary": "administrative",
      "way_area": "0.00309097",
      "wikidata": "Q666343",
      "wikipedia": "fr:District de l'Ouest lausannois",
      "admin_level": "6",
      "swisstopo:BEZIRKSNUM": "2229"
    }
  },
  {
    "osm_id": -1689425,
    "boundary": "historic",
    "admin_level": 6,
    "parents": "-1702420,-51701",
    "name": "District de Boudry",
    "local_name": "District de Boudry",
    "name_en": null,
    "all_tags": {
      "name": "District de Boudry",
      "boundary": "historic",
      "way_area": "0.0124979",
      "wikidata": "Q661133",
      "wikipedia": "fr:District de Boudry",
      "admin_level": "6"
    }
  },
  {
    "osm_id": -1835279,
    "boundary": "administrative",
    "admin_level": 6,
    "parents": "-1693811,-51701",
    "name": "Bezirk Münchwilen",
    "local_name": "Bezirk Münchwilen",
    "name_en": null,
    "all_tags": {
      "name": "Bezirk Münchwilen",
      "boundary": "administrative",
      "way_area": "0.0164908",
      "wikidata": "Q182001",
      "wikipedia": "de:Münchwilen (Bezirk)",
      "admin_level": "6",
      "swisstopo:BEZIRKSNUM": "2014",
      "swisstopo:KANTONSNUM": "20"
    }
  },
  {
    "osm_id": -2018284,
    "boundary": "administrative",
    "admin_level": 6,
    "parents": "-1686631,-51701",
    "name": "Surselva",
    "local_name": "Surselva",
    "name_en": null,
    "all_tags": {
      "name": "Surselva",
      "name:rm": "Regiun Surselva",
      "boundary": "administrative",
      "way_area": "0.161532",
      "wikidata": "Q23013972",
      "wikipedia": "de:Region Surselva",
      "admin_level": "6",
      "official_name": "Region Surselva",
      "default_language": "rm",
      "swisstopo:BEZIRKSNUM": "1850"
    }
  },
  {
    "osm_id": -1688768,
    "boundary": "administrative",
    "admin_level": 6,
    "parents": "-1686631,-51701",
    "name": "Viamala",
    "local_name": "Viamala",
    "name_en": null,
    "all_tags": {
      "name": "Viamala",
      "name:rm": "Regiun Viamala",
      "name:ru": "Хинтеррайн",
      "boundary": "administrative",
      "way_area": "0.0736598",
      "wikidata": "Q22918253",
      "wikipedia": "de:Region Viamala",
      "admin_level": "6",
      "official_name": "Region Viamala",
      "swisstopo:BEZIRKSNUM": "1851"
    }
  },
  {
    "osm_id": -1686649,
    "boundary": "administrative",
    "admin_level": 4,
    "parents": "-51701",
    "name": "Appenzell Ausserrhoden",
    "local_name": "Appenzell Ausserrhoden",
    "name_en": "Appenzell Ausserrhoden",
    "all_tags": {
      "ref": "AR",
      "name": "Appenzell Ausserrhoden",
      "name:be": "Апенцэль — Аўсерродэн",
      "name:ca": "Appenzell Ausser-Rhoden",
      "name:de": "Appenzell Ausserrhoden",
      "name:en": "Appenzell Ausserrhoden",
      "name:eo": "Apencelo Ekstera",
      "name:es": "Appenzell Rodas Exteriores",
      "name:fr": "Appenzell Rhodes-Extérieures",
      "name:it": "Appenzello Esterno",
      "name:lt": "Apencelis-Auserodenas",
      "name:rm": "Appenzell Dadora",
      "name:ru": "Аппенцелль-Аусерроден",
      "alt_name": "Kanton Appenzell Ausserrhoden",
      "boundary": "administrative",
      "name:gsw": "Appezell Usserrhode",
      "way_area": "0.0289166",
      "wikidata": "Q12079",
      "ISO3166-2": "CH-AR",
      "wikipedia": "de:Kanton Appenzell Ausserrhoden",
      "admin_level": "4",
      "name:prefix": "Kanton",
      "swisstopo:KANTONSNUM": "15"
    }
  },
  {
    "osm_id": -1686666,
    "boundary": "administrative",
    "admin_level": 4,
    "parents": "-51701",
    "name": "Appenzell Innerrhoden",
    "local_name": "Appenzell Innerrhoden",
    "name_en": "Appenzell Innerrhoden",
    "all_tags": {
      "ref": "AI",
      "name": "Appenzell Innerrhoden",
      "name:ca": "Appenzell Inner-Rhoden",
      "name:de": "Appenzell Innerrhoden",
      "name:en": "Appenzell Innerrhoden",
      "name:fr": "Appenzell Rhodes-Intérieures",
      "name:it": "Appenzello Interno",
      "name:lt": "Apencelis-Inerodenas",
      "name:rm": "Appenzell Dadens",
      "name:ru": "Аппенцелль-Иннерроден",
      "alt_name": "Kanton Appenzell Innerrhoden",
      "boundary": "administrative",
      "name:gsw": "Appezell Innerrhode",
      "way_area": "0.0205175",
      "wikidata": "Q12094",
      "ISO3166-2": "CH-AI",
      "wikipedia": "de:Kanton Appenzell Innerrhoden",
      "admin_level": "4",
      "name:prefix": "Kanton",
      "swisstopo:BEZIRKSNUM": "160",
      "swisstopo:KANTONSNUM": "16"
    }
  },
  {
    "osm_id": -2018099,
    "boundary": "administrative",
    "admin_level": 6,
    "parents": "-1686631,-51701",
    "name": "Region Engiadina Bassa/Val Müstair",
    "local_name": "Region Engiadina Bassa/Val Müstair",
    "name_en": null,
    "all_tags": {
      "name": "Region Engiadina Bassa/Val Müstair",
      "name:de": "Region Unterengadin/Münstertal",
      "name:it": "Regione Engiadina Bassa/Val Müstair",
      "alt_name": "Inn",
      "boundary": "administrative",
      "way_area": "0.140861",
      "wikidata": "Q23013965",
      "wikipedia": "de:Region Engiadina Bassa/Val Müstair",
      "admin_level": "6",
      "default_language": "rm",
      "swisstopo:BEZIRKSNUM": "1843"
    }
  },
  {
    "osm_id": -1701280,
    "boundary": "administrative",
    "admin_level": 6,
    "parents": "-1701325,-1701133,-51701",
    "name": "Bezirk Solothurn",
    "local_name": "Bezirk Solothurn",
    "name_en": null,
    "all_tags": {
      "name": "Bezirk Solothurn",
      "boundary": "administrative",
      "way_area": "0.000745409",
      "wikidata": "Q494663",
      "wikipedia": "de:Solothurn (Bezirk)",
      "admin_level": "6",
      "is_in:country_code": "CH",
      "swisstopo:BEZIRKSNUM": "1109",
      "swisstopo:KANTONSNUM": "11"
    }
  },
  {
    "osm_id": -1691171,
    "boundary": "administrative",
    "admin_level": 6,
    "parents": "-1690227,-51701",
    "name": "Bezirk Uster",
    "local_name": "Bezirk Uster",
    "name_en": null,
    "all_tags": {
      "name": "Bezirk Uster",
      "place": "county",
      "boundary": "administrative",
      "way_area": "0.0143487",
      "wikidata": "Q262156",
      "wikipedia": "de:Bezirk Uster",
      "admin_level": "6",
      "is_in:country_code": "CH",
      "swisstopo:BEZIRKSNUM": "109",
      "swisstopo:KANTONSNUM": "1"
    }
  },
  {
    "osm_id": -1685443,
    "boundary": "administrative",
    "admin_level": 6,
    "parents": "-1686359,-51701",
    "name": "Bezirk Zurzach",
    "local_name": "Bezirk Zurzach",
    "name_en": null,
    "all_tags": {
      "name": "Bezirk Zurzach",
      "boundary": "administrative",
      "way_area": "0.0155371",
      "wikidata": "Q659309",
      "wikipedia": "de:Zurzach (Bezirk)",
      "admin_level": "6",
      "swisstopo:BEZIRKSNUM": "1911"
    }
  },
  {
    "osm_id": -1691224,
    "boundary": "administrative",
    "admin_level": 6,
    "parents": "-1690227,-51701",
    "name": "Bezirk Pfäffikon",
    "local_name": "Bezirk Pfäffikon",
    "name_en": null,
    "all_tags": {
      "name": "Bezirk Pfäffikon",
      "place": "county",
      "boundary": "administrative",
      "way_area": "0.0194436",
      "wikidata": "Q660395",
      "wikipedia": "de:Bezirk Pfäffikon",
      "admin_level": "6",
      "is_in:country_code": "CH",
      "swisstopo:BEZIRKSNUM": "108",
      "swisstopo:KANTONSNUM": "1"
    }
  },
  {
    "osm_id": -1685439,
    "boundary": "administrative",
    "admin_level": 6,
    "parents": "-1686359,-51701",
    "name": "Bezirk Bremgarten",
    "local_name": "Bezirk Bremgarten",
    "name_en": null,
    "all_tags": {
      "name": "Bezirk Bremgarten",
      "boundary": "administrative",
      "way_area": "0.0139837",
      "wikidata": "Q598525",
      "wikipedia": "de:Bremgarten (Bezirk)",
      "admin_level": "6",
      "swisstopo:BEZIRKSNUM": "1903"
    }
  },
  {
    "osm_id": -1698883,
    "boundary": "administrative",
    "admin_level": 6,
    "parents": "-1698314,-51701",
    "name": "Gruyère District",
    "local_name": "District de la Gruyère",
    "name_en": "Gruyère District",
    "all_tags": {
      "name": "District de la Gruyère",
      "name:de": "Greyerzbezirk",
      "name:en": "Gruyère District",
      "name:fr": "District de la Gruyère",
      "name:ru": "Округ Грюйер",
      "boundary": "administrative",
      "way_area": "0.0584822",
      "wikidata": "Q388306",
      "wikipedia": "en:Gruyère District",
      "admin_level": "6",
      "swisstopo:BEZIRKSNUM": "1003"
    }
  },
  {
    "osm_id": -1688254,
    "boundary": "administrative",
    "admin_level": 6,
    "parents": "-1687730,-51701",
    "name": "Distretto di Blenio",
    "local_name": "Distretto di Blenio",
    "name_en": null,
    "all_tags": {
      "name": "Distretto di Blenio",
      "place": "county",
      "name:de": "Bezirk Blenio",
      "name:fr": "District de Blenio",
      "name:it": "Distretto di Blenio",
      "name:rm": "District da Blenio",
      "boundary": "administrative",
      "way_area": "0.0422529",
      "wikidata": "Q660533",
      "wikipedia": "it:Distretto di Blenio",
      "admin_level": "6",
      "swisstopo:BEZIRKSNUM": "2102"
    }
  },
  {
    "osm_id": -1688586,
    "boundary": "administrative",
    "admin_level": 6,
    "parents": "-1688583,-51701",
    "name": "Höfe",
    "local_name": "Höfe",
    "name_en": null,
    "all_tags": {
      "name": "Höfe",
      "boundary": "administrative",
      "way_area": "0.00530768",
      "wikidata": "Q74823",
      "wikipedia": "de:Höfe (Bezirk)",
      "admin_level": "6",
      "swisstopo:BEZIRKSNUM": "503"
    }
  },
  {
    "osm_id": -1689427,
    "boundary": "historic",
    "admin_level": 6,
    "parents": "-1702420,-51701",
    "name": "District de Neuchâtel",
    "local_name": "District de Neuchâtel",
    "name_en": null,
    "all_tags": {
      "name": "District de Neuchâtel",
      "name:de": "Bezirk Neuenburg",
      "name:it": "Distretto di Neuchâtel",
      "boundary": "historic",
      "way_area": "0.00950892",
      "wikidata": "Q511990",
      "wikipedia": "fr:District de Neuchâtel",
      "admin_level": "6"
    }
  },
  {
    "osm_id": -1699639,
    "boundary": "administrative",
    "admin_level": 4,
    "parents": "-51701",
    "name": "Basel-City",
    "local_name": "Basel-Stadt",
    "name_en": "Basel-City",
    "all_tags": {
      "ref": "BS",
      "name": "Basel-Stadt",
      "name:ar": "مدينة بازل",
      "name:ca": "Basilea-Ciutat",
      "name:de": "Basel-Stadt",
      "name:en": "Basel-City",
      "name:es": "Basilea-Ciudad",
      "name:fr": "Bâle-Ville",
      "name:it": "Basilea Città",
      "name:lt": "Bazelis",
      "name:nl": "Bazel-Stad",
      "name:rm": "Basilea-Citad",
      "name:ru": "Базель-Штадт",
      "name:sk": "Bazilej - mesto",
      "alt_name": "Kanton Basel-Stadt",
      "boundary": "administrative",
      "way_area": "0.00441658",
      "wikidata": "Q12172",
      "ISO3166-2": "CH-BS",
      "wikipedia": "de:Kanton Basel-Stadt",
      "admin_level": "4",
      "name:prefix": "Kanton",
      "is_in:country_code": "CH",
      "swisstopo:BEZIRKSNUM": "1200",
      "swisstopo:KANTONSNUM": "12"
    }
  },
  {
    "osm_id": -1688587,
    "boundary": "administrative",
    "admin_level": 6,
    "parents": "-1688583,-51701",
    "name": "Küssnacht",
    "local_name": "Küssnacht",
    "name_en": null,
    "all_tags": {
      "name": "Küssnacht",
      "boundary": "administrative",
      "way_area": "0.0042876",
      "wikidata": "Q74831",
      "wikipedia": "de:Küssnacht (Bezirk)",
      "admin_level": "6",
      "swisstopo:BEZIRKSNUM": "504",
      "swisstopo:KANTONSNUM": "5"
    }
  },
  {
    "osm_id": -1875019,
    "boundary": "administrative",
    "admin_level": 6,
    "parents": "-1696112,-51701",
    "name": "Bezirk Oberklettgau",
    "local_name": "Bezirk Oberklettgau",
    "name_en": null,
    "all_tags": {
      "name": "Bezirk Oberklettgau",
      "boundary": "administrative",
      "way_area": "0.00382589",
      "wikidata": "Q853912",
      "wikipedia": "de:Oberklettgau (Bezirk)",
      "admin_level": "6",
      "swisstopo:BEZIRKSNUM": "1401",
      "swisstopo:KANTONSNUM": "14"
    }
  },
  {
    "osm_id": -1688585,
    "boundary": "administrative",
    "admin_level": 6,
    "parents": "-1688583,-51701",
    "name": "Gersau",
    "local_name": "Gersau",
    "name_en": null,
    "all_tags": {
      "name": "Gersau",
      "boundary": "administrative",
      "way_area": "0.00278882",
      "wikidata": "Q74826",
      "wikipedia": "de:Gersau (Bezirk)",
      "admin_level": "6",
      "swisstopo:BEZIRKSNUM": "502"
    }
  },
  {
    "osm_id": -2018283,
    "boundary": "administrative",
    "admin_level": 6,
    "parents": "-1686631,-51701",
    "name": "Prättigau/Davos",
    "local_name": "Prättigau/Davos",
    "name_en": null,
    "all_tags": {
      "name": "Prättigau/Davos",
      "name:rw": "Regiun Partenz/Tavau",
      "boundary": "administrative",
      "way_area": "0.100683",
      "wikidata": "Q23013976",
      "wikipedia": "de:Region Prättigau/Davos",
      "admin_level": "6",
      "official_name": "Region Prättigau/Davos",
      "swisstopo:BEZIRKSNUM": "1849"
    }
  },
  {
    "osm_id": -1686708,
    "boundary": "administrative",
    "admin_level": 6,
    "parents": "-1686699,-51701",
    "name": "Saint-Maurice",
    "local_name": "Saint-Maurice",
    "name_en": null,
    "all_tags": {
      "name": "Saint-Maurice",
      "name:de": "Sankt Moritz",
      "name:ru": "Санкт-Мориц",
      "boundary": "administrative",
      "way_area": "0.0221926",
      "wikidata": "Q176556",
      "wikipedia": "fr:District de Saint-Maurice",
      "admin_level": "6",
      "swisstopo:BEZIRKSNUM": "2310"
    }
  },
  {
    "osm_id": -1686699,
    "boundary": "administrative",
    "admin_level": 4,
    "parents": "-51701",
    "name": "Wallis",
    "local_name": "Valais/Wallis",
    "name_en": "Wallis",
    "all_tags": {
      "ref": "VS",
      "name": "Valais/Wallis",
      "name:ca": "Valais",
      "name:de": "Wallis",
      "name:en": "Wallis",
      "name:eo": "Valezo",
      "name:es": "Vallés",
      "name:fr": "Valais",
      "name:it": "Vallese",
      "name:la": "Valesia",
      "name:lt": "Valė",
      "name:rm": "Vallais",
      "name:ru": "Вале",
      "alt_name": "Kanton Wallis",
      "boundary": "administrative",
      "name:frp": "Valês",
      "way_area": "0.608987",
      "wikidata": "Q834",
      "ISO3166-2": "CH-VS",
      "wikipedia": "de:Kanton Wallis",
      "admin_level": "4",
      "name:prefix": "Kanton",
      "default_language": "fr",
      "swisstopo:KANTONSNUM": "23"
    }
  },
  {
    "osm_id": -1686698,
    "boundary": "administrative",
    "admin_level": 6,
    "parents": "-1686699,-51701",
    "name": "Östlich Raron",
    "local_name": "Östlich Raron",
    "name_en": null,
    "all_tags": {
      "name": "Östlich Raron",
      "name:fr": "Rarogne oriental",
      "boundary": "administrative",
      "way_area": "0.0147907",
      "wikidata": "Q306887",
      "wikipedia": "de:Östlich Raron (Bezirk)",
      "admin_level": "6",
      "default_language": "de",
      "swisstopo:BEZIRKSNUM": "2309"
    }
  },
  {
    "osm_id": -1687206,
    "boundary": "administrative",
    "admin_level": 6,
    "parents": "-1687006,-51701",
    "name": "Wahlkreis Toggenburg",
    "local_name": "Wahlkreis Toggenburg",
    "name_en": null,
    "all_tags": {
      "name": "Wahlkreis Toggenburg",
      "boundary": "administrative",
      "name:gsw": "Wahlkreis Toggeburg",
      "way_area": "0.0580926",
      "wikidata": "Q693185",
      "wikipedia": "de:Wahlkreis Toggenburg",
      "admin_level": "6",
      "is_in:state": "St. Gallen",
      "is_in:country": "Switzerland",
      "is_in:continent": "Europe",
      "is_in:country_code": "CH",
      "swisstopo:BEZIRKSNUM": "1727",
      "swisstopo:KANTONSNUM": "17"
    }
  },
  {
    "osm_id": -1699157,
    "boundary": "administrative",
    "admin_level": 6,
    "parents": "-1698314,-51701",
    "name": "Sensebezirk",
    "local_name": "Sensebezirk",
    "name_en": null,
    "all_tags": {
      "name": "Sensebezirk",
      "name:de": "Sensebezirk",
      "name:fr": "District de la Singine",
      "boundary": "administrative",
      "way_area": "0.0312484",
      "wikidata": "Q645585",
      "wikipedia": "de:Sensebezirk",
      "admin_level": "6",
      "swisstopo:BEZIRKSNUM": "1006"
    }
  },
  {
    "osm_id": -1686447,
    "boundary": "administrative",
    "admin_level": 4,
    "parents": "-51701",
    "name": "Zug",
    "local_name": "Zug",
    "name_en": "Zug",
    "all_tags": {
      "ref": "ZG",
      "name": "Zug",
      "name:ca": "Cantó de Zug",
      "name:de": "Zug",
      "name:en": "Zug",
      "name:fr": "Zoug",
      "name:it": "Zugo",
      "name:rm": "Zug",
      "name:ru": "Цуг",
      "alt_name": "Kanton Zug",
      "boundary": "administrative",
      "way_area": "0.0283164",
      "wikidata": "Q11933",
      "ISO3166-2": "CH-ZG",
      "wikipedia": "de:Kanton Zug",
      "admin_level": "4",
      "name:prefix": "Kanton",
      "swisstopo:BEZIRKSNUM": "900",
      "swisstopo:KANTONSNUM": "9"
    }
  },
  {
    "osm_id": -1690227,
    "boundary": "administrative",
    "admin_level": 4,
    "parents": "-51701",
    "name": "Zurich",
    "local_name": "Zürich",
    "name_en": "Zurich",
    "all_tags": {
      "ref": "ZH",
      "name": "Zürich",
      "name:af": "Zürich",
      "name:am": "ዙሪክ",
      "name:an": "Zúrich",
      "name:ar": "زيورخ",
      "name:az": "Sürix",
      "name:be": "Цюрых",
      "name:bg": "Цюрих",
      "name:bn": "জুরিখ",
      "name:br": "Zürich",
      "name:bs": "Zürich",
      "name:ca": "Zuric",
      "name:cs": "Curych",
      "name:cv": "Цюрих",
      "name:cy": "Zürich",
      "name:da": "Zürich",
      "name:de": "Zürich",
      "name:el": "Ζυρίχη",
      "name:en": "Zurich",
      "name:eo": "Zuriko",
      "name:es": "Zúrich",
      "name:et": "Zürich",
      "name:eu": "Zürich",
      "name:fa": "زوریخ",
      "name:fi": "Zürich",
      "name:fr": "Zurich",
      "name:ga": "Zürich",
      "name:gd": "Zürich",
      "name:gl": "Zúric",
      "name:he": "ציריך",
      "name:hi": "ज़्यूरिख़",
      "name:hr": "Zürich",
      "name:hu": "Zürich",
      "name:id": "Zürich",
      "name:io": "Zürich",
      "name:is": "Zürich",
      "name:it": "Zurigo",
      "name:ja": "チューリッヒ",
      "name:jv": "Zürich",
      "name:ka": "ციურიხი",
      "name:kn": "ಝ್ಯೂರಿಖ್",
      "name:ko": "취리히",
      "name:la": "Turicum",
      "name:lb": "Zürech",
      "name:lt": "Ciurichas",
      "name:lv": "Cīrihe",
      "name:mk": "Цирих",
      "name:ml": "സൂറിച്ച്",
      "name:mr": "झ्युरिक",
      "name:ms": "Zürich",
      "name:my": "ဇူးရစ်ချ်မြို့",
      "name:na": "Zürich",
      "name:nl": "Zürich",
      "name:nn": "Zürich",
      "name:no": "Zürich",
      "name:oc": "Zuric",
      "name:os": "Цюрих",
      "name:pl": "Zurych",
      "name:pt": "Zurique",
      "name:qu": "Zürich",
      "name:rm": "Turitg",
      "name:ro": "Zürich",
      "name:ru": "Цюрих",
      "name:sh": "Zürich",
      "name:sk": "Zürich",
      "name:sl": "Zürich",
      "name:sq": "Cyrihu",
      "name:sr": "Цирих",
      "name:sv": "Zürich",
      "name:sw": "Zürich",
      "name:ta": "சூரிக்",
      "name:th": "ซูริก",
      "name:tl": "Zürich",
      "name:tr": "Zürih",
      "name:ug": "سيۇرىخ",
      "name:uk": "Цюрих",
      "name:ur": "زیورخ",
      "name:vi": "Zürich",
      "name:vo": "Zürich",
      "name:wo": "Zurich",
      "name:yi": "ציריך",
      "name:yo": "Zürich",
      "name:zh": "蘇黎世州",
      "alt_name": "Kanton Zürich",
      "boundary": "administrative",
      "name:als": "Zürich",
      "name:arc": "ܬܣܝܪܝܟ",
      "name:arz": "زوريخ",
      "name:bar": "Zirich",
      "name:ckb": "زیورخ",
      "name:frp": "Tsurique",
      "name:frr": "Zürich",
      "name:gsw": "Züri",
      "name:hsb": "Zürich",
      "name:ilo": "Zürich",
      "name:lmo": "Zürigh",
      "name:nah": "Zurich",
      "name:nan": "Zürich",
      "name:nds": "Zürich",
      "name:pdc": "Zurich",
      "name:pfl": "Zirich",
      "name:pms": "Zurigh",
      "name:pnb": "زیورچ",
      "name:scn": "Zurìcu",
      "name:vec": "Zurigo",
      "name:war": "Zürich",
      "name:wuu": "苏黎世",
      "name:yue": "蘇黎世",
      "way_area": "0.206044",
      "wikidata": "Q11943",
      "ISO3166-2": "CH-ZH",
      "wikipedia": "de:Kanton Zürich",
      "admin_level": "4",
      "alt_name:ca": "Cantó de Zuric",
      "alt_name:de": "Kanton Zürich",
      "alt_name:fr": "Canton de Zurich",
      "alt_name:it": "Canton Zurigo",
      "name:prefix": "Kanton",
      "name:zh-Hans": "苏黎世州",
      "name:zh-Hant": "蘇黎世州",
      "name:be-tarask": "Цюрых",
      "swisstopo:KANTONSNUM": "1"
    }
  }
]
