[
  {
    "osm_id": -7887110,
    "boundary": "administrative",
    "admin_level": 4,
    "parents": "-2184233",
    "name": "Rarotonga",
    "local_name": "Rarotonga",
    "name_en": "Rarotonga",
    "all_tags": {
      "name": "Rarotonga",
      "name:be": "Раратонга",
      "name:bg": "Раротонга",
      "name:ca": "Rarotonga",
      "name:cs": "Rarotonga",
      "name:de": "Rarotonga",
      "name:el": "Ραροτόνγκα",
      "name:en": "Rarotonga",
      "name:eo": "Rarotonga",
      "name:es": "Rarotonga",
      "name:fa": "راروتونگا",
      "name:fi": "Rarotonga",
      "name:fr": "Rarotonga",
      "name:gl": "Rarotonga",
      "name:he": "ררוטונגה",
      "name:hr": "Rarotonga",
      "name:hu": "Rarotonga",
      "name:hy": "Ռարոտոնգա",
      "name:id": "Rarotonga",
      "name:it": "Rarotonga",
      "name:ja": "ラロトンガ島",
      "name:ko": "라로통가 섬",
      "name:la": "Rarotonga",
      "name:lt": "Rarotonga",
      "name:nl": "Rarotonga",
      "name:no": "Rarotonga",
      "name:pl": "Rarotonga",
      "name:pt": "Rarotonga",
      "name:ru": "Раротонга",
      "name:sk": "Rarotonga",
      "name:sl": "Rarotonga",
      "name:sr": "Раротонга",
      "name:sv": "Rarotonga",
      "name:uk": "Раротонга",
      "name:zh": "拉羅湯加",
      "boundary": "administrative",
      "maritime": "yes",
      "name:ceb": "Rarotonga",
      "name:hif": "Rarotonga",
      "way_area": "0.194612",
      "wikidata": "Q471793",
      "wikipedia": "en:Rarotonga",
      "admin_level": "4",
      "alt_name:zh": "拉罗汤加岛"
    }
  },
  {
    "osm_id": -7887109,
    "boundary": "administrative",
    "admin_level": 4,
    "parents": "-2184233",
    "name": "Mauke",
    "local_name": "Mauke",
    "name_en": "Mauke",
    "all_tags": {
      "name": "Mauke",
      "name:ca": "Mauke",
      "name:de": "Mauke",
      "name:en": "Mauke",
      "name:es": "Mauke",
      "name:fa": "مائوکه",
      "name:fi": "Mauke",
      "name:fr": "Mauke",
      "name:gl": "Mauke",
      "name:it": "Mauke",
      "name:ja": "マウケ島",
      "name:lt": "Maukė",
      "name:nl": "Mauke",
      "name:no": "Mauke",
      "name:pl": "Mauke",
      "name:ru": "Мауке",
      "name:sv": "Mauke",
      "alt_name": "Ma'uke",
      "boundary": "administrative",
      "maritime": "yes",
      "name:ceb": "Mauke",
      "old_name": "Akatokamanava",
      "way_area": "0.166496",
      "wikidata": "Q511978",
      "wikipedia": "en:Mauke",
      "admin_level": "4"
    }
  }
]
