[
  {
    "osm_id": -11974267,
    "boundary": "administrative",
    "admin_level": 5,
    "parents": "-2514541,-307787",
    "name": "Lefkosa District",
    "local_name": "Lefkoşa İlçesi",
    "name_en": "Lefkosa District",
    "all_tags": {
      "name": "Lefkoşa İlçesi",
      "is_in": "Northern Cyprus",
      "name:en": "Lefkosa District",
      "boundary": "administrative",
      "way_area": "0.0538942",
      "wikidata": "Q556055",
      "wikipedia": "en:Lefkoşa District",
      "admin_level": "5"
    }
  },
  {
    "osm_id": -11974176,
    "boundary": "administrative",
    "admin_level": 5,
    "parents": "-2514541,-307787",
    "name": "Gazimağusa District",
    "local_name": "Gazimağusa",
    "name_en": "Gazimağusa District",
    "all_tags": {
      "name": "Gazimağusa",
      "is_in": "Northern Cyprus",
      "name:en": "Gazimağusa District",
      "boundary": "administrative",
      "way_area": "0.0883026",
      "wikipedia": "en:Gazimağusa District",
      "admin_level": "5"
    }
  },
  {
    "osm_id": -10090539,
    "boundary": "administrative",
    "admin_level": 5,
    "parents": "-2514541,-307787",
    "name": "Lefke District",
    "local_name": "Lefke",
    "name_en": "Lefke District",
    "all_tags": {
      "name": "Lefke",
      "is_in": "Northern Cyprus",
      "name:en": "Lefke District",
      "boundary": "administrative",
      "way_area": "0.0130458",
      "wikidata": "Q28221946",
      "wikipedia": "en:Lefke District",
      "admin_level": "5"
    }
  },
  {
    "osm_id": -10090538,
    "boundary": "administrative",
    "admin_level": 5,
    "parents": "-2514541,-307787",
    "name": "Güzelyurt District",
    "local_name": "Güzelyurt",
    "name_en": "Güzelyurt District",
    "all_tags": {
      "name": "Güzelyurt",
      "is_in": "Northern Cyprus",
      "name:en": "Güzelyurt District",
      "boundary": "administrative",
      "way_area": "0.0203028",
      "wikidata": "Q554666",
      "wikipedia": "en:Güzelyurt District",
      "admin_level": "5"
    }
  },
  {
    "osm_id": -10090475,
    "boundary": "administrative",
    "admin_level": 5,
    "parents": "-2514541,-307787",
    "name": "İskele District",
    "local_name": "İskele",
    "name_en": "İskele District",
    "all_tags": {
      "name": "İskele",
      "is_in": "Northern Cyprus",
      "name:en": "İskele District",
      "boundary": "administrative",
      "way_area": "0.0826093",
      "wikidata": "Q556070",
      "wikipedia": "en:İskele District",
      "admin_level": "5"
    }
  },
  {
    "osm_id": -3264494,
    "boundary": "administrative",
    "admin_level": 5,
    "parents": "-2514541,-307787",
    "name": "Girne (Kyrenia) District",
    "local_name": "Girne",
    "name_en": "Girne (Kyrenia) District",
    "all_tags": {
      "ref": "06",
      "name": "Girne",
      "name:ar": "غرنة",
      "name:el": "Κερύνεια",
      "name:en": "Girne (Kyrenia) District",
      "name:fr": "Kyrenia",
      "name:ru": "Кирения",
      "name:tr": "Girne",
      "alt_name": "Girne",
      "boundary": "administrative",
      "int_name": "Kyrenia",
      "way_area": "0.0635313",
      "wikidata": "Q59146",
      "ISO3166-2": "CY-06",
      "wikipedia": "en:Kyrenia District",
      "admin_level": "5",
      "alt_name:tr": "Keryneia",
      "official_name": "Girne kazası - Επαρχία Κερύνειας",
      "official_name:el": "Επαρχία Κερύνειας",
      "official_name:en": "Kyrenia District",
      "official_name:fr": "District de Kyrenia",
      "official_name:tr": "Girne kazası"
    }
  },
  {
    "osm_id": -3264447,
    "boundary": "administrative",
    "admin_level": 5,
    "parents": "-3263726,-307787",
    "name": "Famagusta District",
    "local_name": "Αμμόχωστος",
    "name_en": "Famagusta District",
    "all_tags": {
      "ref": "04",
      "name": "Αμμόχωστος",
      "name:ar": "الماغوصة",
      "name:ca": "Famagusta",
      "name:da": "Famagusta",
      "name:de": "Famagusta",
      "name:el": "Αμμόχωστος",
      "name:en": "Famagusta District",
      "name:fr": "Famagouste",
      "name:he": "פמגוסטה",
      "name:it": "Famagosta",
      "name:oc": "Famagosta",
      "name:pl": "Famagusta",
      "name:ru": "Фамагуста",
      "name:tr": "Mağusa",
      "name:uk": "Фамагуста",
      "boundary": "administrative",
      "int_name": "Famagusta",
      "way_area": "0.0202805",
      "wikidata": "Q59148",
      "ISO3166-2": "CY-04",
      "wikipedia": "en:Famagusta District",
      "admin_level": "5",
      "alt_name:ar": "فاماغوستا;منطقة فاماغوستا",
      "alt_name:tr": "Gazimağusa",
      "description": "This fomal district is partitioned between two governing states. The Greek Cypriot-controlled part is shown here.",
      "official_name": "Επαρχία Αμμοχώστου - Mağusa kazası",
      "official_name:ar": "منطقة الماغوصة",
      "official_name:el": "Επαρχία Αμμοχώστου",
      "official_name:en": "Famagusta District",
      "official_name:fr": "District de Famagouste",
      "official_name:tr": "Mağusa kazası"
    }
  },
  {
    "osm_id": -3264382,
    "boundary": "administrative",
    "admin_level": 5,
    "parents": "-3263726,-307787",
    "name": "Nicosia",
    "local_name": "Λευκωσία",
    "name_en": "Nicosia",
    "all_tags": {
      "ref": "01",
      "name": "Λευκωσία",
      "name:af": "Nicosia",
      "name:am": "ሌፍኮዚያ",
      "name:an": "Nicosia",
      "name:ar": "نيقوسيا",
      "name:az": "Nikosiya",
      "name:be": "Нікасія",
      "name:bg": "Никозия",
      "name:bn": "নিকোসিয়া",
      "name:bo": "ནེ་ཁོ་ཤི་ཡ།",
      "name:br": "Nikozia",
      "name:bs": "Nikozija",
      "name:ca": "Nicòsia",
      "name:cs": "Nikósie",
      "name:cy": "Nicosia",
      "name:da": "Nicosia",
      "name:de": "Nikosia",
      "name:el": "Λευκωσία",
      "name:en": "Nicosia",
      "name:eo": "Nikozio",
      "name:es": "Nicosia",
      "name:fa": "لفکوشای",
      "name:fr": "Nicosie",
      "name:ga": "An Leafcóis",
      "name:gd": "Nicosia",
      "name:gl": "Nicosia",
      "name:gr": "Λευκωσία",
      "name:gv": "Lefkosia",
      "name:he": "ניקוסיה",
      "name:hi": "निकोसिया",
      "name:hr": "Nikozija",
      "name:ht": "Nikozi",
      "name:hu": "Nicosia",
      "name:hy": "Նիկոսիա",
      "name:is": "Nikósía",
      "name:it": "Nicosia",
      "name:ja": "ニコシア",
      "name:ka": "ნიქოზია",
      "name:kk": "Никосия",
      "name:kl": "Nicosia",
      "name:ko": "니코시아",
      "name:ky": "Лефкоша",
      "name:la": "Nicosia",
      "name:lt": "Nikosija",
      "name:lv": "Nikosija",
      "name:mi": "Nicosia",
      "name:mk": "Левкозија",
      "name:mr": "निकोसिया",
      "name:ms": "Nicosia",
      "name:nl": "Nicosia",
      "name:oc": "Nicosia",
      "name:os": "Никоси",
      "name:pl": "Nikozja",
      "name:ps": "نیکوزیا",
      "name:pt": "Nicósia",
      "name:ro": "Nicosia",
      "name:ru": "Никосия",
      "name:rw": "Nikosiya",
      "name:sh": "Nikozija",
      "name:sk": "Nikózia",
      "name:sl": "Nikozija",
      "name:sq": "Nicosia",
      "name:sr": "Никозија",
      "name:sv": "Nicosia",
      "name:ta": "நிக்கோசியா",
      "name:tg": "Никосия",
      "name:th": "นิโคเซีย",
      "name:tl": "Nicosia",
      "name:tr": "Lefkoşa",
      "name:tt": "Никосия",
      "name:ug": "نىكوسىيە",
      "name:uk": "Нікосія",
      "name:ur": "نیکوسیا",
      "name:vi": "Nicosia",
      "name:yi": "ניקאסיע",
      "name:yo": "Nicosia",
      "name:zh": "尼科西亚",
      "boundary": "administrative",
      "int_name": "Nicosia",
      "name:arz": "نيكوسيا",
      "name:azb": "لفکوشا",
      "name:ckb": "نیکۆسیا",
      "name:crh": "Lefkoşa",
      "name:gag": "Lefkoşa",
      "name:grc": "Λευκωσία",
      "name:hyw": "Նիկոսիա",
      "name:kaa": "Arqa Nikosiya",
      "name:lad": "Nikosiya",
      "name:lij": "Nicosia",
      "name:lmo": "Nicoséa",
      "name:mdf": "Никосия",
      "name:mzn": "نیکوزیا",
      "name:nah": "Nicosia",
      "name:nan": "Nicosia",
      "name:nap": "Nicosìa",
      "name:pms": "Nicosìa",
      "name:pnb": "نیکوسیا",
      "name:pnt": "Λευκωσίαν",
      "name:sah": "Никосия",
      "name:sco": "Nicosia",
      "name:stq": "Nicosia",
      "name:udm": "Никосия",
      "name:vep": "Nikosii",
      "name:war": "Nicosia",
      "way_area": "0.190456",
      "wikidata": "Q59147",
      "ISO3166-2": "CY-01",
      "wikipedia": "el:Επαρχία Λευκωσίας",
      "admin_level": "5",
      "alt_name:ar": "الأفقوسية;منطقة الأفقوسية",
      "alt_name:ru": "Левкосия",
      "description": "This fomal district is partitioned between two governing states. The Greek Cypriot-controlled part is shown here.",
      "name:az-Arab": "لفکوشا",
      "name:kk-Arab": "لەفكوسىييا",
      "official_name": "Επαρχία Πάφου",
      "official_name:ar": "منطقة نيقوسيا",
      "official_name:de": "Bezirk Nikosia",
      "official_name:el": "Επαρχία Πάφου",
      "official_name:en": "Nicosia District",
      "official_name:es": "Distrito de Nicosia",
      "official_name:fr": "District de Nicosie",
      "official_name:tr": "Lefkoşa kazası",
      "official_name:ur": "ضلع نیکوسیا"
    }
  },
  {
    "osm_id": -3263729,
    "boundary": "administrative",
    "admin_level": 5,
    "parents": "-3263726,-307787",
    "name": "Paphos District",
    "local_name": "Πάφος",
    "name_en": "Paphos District",
    "all_tags": {
      "ref": "05",
      "name": "Πάφος",
      "name:ar": "بافوس",
      "name:de": "Paphos",
      "name:el": "Πάφος",
      "name:en": "Paphos District",
      "name:fr": "Paphos",
      "name:lt": "Pafosas",
      "name:mk": "Пафос",
      "name:pl": "Pafos",
      "name:ru": "Пафос",
      "name:sl": "Pafos",
      "name:tr": "Baf",
      "alt_name": "Baf",
      "boundary": "administrative",
      "int_name": "Paphos",
      "way_area": "0.137454",
      "wikidata": "Q59133",
      "ISO3166-2": "CY-05",
      "wikipedia": "en:Paphos District",
      "admin_level": "5",
      "alt_name:tr": "Gazibaf",
      "official_name": "Επαρχία Πάφου - Baf kazası",
      "official_name:ar": "منطقة بافوس",
      "official_name:de": "Bezirk Paphos",
      "official_name:el": "Επαρχία Πάφου",
      "official_name:en": "Paphos District",
      "official_name:fr": "District de Paphos",
      "official_name:tr": "Baf kazası"
    }
  },
  {
    "osm_id": -2087230,
    "boundary": "administrative",
    "admin_level": 5,
    "parents": "-3263726,-307787",
    "name": "Limassol District",
    "local_name": "Λεμεσός",
    "name_en": "Limassol District",
    "all_tags": {
      "ref": "02",
      "name": "Λεμεσός",
      "name:ar": "ليماسول",
      "name:el": "Λεμεσός",
      "name:en": "Limassol District",
      "name:fr": "Limassol",
      "name:hy": "Լիմասոլ",
      "name:ru": "Лимасол",
      "name:tr": "Limasol",
      "alt_name": "Lemesos",
      "boundary": "administrative",
      "int_name": "Limassol",
      "way_area": "0.125136",
      "wikidata": "Q59150",
      "ISO3166-2": "CY-02",
      "wikipedia": "en:Limassol District",
      "admin_level": "5",
      "alt_name:ru": "Лемессос",
      "alt_name:tr": "Leymosun",
      "official_name": "Επαρχία Λεμεσού - Limasol kazası",
      "official_name:ar": "منطقة ليماسول",
      "official_name:el": "Επαρχία Λεμεσού",
      "official_name:en": "Limassol District",
      "official_name:fr": "District de Limassol",
      "official_name:tr": "Limasol kazası"
    }
  },
  {
    "osm_id": -2087229,
    "boundary": "administrative",
    "admin_level": 5,
    "parents": "-3263726,-307787",
    "name": "Larnaca District",
    "local_name": "Λάρνακα",
    "name_en": "Larnaca District",
    "all_tags": {
      "ref": "03",
      "name": "Λάρνακα",
      "name:ar": "لارنكا",
      "name:el": "Λάρνακα",
      "name:en": "Larnaca District",
      "name:fr": "Larnaca",
      "name:he": "לרנקה",
      "name:lt": "Larnaka",
      "name:mk": "Ларнака",
      "name:pl": "Larnaka",
      "name:ru": "Ларнака",
      "name:sl": "Larnaka",
      "name:tr": "Larnaka",
      "boundary": "administrative",
      "int_name": "Larnaca",
      "way_area": "0.0937815",
      "wikidata": "Q59153",
      "ISO3166-2": "CY-03",
      "wikipedia": "en:Larnaca District",
      "admin_level": "5",
      "description": "This fomal district is partitioned between two governing states. The Greek Cypriot-controlled part is shown here.",
      "official_name": "Επαρχία Λάρνακας - Larnaka kazası",
      "official_name:ar": "منطقة لارنكا",
      "official_name:el": "Επαρχία Λάρνακας",
      "official_name:en": "Larnaca District",
      "official_name:fr": "District de Larnaca",
      "official_name:tr": "Larnaka kazası"
    }
  }
]
