[
  {
    "osm_id": -442449,
    "boundary": "administrative",
    "admin_level": 6,
    "parents": "-435508,-51684",
    "name": "Zlínský kraj",
    "local_name": "Zlínský kraj",
    "name_en": null,
    "all_tags": {
      "ref": "ZL",
      "name": "Zlínský kraj",
      "name:cs": "Zlínský kraj",
      "name:de": "Region Zlin",
      "name:eo": "Regiono Zlín",
      "name:hr": "Zlínski kraj",
      "name:hu": "Közép-csehországi kerület",
      "name:pl": "Kraj zliński",
      "name:ru": "Злинский край",
      "boundary": "administrative",
      "ref:nuts": "CZ072",
      "way_area": "0.489056",
      "wikidata": "Q192536",
      "ISO3166-2": "CZ-72",
      "wikipedia": "cs:Zlínský kraj",
      "population": "588680",
      "ref:nuts:3": "CZ072",
      "admin_level": "6"
    }
  },
  {
    "osm_id": -442461,
    "boundary": "administrative",
    "admin_level": 6,
    "parents": "-435512,-51684",
    "name": "Moravskoslezský kraj",
    "local_name": "Moravskoslezský kraj",
    "name_en": null,
    "all_tags": {
      "ref": "MO",
      "name": "Moravskoslezský kraj",
      "name:cs": "Moravskoslezský kraj",
      "name:de": "Mährisch-Schlesische Region",
      "name:eo": "Moraviasilezia regiono",
      "name:hr": "Moravsko-šleski kraj",
      "name:hu": "Morva-sziléziai kerület",
      "name:nl": "Moravië-Silezië",
      "name:pl": "Kraj morawsko-śląski",
      "name:ru": "Моравскосилезский край",
      "boundary": "administrative",
      "ref:nuts": "CZ080",
      "way_area": "0.678467",
      "wikidata": "Q190550",
      "ISO3166-2": "CZ-80",
      "wikipedia": "cs:Moravskoslezský kraj",
      "population": "1243315",
      "ref:nuts:3": "CZ080",
      "admin_level": "6"
    }
  },
  {
    "osm_id": -442466,
    "boundary": "administrative",
    "admin_level": 6,
    "parents": "-435511,-51684",
    "name": "Plzeňský kraj",
    "local_name": "Plzeňský kraj",
    "name_en": null,
    "all_tags": {
      "ref": "PL",
      "name": "Plzeňský kraj",
      "name:cs": "Plzeňský kraj",
      "name:de": "Pilsner Region",
      "name:eo": "Regiono Plzeň",
      "name:hr": "Plzeňski kraj",
      "name:hu": "Plzeňi kerület",
      "name:nl": "Regio Pilsen",
      "name:pl": "Kraj pilzneński",
      "name:ru": "Пльзенский край",
      "boundary": "administrative",
      "ref:nuts": "CZ032",
      "way_area": "0.951336",
      "wikidata": "Q46070",
      "ISO3166-2": "CZ-32",
      "wikipedia": "cs:Plzeňský kraj",
      "population": "572346",
      "ref:nuts:3": "CZ032",
      "admin_level": "6"
    }
  },
  {
    "osm_id": -442314,
    "boundary": "administrative",
    "admin_level": 6,
    "parents": "-435516,-51684",
    "name": "Karlovarský kraj",
    "local_name": "Karlovarský kraj",
    "name_en": null,
    "all_tags": {
      "ref": "KA",
      "name": "Karlovarský kraj",
      "name:cs": "Karlovarský kraj",
      "name:de": "Karlsbader Region",
      "name:eo": "Regiono Karlovy Vary",
      "name:hr": "Karlovarski kraj",
      "name:hu": "Karlovy Vary-i kerület",
      "name:nl": "Regio Karlsbad",
      "name:pl": "Kraj karlowarski",
      "name:ru": "Карловарский край",
      "boundary": "administrative",
      "ref:nuts": "CZ041",
      "way_area": "0.41664",
      "wikidata": "Q191091",
      "ISO3166-2": "CZ-41",
      "wikipedia": "cs:Karlovarský kraj",
      "population": "307945",
      "ref:nuts:3": "CZ041",
      "admin_level": "6"
    }
  },
  {
    "osm_id": -435516,
    "boundary": "administrative",
    "admin_level": 4,
    "parents": "-51684",
    "name": "Northwest",
    "local_name": "Severozápad",
    "name_en": "Northwest",
    "all_tags": {
      "name": "Severozápad",
      "name:cs": "Severozápad",
      "name:de": "Nordwesten",
      "name:en": "Northwest",
      "name:hr": "Sjevero-zapad Češke",
      "name:hu": "Északnyugat-Csehország",
      "name:nl": "Noordwest",
      "name:pl": "Północno-zachodni",
      "name:ru": "Северо-Запад",
      "name:sk": "Severozápad",
      "boundary": "administrative",
      "ref:nuts": "CZ04",
      "way_area": "1.09361",
      "wikidata": "Q7458002",
      "wikipedia": "cs:Region soudržnosti Severozápad",
      "population": "1144485",
      "ref:nuts:2": "CZ04",
      "admin_level": "4"
    }
  },
  {
    "osm_id": -442452,
    "boundary": "administrative",
    "admin_level": 6,
    "parents": "-435516,-51684",
    "name": "Ústecký kraj",
    "local_name": "Ústecký kraj",
    "name_en": null,
    "all_tags": {
      "ref": "US",
      "name": "Ústecký kraj",
      "name:cs": "Ústecký kraj",
      "name:de": "Aussiger Region",
      "name:eo": "Regiono Ústí nad Labem",
      "name:es": "Región de Ústí nad Labem",
      "name:hr": "Ústečki kraj",
      "name:hu": "Ústí nad Labem-i kerület",
      "name:pl": "Kraj ustecki",
      "name:ru": "Устецкий край",
      "boundary": "administrative",
      "ref:nuts": "CZ042",
      "way_area": "0.676969",
      "wikidata": "Q192702",
      "ISO3166-2": "CZ-42",
      "wikipedia": "cs:Ústecký kraj",
      "population": "836540",
      "ref:nuts:3": "CZ042",
      "admin_level": "6"
    }
  },
  {
    "osm_id": -442321,
    "boundary": "administrative",
    "admin_level": 6,
    "parents": "-435511,-51684",
    "name": "Jihočeský kraj",
    "local_name": "Jihočeský kraj",
    "name_en": null,
    "all_tags": {
      "ref": "JC",
      "name": "Jihočeský kraj",
      "name:cs": "Jihočeský kraj",
      "name:de": "Südböhmische Region",
      "name:eo": "Sudbohemia regiono",
      "name:hr": "Južna Češka",
      "name:hu": "Dél-csehországi kerület",
      "name:nl": "Zuid-Bohemen",
      "name:pl": "Kraj południowoczeski",
      "name:ru": "Южночешский край",
      "boundary": "administrative",
      "ref:nuts": "CZ031",
      "way_area": "1.23836",
      "wikidata": "Q188373",
      "ISO3166-2": "CZ-31",
      "wikipedia": "cs:Jihočeský kraj",
      "population": "629424",
      "ref:nuts:3": "CZ031",
      "admin_level": "6"
    }
  },
  {
    "osm_id": -435541,
    "boundary": "administrative",
    "admin_level": 4,
    "parents": "-51684",
    "name": "Prague",
    "local_name": "Praha",
    "name_en": "Prague",
    "all_tags": {
      "name": "Praha",
      "name:ar": "براغ",
      "name:cs": "Praha",
      "name:de": "Prag",
      "name:en": "Prague",
      "name:fa": "پراگ",
      "name:fr": "Prague",
      "name:hu": "Prága",
      "name:pl": "Praga",
      "name:ru": "Прага",
      "name:sk": "Praha",
      "name:uk": "Прага",
      "name:ur": "پراگ",
      "boundary": "administrative",
      "ref:nuts": "CZ01",
      "way_area": "0.0623163",
      "wikidata": "Q12039506",
      "wikipedia": "cs:Region soudržnosti Praha",
      "population": "1251933",
      "ref:nuts:2": "CZ01",
      "admin_level": "4"
    }
  },
  {
    "osm_id": -442311,
    "boundary": "administrative",
    "admin_level": 6,
    "parents": "-435510,-51684",
    "name": "Jihomoravský kraj",
    "local_name": "Jihomoravský kraj",
    "name_en": null,
    "all_tags": {
      "ref": "JM",
      "name": "Jihomoravský kraj",
      "name:cs": "Jihomoravský kraj",
      "name:de": "Südmährische Region",
      "name:eo": "Sudmoravia regiono",
      "name:fi": "Etelä-Määrin lääni",
      "name:fr": "Moravie du Sud",
      "name:hr": "Južna Moravska",
      "name:hu": "Dél-morvaországi kerület",
      "name:nl": "Zuid-Moravië",
      "name:pl": "Kraj południowomorawski",
      "name:ru": "Южноморавский край",
      "boundary": "administrative",
      "ref:nuts": "CZ064",
      "way_area": "0.884631",
      "wikidata": "Q192697",
      "ISO3166-2": "CZ-64",
      "wikipedia": "cs:Jihomoravský kraj",
      "population": "1161832",
      "ref:nuts:3": "CZ064",
      "admin_level": "6"
    }
  },
  {
    "osm_id": -442453,
    "boundary": "administrative",
    "admin_level": 6,
    "parents": "-435510,-51684",
    "name": "Kraj Vysočina",
    "local_name": "Kraj Vysočina",
    "name_en": null,
    "all_tags": {
      "ref": "VY",
      "name": "Kraj Vysočina",
      "name:cs": "Kraj Vysočina",
      "name:de": "Region Hochland",
      "name:eo": "Regiono Vysočina",
      "name:hr": "Vysočina",
      "name:hu": "Vysočina kerület",
      "name:pl": "Kraj Wysoczyna",
      "name:ru": "Край Высочина",
      "boundary": "administrative",
      "ref:nuts": "CZ063",
      "way_area": "0.842127",
      "wikidata": "Q190930",
      "ISO3166-2": "CZ-63",
      "wikipedia": "cs:Kraj Vysočina",
      "population": "507192",
      "ref:nuts:3": "CZ063",
      "admin_level": "6"
    }
  },
  {
    "osm_id": -442460,
    "boundary": "administrative",
    "admin_level": 6,
    "parents": "-435513,-51684",
    "name": "Pardubický kraj",
    "local_name": "Pardubický kraj",
    "name_en": null,
    "all_tags": {
      "ref": "PA",
      "name": "Pardubický kraj",
      "name:cs": "Pardubický kraj",
      "name:de": "Pardubitzer Region",
      "name:eo": "Regiono Pardubice",
      "name:hr": "Pardubički kraj",
      "name:hu": "Pardubicei kerület",
      "name:lt": "Pardubicių kraštas",
      "name:pl": "Kraj pardubicki",
      "name:ru": "Пардубицкий край",
      "boundary": "administrative",
      "ref:nuts": "CZ053",
      "way_area": "0.565659",
      "wikidata": "Q193317",
      "ISO3166-2": "CZ-53",
      "wikipedia": "cs:Pardubický kraj",
      "population": "512041",
      "ref:nuts:3": "CZ053",
      "admin_level": "6"
    }
  },
  {
    "osm_id": -435510,
    "boundary": "administrative",
    "admin_level": 4,
    "parents": "-51684",
    "name": "Southeast",
    "local_name": "Jihovýchod",
    "name_en": "Southeast",
    "all_tags": {
      "name": "Jihovýchod",
      "name:cs": "Jihovýchod",
      "name:de": "Südosten",
      "name:en": "Southeast",
      "name:hr": "Jugoistočna Češka",
      "name:hu": "Délkelet-Csehország",
      "name:nl": "Zuidoost",
      "name:pl": "Południowo-wschodni",
      "name:ru": "Юго-Восток",
      "name:sk": "Juhovýchod",
      "boundary": "administrative",
      "ref:nuts": "CZ06",
      "way_area": "1.72676",
      "wikidata": "Q6192497",
      "wikipedia": "cs:Region soudržnosti Jihovýchod",
      "population": "1669024",
      "ref:nuts:2": "CZ06",
      "admin_level": "4"
    }
  },
  {
    "osm_id": -435513,
    "boundary": "administrative",
    "admin_level": 4,
    "parents": "-51684",
    "name": "Northeast",
    "local_name": "Severovýchod",
    "name_en": "Northeast",
    "all_tags": {
      "name": "Severovýchod",
      "name:cs": "Severovýchod",
      "name:de": "Nordosten",
      "name:en": "Northeast",
      "name:hr": "Sjeveroistočna Češka",
      "name:hu": "Északkelet-Csehország",
      "name:nl": "Noordoost",
      "name:pl": "Północno-wschodni",
      "name:ru": "Северо-Восток",
      "name:sk": "Severovýchod",
      "boundary": "administrative",
      "ref:nuts": "CZ05",
      "way_area": "1.56974",
      "wikidata": "Q7458003",
      "wikipedia": "cs:Region soudržnosti Severovýchod",
      "population": "1502327",
      "ref:nuts:2": "CZ05",
      "admin_level": "4"
    }
  },
  {
    "osm_id": -442463,
    "boundary": "administrative",
    "admin_level": 6,
    "parents": "-435513,-51684",
    "name": "Královéhradecký kraj",
    "local_name": "Královéhradecký kraj",
    "name_en": null,
    "all_tags": {
      "ref": "KR",
      "name": "Královéhradecký kraj",
      "name:cs": "Královéhradecký kraj",
      "name:de": "Königgrätzer Region",
      "name:eo": "Regiono Hradec Králové",
      "name:hu": "Hradec Králové-i kerület",
      "name:pl": "Kraj hradecki",
      "name:ru": "Краловеградецкий край",
      "boundary": "administrative",
      "ref:nuts": "CZ052",
      "way_area": "0.601521",
      "wikidata": "Q193295",
      "ISO3166-2": "CZ-52",
      "wikipedia": "cs:Královéhradecký kraj",
      "population": "548969",
      "ref:nuts:3": "CZ052",
      "admin_level": "6"
    }
  },
  {
    "osm_id": -435508,
    "boundary": "administrative",
    "admin_level": 4,
    "parents": "-51684",
    "name": "Central Moravia",
    "local_name": "Střední Morava",
    "name_en": "Central Moravia",
    "all_tags": {
      "name": "Střední Morava",
      "name:cs": "Střední Morava",
      "name:de": "Mittelmähren",
      "name:en": "Central Moravia",
      "name:hr": "Središnja Moravska",
      "name:hu": "Közép-Morvaország",
      "name:nl": "Centraal-Moravië",
      "name:pl": "Morawy Środkowe",
      "name:ru": "Центральная Моравия",
      "name:sk": "Stredná Morava",
      "boundary": "administrative",
      "ref:nuts": "CZ07",
      "way_area": "1.14712",
      "wikidata": "Q5061457",
      "wikipedia": "cs:Region soudržnosti Střední Morava",
      "population": "1227753",
      "ref:nuts:2": "CZ07",
      "admin_level": "4"
    }
  },
  {
    "osm_id": -442459,
    "boundary": "administrative",
    "admin_level": 6,
    "parents": "-435508,-51684",
    "name": "Olomouc Region",
    "local_name": "Olomoucký kraj",
    "name_en": "Olomouc Region",
    "all_tags": {
      "ref": "OL",
      "name": "Olomoucký kraj",
      "name:cs": "Olomoucký kraj",
      "name:de": "Olmützer Region",
      "name:en": "Olomouc Region",
      "name:eo": "Regiono Olomouc",
      "name:hr": "Olomoučki kraj",
      "name:hu": "Olomouci kerület",
      "name:pl": "Kraj ołomuniecki",
      "name:ru": "Оломоуцкий край",
      "boundary": "administrative",
      "ref:nuts": "CZ071",
      "way_area": "0.658066",
      "wikidata": "Q193307",
      "ISO3166-2": "CZ-71",
      "wikipedia": "cs:Olomoucký kraj",
      "population": "639073",
      "ref:nuts:3": "CZ071",
      "admin_level": "6"
    }
  },
  {
    "osm_id": -435512,
    "boundary": "administrative",
    "admin_level": 4,
    "parents": "-51684",
    "name": "Moravia-Silesia",
    "local_name": "Moravskoslezsko",
    "name_en": "Moravia-Silesia",
    "all_tags": {
      "name": "Moravskoslezsko",
      "name:cs": "Moravskoslezsko",
      "name:de": "Mährisch-Schlesien",
      "name:en": "Moravia-Silesia",
      "name:hr": "Moravska-Šleska",
      "name:hu": "Morva-Szilézia",
      "name:nl": "Moravië-Silezië",
      "name:pl": "Kraj morawsko-śląski",
      "name:ru": "Мораво-Силезия",
      "name:sk": "Moravsko-sliezsko",
      "name:uk": "Мораво-Сілезький край",
      "boundary": "administrative",
      "ref:nuts": "CZ08",
      "way_area": "0.678467",
      "wikidata": "Q12039504",
      "wikipedia": "cs:Region soudržnosti Moravskoslezsko",
      "population": "1243315",
      "ref:nuts:2": "CZ08",
      "admin_level": "4"
    }
  },
  {
    "osm_id": -435515,
    "boundary": "administrative",
    "admin_level": 4,
    "parents": "-51684",
    "name": "Central Bohemia",
    "local_name": "Střední Čechy",
    "name_en": "Central Bohemia",
    "all_tags": {
      "name": "Střední Čechy",
      "name:cs": "Střední Čechy",
      "name:de": "Mittelböhmen",
      "name:en": "Central Bohemia",
      "name:fi": "Keski-Böömi",
      "name:hr": "Središnja Češka",
      "name:hu": "Közép-Csehország",
      "name:nl": "Centraal-Bohemen",
      "name:pl": "Czechy Środkowe",
      "name:ru": "Центральная Чехия",
      "name:sk": "Stredné Čechy",
      "name:uk": "Середньочеський край",
      "boundary": "administrative",
      "ref:nuts": "CZ02",
      "way_area": "1.37064",
      "wikidata": "Q188399",
      "wikipedia": "cs:Středočeský kraj",
      "population": "1397997",
      "ref:nuts:2": "CZ02",
      "admin_level": "4",
      "population:date": "2021"
    }
  },
  {
    "osm_id": -442397,
    "boundary": "administrative",
    "admin_level": 6,
    "parents": "-435515,-51684",
    "name": "Středočeský kraj",
    "local_name": "Středočeský kraj",
    "name_en": null,
    "all_tags": {
      "ref": "ST",
      "name": "Středočeský kraj",
      "name:cs": "Středočeský kraj",
      "name:de": "Mittelböhmische Region",
      "name:eo": "Mezbohemia regiono",
      "name:fi": "Keski-Böömin lääni",
      "name:hr": "Središnja Češka",
      "name:hu": "Közép-csehországi kerület",
      "name:nl": "Centraal-Bohemen",
      "name:pl": "Kraj środkowoczeski",
      "name:ru": "Среднечешский край",
      "boundary": "administrative",
      "ref:nuts": "CZ020",
      "way_area": "1.37064",
      "wikidata": "Q188399",
      "ISO3166-2": "CZ-20",
      "wikipedia": "cs:Středočeský kraj",
      "population": "1268704",
      "ref:nuts:3": "CZ020",
      "admin_level": "6"
    }
  },
  {
    "osm_id": -442455,
    "boundary": "administrative",
    "admin_level": 6,
    "parents": "-435513,-51684",
    "name": "Liberecký kraj",
    "local_name": "Liberecký kraj",
    "name_en": null,
    "all_tags": {
      "ref": "LI",
      "name": "Liberecký kraj",
      "name:cs": "Liberecký kraj",
      "name:de": "Reichenberger Region",
      "name:eo": "Regiono Liberec",
      "name:hr": "Liberečki kraj",
      "name:hu": "Libereci kerület",
      "name:pl": "Kraj liberecki",
      "name:ru": "Либерецкий край",
      "boundary": "administrative",
      "ref:nuts": "CZ051",
      "way_area": "0.402556",
      "wikidata": "Q193266",
      "ISO3166-2": "CZ-51",
      "wikipedia": "cs:Liberecký kraj",
      "population": "441317",
      "ref:nuts:3": "CZ051",
      "admin_level": "6"
    }
  },
  {
    "osm_id": -435511,
    "boundary": "administrative",
    "admin_level": 4,
    "parents": "-51684",
    "name": "Southwest",
    "local_name": "Jihozápad",
    "name_en": "Southwest",
    "all_tags": {
      "name": "Jihozápad",
      "name:cs": "Jihozápad",
      "name:de": "Südwesten",
      "name:en": "Southwest",
      "name:hr": "Jugozapadna Češka",
      "name:hu": "Délnyugat-Csehország",
      "name:nl": "Zuidwest",
      "name:pl": "Południowo-zachodni",
      "name:ru": "Юго-Запад",
      "name:sk": "Juhozápad",
      "boundary": "administrative",
      "ref:nuts": "CZ03",
      "way_area": "2.18969",
      "wikidata": "Q12039505",
      "wikipedia": "cs:Region soudržnosti Jihozápad",
      "population": "1201770",
      "ref:nuts:2": "CZ03",
      "admin_level": "4"
    }
  },
  {
    "osm_id": -435514,
    "boundary": "administrative",
    "admin_level": 6,
    "parents": "-435541,-51684",
    "name": "Hlavní město Praha",
    "local_name": "Hlavní město Praha",
    "name_en": null,
    "all_tags": {
      "ref": "PR",
      "name": "Hlavní město Praha",
      "name:cs": "Hlavní město Praha",
      "name:de": "Hauptstadt Prag",
      "name:eo": "Ĉefurba regiono Prago",
      "name:hu": "Prága főváros",
      "name:pl": "Miasto Stołeczne Praga",
      "name:ru": "Столица Прага",
      "boundary": "administrative",
      "ref:nuts": "CZ010",
      "way_area": "0.0623163",
      "wikidata": "Q1085",
      "ISO3166-2": "CZ-10",
      "wikipedia": "cs:Praha",
      "population": "1251933",
      "ref:nuts:3": "CZ010",
      "admin_level": "6"
    }
  }
]
