[
  {
    "osm_id": -4027786,
    "boundary": "administrative",
    "admin_level": 4,
    "parents": "-192801",
    "name": "Arta",
    "local_name": "Arta عرتا",
    "name_en": "Arta",
    "all_tags": {
      "name": "Arta عرتا",
      "name:ar": "عرتا",
      "name:de": "Arta",
      "name:en": "Arta",
      "name:es": "Arta",
      "name:fa": "عرتا",
      "name:fr": "Arta",
      "name:ur": "عرتا",
      "alt_name": "أرتا;ارتا",
      "boundary": "administrative",
      "way_area": "0.167632",
      "wikidata": "Q705941",
      "ISO3166-2": "DJ-AR",
      "admin_level": "4",
      "alt_name:ar": "أرتا;ارتا",
      "official_name": "إقليم عرتا",
      "official_name:ar": "إقليم عرتا"
    }
  },
  {
    "osm_id": -3956454,
    "boundary": "administrative",
    "admin_level": 6,
    "parents": "-3725233,-192801",
    "name": "Dikhil",
    "local_name": "Dikhil دخيل",
    "name_en": "Dikhil",
    "all_tags": {
      "name": "Dikhil دخيل",
      "name:ar": "دخيل",
      "name:en": "Dikhil",
      "name:fr": "Dikhil",
      "boundary": "administrative",
      "way_area": "0.0755586",
      "admin_level": "6",
      "official_name": "إقليم دخيل",
      "official_name:ar": "إقليم دخيل",
      "official_name:en": "Dikhil District"
    }
  },
  {
    "osm_id": -3905174,
    "boundary": "administrative",
    "admin_level": 6,
    "parents": "-3725194,-192801",
    "name": "Tadjoura",
    "local_name": "Tadjoura تجرة",
    "name_en": "Tadjoura",
    "all_tags": {
      "name": "Tadjoura تجرة",
      "name:ar": "تجرة",
      "name:de": "Tadschura",
      "name:en": "Tadjoura",
      "name:fr": "Tadjoura",
      "boundary": "administrative",
      "way_area": "0.080362",
      "admin_level": "6",
      "alt_name:ar": "تاجورة;منطقة تاجورة",
      "official_name": "منطقة تجرة",
      "official_name:ar": "منطقة تجرة",
      "official_name:en": "Tadjoura District"
    }
  },
  {
    "osm_id": -3905173,
    "boundary": "administrative",
    "admin_level": 6,
    "parents": "-3725194,-192801",
    "name": "Randa District",
    "local_name": "راندا Randa",
    "name_en": "Randa District",
    "all_tags": {
      "name": "راندا Randa",
      "name:ar": "راندا",
      "name:en": "Randa District",
      "name:fr": "Randa",
      "boundary": "administrative",
      "way_area": "0.147186",
      "admin_level": "6"
    }
  },
  {
    "osm_id": -3905172,
    "boundary": "administrative",
    "admin_level": 6,
    "parents": "-3725194,-192801",
    "name": "Dorra District",
    "local_name": "Dorra درة",
    "name_en": "Dorra District",
    "all_tags": {
      "name": "Dorra درة",
      "name:ar": "درة",
      "name:en": "Dorra District",
      "name:fr": "Dorra",
      "boundary": "administrative",
      "way_area": "0.167505",
      "admin_level": "6"
    }
  },
  {
    "osm_id": -3905170,
    "boundary": "administrative",
    "admin_level": 6,
    "parents": "-3725194,-192801",
    "name": "Balha District",
    "local_name": "Balha بالها",
    "name_en": "Balha District",
    "all_tags": {
      "name": "Balha بالها",
      "name:ar": "بالها",
      "name:en": "Balha District",
      "name:fr": "Balha",
      "boundary": "administrative",
      "way_area": "0.140256",
      "admin_level": "6",
      "long_name:ar": "منطقة بالها",
      "official_name:ar": "منطقة بالها"
    }
  },
  {
    "osm_id": -3905169,
    "boundary": "administrative",
    "admin_level": 6,
    "parents": "-3725233,-192801",
    "name": "Yoboki",
    "local_name": "Yoboki يوبوكي",
    "name_en": "Yoboki",
    "all_tags": {
      "name": "Yoboki يوبوكي",
      "name:ar": "يوبوكي",
      "name:de": "Yoboki",
      "name:en": "Yoboki",
      "name:fa": "یوبوکی",
      "name:fr": "Yoboki",
      "name:sv": "Yoboki",
      "name:ur": "یوبوکی",
      "boundary": "administrative",
      "name:azb": "یوبوکی",
      "way_area": "0.301245",
      "wikipedia": "ar:يوبوكي",
      "admin_level": "6",
      "official_name": "منطقة يوبوكي",
      "official_name:ar": "منطقة يوبوكي",
      "official_name:en": "Yoboki District"
    }
  },
  {
    "osm_id": -3905167,
    "boundary": "administrative",
    "admin_level": 6,
    "parents": "-3725121,-192801",
    "name": "Obock District",
    "local_name": "Obock District إقليم أبخ",
    "name_en": "Obock District",
    "all_tags": {
      "name": "Obock District إقليم أبخ",
      "name:ar": "إقليم أبخ",
      "name:en": "Obock District",
      "name:fr": "Obock",
      "boundary": "administrative",
      "way_area": "0.237776",
      "admin_level": "6",
      "alt_name:ar": "إقليم أوبوك;أوبوك",
      "sorting_name:ar": "أبخ"
    }
  },
  {
    "osm_id": -3905166,
    "boundary": "administrative",
    "admin_level": 6,
    "parents": "-3725233,-192801",
    "name": "As Eyla District",
    "local_name": "As Eiya ايلى",
    "name_en": "As Eyla District",
    "all_tags": {
      "name": "As Eiya ايلى",
      "name:ar": "ايلى",
      "name:en": "As Eyla District",
      "name:fr": "As Eyla",
      "boundary": "administrative",
      "way_area": "0.155111",
      "admin_level": "6"
    }
  },
  {
    "osm_id": -3905165,
    "boundary": "administrative",
    "admin_level": 6,
    "parents": "-3725121,-192801",
    "name": "Alaili Dadda District",
    "local_name": "Alaili Dadda علايلي دادا",
    "name_en": "Alaili Dadda District",
    "all_tags": {
      "name": "Alaili Dadda علايلي دادا",
      "name:ar": "علايلي دادا",
      "name:en": "Alaili Dadda District",
      "name:fr": "Alaili Dadda",
      "boundary": "administrative",
      "way_area": "0.130613",
      "wikidata": "Q6273617",
      "admin_level": "6"
    }
  },
  {
    "osm_id": -3725245,
    "boundary": "administrative",
    "admin_level": 4,
    "parents": "-192801",
    "name": "Djibouti",
    "local_name": "Djibouti جيبوتي",
    "name_en": "Djibouti",
    "all_tags": {
      "name": "Djibouti جيبوتي",
      "name:ar": "جيبوتي",
      "name:de": "Dschibuti",
      "name:en": "Djibouti",
      "name:es": "Yibuti",
      "name:fr": "Djibouti",
      "name:fy": "Dzjibûty",
      "name:nl": "Djibouti",
      "name:ru": "Джибути",
      "name:zh": "吉布提",
      "boundary": "administrative",
      "name:tzl": "Xhibuti",
      "way_area": "0.0157454",
      "wikidata": "Q3604",
      "ISO3166-2": "DJ-DJ",
      "wikipedia": "ar:جيبوتي (مدينة)",
      "admin_level": "4",
      "is_in:country": "Djibouti",
      "is_in:continent": "Africa",
      "is_in:country_code": "DJ"
    }
  },
  {
    "osm_id": -3725240,
    "boundary": "administrative",
    "admin_level": 4,
    "parents": "-192801",
    "name": "Ali Sabieh",
    "local_name": "Ali Sabieh علي صبيح",
    "name_en": "Ali Sabieh",
    "all_tags": {
      "name": "Ali Sabieh علي صبيح",
      "name:ar": "علي صبيح",
      "name:de": "Ali Sabieh",
      "name:en": "Ali Sabieh",
      "name:es": "Ali Sabieh",
      "name:fr": "Ali Sabieh",
      "boundary": "administrative",
      "way_area": "0.178551",
      "wikidata": "Q821008",
      "ISO3166-2": "DJ-AS",
      "wikipedia": "ar:علي صبيح",
      "admin_level": "4"
    }
  },
  {
    "osm_id": -3725233,
    "boundary": "administrative",
    "admin_level": 4,
    "parents": "-192801",
    "name": "Dikhil",
    "local_name": "Dikhil دخيل",
    "name_en": "Dikhil",
    "all_tags": {
      "name": "Dikhil دخيل",
      "name:ar": "دخيل",
      "name:de": "Dikhil",
      "name:en": "Dikhil",
      "name:es": "Dikhil",
      "name:fr": "Dikhil",
      "boundary": "administrative",
      "way_area": "0.531914",
      "wikidata": "Q283979",
      "ISO3166-2": "DJ-DI",
      "wikipedia": "ar:دخيل (مدينة)",
      "admin_level": "4"
    }
  },
  {
    "osm_id": -3725194,
    "boundary": "administrative",
    "admin_level": 4,
    "parents": "-192801",
    "name": "Tadjourah",
    "local_name": "Tadjourah تجرة",
    "name_en": "Tadjourah",
    "all_tags": {
      "name": "Tadjourah تجرة",
      "name:ar": "تجرة",
      "name:de": "Tadschura",
      "name:en": "Tadjourah",
      "name:es": "Tadjoura",
      "name:fr": "Tadjourah",
      "boundary": "administrative",
      "way_area": "0.535315",
      "wikidata": "Q645896",
      "ISO3166-2": "DJ-TA",
      "wikipedia": "ar:إقليم تجرة",
      "admin_level": "4",
      "alt_name:ar": "تاجورة;إقليم تاجورة",
      "official_name": "إقليم تجرة",
      "official_name:ar": "إقليم تجرة"
    }
  },
  {
    "osm_id": -3725121,
    "boundary": "administrative",
    "admin_level": 4,
    "parents": "-192801",
    "name": "Obock",
    "local_name": "Obock أبخ",
    "name_en": "Obock",
    "all_tags": {
      "name": "Obock أبخ",
      "name:ar": "أبخ",
      "name:de": "Obock",
      "name:en": "Obock",
      "name:es": "Obock",
      "name:fr": "Obock",
      "name:ru": "Обок",
      "boundary": "administrative",
      "way_area": "0.36839",
      "wikidata": "Q844929",
      "ISO3166-2": "DJ-OB",
      "wikipedia": "ar:إقليم أوبوك",
      "admin_level": "4",
      "alt_name:ar": "أوبوك",
      "is_in:country_code": "DJ"
    }
  },
  {
    "osm_id": 234743094,
    "boundary": "administrative",
    "admin_level": 4,
    "parents": "-192801",
    "name": "Maskali Island",
    "local_name": "Île Maskali جزيرة ماسكالي",
    "name_en": "Maskali Island",
    "all_tags": {
      "area": "yes",
      "name": "Île Maskali جزيرة ماسكالي",
      "place": "islet",
      "sport": "scuba_diving",
      "name:ar": "جزيرة ماسكالي",
      "name:en": "Maskali Island",
      "name:fr": "Île Maskali",
      "name:hu": "Maskali Island",
      "boundary": "administrative",
      "way_area": "2.23912e-05",
      "wikidata": "Q23723098",
      "admin_level": "4"
    }
  }
]
