[
  {
    "osm_id": -1320608,
    "boundary": "administrative",
    "admin_level": 4,
    "parents": "-50046",
    "name": "Capital Region of Denmark",
    "local_name": "Region Hovedstaden",
    "name_en": "Capital Region of Denmark",
    "all_tags": {
      "ref": "1084",
      "name": "Region Hovedstaden",
      "name:bg": "Столична област",
      "name:ce": "Коьрта гӀалин регион",
      "name:cs": "Hovedstaden",
      "name:da": "Region Hovedstaden",
      "name:de": "Hauptstadtregion",
      "name:en": "Capital Region of Denmark",
      "name:eo": "Regiono Hovedstaden",
      "name:es": "Región Capital",
      "name:et": "Pealinna piirkond",
      "name:fi": "Pääkaupunkialue",
      "name:gv": "Ard Preeu-valjagh ny Danvarg",
      "name:hu": "Fővárosi régió",
      "name:hy": "Մայրաքաղաքային տարածաշրջան",
      "name:ka": "დედაქალაქის რეგიონი",
      "name:kk": "Астаналық облыс",
      "name:ko": "덴마크 수도 지역",
      "name:la": "Regio Capitis",
      "name:lt": "Sostinės regionas",
      "name:mk": "Престолнински регион",
      "name:ms": "Wilayah Hovedstaden",
      "name:nl": "Hoofdstad",
      "name:os": "Сæйраг сахары облæст",
      "name:pl": "Region Stołeczny",
      "name:pt": "Região da Capital",
      "name:ro": "Regiunea Hovedstaden",
      "name:ru": "Столичная область",
      "name:se": "Oaivegávpoga regiuvdna",
      "name:uk": "Столичний регіон",
      "name:vi": "Vùng thủ đô Đan Mạch",
      "boundary": "administrative",
      "name:frr": "Regiuun Hovedstaden",
      "name:nds": "Hööftstadt-Region",
      "ref:nuts": "DK01",
      "way_area": "0.366608",
      "wikidata": "Q26073",
      "ISO3166-2": "DK-84",
      "wikipedia": "da:Region Hovedstaden",
      "ref:nuts:2": "DK01",
      "admin_level": "4"
    }
  },
  {
    "osm_id": -1320370,
    "boundary": "administrative",
    "admin_level": 4,
    "parents": "-50046",
    "name": "Region Zealand",
    "local_name": "Region Sjælland",
    "name_en": "Region Zealand",
    "all_tags": {
      "ref": "1085",
      "name": "Region Sjælland",
      "name:ca": "Regió de Sjælland",
      "name:da": "Region Sjælland",
      "name:de": "Region Seeland",
      "name:en": "Region Zealand",
      "name:eo": "Regiono Sjælland",
      "name:es": "Región de Selandia",
      "name:et": "Sjællandi piirkond",
      "name:eu": "Seelandia eskualdea",
      "name:fa": "استان شیلند",
      "name:fi": "Sjællandin alue",
      "name:fy": "Seelân",
      "name:hu": "Sjælland régió",
      "name:hy": "Զելանդիա տարածաշրջան",
      "name:ja": "シェラン地域",
      "name:ka": "ზელანდიის რეგიონი",
      "name:la": "Regio Silandiae",
      "name:lt": "Zelandijos regionas",
      "name:ms": "Wilayah Sjælland",
      "name:nl": "Seeland",
      "name:pt": "Zelândia",
      "name:ro": "Regiunea Sjælland",
      "name:se": "Sjællándda regiuvdna",
      "name:sv": "Region Själland",
      "boundary": "administrative",
      "name:frr": "Regiuun Sjælland",
      "name:nds": "Region Seeland",
      "name:sco": "Region Zealand",
      "ref:nuts": "DK02",
      "way_area": "1.0302",
      "wikidata": "Q26589",
      "ISO3166-2": "DK-85",
      "wikipedia": "da:Region Sjælland",
      "ref:nuts:2": "DK02",
      "admin_level": "4"
    }
  },
  {
    "osm_id": -1319978,
    "boundary": "administrative",
    "admin_level": 4,
    "parents": "-50046",
    "name": "Region of Southern Denmark",
    "local_name": "Region Syddanmark",
    "name_en": "Region of Southern Denmark",
    "all_tags": {
      "ref": "1083",
      "name": "Region Syddanmark",
      "name:bg": "Южна Дания",
      "name:br": "Danmark ar Su",
      "name:ca": "Dinamarca Meridional",
      "name:ce": "Къилбера Дани",
      "name:cs": "Syddanmark",
      "name:da": "Region Syddanmark",
      "name:de": "Region Süddänemark",
      "name:en": "Region of Southern Denmark",
      "name:eo": "Regiono Suda Danio",
      "name:es": "Dinamarca Meridional",
      "name:et": "Lõuna-Taani piirkond",
      "name:eu": "Hegoaldeko Danimarka",
      "name:fa": "استان سیددانمارک",
      "name:fi": "Etelä-Tanskan alue",
      "name:fr": "Danemark-du-Sud",
      "name:fy": "Súd-Denemark",
      "name:hr": "Južna Danska",
      "name:hu": "Dél-Dánia régió",
      "name:hy": "Հարավային Դանիա տարածաշրջան",
      "name:it": "Danimarca meridionale",
      "name:ja": "南デンマーク地域",
      "name:ka": "სამხრეთ დანიის რეგიონი",
      "name:kk": "Оңтүстік Дания",
      "name:ko": "남덴마크 지역",
      "name:la": "Dania Meridiana",
      "name:lt": "Pietų Danijos regionas",
      "name:lv": "Dienviddānijas reģions",
      "name:mk": "Јужна Данска",
      "name:ms": "Wilayah Syddanmark",
      "name:nl": "Zuid-Denemarken",
      "name:oc": "Danemarc Meridional",
      "name:os": "Хуссар Дани",
      "name:pl": "Dania Południowa",
      "name:pt": "Dinamarca do Sul",
      "name:ro": "Regiunea Syddanmark",
      "name:ru": "Южная Дания",
      "name:se": "Syddanmark regiuvdna",
      "name:sk": "Južné Dánsko",
      "name:sr": "Јужна Данска",
      "name:uk": "Південна Данія",
      "name:vi": "Nam Đan Mạch",
      "name:zh": "南丹麦大区",
      "boundary": "administrative",
      "name:frr": "Regiuun Syddanmark",
      "name:nds": "Region Süüddäänmark",
      "name:sco": "Region o Soothren Denmark",
      "ref:nuts": "DK03",
      "way_area": "1.71677",
      "wikidata": "Q26061",
      "ISO3166-2": "DK-83",
      "wikipedia": "da:Region Syddanmark",
      "ref:nuts:2": "DK03",
      "admin_level": "4"
    }
  },
  {
    "osm_id": -1319936,
    "boundary": "administrative",
    "admin_level": 4,
    "parents": "-50046",
    "name": "North Denmark Region",
    "local_name": "Region Nordjylland",
    "name_en": "North Denmark Region",
    "all_tags": {
      "ref": "1081",
      "name": "Region Nordjylland",
      "name:ar": "مقاطعة نوردلاند",
      "name:bg": "Северна Ютландия",
      "name:ca": "Jutlàndia Septentrional",
      "name:ce": "Къилбаседера Ютланди",
      "name:da": "Region Nordjylland",
      "name:de": "Region Nordjütland",
      "name:en": "North Denmark Region",
      "name:eo": "Regiono Norda Jutlando",
      "name:es": "Jutlandia Septentrional",
      "name:et": "Põhja-Jüütimaa piirkond",
      "name:eu": "Ipar Jutlandia",
      "name:fa": "استان نوردیولند",
      "name:fi": "Pohjois-Jyllannin alue",
      "name:fr": "Jutland du Nord",
      "name:hr": "Sjeverni Jutland",
      "name:hu": "Észak-Jütland régió",
      "name:hy": "Հյուսիսային Դանիա տարածաշրջան",
      "name:it": "Jutland settentrionale",
      "name:ja": "北ユラン地域",
      "name:ka": "ჩრდილოეთ იუტლანდიის რეგიონი",
      "name:kk": "Солтүстік Ютландия",
      "name:ko": "북윌란 지역",
      "name:la": "Iutia Septentrionalis",
      "name:lt": "Šiaurės Jutlandijos regionas",
      "name:lv": "Ziemeļjitlandes reģions",
      "name:mk": "Северна Данска",
      "name:ms": "Wilayah Nordjylland",
      "name:nl": "Noord-Jutland",
      "name:oc": "Jutlàndia Septentrionala",
      "name:os": "Цæгат Ютланди",
      "name:pl": "Jutlandia Północna",
      "name:pt": "Jutlândia do Norte",
      "name:ro": "Regiunea Nordjylland",
      "name:ru": "Северная Ютландия",
      "name:se": "Davvi-Jyllándda regiuvdna",
      "name:sk": "Severné Jutsko",
      "name:sr": "Северна Данска",
      "name:uk": "Північна Ютландія",
      "name:vi": "Bắc Jutland",
      "name:zh": "北日德兰大区",
      "boundary": "administrative",
      "name:frr": "Regiuun Nordjylland",
      "name:nds": "Region Noordjüütland",
      "name:sco": "North Denmark Region",
      "ref:nuts": "DK05",
      "way_area": "1.17103",
      "wikidata": "Q26067",
      "ISO3166-2": "DK-81",
      "wikipedia": "da:Region Nordjylland",
      "ref:nuts:2": "DK05",
      "admin_level": "4"
    }
  },
  {
    "osm_id": -1319935,
    "boundary": "administrative",
    "admin_level": 4,
    "parents": "-50046",
    "name": "Central Denmark Region",
    "local_name": "Region Midtjylland",
    "name_en": "Central Denmark Region",
    "all_tags": {
      "ref": "1082",
      "name": "Region Midtjylland",
      "name:bg": "Централна Ютландия",
      "name:br": "Kreizjutland",
      "name:ca": "Jutlàndia Central",
      "name:ce": "Юккъера Ютланди",
      "name:da": "Region Midtjylland",
      "name:de": "Region Mitteljütland",
      "name:en": "Central Denmark Region",
      "name:eo": "Regiono Meza Jutlando",
      "name:es": "Jutlandia Central",
      "name:et": "Kesk-Jüütimaa",
      "name:eu": "Erdialdeko Jutlandia",
      "name:fa": "استان میدیولند",
      "name:fi": "Keski-Jyllannin alue",
      "name:fo": "Región Miðjútland",
      "name:fr": "Jutland central",
      "name:fy": "Midden-Jutlân",
      "name:hr": "Središnji Jylland",
      "name:hu": "Közép-Jütland régió",
      "name:hy": "Կենտրոնական Յուտլանդիա տարածաշրջան",
      "name:it": "Jutland centrale",
      "name:ja": "中央ユラン地域",
      "name:ka": "ცენტრალური იუტლანდიის რეგიონი",
      "name:kk": "Орталық Ютландия",
      "name:ko": "중앙윌란 지역",
      "name:la": "Iutia Media",
      "name:lt": "Vidurio Jutlandijos regionas",
      "name:lv": "Vidusjitlandes reģions",
      "name:mk": "Средна Данска",
      "name:ms": "Wilayah Midtjylland",
      "name:nl": "Midden-Jutland",
      "name:oc": "Jutlàndia Centrala",
      "name:os": "Централон Ютланди",
      "name:pl": "Jutlandia Środkowa",
      "name:pt": "Jutlândia Central",
      "name:ro": "Regiunea Midtjylland",
      "name:ru": "Центральная Ютландия",
      "name:se": "Gaska-Jyllándda regiuvdna",
      "name:sh": "Središnji Jylland",
      "name:sk": "Stredné Jutsko",
      "name:sr": "Средишња Данска",
      "name:sv": "Region Mittjylland",
      "name:uk": "Центральна Ютландія",
      "name:vi": "Trung Jutland",
      "name:zh": "中日德兰大区",
      "boundary": "administrative",
      "name:frr": "Regiuun Midtjylland",
      "name:nds": "Region Middjüütland",
      "name:sco": "Central Denmark Region",
      "ref:nuts": "DK04",
      "way_area": "1.9049",
      "wikidata": "Q26586",
      "ISO3166-2": "DK-82",
      "wikipedia": "da:Region Midtjylland",
      "ref:nuts:2": "DK04",
      "admin_level": "4"
    }
  }
]
