[
  {
    "osm_id": -350144,
    "boundary": "administrative",
    "admin_level": 6,
    "parents": "-79510",
    "name": "Saare maakond",
    "local_name": "Saare maakond",
    "name_en": null,
    "all_tags": {
      "name": "Saare maakond",
      "name:be": "Павет Саарэ",
      "name:et": "Saare maakond",
      "name:lt": "Sarės apskritis",
      "name:ru": "Уезд Сааремаа",
      "name:uk": "повіт Сааремаа",
      "alt_name": "Saaremaa",
      "boundary": "administrative",
      "way_area": "1.90222",
      "wikidata": "Q203272",
      "EHAK:code": "0074",
      "ISO3166-2": "EE-74",
      "wikipedia": "et:Saare maakond",
      "admin_level": "6",
      "name:be-tarask": "Павет Саарэ"
    }
  },
  {
    "osm_id": -350585,
    "boundary": "administrative",
    "admin_level": 6,
    "parents": "-79510",
    "name": "Harju maakond",
    "local_name": "Harju maakond",
    "name_en": null,
    "all_tags": {
      "name": "Harju maakond",
      "name:be": "Павет Хар'ю",
      "name:de": "Kreis Harrien",
      "name:et": "Harju maakond",
      "name:fi": "Harjumaa",
      "name:pl": "Prowincja Harju",
      "name:ru": "Уезд Харьюмаа",
      "name:uk": "повіт Гар'юмаа",
      "alt_name": "Harjumaa",
      "boundary": "administrative",
      "way_area": "1.27006",
      "wikidata": "Q180200",
      "EHAK:code": "0037",
      "ISO3166-2": "EE-37",
      "wikipedia": "et:Harju maakond",
      "admin_level": "6",
      "name:be-tarask": "Павет Хар’ю"
    }
  },
  {
    "osm_id": -350340,
    "boundary": "administrative",
    "admin_level": 6,
    "parents": "-79510",
    "name": "Hiiu maakond",
    "local_name": "Hiiu maakond",
    "name_en": null,
    "all_tags": {
      "name": "Hiiu maakond",
      "name:be": "Павет Хійу",
      "name:ru": "Уезд Хийумаа",
      "name:uk": "повіт Хіюмаа",
      "alt_name": "Hiiumaa",
      "boundary": "administrative",
      "way_area": "0.717179",
      "wikidata": "Q1466462",
      "EHAK:code": "0039",
      "ISO3166-2": "EE-39",
      "wikipedia": "et:Hiiu maakond",
      "admin_level": "6",
      "name:be-tarask": "Павет Хію"
    }
  },
  {
    "osm_id": -352449,
    "boundary": "administrative",
    "admin_level": 6,
    "parents": "-79510",
    "name": "Viljandi maakond",
    "local_name": "Viljandi maakond",
    "name_en": null,
    "all_tags": {
      "name": "Viljandi maakond",
      "name:be": "Павет Вільяндзі",
      "name:et": "Viljandi maakond",
      "name:lt": "Viljandžio apskritis",
      "name:ru": "Уезд Вильяндимаа",
      "name:uk": "повіт Вільяндімаа",
      "alt_name": "Viljandimaa",
      "boundary": "administrative",
      "way_area": "0.551495",
      "wikidata": "Q192061",
      "EHAK:code": "0084",
      "ISO3166-2": "EE-84",
      "wikipedia": "et:Viljandi maakond",
      "admin_level": "6",
      "name:be-tarask": "Павет Вільяндзі"
    }
  },
  {
    "osm_id": -354089,
    "boundary": "administrative",
    "admin_level": 6,
    "parents": "-79510",
    "name": "Jõgeva maakond",
    "local_name": "Jõgeva maakond",
    "name_en": null,
    "all_tags": {
      "name": "Jõgeva maakond",
      "name:be": "Павет Йыгева",
      "name:de": "Kreis Laisholm",
      "name:et": "Jõgeva maakond",
      "name:ru": "Уезд Йыгевамаа",
      "name:uk": "повіт Йиґевамаа",
      "alt_name": "Jõgevamaa",
      "boundary": "administrative",
      "way_area": "0.447198",
      "wikidata": "Q189974",
      "EHAK:code": "0050",
      "ISO3166-2": "EE-50",
      "wikipedia": "et:Jõgeva maakond",
      "admin_level": "6",
      "name:be-tarask": "Павет Йыгева"
    }
  },
  {
    "osm_id": -353812,
    "boundary": "administrative",
    "admin_level": 6,
    "parents": "-79510",
    "name": "Võru maakond",
    "local_name": "Võru maakond",
    "name_en": null,
    "all_tags": {
      "name": "Võru maakond",
      "name:be": "Павет Выру",
      "name:de": "Kreis Werro",
      "name:lt": "Veru apskritis",
      "name:ru": "Уезд Вырумаа",
      "name:uk": "повіт Вирумаа",
      "alt_name": "Võrumaa",
      "boundary": "administrative",
      "way_area": "0.422157",
      "wikidata": "Q188076",
      "EHAK:code": "0087",
      "ISO3166-2": "EE-87",
      "wikipedia": "et:Võru maakond",
      "admin_level": "6",
      "name:be-tarask": "Павет Выру"
    }
  },
  {
    "osm_id": -352454,
    "boundary": "administrative",
    "admin_level": 6,
    "parents": "-79510",
    "name": "Põlva maakond",
    "local_name": "Põlva maakond",
    "name_en": null,
    "all_tags": {
      "name": "Põlva maakond",
      "name:be": "Павет Пылва",
      "name:de": "Kreis Pölwe",
      "name:et": "Põlva maakond",
      "name:lt": "Pelvos apskritis",
      "name:ru": "Уезд Пылвамаа",
      "name:uk": "повіт Пилвамаа",
      "alt_name": "Põlvamaa",
      "boundary": "administrative",
      "way_area": "0.300557",
      "wikidata": "Q191813",
      "EHAK:code": "0064",
      "ISO3166-2": "EE-64",
      "wikipedia": "et:Põlva maakond",
      "admin_level": "6",
      "name:be-tarask": "Павет Пыльва"
    }
  },
  {
    "osm_id": -351246,
    "boundary": "administrative",
    "admin_level": 6,
    "parents": "-79510",
    "name": "Tartu maakond",
    "local_name": "Tartu maakond",
    "name_en": null,
    "all_tags": {
      "name": "Tartu maakond",
      "name:be": "Павет Тарту",
      "name:de": "Kreis Dorpat",
      "name:et": "Tartu maakond",
      "name:lt": "Tartu apskritis",
      "name:ru": "Уезд Тартумаа",
      "name:uk": "повіт Тартумаа",
      "alt_name": "Tartumaa",
      "boundary": "administrative",
      "way_area": "0.6214",
      "wikidata": "Q192370",
      "EHAK:code": "0079",
      "ISO3166-2": "EE-78",
      "wikipedia": "et:Tartu maakond",
      "admin_level": "6",
      "name:be-tarask": "Павет Тарту"
    }
  },
  {
    "osm_id": -350424,
    "boundary": "administrative",
    "admin_level": 6,
    "parents": "-79510",
    "name": "Lääne maakond",
    "local_name": "Lääne maakond",
    "name_en": null,
    "all_tags": {
      "name": "Lääne maakond",
      "name:be": "Павет Ляэнэ",
      "name:ru": "Уезд Ляэнемаа",
      "name:uk": "повіт Ляянемаа",
      "alt_name": "Läänemaa",
      "boundary": "administrative",
      "way_area": "0.656379",
      "wikidata": "Q189968",
      "EHAK:code": "0056",
      "ISO3166-2": "EE-57",
      "wikipedia": "et:Lääne maakond",
      "admin_level": "6",
      "name:be-tarask": "Павет Ляэнэ"
    }
  },
  {
    "osm_id": -351063,
    "boundary": "administrative",
    "admin_level": 6,
    "parents": "-79510",
    "name": "Lääne-Viru maakond",
    "local_name": "Lääne-Viru maakond",
    "name_en": null,
    "all_tags": {
      "name": "Lääne-Viru maakond",
      "name:be": "Павет Ляэнэ-Віру",
      "name:de": "West-Wierland",
      "name:et": "Lääne-Viru maakond",
      "name:fi": "Länsi-Virumaa",
      "name:pl": "Powiat Wironia Zachodnia",
      "name:ru": "Уезд Ляэне-Вирумаа",
      "name:uk": "повіт Ляяне-Вірумаа",
      "alt_name": "Lääne-Virumaa",
      "boundary": "administrative",
      "way_area": "0.875149",
      "wikidata": "Q189952",
      "EHAK:code": "0060",
      "ISO3166-2": "EE-59",
      "wikipedia": "et:Lääne-Viru maakond",
      "admin_level": "6",
      "name:be-tarask": "Павет Ляэнэ-Віру"
    }
  },
  {
    "osm_id": -350459,
    "boundary": "administrative",
    "admin_level": 6,
    "parents": "-79510",
    "name": "Ida-Viru maakond",
    "local_name": "Ida-Viru maakond",
    "name_en": null,
    "all_tags": {
      "name": "Ida-Viru maakond",
      "name:be": "Павет Іда-Віру",
      "name:de": "Kreis Ost-Wierland",
      "name:et": "Ida-Viru maakond",
      "name:lt": "Rytų Viru apskritis",
      "name:pl": "Powiat Wironia Wschodnia",
      "name:ru": "Уезд Ида-Вирумаа",
      "name:uk": "повіт Іда-Вірумаа",
      "alt_name": "Ida-Virumaa",
      "boundary": "administrative",
      "way_area": "0.725793",
      "wikidata": "Q189963",
      "EHAK:code": "0045",
      "ISO3166-2": "EE-44",
      "wikipedia": "et:Ida-Viru maakond",
      "admin_level": "6",
      "name:be-tarask": "Павет Іда-Віру"
    }
  },
  {
    "osm_id": -353779,
    "boundary": "administrative",
    "admin_level": 6,
    "parents": "-79510",
    "name": "Rapla maakond",
    "local_name": "Rapla maakond",
    "name_en": null,
    "all_tags": {
      "name": "Rapla maakond",
      "name:be": "Павет Рапла",
      "name:de": "Kreis Rappel",
      "name:et": "Rapla maakond",
      "name:ru": "Уезд Рапламаа",
      "name:uk": "повіт Рапламаа",
      "alt_name": "Raplamaa",
      "boundary": "administrative",
      "way_area": "0.430922",
      "wikidata": "Q192352",
      "EHAK:code": "0071",
      "ISO3166-2": "EE-70",
      "wikipedia": "et:Rapla maakond",
      "admin_level": "6",
      "name:be-tarask": "Павет Рапла"
    }
  },
  {
    "osm_id": -350303,
    "boundary": "administrative",
    "admin_level": 6,
    "parents": "-79510",
    "name": "Pärnu maakond",
    "local_name": "Pärnu maakond",
    "name_en": null,
    "all_tags": {
      "name": "Pärnu maakond",
      "name:be": "Павет Пярну",
      "name:de": "Kreis Pernau",
      "name:et": "Pärnu maakond",
      "name:ru": "Уезд Пярнумаа",
      "name:uk": "повіт Пярнумаа",
      "alt_name": "Pärnumaa",
      "boundary": "administrative",
      "way_area": "1.28888",
      "wikidata": "Q185036",
      "EHAK:code": "0068",
      "ISO3166-2": "EE-68",
      "wikipedia": "et:Pärnu maakond",
      "admin_level": "6",
      "name:be-tarask": "Павет Пярну"
    }
  },
  {
    "osm_id": -351379,
    "boundary": "administrative",
    "admin_level": 6,
    "parents": "-79510",
    "name": "Valga maakond",
    "local_name": "Valga maakond",
    "name_en": null,
    "all_tags": {
      "name": "Valga maakond",
      "name:be": "Павет Валга",
      "name:de": "Kreis Walk",
      "name:ru": "Уезд Валгамаа",
      "name:uk": "повіт Валгамаа",
      "alt_name": "Valgamaa",
      "boundary": "administrative",
      "way_area": "0.290744",
      "wikidata": "Q192362",
      "EHAK:code": "0081",
      "ISO3166-2": "EE-82",
      "wikipedia": "et:Valga maakond",
      "admin_level": "6",
      "name:be-tarask": "Павет Валга"
    }
  },
  {
    "osm_id": -353776,
    "boundary": "administrative",
    "admin_level": 6,
    "parents": "-79510",
    "name": "Järva maakond",
    "local_name": "Järva maakond",
    "name_en": null,
    "all_tags": {
      "name": "Järva maakond",
      "name:be": "Павет Ярва",
      "name:de": "Kreis Jerwen",
      "name:et": "Järva maakond",
      "name:ru": "Уезд Ярвамаа",
      "name:uk": "повіт Ярвамаа",
      "alt_name": "Järvamaa",
      "boundary": "administrative",
      "way_area": "0.416634",
      "wikidata": "Q188068",
      "EHAK:code": "0052",
      "ISO3166-2": "EE-52",
      "wikipedia": "et:Järva maakond",
      "admin_level": "6",
      "name:be-tarask": "Павет Ярва"
    }
  }
]
