[
  {
    "osm_id": -4103407,
    "boundary": "administrative",
    "admin_level": 4,
    "parents": "-1473947",
    "name": "Al Sharqia Governorate",
    "local_name": "الشرقية",
    "name_en": "Al Sharqia Governorate",
    "all_tags": {
      "name": "الشرقية",
      "name:ar": "الشرقية",
      "name:de": "Gouvernement asch-Scharqiyya",
      "name:en": "Al Sharqia Governorate",
      "name:es": "Oriental",
      "name:fr": "Gouvernorat d'Ach-Charqiya",
      "name:hu": "Keleti kormányzóság",
      "name:ru": "мухафаза Шаркия",
      "boundary": "administrative",
      "way_area": "0.451227",
      "wikidata": "Q31074",
      "ISO3166-2": "EG-SHR",
      "admin_level": "4"
    }
  },
  {
    "osm_id": -4103406,
    "boundary": "administrative",
    "admin_level": 4,
    "parents": "-1473947",
    "name": "Port Said",
    "local_name": "بورسعيد",
    "name_en": "Port Said",
    "all_tags": {
      "name": "بورسعيد",
      "name:ar": "بورسعيد",
      "name:de": "Port Said",
      "name:en": "Port Said",
      "name:es": "Puerto Saíd",
      "name:fa": "پورت‌سعید",
      "name:fr": "Port-Saïd",
      "name:hu": "Port Szaíd",
      "name:ru": "Порт-Саид",
      "name:ur": "پورٹ سعید",
      "boundary": "administrative",
      "name:azb": "پورت‌سعید",
      "name:pnb": "پورٹ سعید",
      "way_area": "0.235966",
      "wikidata": "Q31079",
      "ISO3166-2": "EG-PTS",
      "wikipedia": "ar:محافظة بورسعيد",
      "admin_level": "4",
      "name:az-Arab": "پورت‌سعید",
      "wikipedia:ar": "محافظة بورسعيد",
      "official_name": "محافظة بورسعيد",
      "official_name:ar": "محافظة بورسعيد",
      "official_name:de": "Gouvernement Port Said",
      "official_name:en": "Port Said Governorate",
      "official_name:es": "Gobernación de Puerto Saíd",
      "official_name:fa": "استان پورت‌سعید",
      "official_name:fr": "Gouvernorat de Port-Saïd",
      "official_name:hu": "Port Szaíd kormányzóság",
      "official_name:ru": "мухафаза Порт-Саид",
      "official_name:ur": "محافظہ پورٹ سعید",
      "official_name:azb": "پورت‌سعید اوستانی",
      "official_name:pnb": "صوبہ پورٹ سعید"
    }
  },
  {
    "osm_id": -4103405,
    "boundary": "administrative",
    "admin_level": 4,
    "parents": "-1473947",
    "name": "Kafr el-Sheikh Governorate",
    "local_name": "كفر الشيخ",
    "name_en": "Kafr el-Sheikh Governorate",
    "all_tags": {
      "name": "كفر الشيخ",
      "place": "town",
      "capital": "4",
      "name:ar": "كفر الشيخ",
      "name:de": "Gouvernement Kafr asch-Schaich",
      "name:en": "Kafr el-Sheikh Governorate",
      "name:eo": "Provinco Kafr aŝ-Ŝejĥ",
      "name:fr": "Gouvernorat de Kafr el-Cheik",
      "name:hu": "Kafr es-Sajh kormányzóság",
      "name:pl": "Muhafaza Kafr asz-Szajch",
      "name:ru": "мухафаза Кафр-эш-Шейх",
      "boundary": "administrative",
      "way_area": "0.641521",
      "wikidata": "Q30946",
      "ISO3166-2": "EG-KFS",
      "admin_level": "4"
    }
  },
  {
    "osm_id": -4103404,
    "boundary": "administrative",
    "admin_level": 4,
    "parents": "-1473947",
    "name": "Damietta Governorate",
    "local_name": "دمياط",
    "name_en": "Damietta Governorate",
    "all_tags": {
      "name": "دمياط",
      "name:ar": "دمياط",
      "name:de": "Gouvernement Dumyat",
      "name:en": "Damietta Governorate",
      "name:es": "Damieta",
      "name:fr": "Gouvernorat de Damiette",
      "name:hu": "Damietta kormányzóság",
      "name:ru": "мухафаза Думьят",
      "boundary": "administrative",
      "way_area": "0.173093",
      "wikidata": "Q30644",
      "ISO3166-2": "EG-DT",
      "admin_level": "4"
    }
  },
  {
    "osm_id": -4103403,
    "boundary": "administrative",
    "admin_level": 4,
    "parents": "-1473947",
    "name": "Dakahlia Governorate",
    "local_name": "الدقهلية",
    "name_en": "Dakahlia Governorate",
    "all_tags": {
      "name": "الدقهلية",
      "name:ar": "الدقهلية",
      "name:de": "Gouvernement ad-Daqahliyya",
      "name:en": "Dakahlia Governorate",
      "name:es": "Dacalia",
      "name:fr": "Gouvernorat de Dakahleya",
      "name:hu": "ed-Dakahlijja kormányzóság",
      "name:ru": "мухафаза Дакахлия",
      "boundary": "administrative",
      "way_area": "0.544948",
      "wikidata": "Q31068",
      "ISO3166-2": "EG-DK",
      "admin_level": "4"
    }
  },
  {
    "osm_id": -4103337,
    "boundary": "administrative",
    "admin_level": 4,
    "parents": "-1473947",
    "name": "Qalyubia Governorate",
    "local_name": "القليوبية",
    "name_en": "Qalyubia Governorate",
    "all_tags": {
      "name": "القليوبية",
      "name:ar": "القليوبية",
      "name:de": "Gouvernement al-Qalyubiyya",
      "name:en": "Qalyubia Governorate",
      "name:es": "Caliubia",
      "name:fr": "Gouvernorat de Qalyubiya",
      "name:hu": "el-Kaljúbijja kormányzóság",
      "name:ru": "мухафаза Кальюбия",
      "boundary": "administrative",
      "way_area": "0.10986",
      "wikidata": "Q31075",
      "ISO3166-2": "EG-KB",
      "admin_level": "4"
    }
  },
  {
    "osm_id": -4103336,
    "boundary": "administrative",
    "admin_level": 4,
    "parents": "-1473947",
    "name": "Cairo Governorate",
    "local_name": "محافظة القاهرة",
    "name_en": "Cairo Governorate",
    "all_tags": {
      "name": "محافظة القاهرة",
      "name:ar": "محافظة القاهرة",
      "name:de": "Gouvernement al-Qahira",
      "name:en": "Cairo Governorate",
      "name:es": "El Cairo",
      "name:fr": "Gouvernorat du Caire",
      "name:hu": "Kairó kormányzóság",
      "name:lt": "Kairo muchafaza",
      "name:ru": "мухафаза Каир",
      "name:zh": "开罗省",
      "boundary": "administrative",
      "way_area": "0.281129",
      "wikidata": "Q30805",
      "ISO3166-2": "EG-C",
      "wikipedia": "ar:محافظة القاهرة",
      "admin_level": "4",
      "name:zh-Hans": "开罗省",
      "name:zh-Hant": "開羅省"
    }
  },
  {
    "osm_id": -3824513,
    "boundary": "administrative",
    "admin_level": 4,
    "parents": "-1473947",
    "name": "Beheira Governorate",
    "local_name": "البحيرة",
    "name_en": "Beheira Governorate",
    "all_tags": {
      "name": "البحيرة",
      "name:ar": "البحيرة",
      "name:de": "Gouvernement al-Buhaira",
      "name:en": "Beheira Governorate",
      "name:es": "Behera",
      "name:fr": "Gouvernorat de Beheira",
      "name:hu": "el-Buhajra kormányzóság",
      "name:ru": "мухафаза Бухейра",
      "name:uk": "Бухейра мугафаза",
      "boundary": "administrative",
      "way_area": "1.08131",
      "wikidata": "Q30630",
      "ISO3166-2": "EG-BH",
      "wikipedia": "ar:محافظة البحيرة",
      "admin_level": "4"
    }
  },
  {
    "osm_id": -3824207,
    "boundary": "administrative",
    "admin_level": 4,
    "parents": "-1473947",
    "name": "Monufia Governorate",
    "local_name": "محافظة المنوفية",
    "name_en": "Monufia Governorate",
    "all_tags": {
      "name": "محافظة المنوفية",
      "name:ar": "محافظة المنوفية",
      "name:de": "Gouvernement al-Minufiyya",
      "name:en": "Monufia Governorate",
      "name:eo": "Provinco Minufija",
      "name:es": "Menufia",
      "name:fr": "Gouvernorat de Menufeya",
      "name:hu": "el-Minúfijja kormányzóság",
      "name:pl": "Muhafaza Al-Minufijja",
      "name:ru": "мухафаза Минуфия",
      "boundary": "administrative",
      "way_area": "0.223956",
      "wikidata": "Q30786",
      "ISO3166-2": "EG-MNF",
      "wikipedia": "ar:محافظة المنوفية",
      "admin_level": "4"
    }
  },
  {
    "osm_id": -3824206,
    "boundary": "administrative",
    "admin_level": 4,
    "parents": "-1473947",
    "name": "Giza Governorate",
    "local_name": "محافظة الجيزة",
    "name_en": "Giza Governorate",
    "all_tags": {
      "name": "محافظة الجيزة",
      "name:ar": "محافظة الجيزة",
      "name:de": "Gouvernement al-Dschiza",
      "name:en": "Giza Governorate",
      "name:eo": "Provinco Gizo",
      "name:es": "Guiza",
      "name:fr": "Gouvernorat de Gizeh",
      "name:hu": "Gíza kormányzóság",
      "name:pl": "Muhafaza Giza",
      "name:ru": "мухафаза Гиза",
      "boundary": "administrative",
      "name:azb": "جیزه اوستانی",
      "way_area": "3.53304",
      "wikidata": "Q30832",
      "ISO3166-2": "EG-GZ",
      "wikipedia": "ar:محافظة الجيزة",
      "admin_level": "4",
      "sorting_name": "الجيزة",
      "wikipedia:ar": "محافظة الجيزة",
      "sorting_name:ar": "الجيزة",
      "sorting_name:ur": "جیزہ",
      "sorting_name:azb": "جیزه"
    }
  },
  {
    "osm_id": -3726211,
    "boundary": "administrative",
    "admin_level": 4,
    "parents": "-1473947",
    "name": "Luxor Governate",
    "local_name": "الأقصر",
    "name_en": "Luxor Governate",
    "all_tags": {
      "name": "الأقصر",
      "name:ar": "محافظة الأقصر",
      "name:de": "Luxor",
      "name:en": "Luxor Governate",
      "name:fr": "Gouvernorat de Louxor",
      "name:hu": "Luxor kormányzóság",
      "name:ru": "мухафаза Луксор",
      "boundary": "administrative",
      "way_area": "0.169958",
      "wikidata": "Q30797",
      "ISO3166-2": "EG-LX",
      "wikipedia": "ar:محافظة الأقصر",
      "admin_level": "4"
    }
  },
  {
    "osm_id": -3726189,
    "boundary": "administrative",
    "admin_level": 4,
    "parents": "-1473947",
    "name": "Qena Governorate",
    "local_name": "محافظة قنا",
    "name_en": "Qena Governorate",
    "all_tags": {
      "name": "محافظة قنا",
      "name:ar": "محافظة قنا",
      "name:de": "Gouvernement Qina",
      "name:en": "Qena Governorate",
      "name:eo": "Provinco Kina",
      "name:es": "Quena",
      "name:fr": "Gouvernorat de Qena",
      "name:hu": "Kina kormányzóság",
      "name:pl": "Muhafaza Kina",
      "name:ru": "мухафаза Кена",
      "boundary": "administrative",
      "way_area": "1.11124",
      "wikidata": "Q31065",
      "ISO3166-2": "EG-KN",
      "admin_level": "4"
    }
  },
  {
    "osm_id": -3726186,
    "boundary": "administrative",
    "admin_level": 4,
    "parents": "-1473947",
    "name": "Sohag Governorate",
    "local_name": "محافظة سوهاج",
    "name_en": "Sohag Governorate",
    "all_tags": {
      "name": "محافظة سوهاج",
      "name:ar": "محافظة سوهاج",
      "name:de": "Gouvernement Sauhadsch",
      "name:en": "Sohag Governorate",
      "name:es": "Gobernación de Sohag",
      "name:fr": "Gouvernorat de Sohag",
      "name:hu": "Szauhág kormányzóság",
      "name:ru": "мухафаза Сохаг",
      "boundary": "administrative",
      "way_area": "0.823948",
      "wikidata": "Q30669",
      "ISO3166-2": "EG-SHG",
      "admin_level": "4"
    }
  },
  {
    "osm_id": -3726184,
    "boundary": "administrative",
    "admin_level": 4,
    "parents": "-1473947",
    "name": "Asyut Governorate",
    "local_name": "أسيوط",
    "name_en": "Asyut Governorate",
    "all_tags": {
      "name": "أسيوط",
      "name:ar": "أسيوط",
      "name:de": "Gouvernement Asyut",
      "name:en": "Asyut Governorate",
      "name:eo": "Provinco Asjut",
      "name:fr": "Gouvernorat d'Assiout",
      "name:hu": "Assziut kormányzóság",
      "name:lt": "Asjuto muchafaza",
      "name:pl": "Muhafaza Asjut",
      "name:ru": "мухафаза Асьют",
      "boundary": "administrative",
      "way_area": "1.66374",
      "wikidata": "Q29965",
      "ISO3166-2": "EG-AST",
      "wikipedia": "ar:محافظة أسيوط",
      "admin_level": "4",
      "official_name": "محافظة أسيوط",
      "official_name:ar": "محافظة أسيوط"
    }
  },
  {
    "osm_id": -3726175,
    "boundary": "administrative",
    "admin_level": 4,
    "parents": "-1473947",
    "name": "Minya Governate",
    "local_name": "المنيا",
    "name_en": "Minya Governate",
    "all_tags": {
      "name": "المنيا",
      "name:ar": "المنيا",
      "name:de": "Minya",
      "name:en": "Minya Governate",
      "name:eo": "Provinco Fajum",
      "name:es": "Menia",
      "name:fr": "Gouvernorat de Minya",
      "name:hu": "el-Minja kormányzóság",
      "name:pl": "Muhafaza Fajum",
      "name:ru": "мухафаза Эль-Минья",
      "boundary": "administrative",
      "way_area": "2.68477",
      "wikidata": "Q30675",
      "ISO3166-2": "EG-MN",
      "wikipedia": "ar:محافظة المنيا",
      "admin_level": "4",
      "alt_name:ar": "منيا",
      "official_name": "محافظة المنيا",
      "official_name:ar": "محافظة المنيا"
    }
  },
  {
    "osm_id": -3726170,
    "boundary": "administrative",
    "admin_level": 4,
    "parents": "-1473947",
    "name": "Beni Suef Governorate",
    "local_name": "محافظة بنى سويف",
    "name_en": "Beni Suef Governorate",
    "all_tags": {
      "name": "محافظة بنى سويف",
      "name:ar": "محافظة بنى سويف",
      "name:de": "Beni Suef",
      "name:en": "Beni Suef Governorate",
      "name:es": "Beni Suef",
      "name:fr": "Gouvernorat de Beni Souef",
      "name:hu": "Bani Szuvajf kormányzóság",
      "name:ru": "мухафаза Бени-Суэйф",
      "boundary": "administrative",
      "way_area": "1.01717",
      "wikidata": "Q30683",
      "ISO3166-2": "EG-BNS",
      "admin_level": "4"
    }
  },
  {
    "osm_id": -3726124,
    "boundary": "administrative",
    "admin_level": 4,
    "parents": "-1473947",
    "name": "Faiyum Governorate",
    "local_name": "محافظة الفيوم",
    "name_en": "Faiyum Governorate",
    "all_tags": {
      "name": "محافظة الفيوم",
      "name:ar": "محافظة الفيوم",
      "name:de": "Faiyum",
      "name:en": "Faiyum Governorate",
      "name:es": "Fayún",
      "name:fr": "Gouvernorat du Fayoum",
      "name:hu": "el-Fajjúm kormányzóság",
      "name:ru": "мухафаза Файюм",
      "boundary": "administrative",
      "way_area": "0.528627",
      "wikidata": "Q30656",
      "ISO3166-2": "EG-FYM",
      "admin_level": "4"
    }
  },
  {
    "osm_id": -3584607,
    "boundary": "administrative",
    "admin_level": 4,
    "parents": "-1473947",
    "name": "Gharbiyya Governorate",
    "local_name": "محافظة الغربية",
    "name_en": "Gharbiyya Governorate",
    "all_tags": {
      "name": "محافظة الغربية",
      "name:ar": "محافظة الغربية",
      "name:de": "Gouvernement al-Gharbiyya",
      "name:en": "Gharbiyya Governorate",
      "name:es": "Occidental",
      "name:fr": "Gouvernorat de Gharbeya",
      "name:hu": "Nyugati kormányzóság",
      "name:ru": "мухафаза Гарбия",
      "boundary": "administrative",
      "int_name": "Al-Gharbiyya",
      "way_area": "0.173889",
      "wikidata": "Q30835",
      "ISO3166-2": "EG-GH",
      "admin_level": "4"
    }
  },
  {
    "osm_id": -3062185,
    "boundary": "administrative",
    "admin_level": 4,
    "parents": "-1473947",
    "name": "Suez Governorate",
    "local_name": "محافظة السويس",
    "name_en": "Suez Governorate",
    "all_tags": {
      "name": "محافظة السويس",
      "name:ar": "محافظة السويس",
      "name:de": "Gouvernement as-Suwais",
      "name:en": "Suez Governorate",
      "name:es": "Gobernación de Suez",
      "name:fr": "Gouvernorat de Suez",
      "name:hu": "Szuez kormányzóság",
      "name:ru": "мухафаза Суэц",
      "name:ur": "محافظہ سوئیز",
      "boundary": "administrative",
      "name:azb": "سوئز اوستانی",
      "way_area": "0.965911",
      "wikidata": "Q31070",
      "ISO3166-2": "EG-SUZ",
      "wikipedia": "ar:محافظة السويس",
      "admin_level": "4",
      "name:az-Arab": "سوئز اوستانی",
      "wikipedia:ar": "محافظة السويس",
      "wikipedia:es": "Gobernación de Suez"
    }
  },
  {
    "osm_id": -3062184,
    "boundary": "administrative",
    "admin_level": 4,
    "parents": "-1473947",
    "name": "Ismailia",
    "local_name": "الإسماعيلية",
    "name_en": "Ismailia",
    "all_tags": {
      "name": "الإسماعيلية",
      "name:ar": "الإسماعيلية",
      "name:de": "Ismailiya",
      "name:en": "Ismailia",
      "name:eo": "Ismailija",
      "name:fa": "اسماعیلیه",
      "name:fr": "Ismaïlia",
      "name:hu": "el-Iszmáilijja",
      "name:pl": "Ismailia",
      "name:ru": "мухафаза Исмаилия",
      "name:ur": "اسماعیلیہ",
      "boundary": "administrative",
      "name:azb": "اسماعیلیه",
      "name:pnb": "اسماعیلیہ",
      "way_area": "0.428178",
      "wikidata": "Q31067",
      "ISO3166-2": "EG-IS",
      "wikipedia": "ar:محافظة الإسماعيلية",
      "admin_level": "4",
      "alt_name:ar": "إسماعيلية",
      "official_name": "محافظة الإسماعيلية",
      "official_name:ar": "محافظة الإسماعيلية",
      "official_name:en": "Ismailia Governorate",
      "official_name:eo": "Provinco Ismailija",
      "official_name:fa": "استان اسماعیلیه",
      "official_name:fr": "Gouvernorat d'Ismaïlia",
      "official_name:hu": "el-Iszmáilijja kormányzóság",
      "official_name:pl": "Muhafaza Ismailia",
      "official_name:ur": "محافظہ اسماعیلیہ",
      "official_name:azb": "اسماعیلیه اوستانی",
      "official_name:pnb": "صوبہ اسماعیلیہ"
    }
  },
  {
    "osm_id": -3061846,
    "boundary": "administrative",
    "admin_level": 4,
    "parents": "-1473947",
    "name": "Alexandria Governorate",
    "local_name": "محافظة الإسكندرية",
    "name_en": "Alexandria Governorate",
    "all_tags": {
      "name": "محافظة الإسكندرية",
      "name:ar": "محافظة الإسكندرية",
      "name:de": "Gouvernement Alexandria",
      "name:en": "Alexandria Governorate",
      "name:fa": "استان اسکندریه",
      "name:fr": "Gouvernorat d'Alexandrie",
      "name:hu": "Alexandria kormányzóság",
      "name:ru": "мухафаза Александрия",
      "name:ur": "محافظہ اسکندریہ",
      "boundary": "administrative",
      "name:azb": "اسکندریه اوستانی",
      "name:pnb": "صوبہ اسکندریہ",
      "way_area": "0.395863",
      "wikidata": "Q29943",
      "ISO3166-2": "EG-ALX",
      "wikipedia": "ar:محافظة الإسكندرية",
      "admin_level": "4",
      "sorting_name": "الإسكندرية",
      "wikipedia:ar": "محافظة الإسكندرية",
      "sorting_name:ar": "الإسكندرية",
      "sorting_name:fa": "اسکندریه",
      "sorting_name:ps": "اسکندریه",
      "sorting_name:sd": "اسڪندريہ",
      "sorting_name:ur": "اسکندریہ",
      "sorting_name:arc": "ܐܠܟܣܢܕܪܝܐ",
      "sorting_name:azb": "ایسکندریه",
      "sorting_name:pnb": "اسکندریہ",
      "sorting_name:syc": "ܐܠܟܣܢܕܪܝܐ"
    }
  },
  {
    "osm_id": -3061827,
    "boundary": "administrative",
    "admin_level": 4,
    "parents": "-1473947",
    "name": "New Valley Governorate",
    "local_name": "الوادي الجديد",
    "name_en": "New Valley Governorate",
    "all_tags": {
      "name": "الوادي الجديد",
      "name:ar": "الوادي الجديد",
      "name:de": "Gouvernement Neues Tal",
      "name:en": "New Valley Governorate",
      "name:es": "Nuevo Valle",
      "name:fr": "Gouvernorat de la Nouvelle-Vallée",
      "name:hu": "Új völgy kormányzóság",
      "name:ru": "мухафаза Новая Долина",
      "boundary": "administrative",
      "way_area": "38.9217",
      "wikidata": "Q30650",
      "ISO3166-2": "EG-WAD",
      "wikipedia": "ar:محافظة الوادي الجديد",
      "admin_level": "4",
      "official_name": "محافظة الوادي الجديد",
      "official_name:ar": "محافظة الوادي الجديد"
    }
  },
  {
    "osm_id": -3061826,
    "boundary": "administrative",
    "admin_level": 4,
    "parents": "-1473947",
    "name": "Matrouh",
    "local_name": "مطروح",
    "name_en": "Matrouh",
    "all_tags": {
      "name": "مطروح",
      "name:ar": "مطروح",
      "name:de": "Matruh",
      "name:en": "Matrouh",
      "name:es": "Matrú",
      "name:fa": "مطروح",
      "name:fr": "Marsa-Matruh",
      "name:hu": "Matrúh",
      "name:ks": "مطروح",
      "name:ru": "Матрух",
      "name:ur": "مطروح",
      "boundary": "administrative",
      "way_area": "15.4695",
      "wikidata": "Q30682",
      "ISO3166-2": "EG-MT",
      "wikipedia": "ar:محافظة مطروح",
      "admin_level": "4",
      "official_name": "محافظة مطروح",
      "official_name:ar": "محافظة مطروح",
      "official_name:de": "Gouvernement Matruh",
      "official_name:en": "Matrouh Governorate",
      "official_name:fa": "استان مطروح",
      "official_name:fr": "Gouvernorat de Marsa-Matruh",
      "official_name:hu": "Matrúh kormányzóság",
      "official_name:ru": "мухафаза Матрух",
      "official_name:ur": "محافظہ مطروح"
    }
  },
  {
    "osm_id": -3061758,
    "boundary": "administrative",
    "admin_level": 4,
    "parents": "-1473947",
    "name": "Red Sea Governorate",
    "local_name": "البحر الأحمر",
    "name_en": "Red Sea Governorate",
    "all_tags": {
      "name": "البحر الأحمر",
      "name:ar": "البحر الأحمر",
      "name:de": "Gouvernement des Roten Meeres",
      "name:en": "Red Sea Governorate",
      "name:es": "Mar Rojo",
      "name:fr": "Gouvernorat de la Mer-Rouge",
      "name:hu": "Vörös-tenger kormányzóság",
      "name:lt": "Raudonosios Jūros muchafaza",
      "name:ru": "мухафаза Красное Море",
      "boundary": "administrative",
      "way_area": "14.1189",
      "wikidata": "Q30831",
      "ISO3166-2": "EG-BA",
      "wikipedia": "ar:محافظة البحر الأحمر",
      "admin_level": "4",
      "official_name": "محافظة البحر الأحمر",
      "official_name:ar": "محافظة البحر الأحمر"
    }
  },
  {
    "osm_id": -3061757,
    "boundary": "administrative",
    "admin_level": 4,
    "parents": "-1473947",
    "name": "Assouan",
    "local_name": "أسوان",
    "name_en": "Assouan",
    "all_tags": {
      "name": "أسوان",
      "name:ar": "أسوان",
      "name:de": "Assuan",
      "name:en": "Assouan",
      "name:es": "Asuán",
      "name:fa": "اسوان",
      "name:fr": "Assouan",
      "name:hu": "Asszuán",
      "name:pl": "Asuan",
      "name:ru": "мухафаза Асуан",
      "name:ur": "اسوان",
      "boundary": "administrative",
      "name:azb": "اسوان",
      "name:pnb": "اسوان",
      "way_area": "4.99299",
      "wikidata": "Q29937",
      "ISO3166-2": "EG-ASN",
      "wikipedia": "ar:محافظة أسوان",
      "admin_level": "4",
      "wikipedia:ar": "محافظة أسوان",
      "official_name": "محافظة أسوان",
      "official_name:ar": "محافظة أسوان",
      "official_name:fa": "استان اسوان",
      "official_name:ur": "محافظہ اسوان",
      "official_name:azb": "اسوان اوستانی",
      "official_name:pnb": "صوبہ اسوان"
    }
  },
  {
    "osm_id": -3060793,
    "boundary": "administrative",
    "admin_level": 4,
    "parents": "-1473947",
    "name": "South Sinai",
    "local_name": "جنوب سيناء",
    "name_en": "South Sinai",
    "all_tags": {
      "name": "جنوب سيناء",
      "name:ar": "جنوب سيناء",
      "name:de": "Südsinai",
      "name:en": "South Sinai",
      "name:es": "Sinaí del Sur",
      "name:fa": "سینای جنوبی",
      "name:fi": "Etelä-Siinai",
      "name:fr": "Sinaï Sud",
      "name:he": "דרום סיני",
      "name:nl": "Zuid-Sinaï",
      "name:ur": "جنوبی سینا",
      "boundary": "administrative",
      "name:azb": "جنوبی سینا",
      "name:lrc": "هارگه سینا",
      "way_area": "3.38741",
      "wikidata": "Q30815",
      "ISO3166-2": "EG-JS",
      "wikipedia": "ar:محافظة جنوب سيناء",
      "admin_level": "4",
      "name:az-Arab": "جنوبی سینا",
      "official_name": "محافظة جنوب سيناء",
      "official_name:ar": "محافظة جنوب سيناء",
      "official_name:de": "Gouvernement Südsinai",
      "official_name:en": "South Sinai Governorate",
      "official_name:es": "Gobernación de Sinaí del Sur",
      "official_name:et": "Lõuna-Siinai kubernerkond",
      "official_name:fa": "استان سینای جنوبی",
      "official_name:fr": "Gouvernorat du Sinaï Sud",
      "official_name:he": "נפת דרום סיני",
      "official_name:hu": "Dél-Sínai kormányzóság",
      "official_name:ka": "სამხრეთ სინის მუჰაფაზა",
      "official_name:kk": "Оңтүстік Синай провинциясының",
      "official_name:pl": "prowincja gubernatorska Synaj Południowy",
      "official_name:ru": "мухафаза Южный Синай",
      "official_name:sr": "Јужни Синај гувернорат",
      "official_name:uk": "Південний Синай губернаторство",
      "official_name:ur": "محافظہ جنوبی سینا",
      "official_name:azb": "جنوبی سینا اوستانی",
      "official_name:be-tarask": "мугафаза Паўднёвы Сынай"
    }
  },
  {
    "osm_id": -3060792,
    "boundary": "administrative",
    "admin_level": 4,
    "parents": "-1473947",
    "name": "North Sinai",
    "local_name": "شمال سيناء",
    "name_en": "North Sinai",
    "all_tags": {
      "name": "شمال سيناء",
      "name:ar": "شمال سيناء",
      "name:de": "Nordsinai",
      "name:en": "North Sinai",
      "name:es": "Sinaí del Norte",
      "name:fa": "سینای شمالی",
      "name:fi": "Porjois-Siinai",
      "name:fr": "Sinaï Nord",
      "name:he": "צפון סיני",
      "name:hu": "Észak-Sínai kormányzóság",
      "name:ur": "شمالی سینا",
      "boundary": "administrative",
      "name:azb": "قوزئی سینا",
      "name:pnb": "اتلا سینائی",
      "way_area": "2.99398",
      "wikidata": "Q30662",
      "ISO3166-2": "EG-SIN",
      "wikipedia": "ar:محافظة شمال سيناء",
      "admin_level": "4",
      "official_name": "محافظة شمال سيناء",
      "official_name:ar": "محافظة شمال سيناء",
      "official_name:de": "Gouvernement Nordsinai",
      "official_name:el": "Κυβερνείο Βόρειου Σινά",
      "official_name:en": "North Sinai Governorate",
      "official_name:fa": "استان سینای شمالی",
      "official_name:fr": "Gouvernorat du Sinaï Nord",
      "official_name:he": "נפת צפון סיני",
      "official_name:ru": "мухафаза Северный Синай",
      "official_name:ur": "محافظہ شمالی سینا",
      "official_name:azb": "قوزئی سینا اوستانی",
      "official_name:pnb": "صوبہ اتلا سینائی"
    }
  }
]
