[
  {
    "osm_id": -4610935,
    "boundary": "administrative",
    "admin_level": 4,
    "parents": "-296961",
    "name": "Southern Red Sea Region",
    "local_name": "ዞባ ደቡባዊ ቀይሕ ባሕሪ Southern Red Sea جنوب البحر الأحمر",
    "name_en": "Southern Red Sea Region",
    "all_tags": {
      "name": "ዞባ ደቡባዊ ቀይሕ ባሕሪ Southern Red Sea جنوب البحر الأحمر",
      "name:ar": "جنوب البحر الأحمر",
      "name:de": "Südliche Region des Roten Meeres",
      "name:en": "Southern Red Sea Region",
      "name:es": "Debubawi Keyih Bahri",
      "name:fa": "دریای سرخ جنوبی",
      "name:fr": "Debub-Keih-Bahri",
      "name:it": "Regione del Mar Rosso Meridionale",
      "name:ti": "ዞባ ደቡባዊ ቀይሕ ባሕሪ",
      "name:ur": "جنوبی بحیرہ احمر",
      "boundary": "administrative",
      "way_area": "2.75296",
      "wikidata": "Q27928",
      "ISO3166-2": "ER-DK",
      "admin_level": "4",
      "alt_name:ar": "البحر الأحمر الجنوبي;إقليم البحر الأحمر الجنوبي",
      "alt_name:ti": "ዞባ ደቡባዊ ቀይሕ ባሕሪ",
      "official_name": "إقليم جنوب البحر الأحمر",
      "official_name:ar": "إقليم جنوب البحر الأحمر",
      "official_name:fa": "منطقه دریای سرخ جنوبی",
      "official_name:ur": "جنوبی بحیرہ احمر علاقہ"
    }
  },
  {
    "osm_id": -4610926,
    "boundary": "administrative",
    "admin_level": 4,
    "parents": "-296961",
    "name": "Northen Red Sea Region",
    "local_name": "ዞባ ሰሜናዊ ቀይሕ ባሕሪ Northern Red Sea شمال البحر الأحمر",
    "name_en": "Northen Red Sea Region",
    "all_tags": {
      "name": "ዞባ ሰሜናዊ ቀይሕ ባሕሪ Northern Red Sea شمال البحر الأحمر",
      "name:ar": "شمال البحر الأحمر",
      "name:de": "Nördliche Region des Roten Meeres",
      "name:en": "Northen Red Sea Region",
      "name:es": "Semenawi Keyih Bahri",
      "name:fa": "دریای سرخ شمالی",
      "name:fr": "Semien-Keih-Bahri",
      "name:it": "Regione del Mar Rosso Settentrionale",
      "name:ti": "ዞባ ሰሜናዊ ቀይሕ ባሕሪ",
      "name:ur": "شمالی بحیرہ احمر",
      "boundary": "administrative",
      "way_area": "5.22134",
      "wikidata": "Q27910",
      "ISO3166-2": "ER-SK",
      "admin_level": "4",
      "alt_name:ar": "البحر الأحمر الشمالي;إقليم البحر الأحمر الشمالي",
      "official_name": "إقليم شمال البحر الأحمر",
      "official_name:ar": "إقليم شمال البحر الأحمر",
      "official_name:fa": "منطقه دریای سرخ شمالی",
      "official_name:ur": "شمالی بحیرہ احمر علاقہ"
    }
  },
  {
    "osm_id": -4610904,
    "boundary": "administrative",
    "admin_level": 4,
    "parents": "-296961",
    "name": "Maekel Region",
    "local_name": "ዞባ ማእከል Maekel zone المنطقة المركزية",
    "name_en": "Maekel Region",
    "all_tags": {
      "name": "ዞባ ማእከል Maekel zone المنطقة المركزية",
      "name:ar": "المنطقة المركزية",
      "name:de": "Maekel",
      "name:en": "Maekel Region",
      "name:es": "Maekel",
      "name:fa": "منطقه مرکزی",
      "name:fr": "Maekel",
      "name:it": "Regione Centrale",
      "name:ti": "ዞባ ማእከል",
      "name:ur": "مرکزی علاقہ",
      "boundary": "administrative",
      "way_area": "0.104211",
      "wikidata": "Q27710",
      "ISO3166-2": "ER-MA",
      "admin_level": "4",
      "alt_name:ar": "المقاطعة المركزية",
      "alt_name:ti": "ዞባ ማእከል",
      "wikipedia:ar": "المنطقة المركزية (إرتريا)"
    }
  },
  {
    "osm_id": -4610903,
    "boundary": "administrative",
    "admin_level": 4,
    "parents": "-296961",
    "name": "Debub Region",
    "local_name": "ዞባ ደቡብ Debub منطقة الجنوب",
    "name_en": "Debub Region",
    "all_tags": {
      "name": "ዞባ ደቡብ Debub منطقة الجنوب",
      "name:ar": "منطقة الجنوب",
      "name:de": "Debub",
      "name:en": "Debub Region",
      "name:es": "Debub",
      "name:fa": "منطقه جنوبی",
      "name:fr": "Debub",
      "name:it": "Regione del Sud",
      "name:no": "Region Sd",
      "name:ti": "ዞባ ደቡብ",
      "name:ur": "دیبوب علاقہ",
      "boundary": "administrative",
      "way_area": "0.803329",
      "wikidata": "Q27728",
      "ISO3166-2": "ER-DU",
      "wikipedia": "en:Southern Region (Eritrea)",
      "admin_level": "4",
      "alt_name:ti": "ዞባ ደቡብ"
    }
  },
  {
    "osm_id": -4605551,
    "boundary": "administrative",
    "admin_level": 4,
    "parents": "-296961",
    "name": "Gash-Barka",
    "local_name": "ጋሽ-ባርካ Gash-Barka القاش وبركة",
    "name_en": "Gash-Barka",
    "all_tags": {
      "name": "ጋሽ-ባርካ Gash-Barka القاش وبركة",
      "name:ar": "القاش وبركة",
      "name:de": "Gash-Barka",
      "name:en": "Gash-Barka",
      "name:es": "Gash-Barka",
      "name:fr": "Gash-Barka",
      "name:it": "Gasc-Barca",
      "name:ti": "ጋሽ-ባርካ",
      "boundary": "administrative",
      "way_area": "2.81198",
      "wikidata": "Q873012",
      "ISO3166-2": "ER-GB",
      "wikipedia": "en:Gash-Barka Region",
      "admin_level": "4",
      "alt_name:ar": "القاش وبركا;منطقة القاش وبركا;إقليم غاش-باركا",
      "official_name": "إقليم القاش وبركة",
      "official_name:ar": "إقليم القاش وبركة",
      "official_name:en": "Gash-Barka Region",
      "official_name:it": "Regione di Gasc-Barca"
    }
  },
  {
    "osm_id": -4605384,
    "boundary": "administrative",
    "admin_level": 4,
    "parents": "-296961",
    "name": "Anseba",
    "local_name": "ዞባ ዓንሰባ Anseba عنسبا",
    "name_en": "Anseba",
    "all_tags": {
      "name": "ዞባ ዓንሰባ Anseba عنسبا",
      "name:ar": "عنسبا",
      "name:de": "Anseba",
      "name:en": "Anseba",
      "name:es": "Anseba",
      "name:fr": "Anseba",
      "name:it": "Anseba",
      "name:ti": "ዞባ ዓንሰባ",
      "boundary": "administrative",
      "way_area": "1.78267",
      "wikidata": "Q569468",
      "ISO3166-2": "ER-AN",
      "wikipedia": "ar:إقليم أنسبا",
      "admin_level": "4",
      "alt_name:ti": "ዞባ ዓንሰባ",
      "wikipedia:ar": "إقليم أنسبا",
      "official_name": "منطقة عنسبا",
      "official_name:ar": "منطقة عنسبا",
      "official_name:en": "Anseba Region",
      "official_name:it": "Regione dell'Anseba"
    }
  }
]
