[
  {
    "osm_id": -1863380,
    "boundary": "administrative",
    "admin_level": 6,
    "parents": "-349050,-1311341",
    "name": "Cáceres",
    "local_name": "Cáceres",
    "name_en": null,
    "all_tags": {
      "name": "Cáceres",
      "name:ar": "قصرش",
      "name:be": "Касерэс",
      "name:ca": "Càceres",
      "name:el": "Κάθερες",
      "name:es": "Cáceres",
      "name:eu": "Caceres",
      "name:fa": "کاسرس",
      "name:lb": "Cáceres",
      "name:pt": "Cáceres",
      "name:ur": "کاکیریس",
      "boundary": "administrative",
      "name:ast": "Cáceres",
      "ref:nuts": "ES432",
      "way_area": "2.08639",
      "wikidata": "Q81977",
      "ISO3166-2": "ES-CC",
      "wikipedia": "es:Provincia de Cáceres",
      "ref:nuts:3": "ES432",
      "admin_level": "6",
      "alt_name:ar": "قشرش;كاثيريس;كاثيرس",
      "ine:provincia": "10",
      "official_name": "Provincia de Cáceres",
      "official_name:ar": "مقاطعة قصرش",
      "official_name:be": "Правінцыя Касерэс",
      "official_name:es": "Provincia de Cáceres",
      "official_name:pt": "Província de Cáceres"
    }
  },
  {
    "osm_id": -348987,
    "boundary": "administrative",
    "admin_level": 6,
    "parents": "-349041,-1311341",
    "name": "Zamora",
    "local_name": "Zamora",
    "name_en": null,
    "all_tags": {
      "name": "Zamora",
      "name:be": "Самора",
      "name:ca": "Zamora",
      "name:el": "Θαμόρα",
      "name:ru": "Самора",
      "boundary": "administrative",
      "ref:nuts": "ES419",
      "way_area": "1.14288",
      "wikidata": "Q71113",
      "ISO3166-2": "ES-ZA",
      "wikipedia": "es:Provincia de Zamora",
      "ref:nuts:3": "ES419",
      "admin_level": "6",
      "ine:provincia": "49",
      "official_name:be": "Правінцыя Самора"
    }
  },
  {
    "osm_id": -6930027,
    "boundary": "religious_administration",
    "admin_level": 4,
    "parents": "-1311341",
    "name": "Provincia Eclesiástica de Madrid",
    "local_name": "Provincia Eclesiástica de Madrid",
    "name_en": null,
    "all_tags": {
      "name": "Provincia Eclesiástica de Madrid",
      "boundary": "religious_administration",
      "religion": "christian",
      "way_area": "0.851611",
      "wikidata": "Q22992062",
      "wikipedia": "es:Provincia Eclesiástica de Madrid",
      "admin_level": "4",
      "denomination": "roman_catholic"
    }
  },
  {
    "osm_id": -349009,
    "boundary": "administrative",
    "admin_level": 6,
    "parents": "-349041,-1311341",
    "name": "Ávila",
    "local_name": "Ávila",
    "name_en": null,
    "all_tags": {
      "name": "Ávila",
      "name:ar": "آبلة",
      "name:be": "Авіла",
      "name:ca": "Àvila",
      "name:el": "Άβιλα",
      "name:es": "Ávila",
      "name:fa": "آبیلا",
      "name:pt": "Ávila",
      "name:ru": "Авила",
      "name:ur": "آبیلا",
      "boundary": "administrative",
      "ref:nuts": "ES411",
      "way_area": "0.856136",
      "wikidata": "Q55288",
      "ISO3166-2": "ES-AV",
      "wikipedia": "es:Provincia de Ávila",
      "ref:nuts:3": "ES411",
      "admin_level": "6",
      "alt_name:ar": "آبله;افيلا",
      "ine:provincia": "05",
      "official_name": "Provincia de Ávila",
      "official_name:ar": "مقاطعة آبلة",
      "official_name:be": "Правінцыя Авіла",
      "official_name:pt": "Província de Ávila"
    }
  },
  {
    "osm_id": -6426653,
    "boundary": "administrative",
    "admin_level": 6,
    "parents": "-6930027,-1311341",
    "name": "Community of Madrid",
    "local_name": "Comunidad de Madrid",
    "name_en": "Community of Madrid",
    "all_tags": {
      "name": "Comunidad de Madrid",
      "name:ar": "منطقة مدريد",
      "name:be": "Мадрыд",
      "name:ca": "Comunitat de Madrid",
      "name:de": "Autonome Gemeinschaft Madrid",
      "name:en": "Community of Madrid",
      "name:es": "Comunidad de Madrid",
      "name:fa": "بخش خودمختار مادرید",
      "name:fr": "Communauté de Madrid",
      "name:hu": "Madrid közösség",
      "name:pl": "Wspólnota Madrytu",
      "name:pt": "Comunidade de Madrid",
      "name:ru": "Мадрид",
      "name:ur": "میدرد کمیونٹی",
      "boundary": "administrative",
      "ref:nuts": "ES300",
      "way_area": "0.852824",
      "wikidata": "Q5756",
      "ISO3166-2": "ES-M",
      "idee:name": "Madrid, Comunidad de",
      "wikipedia": "es:Comunidad de Madrid",
      "ref:nuts:3": "ES300",
      "admin_level": "6",
      "border_type": "province",
      "ine:provincia": "28",
      "official_name": "Comunidad de Madrid",
      "official_name:ar": "منطقة مدريد",
      "official_name:es": "Comunidad de Madrid"
    }
  },
  {
    "osm_id": -348986,
    "boundary": "administrative",
    "admin_level": 6,
    "parents": "-349036,-1311341",
    "name": "Pontevedra",
    "local_name": "Pontevedra",
    "name_en": null,
    "all_tags": {
      "name": "Pontevedra",
      "place": "province",
      "name:ar": "بونتيفيدرا",
      "name:be": "Пантэведра",
      "name:ca": "Pontevedra",
      "name:es": "Pontevedra",
      "name:gl": "Pontevedra",
      "name:pt": "Pontevedra",
      "name:ru": "Понтеведра",
      "boundary": "administrative",
      "ref:nuts": "ES114",
      "way_area": "0.491611",
      "wikidata": "Q95086",
      "ISO3166-2": "ES-PO",
      "wikipedia": "es:Provincia de Pontevedra",
      "ref:nuts:3": "ES114",
      "admin_level": "6",
      "ine:provincia": "36",
      "official_name": "Provincia de Pontevedra",
      "official_name:ar": "مقاطعة بونتيفيدرا",
      "official_name:be": "Правінцыя Пантэведра",
      "official_name:gl": "Provincia de Pontevedra"
    }
  },
  {
    "osm_id": -349014,
    "boundary": "administrative",
    "admin_level": 6,
    "parents": "-349048,-1311341",
    "name": "Santa Cruz de Tenerife",
    "local_name": "Santa Cruz de Tenerife",
    "name_en": null,
    "all_tags": {
      "name": "Santa Cruz de Tenerife",
      "name:ar": "سانتا كروث دي تينيريفه",
      "name:be": "Санта-Крус-дэ-Тэнэрыфэ",
      "name:ca": "Santa Cruz de Tenerife",
      "name:el": "Σαντα Κρουθ δε Τενερίφε",
      "name:fr": "Santa Cruz de Ténérife",
      "name:lt": "Tenerifės Santa Krusas",
      "name:ru": "Санта-Крус-де-Тенерифе",
      "name:zh": "圣克鲁斯-德特内里费省",
      "boundary": "administrative",
      "way_area": "0.31071",
      "wikidata": "Q99976",
      "ISO3166-2": "ES-TF",
      "wikipedia": "es:Provincia de Santa Cruz de Tenerife",
      "admin_level": "6",
      "ine:provincia": "38"
    }
  },
  {
    "osm_id": -349017,
    "boundary": "administrative",
    "admin_level": 6,
    "parents": "-349044,-1311341",
    "name": "Cádiz",
    "local_name": "Cádiz",
    "name_en": "Cádiz",
    "all_tags": {
      "name": "Cádiz",
      "name:ar": "قادس",
      "name:be": "Кадыс",
      "name:ca": "Cadis",
      "name:de": "Cádiz",
      "name:el": "Κάδιθ",
      "name:en": "Cádiz",
      "name:es": "Cádiz",
      "name:eu": "Cadiz",
      "name:fr": "Cadix",
      "name:pl": "Kadyks",
      "name:pt": "Cádiz",
      "name:ru": "Кадис",
      "name:zh": "加的斯省",
      "boundary": "administrative",
      "ref:nuts": "ES612",
      "way_area": "0.748677",
      "wikidata": "Q81978",
      "ISO3166-2": "ES-CA",
      "wikipedia": "es:Provincia de Cádiz",
      "ref:nuts:3": "ES612",
      "admin_level": "6",
      "ine:provincia": "11",
      "official_name": "Provincia de Cádiz",
      "official_name:ar": "منطقة قادس",
      "official_name:be": "Правінцыя Кадыс",
      "official_name:de": "Provinz Cádiz",
      "official_name:en": "Province of Cádiz",
      "official_name:es": "Provincia de Cádiz",
      "official_name:fr": "Province de Cadix",
      "official_name:pt": "Província de Santander"
    }
  },
  {
    "osm_id": -348995,
    "boundary": "administrative",
    "admin_level": 6,
    "parents": "-349044,-1311341",
    "name": "Huelva",
    "local_name": "Huelva",
    "name_en": null,
    "all_tags": {
      "name": "Huelva",
      "name:ar": "ولبة",
      "name:be": "Уэльва",
      "name:ca": "Huelva",
      "name:el": "Ουέλβα",
      "name:fr": "Huelva",
      "name:ru": "Уэльва",
      "boundary": "administrative",
      "ref:nuts": "ES615",
      "way_area": "1.03348",
      "wikidata": "Q95015",
      "ISO3166-2": "ES-H",
      "wikipedia": "es:Provincia de Huelva",
      "ref:nuts:3": "ES615",
      "admin_level": "6",
      "alt_name:ar": "هيوليفا;ولفا",
      "ine:provincia": "21",
      "official_name:be": "Правінцыя Уэльва",
      "official_name:es": "Provincia de Huelva"
    }
  },
  {
    "osm_id": -348994,
    "boundary": "administrative",
    "admin_level": 6,
    "parents": "-349050,-1311341",
    "name": "Badajoz",
    "local_name": "Badajoz",
    "name_en": "Badajoz",
    "all_tags": {
      "name": "Badajoz",
      "name:ar": "بطليوس",
      "name:be": "Бадахас",
      "name:ca": "Badajoz",
      "name:de": "Badajoz",
      "name:el": "Μπαδαχόθ",
      "name:en": "Badajoz",
      "name:eo": "Badaĥozo",
      "name:es": "Badajoz",
      "name:eu": "Badajoz",
      "name:fa": "باداخوس",
      "name:fr": "Badajoz",
      "name:gl": "Badaxoz",
      "name:ja": "バダホス",
      "name:ko": "바다호스",
      "name:pt": "Badajoz",
      "name:ru": "Бадахос",
      "name:sr": "Бадахоз",
      "name:uk": "Бадахос",
      "name:ur": "بطليوس",
      "name:zh": "巴達霍斯",
      "boundary": "administrative",
      "name:ast": "Badaxoz",
      "name:ext": "Baajós",
      "ref:nuts": "ES431",
      "way_area": "2.25474",
      "wikidata": "Q81803",
      "ISO3166-2": "ES-BA",
      "wikipedia": "es:Provincia de Badajoz",
      "ref:nuts:3": "ES431",
      "admin_level": "6",
      "alt_name:ar": "باداخوز",
      "ine:provincia": "06",
      "official_name:be": "Правінцыя Бадахас"
    }
  },
  {
    "osm_id": -5275848,
    "boundary": "administrative",
    "admin_level": 6,
    "parents": "-349044,-1311341",
    "name": "Malaga",
    "local_name": "Málaga",
    "name_en": "Malaga",
    "all_tags": {
      "name": "Málaga",
      "name:ar": "مالقة",
      "name:be": "Малага",
      "name:el": "Μάλαγα",
      "name:en": "Malaga",
      "name:es": "Málaga",
      "name:fi": "Malaga",
      "name:fr": "Malaga",
      "boundary": "administrative",
      "ref:nuts": "ES617",
      "way_area": "0.738095",
      "wikidata": "Q95028",
      "ISO3166-2": "ES-MA",
      "wikipedia": "es:Provincia de Málaga",
      "ref:nuts:3": "ES617",
      "admin_level": "6",
      "ine:provincia": "29",
      "official_name:be": "Правінцыя Малага",
      "official_name:es": "Málaga"
    }
  },
  {
    "osm_id": -349008,
    "boundary": "administrative",
    "admin_level": 6,
    "parents": "-349044,-1311341",
    "name": "Sevilla",
    "local_name": "Sevilla",
    "name_en": null,
    "all_tags": {
      "name": "Sevilla",
      "name:ar": "إشبيلية",
      "name:be": "Севілья",
      "name:ca": "Sevilla",
      "name:el": "Σεβίλλη",
      "name:es": "Sevilla",
      "name:fr": "Séville",
      "name:gl": "Sevilla",
      "name:ru": "Севилья",
      "boundary": "administrative",
      "ref:nuts": "ES618",
      "way_area": "1.42893",
      "wikidata": "Q95088",
      "ISO3166-2": "ES-SE",
      "wikipedia": "es:Provincia de Sevilla",
      "ref:nuts:3": "ES618",
      "admin_level": "6",
      "alt_name:ar": "سيفيلا",
      "alt_name:gl": "Sevilha",
      "ine:provincia": "41",
      "official_name:ar": "مقاطعة إشبيلية",
      "official_name:be": "Правінцыя Севілья",
      "official_name:es": "Provincia de Sevilla"
    }
  },
  {
    "osm_id": -349044,
    "boundary": "administrative",
    "admin_level": 4,
    "parents": "-1311341",
    "name": "Andalusia",
    "local_name": "Andalucía",
    "name_en": "Andalusia",
    "all_tags": {
      "name": "Andalucía",
      "name:ar": "أندلوسيا",
      "name:be": "Андалусія",
      "name:ca": "Andalusia",
      "name:cs": "Andalusie",
      "name:de": "Andalusien",
      "name:el": "Ανδαλουσία",
      "name:en": "Andalusia",
      "name:es": "Andalucía",
      "name:eu": "Andaluzia",
      "name:fi": "Andalucia",
      "name:fr": "Andalousie",
      "name:hr": "Andaluzija",
      "name:hu": "Andalúzia",
      "name:is": "Andalúsía",
      "name:ja": "アンダルシア州",
      "name:lt": "Andalūzija",
      "name:nl": "Andalusië",
      "name:pl": "Andaluzja",
      "name:pt": "Andaluzia",
      "name:ru": "Андалусия",
      "name:sk": "Andalúzia",
      "name:sv": "Andalusien",
      "name:zh": "安达鲁西亚",
      "boundary": "administrative",
      "ine:ccaa": "01",
      "ref:nuts": "ES61",
      "way_area": "8.92232",
      "wikidata": "Q5783",
      "ISO3166-2": "ES-AN",
      "wikipedia": "es:Andalucía",
      "ref:nuts:2": "ES61",
      "admin_level": "4",
      "border_type": "region",
      "official_name": "Andalucía"
    }
  },
  {
    "osm_id": -349026,
    "boundary": "administrative",
    "admin_level": 6,
    "parents": "-349044,-1311341",
    "name": "Granada",
    "local_name": "Granada",
    "name_en": null,
    "all_tags": {
      "name": "Granada",
      "name:ar": "غرناطة",
      "name:be": "Гранада",
      "name:ca": "Granada",
      "name:el": "Γρανάδα",
      "name:fr": "Grenade",
      "name:pt": "Granada",
      "name:ru": "Гранада",
      "boundary": "administrative",
      "ref:nuts": "ES614",
      "way_area": "1.2857",
      "wikidata": "Q82142",
      "ISO3166-2": "ES-GR",
      "wikipedia": "es:Provincia de Granada",
      "ref:nuts:3": "ES614",
      "admin_level": "6",
      "ine:provincia": "18",
      "official_name:be": "Правінцыя Гранада",
      "official_name:es": "Provincia de Granada"
    }
  },
  {
    "osm_id": -348998,
    "boundary": "administrative",
    "admin_level": 6,
    "parents": "-349044,-1311341",
    "name": "Jaén",
    "local_name": "Jaén",
    "name_en": null,
    "all_tags": {
      "name": "Jaén",
      "name:ar": "خاين",
      "name:be": "Хаэн",
      "name:ca": "Jaén",
      "name:el": "Χαέν",
      "name:eu": "Jaen",
      "name:fr": "Jaén",
      "name:ru": "Хаэн",
      "boundary": "administrative",
      "ref:nuts": "ES616",
      "way_area": "1.38466",
      "wikidata": "Q95025",
      "ISO3166-2": "ES-J",
      "wikipedia": "es:Provincia de Jaén (España)",
      "ref:nuts:3": "ES616",
      "admin_level": "6",
      "ine:provincia": "23",
      "official_name:be": "Правінцыя Хаэн",
      "official_name:es": "Provincia de Jaén"
    }
  },
  {
    "osm_id": -349019,
    "boundary": "administrative",
    "admin_level": 6,
    "parents": "-349052,-1311341",
    "name": "Ciudad Real",
    "local_name": "Ciudad Real",
    "name_en": null,
    "all_tags": {
      "name": "Ciudad Real",
      "name:ar": "ثيوداد ريال",
      "name:be": "Сьюдад-Рэаль",
      "name:ca": "Ciudad Real",
      "name:eu": "Ciudad Real",
      "name:ru": "Сьюдад-Реаль",
      "boundary": "administrative",
      "ref:nuts": "ES422",
      "way_area": "2.05837",
      "wikidata": "Q54932",
      "ISO3166-2": "ES-CR",
      "wikipedia": "es:Provincia de Ciudad Real",
      "ref:nuts:3": "ES422",
      "admin_level": "6",
      "alt_name:ar": "سيوداد ريال",
      "ine:provincia": "13",
      "official_name:be": "Правінцыя Сьюдад-Рэаль"
    }
  },
  {
    "osm_id": -348997,
    "boundary": "administrative",
    "admin_level": 6,
    "parents": "-349044,-1311341",
    "name": "Almeria",
    "local_name": "Almería",
    "name_en": "Almeria",
    "all_tags": {
      "name": "Almería",
      "name:ar": "ألمرية",
      "name:be": "Альмерыя",
      "name:ca": "Almeria",
      "name:de": "Almería",
      "name:el": "Αλμερία",
      "name:en": "Almeria",
      "name:eu": "Almeria",
      "name:fr": "Alméria",
      "name:ja": "アルメリア",
      "name:oc": "Almeria",
      "name:pt": "Almeria",
      "name:ru": "Альмерия",
      "name:sr": "Алмерија",
      "boundary": "administrative",
      "name:ext": "Almeria",
      "ref:nuts": "ES611",
      "way_area": "0.890538",
      "wikidata": "Q81802",
      "ISO3166-2": "ES-AL",
      "wikipedia": "es:Provincia de Almería",
      "ref:nuts:3": "ES611",
      "admin_level": "6",
      "alt_name:ar": "الميريا",
      "ine:provincia": "04",
      "official_name:ar": "منطقة ألمرية",
      "official_name:be": "Правінцыя Альмерыя",
      "official_name:es": "Provincia de Almería"
    }
  },
  {
    "osm_id": -348989,
    "boundary": "administrative",
    "admin_level": 6,
    "parents": "-349052,-1311341",
    "name": "Albacete",
    "local_name": "Albacete",
    "name_en": null,
    "all_tags": {
      "name": "Albacete",
      "name:ar": "البسيط",
      "name:be": "Альбасетэ",
      "name:ca": "Albacete",
      "name:ru": "Альбасете",
      "boundary": "administrative",
      "ref:nuts": "ES421",
      "way_area": "1.5482",
      "wikidata": "Q54889",
      "ISO3166-2": "ES-AB",
      "wikipedia": "es:Provincia de Albacete",
      "ref:nuts:3": "ES421",
      "admin_level": "6",
      "ine:provincia": "02",
      "official_name": "Provincia de Albacete",
      "official_name:ar": "مقاطعة البسيط",
      "official_name:be": "Правінцыя Альбасетэ"
    }
  },
  {
    "osm_id": -13590752,
    "boundary": "healthcare",
    "admin_level": 6,
    "parents": "-349043,-1311341",
    "name": "Departament de Salut de Dénia",
    "local_name": "Departament de Salut de Dénia",
    "name_en": null,
    "all_tags": {
      "name": "Departament de Salut de Dénia",
      "name:ca": "Departament de Salut de Dénia",
      "name:es": "Departamento de Salud de Dénia",
      "website": "https://www.marinasalud.es/atencion-primaria/",
      "boundary": "healthcare",
      "operator": "Marina Salud",
      "way_area": "0.0762921",
      "admin_level": "6",
      "operator:type": "private"
    }
  },
  {
    "osm_id": -349043,
    "boundary": "administrative",
    "admin_level": 4,
    "parents": "-1311341",
    "name": "Valencian Community",
    "local_name": "Comunitat Valenciana",
    "name_en": "Valencian Community",
    "all_tags": {
      "name": "Comunitat Valenciana",
      "place": "state",
      "name:ar": "منطقة بلنسية",
      "name:be": "Валенсія",
      "name:ca": "Comunitat Valenciana",
      "name:cs": "Valencijské společenství",
      "name:de": "Valencianische Gemeinschaft",
      "name:en": "Valencian Community",
      "name:es": "Comunidad Valenciana",
      "name:fr": "Communauté Valencienne",
      "name:hu": "Valencia közösség",
      "name:is": "Sjálfstjórnarhéraðið Valensía",
      "name:ja": "バレンシア州",
      "name:lt": "Valensijos regionas",
      "name:nl": "Valencia",
      "name:pl": "Wspólnota Walencka",
      "name:pt": "Comunidade Valenciana",
      "name:ru": "Валенсия",
      "name:sk": "Valencijské spoločenstvo",
      "alt_name": "País Valencià",
      "boundary": "administrative",
      "ine:ccaa": "10",
      "old_name": "Regne de València",
      "ref:nuts": "ES52",
      "way_area": "2.43314",
      "wikidata": "Q5720",
      "ISO3166-2": "ES-VC",
      "wikipedia": "es:Comunidad Valenciana",
      "ref:nuts:2": "ES52",
      "admin_level": "4",
      "alt_name:ca": "País Valencià",
      "border_type": "region",
      "short_name:cs": "Valencie",
      "official_name:ar": "منطقة بلنسية",
      "official_name:be": "Валенсійская супольнасць",
      "official_name:ca": "Comunitat Valenciana",
      "official_name:es": "Comunidad Valenciana"
    }
  },
  {
    "osm_id": -348988,
    "boundary": "administrative",
    "admin_level": 6,
    "parents": "-349036,-1311341",
    "name": "Ourense",
    "local_name": "Ourense",
    "name_en": "Ourense",
    "all_tags": {
      "name": "Ourense",
      "place": "province",
      "capital": "6",
      "name:ar": "أورنسي",
      "name:be": "Арэнсэ",
      "name:ca": "Ourense",
      "name:de": "Ourense",
      "name:en": "Ourense",
      "name:es": "Orense",
      "name:fr": "Ourense",
      "name:gl": "Ourense",
      "name:ja": "オウレンセ",
      "name:pt": "Ourense",
      "name:ru": "Оцренсе",
      "name:sr": "Оцренсе",
      "boundary": "administrative",
      "name:ast": "Ourense",
      "name:mwl": "Ourense",
      "ref:nuts": "ES113",
      "way_area": "0.792877",
      "wikidata": "Q95038",
      "ISO3166-2": "ES-OR",
      "idee:name": "Ourense",
      "wikipedia": "gl:Provincia de Ourense",
      "ref:nuts:3": "ES113",
      "admin_level": "6",
      "border_type": "province",
      "ine:provincia": "32",
      "official_name": "Provincia de Ourense",
      "official_name:ar": "مقاطعة أورنسي",
      "official_name:be": "Правінцыя Арэнсэ",
      "official_name:ca": "Província d'Ourense",
      "official_name:es": "Provincia de Ourense",
      "official_name:gl": "Provincia de Ourense"
    }
  },
  {
    "osm_id": -348992,
    "boundary": "administrative",
    "admin_level": 6,
    "parents": "-349036,-1311341",
    "name": "Lugo",
    "local_name": "Lugo",
    "name_en": null,
    "all_tags": {
      "name": "Lugo",
      "place": "province",
      "name:ar": "لوغو",
      "name:be": "Луга",
      "name:ca": "Lugo",
      "name:pt": "Lugo",
      "name:ru": "Луго",
      "boundary": "administrative",
      "ref:nuts": "ES112",
      "way_area": "1.08833",
      "wikidata": "Q95027",
      "ISO3166-2": "ES-LU",
      "wikipedia": "gl:Lugo",
      "ref:nuts:3": "ES112",
      "admin_level": "6",
      "alt_name:ar": "لوجو",
      "addr:country": "ES",
      "ine:provincia": "27",
      "official_name": "Provincia de Lugo",
      "official_name:ar": "مقاطعة لوغو",
      "official_name:be": "Правінцыя Луга",
      "official_name:pt": "Província de Lugo"
    }
  },
  {
    "osm_id": -349033,
    "boundary": "administrative",
    "admin_level": 4,
    "parents": "-1311341",
    "name": "Asturias",
    "local_name": "Asturias / Asturies",
    "name_en": "Asturias",
    "all_tags": {
      "name": "Asturias / Asturies",
      "name:af": "Asturië",
      "name:am": "አስቱርያስ",
      "name:ar": "أستورياس",
      "name:az": "Asturiya",
      "name:be": "Астурыя",
      "name:bg": "Астурия",
      "name:bn": "আস্তুরিয়াস",
      "name:br": "Asturiez",
      "name:bs": "Asturija",
      "name:ca": "Astúries",
      "name:cs": "Asturie",
      "name:cy": "Asturias",
      "name:da": "Asturien",
      "name:de": "Asturien",
      "name:el": "Αστούριες",
      "name:en": "Asturias",
      "name:eo": "Asturio",
      "name:es": "Asturias",
      "name:et": "Astuuria",
      "name:eu": "Asturias",
      "name:fa": "آستوریاس",
      "name:fi": "Asturia",
      "name:fr": "Asturies",
      "name:fy": "Astuerje",
      "name:ga": "Asturias",
      "name:gd": "Asturias",
      "name:gl": "Asturias",
      "name:gn": "Asturias",
      "name:he": "אסטוריאס",
      "name:hi": "आस्तुरियास",
      "name:hr": "Asturija",
      "name:ht": "Asturies",
      "name:hu": "Asztúria",
      "name:hy": "Աստուրիա",
      "name:ia": "Asturias",
      "name:id": "Asturias",
      "name:io": "Asturia",
      "name:is": "Astúría",
      "name:it": "Asturie",
      "name:ja": "アストゥリアス州",
      "name:jv": "Asturias",
      "name:ka": "ასტურია",
      "name:kk": "Астурия",
      "name:ko": "아스투리아스",
      "name:kw": "Asturya",
      "name:la": "Asturiae",
      "name:lb": "Asturien",
      "name:li": "Asturië",
      "name:lt": "Astūrija",
      "name:lv": "Astūrija",
      "name:mi": "Asturias",
      "name:mk": "Астурија",
      "name:mn": "Астур",
      "name:mr": "आस्तुरियास",
      "name:ms": "Asturias",
      "name:nl": "Asturië",
      "name:nn": "Asturias",
      "name:no": "Asturias",
      "name:oc": "Astúrias",
      "name:os": "Астури",
      "name:pl": "Asturia",
      "name:pt": "Astúrias",
      "name:ro": "Asturia",
      "name:ru": "Астурия",
      "name:sc": "Astùrias",
      "name:se": "Asturia",
      "name:sh": "Asturija",
      "name:sk": "Astúria",
      "name:sq": "Asturia",
      "name:sr": "Астурија",
      "name:sv": "Asturien",
      "name:ta": "ஆதூரியா",
      "name:th": "อัสตูเรียส",
      "name:tl": "Asturias",
      "name:tr": "Asturias",
      "name:uk": "Астурія",
      "name:ur": "آستوریاس",
      "name:uz": "Asturiya",
      "name:vi": "Asturias",
      "name:yi": "אסטוריאס",
      "name:zh": "阿斯圖里亞斯",
      "website": "https://www.asturias.es/",
      "boundary": "administrative",
      "ine:ccaa": "03",
      "name:ast": "Asturies",
      "name:azb": "آستوریاس",
      "name:ceb": "Asturias",
      "name:ckb": "ئاستۆریاس",
      "name:ext": "Asturias",
      "name:frp": "Asturies",
      "name:frr": "Astuurien",
      "name:hak": "Asturias",
      "name:kbd": "Астуриэ",
      "name:krc": "Астурия",
      "name:lad": "Asturias",
      "name:lfn": "Asturias",
      "name:lij": "Asturias",
      "name:lzh": "阿斯圖里亞斯",
      "name:mrj": "Астурвлӓ",
      "name:mwl": "Stúrias",
      "name:nan": "Asturias",
      "name:nov": "Asturias",
      "name:pam": "Asturias",
      "name:pms": "Asturie",
      "name:pnb": "استوریا",
      "name:scn": "Asturi",
      "name:sco": "Asturias",
      "name:vec": "Asturie",
      "name:war": "Asturias",
      "name:yue": "阿斯圖里亞斯",
      "ref:nuts": "ES12",
      "way_area": "1.17506",
      "wikidata": "Q3934",
      "ISO3166-2": "ES-AS",
      "wikipedia": "es:Asturias",
      "ref:nuts:2": "ES12",
      "admin_level": "4",
      "border_type": "region",
      "official_name:ar": "منطقة أستورياس",
      "official_name:be": "Астурыйскае княства",
      "official_name:ca": "Principat d'Astúries",
      "official_name:de": "Fürstentum Asturien",
      "official_name:en": "Principality of Asturias",
      "official_name:es": "Principado de Asturias",
      "official_name:eu": "Asturiasko Printzerria",
      "official_name:fr": "Principauté des Asturies",
      "official_name:gd": "Prionnsachd Asturias",
      "official_name:gl": "Principado de Asturias",
      "official_name:hu": "Asztúriai Hercegség",
      "official_name:ia": "Principato de Asturias",
      "official_name:ja": "アストゥリアス州",
      "official_name:ko": "아스투리아스 지방",
      "official_name:mn": "Астур муж",
      "official_name:pl": "Księstwo Asturii",
      "official_name:pt": "Principado das Astúrias",
      "official_name:ru": "Астурийское княжество",
      "official_name:se": "Asturia eanangoddi",
      "official_name:sr": "Кнежевина Астурија",
      "official_name:th": "ราชรัฐอัสตูเรียส",
      "official_name:uk": "Князі́вство Асту́рія",
      "official_name:zh": "阿斯图里亚斯公国",
      "official_name:ast": "Principáu d'Asturies",
      "official_name:ext": "Prencipau d'Astúrias",
      "official_name:nan": "Asturias Thâu-lâng-kok",
      "official_name:war": "Principado de Asturias",
      "official_name:yue": "阿斯圖里亞斯公國"
    }
  },
  {
    "osm_id": -6428094,
    "boundary": "administrative",
    "admin_level": 6,
    "parents": "-349033,-1311341",
    "name": "Asturias",
    "local_name": "Asturias / Asturies",
    "name_en": "Asturias",
    "all_tags": {
      "name": "Asturias / Asturies",
      "name:af": "Asturië",
      "name:am": "አስቱርያስ",
      "name:ar": "أستورياس",
      "name:az": "Asturiya",
      "name:be": "Астурыя",
      "name:bg": "Астурия",
      "name:bn": "আস্তুরিয়াস",
      "name:br": "Asturiez",
      "name:bs": "Asturija",
      "name:ca": "Astúries",
      "name:cs": "Asturie",
      "name:cy": "Asturias",
      "name:da": "Asturien",
      "name:de": "Asturien",
      "name:el": "Αστούριες",
      "name:en": "Asturias",
      "name:eo": "Asturio",
      "name:es": "Asturias",
      "name:et": "Astuuria",
      "name:eu": "Asturias",
      "name:fa": "آستوریاس",
      "name:fi": "Asturia",
      "name:fr": "Asturies",
      "name:fy": "Astuerje",
      "name:ga": "Asturias",
      "name:gd": "Asturias",
      "name:gl": "Asturias",
      "name:gn": "Asturias",
      "name:he": "אסטוריאס",
      "name:hi": "आस्तुरियास",
      "name:hr": "Asturija",
      "name:ht": "Asturies",
      "name:hu": "Asztúria",
      "name:hy": "Աստուրիա",
      "name:ia": "Asturias",
      "name:id": "Asturias",
      "name:io": "Asturia",
      "name:is": "Astúría",
      "name:it": "Asturie",
      "name:ja": "アストゥリアス州",
      "name:jv": "Asturias",
      "name:ka": "ასტურია",
      "name:kk": "Астурия",
      "name:ko": "아스투리아스",
      "name:kw": "Asturya",
      "name:la": "Asturiae",
      "name:lb": "Asturien",
      "name:li": "Asturië",
      "name:lt": "Astūrija",
      "name:lv": "Astūrija",
      "name:mi": "Asturias",
      "name:mk": "Астурија",
      "name:mn": "Астур",
      "name:mr": "आस्तुरियास",
      "name:ms": "Asturias",
      "name:nl": "Asturië",
      "name:nn": "Asturias",
      "name:no": "Asturias",
      "name:oc": "Astúrias",
      "name:os": "Астури",
      "name:pl": "Asturia",
      "name:pt": "Astúrias",
      "name:ro": "Asturia",
      "name:ru": "Астурия",
      "name:sc": "Astùrias",
      "name:se": "Asturia",
      "name:sh": "Asturija",
      "name:sk": "Astúria",
      "name:sq": "Asturia",
      "name:sr": "Астурија",
      "name:sv": "Asturien",
      "name:ta": "ஆதூரியா",
      "name:th": "อัสตูเรียส",
      "name:tl": "Asturias",
      "name:tr": "Asturias",
      "name:uk": "Астурія",
      "name:ur": "آستوریاس",
      "name:uz": "Asturiya",
      "name:vi": "Asturias",
      "name:yi": "אסטוריאס",
      "name:zh": "阿斯圖里亞斯",
      "boundary": "administrative",
      "name:ast": "Asturies",
      "name:azb": "آستوریاس",
      "name:ceb": "Asturias",
      "name:ckb": "ئاستۆریاس",
      "name:ext": "Asturias",
      "name:frp": "Asturies",
      "name:frr": "Astuurien",
      "name:hak": "Asturias",
      "name:kbd": "Астуриэ",
      "name:krc": "Астурия",
      "name:lad": "Asturias",
      "name:lfn": "Asturias",
      "name:lij": "Asturias",
      "name:lzh": "阿斯圖里亞斯",
      "name:mrj": "Астурвлӓ",
      "name:mwl": "Stúrias",
      "name:nan": "Asturias",
      "name:nov": "Asturias",
      "name:pam": "Asturias",
      "name:pms": "Asturie",
      "name:pnb": "استوریا",
      "name:scn": "Asturi",
      "name:sco": "Asturias",
      "name:vec": "Asturie",
      "name:war": "Asturias",
      "name:yue": "阿斯圖里亞斯",
      "ref:nuts": "ES120",
      "way_area": "1.17505",
      "wikidata": "Q24004403",
      "ISO3166-2": "ES-O",
      "wikipedia": "es:Asturias",
      "ref:nuts:3": "ES120",
      "admin_level": "6",
      "border_type": "province",
      "ine:provincia": "33"
    }
  },
  {
    "osm_id": -348982,
    "boundary": "administrative",
    "admin_level": 6,
    "parents": "-349052,-1311341",
    "name": "Toledo",
    "local_name": "Toledo",
    "name_en": null,
    "all_tags": {
      "name": "Toledo",
      "name:ar": "طليطلة",
      "name:be": "Таледа",
      "name:ca": "Toledo",
      "name:el": "Τολέδο",
      "name:eu": "Toledo",
      "name:fr": "Tolède",
      "name:ko": "톨레도",
      "name:la": "Toletum",
      "name:lt": "Toledas",
      "name:pt": "Toledo",
      "name:ru": "Толедо",
      "name:uk": "Толедо",
      "boundary": "administrative",
      "ref:nuts": "ES425",
      "way_area": "1.61618",
      "wikidata": "Q54929",
      "ISO3166-2": "ES-TO",
      "idee:name": "Toledo",
      "wikipedia": "es:Provincia de Toledo",
      "ref:nuts:3": "ES425",
      "admin_level": "6",
      "ine:provincia": "45",
      "official_name": "Provincia de Toledo",
      "official_name:be": "Правінцыя Таледа",
      "official_name:pt": "Província de Toledo"
    }
  },
  {
    "osm_id": -6930023,
    "boundary": "religious_administration",
    "admin_level": 6,
    "parents": "-6930027,-1311341",
    "name": "Diócesis de Getafe",
    "local_name": "Diócesis de Getafe",
    "name_en": null,
    "all_tags": {
      "name": "Diócesis de Getafe",
      "boundary": "religious_administration",
      "religion": "christian",
      "way_area": "0.243981",
      "wikidata": "Q766102",
      "admin_level": "6",
      "denomination": "roman_catholic"
    }
  },
  {
    "osm_id": -6932541,
    "boundary": "religious_administration",
    "admin_level": 6,
    "parents": "-6930027,-1311341",
    "name": "Archidiócesis de Madrid",
    "local_name": "Archidiócesis de Madrid",
    "name_en": null,
    "all_tags": {
      "name": "Archidiócesis de Madrid",
      "boundary": "religious_administration",
      "religion": "christian",
      "way_area": "0.393519",
      "admin_level": "6",
      "denomination": "roman_catholic"
    }
  },
  {
    "osm_id": -6930024,
    "boundary": "religious_administration",
    "admin_level": 6,
    "parents": "-6930027,-1311341",
    "name": "Diócesis de Alcalá de Henares",
    "local_name": "Diócesis de Alcalá de Henares",
    "name_en": null,
    "all_tags": {
      "name": "Diócesis de Alcalá de Henares",
      "boundary": "religious_administration",
      "religion": "christian",
      "way_area": "0.214111",
      "wikidata": "Q866792",
      "admin_level": "6",
      "denomination": "roman_catholic"
    }
  },
  {
    "osm_id": -349041,
    "boundary": "administrative",
    "admin_level": 4,
    "parents": "-1311341",
    "name": "Castile and León",
    "local_name": "Castilla y León",
    "name_en": "Castile and León",
    "all_tags": {
      "name": "Castilla y León",
      "name:ar": "قشتالة وليون",
      "name:be": "Кастылія і Леон",
      "name:ca": "Castella i Lleó",
      "name:cs": "Kastilie a León",
      "name:de": "Kastilien und León",
      "name:el": "Καστίλλη και Λεόν",
      "name:en": "Castile and León",
      "name:es": "Castilla y León",
      "name:eu": "Gaztela eta Leon",
      "name:gl": "Castela e León",
      "name:hu": "Kasztília és León",
      "name:is": "Kastilía og León",
      "name:ja": "カスティーリャ・イ・レオン州",
      "name:lt": "Kastilija ir Leonas",
      "name:nl": "Castilië en León",
      "name:pl": "Kastylia i León",
      "name:pt": "Castela e Leão",
      "name:ru": "Кастилия и Леон",
      "name:sk": "Kastília-León",
      "website": "http://www.jcyl.es/",
      "boundary": "administrative",
      "ine:ccaa": "07",
      "name:ast": "Castiella y Lleón",
      "ref:nuts": "ES41",
      "way_area": "10.2009",
      "wikidata": "Q5739",
      "ISO3166-2": "ES-CL",
      "wikipedia": "es:Castilla y León",
      "ref:nuts:2": "ES41",
      "admin_level": "4",
      "alt_name:cs": "Kastilie-León",
      "border_type": "region",
      "official_name": "Castilla y León",
      "official_name:ar": "منطقة قشتالة وليون"
    }
  },
  {
    "osm_id": -349024,
    "boundary": "administrative",
    "admin_level": 6,
    "parents": "-349052,-1311341",
    "name": "Cuenca",
    "local_name": "Cuenca",
    "name_en": null,
    "all_tags": {
      "name": "Cuenca",
      "name:ar": "قونكة",
      "name:be": "Куэнка",
      "name:ca": "Conca",
      "name:eu": "Cuenca",
      "boundary": "administrative",
      "ref:nuts": "ES423",
      "way_area": "1.80501",
      "wikidata": "Q54888",
      "ISO3166-2": "ES-CU",
      "wikipedia": "es:Provincia de Cuenca",
      "ref:nuts:3": "ES423",
      "admin_level": "6",
      "alt_name:ar": "قونقة;كونيكا",
      "ine:provincia": "16",
      "official_name:ar": "مقاطعة قونكة",
      "official_name:be": "Правінцыя Куэнка"
    }
  },
  {
    "osm_id": -349025,
    "boundary": "administrative",
    "admin_level": 6,
    "parents": "-349052,-1311341",
    "name": "Guadalajara",
    "local_name": "Guadalajara",
    "name_en": null,
    "all_tags": {
      "name": "Guadalajara",
      "name:ar": "وادي الحجارة",
      "name:be": "Гвадалахара",
      "name:ca": "Guadalajara",
      "name:el": "Γουαδαλαχάρα",
      "name:es": "Guadalajara",
      "name:eu": "Guadalajara",
      "name:fa": "گوادالاخارا",
      "name:pt": "Guadalajara",
      "name:ur": "گوادالاخارا",
      "boundary": "administrative",
      "ref:nuts": "ES424",
      "way_area": "1.30342",
      "wikidata": "Q54925",
      "ISO3166-2": "ES-GU",
      "wikipedia": "es:Provincia de Guadalajara",
      "ref:nuts:3": "ES424",
      "admin_level": "6",
      "alt_name:ar": "غوادالاجارا",
      "old_name:ar": "مدينة الفرج",
      "ine:provincia": "19",
      "official_name": "Provincia de Guadalajara",
      "official_name:ar": "مقاطعة وادي الحجارة",
      "official_name:be": "Правінцыя Гвадалахара",
      "official_name:pt": "Província de Guadalajara"
    }
  },
  {
    "osm_id": -349002,
    "boundary": "administrative",
    "admin_level": 6,
    "parents": "-349045,-1311341",
    "name": "Teruel",
    "local_name": "Teruel",
    "name_en": "Teruel",
    "all_tags": {
      "name": "Teruel",
      "place": "province",
      "name:an": "Teruel",
      "name:ar": "طرويل",
      "name:be": "Тэруэль",
      "name:bg": "Теруел",
      "name:ca": "Terol",
      "name:el": "Τερουέλ",
      "name:en": "Teruel",
      "name:eo": "Teruelo",
      "name:es": "Teruel",
      "name:eu": "Teruel",
      "name:fa": "تروئل",
      "name:fr": "Teruel",
      "name:gl": "Teruel",
      "name:he": "טרואל",
      "name:ja": "テルエル",
      "name:ka": "ტერუელი",
      "name:kk": "Теруэль",
      "name:ko": "테루엘",
      "name:la": "Terulium",
      "name:lt": "Teruelis",
      "name:oc": "Teròl",
      "name:pt": "Teruel",
      "name:ru": "Теруэль",
      "name:sr": "Теруел",
      "name:uk": "Теруель",
      "name:ur": "تیرویل",
      "name:zh": "特魯埃爾",
      "boundary": "administrative",
      "name:ast": "Teruel",
      "name:wuu": "特鲁艾",
      "name:yue": "特魯埃爾",
      "ref:nuts": "ES242",
      "way_area": "1.5771",
      "wikidata": "Q54955",
      "ISO3166-2": "ES-TE",
      "idee:name": "Teruel",
      "wikipedia": "es:Provincia de Teruel",
      "ref:nuts:3": "ES242",
      "admin_level": "6",
      "alt_name:ar": "تيرويل",
      "old_name:eo": "Provinco Teruelo",
      "admin_type:ES": "provincia",
      "ine:provincia": "44",
      "official_name": "Provincia de Teruel",
      "official_name:an": "Provincia de Teruel",
      "official_name:ar": "مقاطعة طرويل",
      "official_name:be": "Правінцыя Тэруэль",
      "official_name:ca": "Província de Terol",
      "official_name:cs": "Provincie Teruel",
      "official_name:de": "Provinz Teruel",
      "official_name:en": "Province of Teruel",
      "official_name:eo": "Provinco Teruelo",
      "official_name:es": "Provincia de Teruel",
      "official_name:eu": "Teruelgo probintzia",
      "official_name:fa": "استان تروئل",
      "official_name:fr": "Province de Teruel",
      "official_name:gl": "Provincia de Teruel",
      "official_name:he": "מחוז טרואל",
      "official_name:ja": "テルエル県",
      "official_name:ka": "ტერუელის პროვინცია",
      "official_name:ko": "테루엘주",
      "official_name:la": "Provincia Terulensis",
      "official_name:lb": "Provënz Teruel",
      "official_name:lt": "Teruelio provincija",
      "official_name:ast": "Provincia de Teruel"
    }
  },
  {
    "osm_id": -349020,
    "boundary": "administrative",
    "admin_level": 6,
    "parents": "-349043,-1311341",
    "name": "Castelló / Castellón",
    "local_name": "Castelló / Castellón",
    "name_en": null,
    "all_tags": {
      "name": "Castelló / Castellón",
      "place": "county",
      "name:be": "Кастэльён",
      "name:ca": "Castelló",
      "name:es": "Castellón",
      "name:eu": "Castellón",
      "name:fr": "Castellón",
      "name:gl": "Castelló",
      "name:ru": "Кастельон",
      "boundary": "administrative",
      "ref:nuts": "ES522",
      "way_area": "0.702175",
      "wikidata": "Q54942",
      "ISO3166-2": "ES-CS",
      "wikipedia": "ca:Província de Castelló",
      "ref:nuts:3": "ES522",
      "admin_level": "6",
      "border_type": "province",
      "ine:provincia": "12",
      "official_name": "Provincia de Castelló/Castellón",
      "official_name:be": "Правінцыя Кастэльён",
      "official_name:ca": "Província de Castelló",
      "official_name:de": "Provinz Castellón",
      "official_name:en": "Province of Castellón",
      "official_name:es": "Provincia de Castellón",
      "official_name:fr": "Province de Castellón"
    }
  },
  {
    "osm_id": -349030,
    "boundary": "administrative",
    "admin_level": 6,
    "parents": "-349045,-1311341",
    "name": "Zaragoza",
    "local_name": "Zaragoza",
    "name_en": null,
    "all_tags": {
      "name": "Zaragoza",
      "place": "province",
      "name:an": "Zaragoza",
      "name:ar": "سرقسطة",
      "name:be": "Сарагоса",
      "name:ca": "Saragossa",
      "name:de": "Saragossa",
      "name:el": "Σαραγόσα",
      "name:es": "Zaragoza",
      "name:fa": "ساراگوسا",
      "name:fr": "Saragosse",
      "name:fy": "Saragossa",
      "name:gl": "Zaragoza",
      "name:he": "סרגוסה",
      "name:hy": "Սարագոսա",
      "name:it": "Saragozza",
      "name:ja": "サラゴサ",
      "name:ka": "სარაგოსა",
      "name:kk": "Сарагоса",
      "name:ko": "사라고사",
      "name:la": "Caesaraugusta",
      "name:lb": "Saragossa",
      "name:lt": "Saragosa",
      "name:lv": "Saragosa",
      "name:mk": "Сарагоса",
      "name:mr": "सारागोसा",
      "name:mt": "Żaragoża",
      "name:oc": "Saragossa",
      "name:pl": "Saragossa",
      "name:pt": "Saragoça",
      "name:ru": "Сарагоса",
      "name:sr": "Сарагоса",
      "name:th": "ซาราโกซา",
      "name:ug": "Saragossa",
      "name:uk": "Сарагоса",
      "name:zh": "萨拉戈萨",
      "boundary": "administrative",
      "name:ext": "Çaragoça",
      "name:lmo": "Saragoza",
      "name:pms": "Saragozza",
      "name:scn": "Saragozza",
      "name:vec": "Saragosa",
      "ref:nuts": "ES243",
      "way_area": "1.86647",
      "wikidata": "Q55180",
      "ISO3166-2": "ES-Z",
      "wikipedia": "es:Provincia de Zaragoza",
      "ref:nuts:3": "ES243",
      "admin_level": "6",
      "admin_type:ES": "provincia",
      "ine:provincia": "50",
      "official_name": "Provincia de Zaragoza",
      "official_name:an": "Provincia de Zaragoza",
      "official_name:be": "Правінцыя Сарагоса",
      "official_name:ca": "Província de Saragossa",
      "official_name:es": "Provincia de Zaragoza",
      "official_name:pt": "Província de Saragoça"
    }
  },
  {
    "osm_id": -349032,
    "boundary": "administrative",
    "admin_level": 6,
    "parents": "-349041,-1311341",
    "name": "Palencia",
    "local_name": "Palencia",
    "name_en": null,
    "all_tags": {
      "name": "Palencia",
      "name:be": "Паленсія",
      "name:ca": "Palència",
      "name:el": "Παλένθια",
      "name:es": "Palencia",
      "name:eu": "Palentzia",
      "boundary": "administrative",
      "loc_name": "Provincia de Palencia",
      "ref:nuts": "ES414",
      "way_area": "0.880121",
      "wikidata": "Q55269",
      "ISO3166-2": "ES-P",
      "wikipedia": "es:Provincia de Palencia",
      "ref:nuts:3": "ES414",
      "admin_level": "6",
      "ine:provincia": "34",
      "official_name:be": "Правінцыя Паленсія"
    }
  },
  {
    "osm_id": -349004,
    "boundary": "administrative",
    "admin_level": 6,
    "parents": "-349041,-1311341",
    "name": "Burgos",
    "local_name": "Burgos",
    "name_en": null,
    "all_tags": {
      "name": "Burgos",
      "name:ar": "برغش",
      "name:be": "Бургас",
      "name:ca": "Burgos",
      "name:el": "Μπούργος",
      "name:ru": "Бургос",
      "alt_name": "Provincia de Burgos",
      "boundary": "administrative",
      "ref:nuts": "ES412",
      "way_area": "1.56176",
      "wikidata": "Q55271",
      "ISO3166-2": "ES-BU",
      "wikipedia": "es:Provincia de Burgos",
      "ref:nuts:3": "ES412",
      "admin_level": "6",
      "alt_name:ar": "بورغوس",
      "ine:provincia": "09",
      "official_name:ar": "مقاطعة برغش",
      "official_name:be": "Правінцыя Бургас"
    }
  },
  {
    "osm_id": -349034,
    "boundary": "administrative",
    "admin_level": 6,
    "parents": "-349042,-1311341",
    "name": "Biscay",
    "local_name": "Bizkaia",
    "name_en": "Biscay",
    "all_tags": {
      "name": "Bizkaia",
      "place": "province",
      "name:be": "Біская",
      "name:ca": "Biscaia",
      "name:en": "Biscay",
      "name:es": "Vizcaya",
      "name:eu": "Bizkaia",
      "name:fr": "Biscaye",
      "name:nl": "Biskaje",
      "name:zh": "比斯开",
      "ref:ine": "48",
      "boundary": "administrative",
      "ref:nuts": "ES213",
      "way_area": "0.245317",
      "wikidata": "Q93366",
      "ISO3166-2": "ES-BI",
      "wikipedia": "eu:Bizkaia",
      "ref:nuts:3": "ES213",
      "admin_level": "6",
      "ine:provincia": "48"
    }
  },
  {
    "osm_id": -349001,
    "boundary": "administrative",
    "admin_level": 6,
    "parents": "-349041,-1311341",
    "name": "Valladolid",
    "local_name": "Valladolid",
    "name_en": null,
    "all_tags": {
      "name": "Valladolid",
      "name:ar": "بلد الوليد",
      "name:be": "Вальядалід",
      "name:ca": "Valladolid",
      "name:el": "Βαγιαδολίδ",
      "name:es": "Valladolid",
      "name:ru": "Вальядолид",
      "boundary": "administrative",
      "ref:nuts": "ES418",
      "way_area": "0.876384",
      "wikidata": "Q71097",
      "ISO3166-2": "ES-VA",
      "wikipedia": "es:Provincia de Valladolid",
      "ref:nuts:3": "ES418",
      "admin_level": "6",
      "ine:provincia": "47"
    }
  },
  {
    "osm_id": -349015,
    "boundary": "administrative",
    "admin_level": 6,
    "parents": "-349042,-1311341",
    "name": "Gipuzkoa",
    "local_name": "Gipuzkoa",
    "name_en": "Gipuzkoa",
    "all_tags": {
      "name": "Gipuzkoa",
      "place": "province",
      "name:ar": "غيبوثكوا",
      "name:be": "Гіпускоа",
      "name:ca": "Guipúscoa",
      "name:el": "Γκιπούθκοα",
      "name:en": "Gipuzkoa",
      "name:es": "Guipúzcoa",
      "name:eu": "Gipuzkoa",
      "name:fr": "Guipuscoa",
      "name:lt": "Gipuskoa",
      "name:ru": "Гипускоа",
      "ref:ine": "20",
      "boundary": "administrative",
      "ref:nuts": "ES212",
      "way_area": "0.219209",
      "wikidata": "Q95010",
      "ISO3166-2": "ES-SS",
      "wikipedia": "eu:Gipuzkoa",
      "ref:nuts:3": "ES212",
      "admin_level": "6",
      "ine:provincia": "20",
      "official_name:be": "Правінцыя Гіпускоа",
      "addr:country_code": "ES"
    }
  },
  {
    "osm_id": -6426656,
    "boundary": "administrative",
    "admin_level": 6,
    "parents": "-348981,-1311341",
    "name": "Balearic Islands",
    "local_name": "Illes Balears",
    "name_en": "Balearic Islands",
    "all_tags": {
      "name": "Illes Balears",
      "place": "archipelago",
      "name:an": "Islas Balears",
      "name:ar": "جزر البليار",
      "name:be": "Балеарскія астравы",
      "name:bg": "Балеарски острови",
      "name:br": "Belearez",
      "name:bs": "Balearska ostrva",
      "name:ca": "Illes Balears",
      "name:co": "Baleare",
      "name:cs": "Baleáry",
      "name:cy": "Ynysoedd Balearig",
      "name:da": "Baleariske Øer",
      "name:de": "Balearische Inseln",
      "name:el": "Βαλεαρίδες Νήσοι",
      "name:en": "Balearic Islands",
      "name:es": "Islas Baleares",
      "name:et": "Baleaarid",
      "name:eu": "Balear uharteak",
      "name:fa": "جزایر بالئارس",
      "name:fi": "Baleaarit",
      "name:fr": "Îles Baléares",
      "name:fy": "Balearen",
      "name:ga": "Na hOileáin Bhailéaracha",
      "name:gd": "Na h-Eileanan Balèarach",
      "name:gl": "Illas Baleares",
      "name:gv": "Ny h-Ellanyn Balearagh",
      "name:he": "האיים הבלאריים",
      "name:hr": "Balearski otoci",
      "name:hu": "Baleár-szigetek",
      "name:hy": "Բալեարյան կղզիներ",
      "name:id": "Kepulauan Balears",
      "name:is": "Baleareyjar",
      "name:it": "Isole Baleari",
      "name:ja": "バレアレス諸島",
      "name:ka": "ბალეარის კუნძულები",
      "name:kk": "Балеар аралдары",
      "name:ko": "발레아레스 제도",
      "name:kw": "Ynysow Balearek",
      "name:la": "Insulae Baliares",
      "name:lb": "Balearesch Inselen",
      "name:lt": "Balearų salos",
      "name:lv": "Baleāru Salas",
      "name:mk": "Балеарски Острови",
      "name:mr": "बालेआरिक द्वीपसमूह",
      "name:ms": "Kepulauan Balearic",
      "name:nl": "Balearen",
      "name:nn": "Balearane",
      "name:no": "Balearene",
      "name:oc": "Illas Balearas",
      "name:pl": "Baleary",
      "name:pt": "Ilhas Baleares",
      "name:ro": "Insulele Baleare",
      "name:ru": "Балеарские острова",
      "name:sk": "Baleáry",
      "name:sl": "Balearski otoki",
      "name:sv": "Balearerna",
      "name:th": "หมู่เกาะแบลีแอริก",
      "name:tr": "Balear Adaları",
      "name:uk": "Балеарські острови",
      "name:ur": "جزائر بلیبار",
      "name:vi": "Quần đảo Baleares",
      "name:zh": "巴利阿里群岛",
      "boundary": "administrative",
      "name:arc": "جزر البليار",
      "name:arz": "جزر البليار",
      "name:ast": "Islles Baleares",
      "name:ext": "Islas Balearis",
      "name:frp": "Iles Balèares",
      "name:lij": "Isoe Baleari",
      "name:pms": "Ìsole Balear",
      "name:scn": "Ìsuli Baliari",
      "name:vec": "Ixołe Bałeari",
      "way_area": "0.522987",
      "wikidata": "Q5765",
      "ISO3166-2": "ES-PM",
      "wikipedia": "ca:Illes Balears",
      "admin_level": "6",
      "alt_name:ar": "منطقة جزر البليار",
      "alt_name:cs": "Baleárské ostrovy",
      "alt_name:fr": "Baléares",
      "border_type": "province",
      "name:zh-Hans": "巴利阿里群岛",
      "name:zh-Hant": "巴利亞利群島",
      "ine:provincia": "07",
      "official_name:ar": "جزر البليار",
      "official_name:ca": "Illes Balears",
      "official_name:es": "Illes Balears"
    }
  },
  {
    "osm_id": -348981,
    "boundary": "administrative",
    "admin_level": 4,
    "parents": "-1311341",
    "name": "Balearic Islands",
    "local_name": "Illes Balears",
    "name_en": "Balearic Islands",
    "all_tags": {
      "ref": "IB",
      "name": "Illes Balears",
      "place": "state",
      "name:an": "Islas Balears",
      "name:ar": "جزر البليار",
      "name:be": "Балеарскія астравы",
      "name:bg": "Балеарски острови",
      "name:br": "Belearez",
      "name:bs": "Balearska ostrva",
      "name:ca": "Illes Balears",
      "name:co": "Baleare",
      "name:cs": "Baleáry",
      "name:cy": "Ynysoedd Balearig",
      "name:da": "Baleariske Øer",
      "name:de": "Balearische Inseln",
      "name:el": "Βαλεαρίδες Νήσοι",
      "name:en": "Balearic Islands",
      "name:es": "Islas Baleares",
      "name:et": "Baleaarid",
      "name:eu": "Balear uharteak",
      "name:fa": "جزایر بالئارس",
      "name:fi": "Baleaarit",
      "name:fr": "Îles Baléares",
      "name:fy": "Balearen",
      "name:ga": "Na hOileáin Bhailéaracha",
      "name:gd": "Na h-Eileanan Balèarach",
      "name:gl": "Illas Baleares",
      "name:gv": "Ny h-Ellanyn Balearagh",
      "name:he": "האיים הבלאריים",
      "name:hr": "Balearski otoci",
      "name:hu": "Baleár-szigetek",
      "name:hy": "Բալեարյան կղզիներ",
      "name:id": "Kepulauan Balears",
      "name:is": "Baleareyjar",
      "name:it": "Isole Baleari",
      "name:ja": "バレアレス諸島",
      "name:ka": "ბალეარის კუნძულები",
      "name:kk": "Балеар аралдары",
      "name:ko": "발레아레스 제도",
      "name:kw": "Ynysow Balearek",
      "name:la": "Insulae Baliares",
      "name:lb": "Balearesch Inselen",
      "name:lt": "Balearų salos",
      "name:lv": "Baleāru Salas",
      "name:mk": "Балеарски Острови",
      "name:mr": "बालेआरिक द्वीपसमूह",
      "name:ms": "Kepulauan Balearic",
      "name:nl": "Balearen",
      "name:nn": "Balearane",
      "name:no": "Balearene",
      "name:oc": "Illas Balearas",
      "name:pl": "Baleary",
      "name:pt": "Ilhas Baleares",
      "name:ro": "Insulele Baleare",
      "name:ru": "Балеарские острова",
      "name:sk": "Baleáry",
      "name:sl": "Balearski otoki",
      "name:sv": "Balearerna",
      "name:th": "หมู่เกาะแบลีแอริก",
      "name:tr": "Balear Adaları",
      "name:uk": "Балеарські острови",
      "name:ur": "جزائر بلیبار",
      "name:vi": "Quần đảo Baleares",
      "name:zh": "巴利阿里群岛",
      "boundary": "administrative",
      "ine:ccaa": "04",
      "name:arc": "جزر البليار",
      "name:arz": "جزر البليار",
      "name:ast": "Islles Baleares",
      "name:ext": "Islas Balearis",
      "name:frp": "Iles Balèares",
      "name:lij": "Isoe Baleari",
      "name:pms": "Ìsole Balear",
      "name:scn": "Ìsuli Baliari",
      "name:vec": "Ixołe Bałeari",
      "ref:nuts": "ES53",
      "way_area": "0.522987",
      "wikidata": "Q5765",
      "ISO3166-2": "ES-IB",
      "wikipedia": "ca:Illes Balears",
      "ref:nuts:2": "ES53",
      "admin_level": "4",
      "alt_name:ar": "منطقة جزر البليار",
      "alt_name:cs": "Baleárské ostrovy",
      "alt_name:fr": "Baléares",
      "border_type": "region",
      "name:zh-Hans": "巴利阿里群岛",
      "name:zh-Hant": "巴利亞利群島",
      "default_language": "ca",
      "official_name:ar": "جزر البليار",
      "official_name:ca": "Illes Balears",
      "official_name:es": "Illes Balears"
    }
  },
  {
    "osm_id": -348990,
    "boundary": "administrative",
    "admin_level": 6,
    "parents": "-349053,-1311341",
    "name": "Lleida",
    "local_name": "Lleida",
    "name_en": null,
    "all_tags": {
      "name": "Lleida",
      "name:an": "Leida",
      "name:ar": "لاردة",
      "name:be": "Лерыда",
      "name:ca": "Lleida",
      "name:el": "Λέριδα",
      "name:es": "Lérida",
      "name:eu": "Lleida",
      "name:fa": "لریدا",
      "name:fr": "Lérida",
      "name:id": "Lerida",
      "name:ja": "リェイダ",
      "name:ko": "레리다",
      "name:la": "Ilerda",
      "name:lt": "Lerida",
      "name:lv": "Lerida",
      "name:nl": "Lerida",
      "name:oc": "Lhèida",
      "name:pt": "Lérida",
      "name:ru": "Лерида",
      "name:sr": "Љеида",
      "name:uk": "Льєйда",
      "name:vi": "Lérida",
      "name:zh": "莱里达",
      "website": "http://www.diputaciolleida.cat/",
      "boundary": "administrative",
      "name:ext": "Léria",
      "ref:nuts": "ES513",
      "way_area": "1.32328",
      "wikidata": "Q13904",
      "ISO3166-2": "ES-L",
      "wikipedia": "ca:Província de Lleida",
      "ref:nuts:3": "ES513",
      "admin_level": "6",
      "ine:provincia": "25",
      "official_name:be": "Правінцыя Лерыда"
    }
  },
  {
    "osm_id": -349053,
    "boundary": "administrative",
    "admin_level": 4,
    "parents": "-1311341",
    "name": "Catalonia",
    "local_name": "Catalunya",
    "name_en": "Catalonia",
    "all_tags": {
      "name": "Catalunya",
      "name:ar": "كتالونيا",
      "name:be": "Каталонія",
      "name:br": "Katalonia",
      "name:ca": "Catalunya",
      "name:cs": "Katalánsko",
      "name:de": "Katalonien",
      "name:el": "Καταλωνία",
      "name:en": "Catalonia",
      "name:eo": "Katalunio",
      "name:es": "Cataluña",
      "name:eu": "Katalunia",
      "name:fi": "Katalonia",
      "name:fr": "Catalogne",
      "name:fy": "Kataloanje",
      "name:gl": "Cataluña",
      "name:hr": "Katalonija",
      "name:hu": "Katalónia",
      "name:io": "Katalunia",
      "name:is": "Katalónía",
      "name:ja": "カタルーニャ州",
      "name:lt": "Katalonija",
      "name:mk": "Каталонија",
      "name:nl": "Catalonië",
      "name:oc": "Catalonha",
      "name:pl": "Katalonia",
      "name:pt": "Catalunha",
      "name:ru": "Каталония",
      "name:sk": "Katalánsko",
      "name:sl": "Katalonija",
      "name:sv": "Katalonien",
      "name:vo": "Katalonän",
      "boundary": "administrative",
      "ine:ccaa": "09",
      "name:tok": "ma Katala",
      "name:tzl": "Ceatalognh",
      "ref:nuts": "ES51",
      "way_area": "3.47968",
      "wikidata": "Q5705",
      "ISO3166-2": "ES-CT",
      "wikipedia": "ca:Catalunya",
      "ref:nuts:2": "ES51",
      "short_name": "CAT",
      "admin_level": "4",
      "alt_name:el": "Καταλονία",
      "alt_name:eo": "Katalunujo",
      "alt_name:gl": "Catalunha",
      "border_type": "region",
      "full_name:cs": "Autonomní společenství Katalánsko",
      "name:zh-Hans": "加泰罗尼亚",
      "name:zh-Hant": "加泰羅尼亞",
      "official_name": "Catalunya",
      "official_name:ca": "Catalunya",
      "official_name:es": "Cataluña"
    }
  },
  {
    "osm_id": -349035,
    "boundary": "administrative",
    "admin_level": 6,
    "parents": "-349053,-1311341",
    "name": "Barcelona",
    "local_name": "Barcelona",
    "name_en": null,
    "all_tags": {
      "name": "Barcelona",
      "name:ar": "برشلونة",
      "name:be": "Барселона",
      "name:ca": "Barcelona",
      "name:el": "Βαρκελώνη",
      "name:es": "Barcelona",
      "name:eu": "Bartzelona",
      "name:fr": "Barcelone",
      "name:gl": "Barcelona",
      "name:lt": "Barselona",
      "name:oc": "Barcelona",
      "name:ru": "Барселона",
      "website": "http://www.diba.es/",
      "boundary": "administrative",
      "ref:nuts": "ES511",
      "way_area": "0.837209",
      "wikidata": "Q81949",
      "ISO3166-2": "ES-B",
      "wikipedia": "ca:Província de Barcelona",
      "ref:nuts:3": "ES511",
      "short_name": "BCN",
      "admin_level": "6",
      "ine:provincia": "08",
      "official_name:be": "Правінцыя Барселона"
    }
  },
  {
    "osm_id": -349023,
    "boundary": "administrative",
    "admin_level": 6,
    "parents": "-349053,-1311341",
    "name": "Girona",
    "local_name": "Girona",
    "name_en": null,
    "all_tags": {
      "name": "Girona",
      "name:an": "Chirona",
      "name:ar": "جرندة",
      "name:be": "Херона",
      "name:ca": "Girona",
      "name:el": "Ζιρόνα",
      "name:es": "Gerona",
      "name:eu": "Girona",
      "name:fa": "خرنا",
      "name:fr": "Gérone",
      "name:gl": "Xirona",
      "name:he": "ז'ירונה",
      "name:ja": "ジローナ",
      "name:ko": "지로나",
      "name:lt": "Cherona",
      "name:lv": "Žirona",
      "name:nl": "Gerona",
      "name:oc": "Gard",
      "name:pt": "Gerunda",
      "name:ru": "Жирона",
      "name:uk": "Жірона",
      "name:zh": "赫罗纳",
      "website": "http://www.ddgi.cat/",
      "boundary": "administrative",
      "name:ast": "Xerona",
      "name:lad": "Djirona",
      "ref:nuts": "ES512",
      "way_area": "0.643231",
      "wikidata": "Q7194",
      "ISO3166-2": "ES-GI",
      "wikipedia": "ca:Província de Girona",
      "ref:nuts:3": "ES512",
      "admin_level": "6",
      "alt_name:el": "Χερόνα",
      "alt_name:ru": "Херона",
      "ine:provincia": "17",
      "official_name:be": "Правінцыя Херона"
    }
  },
  {
    "osm_id": -349052,
    "boundary": "administrative",
    "admin_level": 4,
    "parents": "-1311341",
    "name": "Castile-La Mancha",
    "local_name": "Castilla-La Mancha",
    "name_en": "Castile-La Mancha",
    "all_tags": {
      "name": "Castilla-La Mancha",
      "name:ar": "قشتالة-لا مانتشا",
      "name:be": "Кастылія-Ла-Манча",
      "name:ca": "Castella-la Manxa",
      "name:cs": "Kastilie-La Mancha",
      "name:de": "Kastilien-La Mancha",
      "name:el": "Καστίλλη-Λα Μάντσα",
      "name:en": "Castile-La Mancha",
      "name:es": "Castilla-La Mancha",
      "name:eu": "Gaztela-Mantxa",
      "name:fr": "Castille-La Manche",
      "name:hu": "Kasztília-La Mancha",
      "name:ja": "カスティーリャ＝ラ・マンチャ州",
      "name:nl": "Castilië-La Mancha",
      "name:pl": "Kastylia-La Mancha",
      "name:pt": "Castela-Mancha",
      "name:ru": "Кастилия-Ла-Манча",
      "name:sk": "Kastília-La Mancha",
      "boundary": "administrative",
      "ine:ccaa": "08",
      "name:ast": "Castiella-La Mancha",
      "name:ext": "Castilla-La Mancha",
      "ref:nuts": "ES42",
      "way_area": "8.33117",
      "wikidata": "Q5748",
      "ISO3166-2": "ES-CM",
      "wikipedia": "es:Castilla-La Mancha",
      "ref:nuts:2": "ES42",
      "admin_level": "4",
      "border_type": "region",
      "official_name": "Castilla-La Mancha"
    }
  },
  {
    "osm_id": -349050,
    "boundary": "administrative",
    "admin_level": 4,
    "parents": "-1311341",
    "name": "Extremadura",
    "local_name": "Extremadura",
    "name_en": "Extremadura",
    "all_tags": {
      "name": "Extremadura",
      "name:ar": "إكستريمادورا",
      "name:be": "Эстрэмадура",
      "name:ca": "Extremadura",
      "name:cs": "Extremadura",
      "name:el": "Εξτρεμαδούρα",
      "name:en": "Extremadura",
      "name:es": "Extremadura",
      "name:eu": "Extremadura",
      "name:fr": "Estrémadure",
      "name:hu": "Extremadura",
      "name:ja": "エストレマドゥーラ州",
      "name:pl": "Estremadura",
      "name:pt": "Estremadura",
      "name:ru": "Эстремадура",
      "name:sk": "Extremadura",
      "boundary": "administrative",
      "ine:ccaa": "11",
      "name:ast": "Estremadura",
      "name:ext": "Estremaúra",
      "ref:nuts": "ES43",
      "way_area": "4.34114",
      "wikidata": "Q5777",
      "ISO3166-2": "ES-EX",
      "wikipedia": "es:Extremadura",
      "ref:nuts:2": "ES43",
      "admin_level": "4",
      "border_type": "region",
      "official_name": "Extremadura"
    }
  },
  {
    "osm_id": -349036,
    "boundary": "administrative",
    "admin_level": 4,
    "parents": "-1311341",
    "name": "Galicia",
    "local_name": "Galicia",
    "name_en": "Galicia",
    "all_tags": {
      "flag": "https://upload.wikimedia.org/wikipedia/commons/c/c0/Bandeira_galega_civil.svg",
      "name": "Galicia",
      "name:ar": "غاليسيا",
      "name:be": "Галісія",
      "name:br": "Galiza",
      "name:ca": "Galícia",
      "name:cs": "Galicie",
      "name:de": "Galicien",
      "name:en": "Galicia",
      "name:eo": "Galegio",
      "name:es": "Galicia",
      "name:eu": "Galizia",
      "name:fr": "Galice",
      "name:gl": "Galiza",
      "name:hr": "Galicija",
      "name:hu": "Galicia",
      "name:it": "Galizia",
      "name:ja": "ガリシア州",
      "name:lt": "Galisija",
      "name:nl": "Galicië",
      "name:pl": "Galicja",
      "name:pt": "Galiza",
      "name:ru": "Галисия",
      "name:sk": "Galícia",
      "alt_name": "Galiza",
      "boundary": "administrative",
      "currency": "EUR",
      "ine:ccaa": "12",
      "name:szl": "Galicyjŏ",
      "ref:nuts": "ES11",
      "way_area": "3.25199",
      "wikidata": "Q3908",
      "ISO3166-2": "ES-GA",
      "wikipedia": "gl:Galicia",
      "population": "2695645",
      "ref:nuts:2": "ES11",
      "admin_level": "4",
      "alt_name:ar": "جليقية",
      "alt_name:eo": "Galegujo",
      "alt_name:gl": "Galiza",
      "border_type": "region",
      "old_name:ar": "جليقية",
      "official_name": "Comunidade Autónoma de Galicia",
      "population:date": "2021",
      "default_language": "gl",
      "official_name:ar": "منطقة غاليسيا",
      "official_name:be": "Аўтаномная супольнасць Галісія",
      "official_name:es": "Comunidad Autónoma de Galicia",
      "official_name:gl": "Comunidade Autónoma de Galiza",
      "official_name:pt": "Comunidade Autonoma da Galiza"
    }
  },
  {
    "osm_id": -349010,
    "boundary": "administrative",
    "admin_level": 6,
    "parents": "-349041,-1311341",
    "name": "León",
    "local_name": "León",
    "name_en": null,
    "all_tags": {
      "name": "León",
      "name:ar": "ليون",
      "name:be": "Леон",
      "name:ca": "Lleó",
      "name:el": "Λεόν",
      "name:es": "León",
      "name:eu": "Leon",
      "name:pt": "Leão",
      "name:ru": "Леон",
      "boundary": "administrative",
      "loc_name": "Provincia de León",
      "ref:nuts": "ES413",
      "way_area": "1.70947",
      "wikidata": "Q71140",
      "ISO3166-2": "ES-LE",
      "wikipedia": "es:Provincia de León",
      "ref:nuts:3": "ES413",
      "admin_level": "6",
      "ine:provincia": "24",
      "official_name": "León",
      "official_name:ar": "ليون",
      "official_name:be": "Правінцыя Леон",
      "official_name:pt": "Leão"
    }
  },
  {
    "osm_id": -349029,
    "boundary": "administrative",
    "admin_level": 6,
    "parents": "-349041,-1311341",
    "name": "Salamanca",
    "local_name": "Salamanca",
    "name_en": null,
    "all_tags": {
      "name": "Salamanca",
      "name:ar": "شلمنقة",
      "name:be": "Саламанка",
      "name:ca": "Salamanca",
      "name:el": "Σαλαμάνκα",
      "name:es": "Salamanca",
      "name:fa": "سالامانکا",
      "name:fr": "Salamanque",
      "name:ja": "サラマンカ",
      "name:lt": "Salamanka",
      "name:ru": "Саламанка",
      "name:sr": "Саламанка",
      "name:uk": "Саламанка",
      "name:ur": "سالامانکا",
      "boundary": "administrative",
      "ref:nuts": "ES415",
      "way_area": "1.31778",
      "wikidata": "Q71080",
      "ISO3166-2": "ES-SA",
      "wikipedia": "es:Provincia de Salamanca",
      "ref:nuts:3": "ES415",
      "admin_level": "6",
      "alt_name:ar": "سلامنكا",
      "ine:provincia": "37",
      "official_name:ar": "مقاطعة شلمنقة",
      "official_name:be": "Правінцыя Саламанка"
    }
  },
  {
    "osm_id": -349047,
    "boundary": "administrative",
    "admin_level": 4,
    "parents": "-1311341",
    "name": "Region of Murcia",
    "local_name": "Región de Murcia",
    "name_en": "Region of Murcia",
    "all_tags": {
      "name": "Región de Murcia",
      "name:ar": "منطقة مرسية",
      "name:be": "Мурсійскі Рэгіён",
      "name:ca": "Regió de Múrcia",
      "name:cs": "Murcijský region",
      "name:de": "Region Murcia",
      "name:en": "Region of Murcia",
      "name:es": "Región de Murcia",
      "name:eu": "Murtziako Eskualdea",
      "name:fr": "Région de Murcie",
      "name:hu": "Murcia tartomány",
      "name:ja": "ムルシア州",
      "name:nl": "Murcia",
      "name:pl": "Region Murcji",
      "name:pt": "Região de Múrcia",
      "name:sk": "Murcia",
      "website": "http://wwwp.carm.es/",
      "boundary": "administrative",
      "ine:ccaa": "14",
      "ref:nuts": "ES62",
      "way_area": "1.16081",
      "wikidata": "Q5772",
      "ISO3166-2": "ES-MC",
      "idee:name": "Región de Murcia",
      "wikipedia": "es:Región de Murcia",
      "ref:nuts:2": "ES62",
      "short_name": "Murcia",
      "admin_level": "4",
      "border_type": "region",
      "official_name": "Comunidad autónoma de la Región de Murcia",
      "short_name:ar": "مرسية",
      "short_name:be": "Мурсія",
      "short_name:ca": "Múrcia",
      "short_name:cs": "Murcie",
      "short_name:en": "Murcia",
      "short_name:es": "Murcia",
      "short_name:eu": "Murtzia",
      "short_name:fr": "Murcie",
      "short_name:hu": "Murcia",
      "short_name:lt": "Mursija",
      "short_name:pt": "Múrcia",
      "short_name:ru": "Мурсия",
      "short_name:sl": "Mursija",
      "short_name:sr": "Мурсија",
      "short_name:uk": "Мурсія",
      "official_name:be": "Аўтаномная супольнасць Мурсія",
      "official_name:ca": "Comunitat autònoma de la Regió de Murcia",
      "official_name:en": "Autonomous community of the Region of Murcia",
      "official_name:es": "Comunidad autónoma de la Región de Murcia",
      "official_name:fr": "Communauté autonome de la Région de Murcie",
      "official_name:hu": "Murcia autonóm közösség"
    }
  },
  {
    "osm_id": -6427907,
    "boundary": "administrative",
    "admin_level": 6,
    "parents": "-349047,-1311341",
    "name": "Region of Murcia",
    "local_name": "Región de Murcia",
    "name_en": "Region of Murcia",
    "all_tags": {
      "name": "Región de Murcia",
      "name:ar": "منطقة مرسية",
      "name:be": "Мурсійскі Рэгіён",
      "name:ca": "Regió de Múrcia",
      "name:de": "Region Murcia",
      "name:el": "Περιοχή της Μούρθια",
      "name:en": "Region of Murcia",
      "name:es": "Región de Murcia",
      "name:eu": "Murtziako Eskualdea",
      "name:fr": "Région de Murcie",
      "name:hu": "Murcia tartomány",
      "name:is": "Murciahérað",
      "name:ja": "ムルシア州",
      "name:nl": "Murcia",
      "name:pl": "Region Murcji",
      "name:pt": "Região de Múrcia",
      "boundary": "administrative",
      "ref:nuts": "ES620",
      "way_area": "1.16081",
      "wikidata": "Q24271891",
      "ISO3166-2": "ES-MU",
      "idee:name": "Región de Murcia",
      "wikipedia": "es:Región de Murcia",
      "ref:nuts:3": "ES620",
      "short_name": "Murcia",
      "admin_level": "6",
      "border_type": "province",
      "ine:provincia": "30",
      "official_name": "Comunidad autónoma de la Región de Murcia",
      "short_name:ar": "مرسية",
      "short_name:be": "Мурсія",
      "short_name:ca": "Múrcia",
      "short_name:en": "Murcia",
      "short_name:es": "Murcia",
      "short_name:eu": "Murtzia",
      "short_name:fr": "Murcie",
      "short_name:hu": "Murcia",
      "short_name:is": "Murcía",
      "short_name:lt": "Mursija",
      "short_name:pt": "Múrcia",
      "short_name:ru": "Мурсия",
      "short_name:sl": "Mursija",
      "short_name:sr": "Мурсија",
      "short_name:uk": "Мурсія",
      "official_name:ca": "Comunitat autònoma de la Regió de Murcia",
      "official_name:en": "Autonomous community of the Region of Murcia",
      "official_name:es": "Comunidad autónoma de la Región de Murcia",
      "official_name:fr": "Communauté autonome de la Région de Murcie",
      "official_name:hu": "Murcia autonóm közösség"
    }
  },
  {
    "osm_id": -348985,
    "boundary": "administrative",
    "admin_level": 6,
    "parents": "-349053,-1311341",
    "name": "Tarragona",
    "local_name": "Tarragona",
    "name_en": null,
    "all_tags": {
      "name": "Tarragona",
      "name:be": "Тарагона",
      "name:ca": "Tarragona",
      "name:el": "Ταρραγόνα",
      "name:eu": "Tarragona",
      "name:fr": "Tarragone",
      "name:lt": "Taragona",
      "name:oc": "Tarragona",
      "name:ru": "Таррагона",
      "website": "http://www.diputaciodetarragona.cat/",
      "boundary": "administrative",
      "ref:nuts": "ES514",
      "way_area": "0.67596",
      "wikidata": "Q98392",
      "ISO3166-2": "ES-T",
      "wikipedia": "ca:Província de Tarragona",
      "ref:nuts:3": "ES514",
      "admin_level": "6",
      "alt_name:el": "Ταραγόνα",
      "ine:provincia": "43",
      "addr:country_code": "ES"
    }
  },
  {
    "osm_id": -349031,
    "boundary": "administrative",
    "admin_level": 6,
    "parents": "-349048,-1311341",
    "name": "Las Palmas",
    "local_name": "Las Palmas",
    "name_en": null,
    "all_tags": {
      "name": "Las Palmas",
      "name:ar": "لاس بالماس",
      "name:be": "Лас-Пальмас",
      "name:ca": "Província de Las Palmas",
      "name:ru": "Лас-Пальмас",
      "name:zh": "拉斯帕尔马斯省",
      "boundary": "administrative",
      "way_area": "0.374501",
      "wikidata": "Q95080",
      "ISO3166-2": "ES-GC",
      "wikipedia": "es:Provincia de Las Palmas",
      "admin_level": "6",
      "ine:provincia": "35"
    }
  },
  {
    "osm_id": -349012,
    "boundary": "administrative",
    "admin_level": 6,
    "parents": "-349043,-1311341",
    "name": "Alacant / Alicante",
    "local_name": "Alacant / Alicante",
    "name_en": null,
    "all_tags": {
      "name": "Alacant / Alicante",
      "name:ar": "أليكانتي",
      "name:be": "Алікантэ",
      "name:ca": "Alacant",
      "name:de": "Alicante",
      "name:el": "Αλικάντε",
      "name:es": "Alicante",
      "name:eu": "Alacant",
      "name:fr": "Alicante",
      "name:gl": "Alacant",
      "name:hu": "Alicante",
      "name:nl": "Alicante",
      "name:ru": "Аликанте",
      "name:sr": "Аликанте",
      "boundary": "administrative",
      "ref:nuts": "ES521",
      "way_area": "0.600771",
      "wikidata": "Q54936",
      "ISO3166-2": "ES-A",
      "wikipedia": "es:Provincia de Alicante",
      "ref:nuts:3": "ES521",
      "admin_level": "6",
      "alt_name:gl": "Alacante",
      "border_type": "province",
      "ine:provincia": "03",
      "official_name": "Provincia de Alacant/Alicante",
      "official_name:ar": "منطقة أليكانتي",
      "official_name:be": "Правінцыя Алікантэ",
      "official_name:ca": "Província d'Alacant",
      "official_name:de": "Provinz Alicante",
      "official_name:en": "Province of Alicante",
      "official_name:es": "Provincia de Alicante",
      "official_name:fr": "Province d'Alicante"
    }
  },
  {
    "osm_id": -349021,
    "boundary": "administrative",
    "admin_level": 6,
    "parents": "-349036,-1311341",
    "name": "A Coruña",
    "local_name": "A Coruña",
    "name_en": "A Coruña",
    "all_tags": {
      "name": "A Coruña",
      "place": "province",
      "name:ar": "لا كورونيا",
      "name:be": "A-Карунья",
      "name:ca": "A Corunya",
      "name:en": "A Coruña",
      "name:es": "La Coruña",
      "name:eu": "Coruña",
      "name:fr": "A Corogne",
      "name:gl": "A Coruña",
      "name:pt": "Corunha",
      "name:ru": "А-Корунья",
      "boundary": "administrative",
      "name:ast": "A Coruña",
      "name:pdc": "A Coruña",
      "ref:nuts": "ES111",
      "way_area": "0.879169",
      "wikidata": "Q82119",
      "ISO3166-2": "ES-C",
      "wikipedia": "gl:Provincia da Coruña",
      "population": "1122815",
      "ref:nuts:3": "ES111",
      "admin_level": "6",
      "alt_name:es": "A Coruña",
      "alt_name:gl": "A Corunha",
      "ine:provincia": "15",
      "official_name": "Provincia da Coruña",
      "population:date": "2020",
      "official_name:ar": "منطقة لا كورونيا",
      "official_name:be": "Правінцыя A-Карунья",
      "official_name:es": "Provincia de A Coruña",
      "official_name:gl": "Provincia da Coruña",
      "official_name:pt": "Província da Corunha"
    }
  },
  {
    "osm_id": -6429242,
    "boundary": "administrative",
    "admin_level": 6,
    "parents": "-349027,-1311341",
    "name": "Navarre",
    "local_name": "Navarra - Nafarroa",
    "name_en": "Navarre",
    "all_tags": {
      "name": "Navarra - Nafarroa",
      "name:be": "Навара",
      "name:ca": "Navarra",
      "name:de": "Navarra",
      "name:el": "Ναβάρρα",
      "name:en": "Navarre",
      "name:es": "Navarra",
      "name:eu": "Nafarroa",
      "name:fr": "Navarre",
      "name:ja": "ナバーラ州",
      "name:pl": "Nawarra",
      "name:pt": "Navarra",
      "name:ru": "Наварра",
      "boundary": "administrative",
      "ref:nuts": "ES220",
      "way_area": "1.14087",
      "wikidata": "Q4018",
      "ISO3166-2": "ES-NA",
      "wikipedia": "eu:Nafarroa Garaia",
      "ref:nuts:3": "ES220",
      "admin_level": "6",
      "border_type": "province",
      "ine:provincia": "31",
      "official_name": "Provincia de Navarra",
      "official_name:be": "Правінцыя Навара",
      "official_name:de": "Provinz Navarra",
      "official_name:en": "Province of Navarre",
      "official_name:es": "Provincia de Navarra",
      "official_name:fr": "Province de Navarre"
    }
  },
  {
    "osm_id": -349027,
    "boundary": "administrative",
    "admin_level": 4,
    "parents": "-1311341",
    "name": "Navarre",
    "local_name": "Navarra - Nafarroa",
    "name_en": "Navarre",
    "all_tags": {
      "name": "Navarra - Nafarroa",
      "place": "state",
      "name:be": "Навара",
      "name:br": "Navarra",
      "name:ca": "Navarra",
      "name:cs": "Navarra",
      "name:de": "Navarra",
      "name:el": "Ναβάρρα",
      "name:en": "Navarre",
      "name:es": "Navarra",
      "name:eu": "Nafarroa",
      "name:fr": "Navarre",
      "name:hu": "Navarra",
      "name:ja": "ナバーラ州",
      "name:pl": "Nawarra",
      "name:pt": "Navarra",
      "name:ru": "Наварра",
      "name:sk": "Navarra",
      "boundary": "administrative",
      "ine:ccaa": "15",
      "ref:nuts": "ES22",
      "way_area": "1.14087",
      "wikidata": "Q4018",
      "ISO3166-2": "ES-NC",
      "wikipedia": "eu:Nafarroa Garaia",
      "ref:nuts:2": "ES22",
      "admin_level": "4",
      "border_type": "region",
      "official_name": "Comunidad Foral de Navarra",
      "official_name:be": "Аўтаномная супольнасць Навара",
      "official_name:ca": "Comunitat Foral de Navarra",
      "official_name:de": "Foralgemeinschaft Navarra",
      "official_name:en": "Chartered Community of Navarre",
      "official_name:es": "Comunidad Foral de Navarra",
      "official_name:eu": "Nafarroako Foru Komunitatea",
      "official_name:fr": "Communauté forale de Navarre",
      "official_name:hu": "Navarrai autonóm körzet",
      "official_name:oc": "Comunautat Forala de Navarra"
    }
  },
  {
    "osm_id": -349000,
    "boundary": "administrative",
    "admin_level": 6,
    "parents": "-349043,-1311341",
    "name": "Valencia",
    "local_name": "València / Valencia",
    "name_en": "Valencia",
    "all_tags": {
      "name": "València / Valencia",
      "name:ar": "فالنسيا",
      "name:be": "Валенсія",
      "name:ca": "València",
      "name:de": "Valencia",
      "name:el": "Βαλένθια",
      "name:en": "Valencia",
      "name:es": "Valencia",
      "name:eu": "Valentzia",
      "name:fr": "Valence",
      "name:it": "Valencia",
      "name:la": "Valentia",
      "name:lt": "Valensija",
      "name:lv": "Valensija",
      "name:nl": "Valencia",
      "name:pl": "Walencja",
      "name:ru": "Валенсия",
      "name:sr": "Валенсија",
      "name:uk": "Валенсія",
      "name:zh": "華倫西亞省",
      "boundary": "administrative",
      "ref:nuts": "ES523",
      "way_area": "1.1302",
      "wikidata": "Q54939",
      "ISO3166-2": "ES-V",
      "wikipedia": "es:Provincia de Valencia",
      "ref:nuts:3": "ES523",
      "admin_level": "6",
      "alt_name:el": "Βαλένσια",
      "border_type": "province",
      "name:zh-Hans": "巴伦西亚省",
      "name:zh-Hant": "巴倫西亞省",
      "ine:provincia": "46",
      "official_name": "Provincia de València/Valencia",
      "name:ca-valencia": "València",
      "official_name:be": "Правінцыя Валенсія",
      "official_name:ca": "Província de València",
      "official_name:de": "Provinz Valencia",
      "official_name:es": "Provincia de Valencia",
      "official_name:fr": "Province de Valence",
      "old_name:ca-valencia": "València"
    }
  },
  {
    "osm_id": -349005,
    "boundary": "administrative",
    "admin_level": 6,
    "parents": "-349041,-1311341",
    "name": "Soria",
    "local_name": "Soria",
    "name_en": null,
    "all_tags": {
      "name": "Soria",
      "name:ar": "سريا",
      "name:be": "Сорыя",
      "name:ca": "Sòria",
      "name:el": "Σόρια",
      "name:es": "Soria",
      "name:fa": "سریا",
      "name:pt": "Sória",
      "name:ur": "سریا",
      "boundary": "administrative",
      "ref:nuts": "ES417",
      "way_area": "1.11352",
      "wikidata": "Q55276",
      "ISO3166-2": "ES-SO",
      "wikipedia": "es:Provincia de Soria",
      "ref:nuts:3": "ES417",
      "admin_level": "6",
      "alt_name:ar": "سرية;سوريا",
      "ine:provincia": "42",
      "official_name": "Provincia de Soria",
      "official_name:ar": "مقاطعة سريا",
      "official_name:be": "Правінцыя Сорыя",
      "official_name:pt": "Província de Sória"
    }
  },
  {
    "osm_id": -349045,
    "boundary": "administrative",
    "admin_level": 4,
    "parents": "-1311341",
    "name": "Aragon",
    "local_name": "Aragón",
    "name_en": "Aragon",
    "all_tags": {
      "name": "Aragón",
      "name:ar": "أرغون",
      "name:be": "Арагон",
      "name:br": "Aragon",
      "name:ca": "Aragó",
      "name:cs": "Aragonie",
      "name:de": "Aragonien",
      "name:el": "Αραγωνία",
      "name:en": "Aragon",
      "name:es": "Aragón",
      "name:eu": "Aragoi",
      "name:fr": "Aragon",
      "name:hu": "Aragónia",
      "name:ja": "アラゴン州",
      "name:lt": "Aragonas",
      "name:oc": "Aragon",
      "name:pl": "Aragonia",
      "name:pt": "Aragão",
      "name:ru": "Арагон",
      "name:sk": "Aragónsko",
      "website": "http://www.aragon.es/",
      "boundary": "administrative",
      "ine:ccaa": "02",
      "name:tzl": "Arac'hon",
      "ref:nuts": "ES24",
      "way_area": "5.14828",
      "wikidata": "Q4040",
      "ISO3166-2": "ES-AR",
      "wikipedia": "es:Aragón",
      "ref:nuts:2": "ES24",
      "admin_level": "4",
      "alt_name:ar": "راغون;راقون",
      "official_name": "Aragón"
    }
  },
  {
    "osm_id": -349013,
    "boundary": "administrative",
    "admin_level": 4,
    "parents": "-1311341",
    "name": "Cantabria",
    "local_name": "Cantabria",
    "name_en": null,
    "all_tags": {
      "name": "Cantabria",
      "name:ar": "كانتابريا",
      "name:be": "Кантабрыя",
      "name:ca": "Cantàbria",
      "name:de": "Kantabrien",
      "name:es": "Cantabria",
      "name:eu": "Kantabria",
      "name:fr": "Cantabrie",
      "name:hu": "Kantábria",
      "name:ja": "カンタブリア州",
      "name:pl": "Kantabria",
      "name:ru": "Кантабрия",
      "name:sk": "Kantábria",
      "boundary": "administrative",
      "ine:ccaa": "06",
      "ref:nuts": "ES13",
      "way_area": "0.590013",
      "wikidata": "Q3946",
      "ISO3166-2": "ES-CB",
      "wikipedia": "es:Cantabria",
      "ref:nuts:2": "ES13",
      "admin_level": "4",
      "border_type": "region"
    }
  },
  {
    "osm_id": -6426101,
    "boundary": "administrative",
    "admin_level": 6,
    "parents": "-349013,-1311341",
    "name": "Cantabria",
    "local_name": "Cantabria",
    "name_en": "Cantabria",
    "all_tags": {
      "name": "Cantabria",
      "name:ar": "منطقة كانتابريا",
      "name:be": "Кантабрыя",
      "name:bg": "Кантабрия",
      "name:ca": "Cantabria",
      "name:cs": "Kantábrie",
      "name:en": "Cantabria",
      "name:eo": "Kantabrio",
      "name:es": "Cantabria",
      "name:eu": "Kantabria",
      "name:fa": "استان کانتابریا",
      "name:fr": "Cantabria",
      "name:he": "קנטבריה",
      "name:hu": "Cantabria",
      "name:ja": "カンタブリア州",
      "name:lt": "Kantabrija",
      "name:os": "Кантабри",
      "name:pt": "Cantabria",
      "name:ru": "Кантабрия",
      "name:zh": "坎塔布里亚",
      "boundary": "administrative",
      "ref:nuts": "ES130",
      "way_area": "0.590013",
      "wikidata": "Q31920747",
      "ISO3166-2": "ES-S",
      "wikipedia": "es:Cantabria",
      "ref:nuts:3": "ES130",
      "admin_level": "6",
      "ine:provincia": "39",
      "official_name": "Provincia de Cantabria",
      "official_name:be": "Правінцыя Кантабрыя",
      "official_name:de": "Provinz Cantabria",
      "official_name:en": "Province of Cantabria",
      "official_name:es": "Provincia de Cantabria",
      "official_name:fr": "Province de Cantabria",
      "official_name:pt": "Província de Cantabria"
    }
  },
  {
    "osm_id": -349011,
    "boundary": "administrative",
    "admin_level": 6,
    "parents": "-349042,-1311341",
    "name": "Álava",
    "local_name": "Araba/Álava",
    "name_en": "Álava",
    "all_tags": {
      "name": "Araba/Álava",
      "place": "province",
      "name:be": "Алава",
      "name:ca": "Àlaba",
      "name:el": "Άλαβα",
      "name:en": "Álava",
      "name:es": "Álava",
      "name:eu": "Araba",
      "name:fr": "Alava",
      "name:ja": "アラバ",
      "name:ru": "Алава",
      "name:zh": "阿拉瓦",
      "ref:ine": "01",
      "boundary": "administrative",
      "ref:nuts": "ES211",
      "way_area": "0.334564",
      "wikidata": "Q81801",
      "ISO3166-2": "ES-VI",
      "wikipedia": "eu:Araba",
      "ref:nuts:3": "ES211",
      "admin_level": "6",
      "alt_name:el": "Αράμπα;Αράβα",
      "ine:provincia": "01"
    }
  },
  {
    "osm_id": -349048,
    "boundary": "administrative",
    "admin_level": 4,
    "parents": "-1311341",
    "name": "Canary Islands",
    "local_name": "Canarias",
    "name_en": "Canary Islands",
    "all_tags": {
      "name": "Canarias",
      "place": "state",
      "name:ar": "جزر الكناري",
      "name:be": "Канарскія астравы",
      "name:ca": "Canàries",
      "name:de": "Kanarische Inseln",
      "name:el": "Κανάρια Νησιά",
      "name:en": "Canary Islands",
      "name:es": "Canarias",
      "name:fi": "Kanariansaaret",
      "name:fr": "Îles Canaries",
      "name:hr": "Kanari",
      "name:hu": "Kanári-szigetek",
      "name:is": "Kanaríeyjar",
      "name:it": "Canarie",
      "name:ja": "カナリア諸島州",
      "name:nl": "Canarische Eilanden",
      "name:pl": "Wyspy Kanaryjskie",
      "name:pt": "Canárias",
      "name:ru": "Канарские острова",
      "name:sk": "Kanárske ostrovy",
      "name:sl": "Kanarski otoki",
      "name:sv": "Kanarieöarna",
      "name:zh": "加那利群岛",
      "website": "http://www.gobcan.es/",
      "boundary": "administrative",
      "ine:ccaa": "05",
      "ref:nuts": "ES70",
      "way_area": "0.68521",
      "wikidata": "Q5813",
      "ISO3166-2": "ES-CN",
      "wikipedia": "es:Canarias",
      "ref:nuts:1": "ES7",
      "ref:nuts:2": "ES70",
      "admin_level": "4",
      "alt_name:de": "Kanaren",
      "alt_name:fr": "Canaries",
      "alt_name:ru": "Канары",
      "border_type": "region",
      "official_name": "Canarias"
    }
  },
  {
    "osm_id": -349055,
    "boundary": "administrative",
    "admin_level": 4,
    "parents": "-1311341",
    "name": "Community of Madrid",
    "local_name": "Comunidad de Madrid",
    "name_en": "Community of Madrid",
    "all_tags": {
      "name": "Comunidad de Madrid",
      "place": "state",
      "name:ar": "منطقة مدريد",
      "name:be": "Мадрыд",
      "name:ca": "Comunitat de Madrid",
      "name:de": "Autonome Gemeinschaft Madrid",
      "name:en": "Community of Madrid",
      "name:es": "Comunidad de Madrid",
      "name:fa": "بخش خودمختار مادرید",
      "name:fr": "Communauté de Madrid",
      "name:hu": "Madrid közösség",
      "name:is": "Sjálfstjórnarhéraðið Madríd",
      "name:ja": "マドリード州",
      "name:pl": "Wspólnota Madrytu",
      "name:pt": "Comunidade de Madrid",
      "name:ru": "Мадрид",
      "name:sk": "Madridské spoločenstvo",
      "name:ur": "میدرد کمیونٹی",
      "boundary": "administrative",
      "ine:ccaa": "13",
      "ref:nuts": "ES30",
      "way_area": "0.852824",
      "wikidata": "Q5756",
      "ISO3166-2": "ES-MD",
      "idee:name": "Madrid, Comunidad de",
      "wikipedia": "es:Comunidad de Madrid",
      "ref:nuts:2": "ES30",
      "admin_level": "4",
      "border_type": "province",
      "official_name": "Comunidad de Madrid",
      "official_name:ar": "منطقة مدريد",
      "official_name:be": "Аўтаномная супольнасць Мадрыд",
      "official_name:es": "Comunidad de Madrid"
    }
  },
  {
    "osm_id": -9805462,
    "boundary": "religious_administration",
    "admin_level": 6,
    "parents": "-349045,-1311341",
    "name": "Diócesis de Tarazona",
    "local_name": "Diócesis de Tarazona",
    "name_en": null,
    "all_tags": {
      "name": "Diócesis de Tarazona",
      "name:eu": "Tarazonako elizbarrutia",
      "boundary": "religious_administration",
      "religion": "christian",
      "way_area": "0.47446",
      "admin_level": "6",
      "denomination": "roman_catholic"
    }
  },
  {
    "osm_id": -349042,
    "boundary": "administrative",
    "admin_level": 4,
    "parents": "-1311341",
    "name": "Autonomous Community of the Basque Country",
    "local_name": "Euskadi",
    "name_en": "Autonomous Community of the Basque Country",
    "all_tags": {
      "name": "Euskadi",
      "place": "state",
      "name:ar": "إقليم الباسك",
      "name:be": "Краіна Баскаў",
      "name:br": "Euskadi",
      "name:ca": "Comunitat autònoma del País Basc",
      "name:cs": "Baskicko",
      "name:de": "Autonome Gemeinschaft Baskenland",
      "name:el": "Χώρα των Βάσκων",
      "name:en": "Autonomous Community of the Basque Country",
      "name:eo": "Eŭska Aŭtonoma Komunumo",
      "name:es": "País Vasco",
      "name:eu": "Euskadi",
      "name:fi": "Baskimaa",
      "name:fr": "Pays basque autonome",
      "name:fy": "Baskelân",
      "name:hr": "Baskija",
      "name:hu": "Baszkföld",
      "name:io": "Baskia",
      "name:is": "Baskaland",
      "name:ja": "バスク州",
      "name:lt": "Comunità autonome del Paese Basco",
      "name:ms": "Negara basque",
      "name:nl": "Autonome Gemeenschap Baskenland",
      "name:pl": "Kraj Basków",
      "name:pt": "Comunidade Autónoma do País Basco",
      "name:ru": "Страна Басков",
      "name:sc": "Paisu Bascu",
      "name:sk": "Baskicko",
      "name:sl": "Baskija",
      "name:sq": "Baskia",
      "name:sr": "Баскија",
      "name:sv": "Baskien",
      "name:tl": "Bayang Basko",
      "name:tr": "Bask Bölgesi",
      "name:wa": "Euskadeye",
      "name:zh": "巴斯克",
      "boundary": "administrative",
      "ine:ccaa": "16",
      "name:scn": "Paisi Baschi",
      "name:tok": "ma Esuka",
      "name:tzl": "Euscadì",
      "name:vec": "Paexi Baschi",
      "ref:nuts": "ES21",
      "way_area": "0.79909",
      "wikidata": "Q3995",
      "ISO3166-2": "ES-PV",
      "wikipedia": "es:País Vasco",
      "ref:nuts:2": "ES21",
      "admin_level": "4",
      "alt_name:eo": "Eŭskio",
      "border_type": "region",
      "official_name": "Euskal Autonomia Erkidegoa / Comunidad Autónoma del País Vasco",
      "official_name:ar": "منطقة إقليم الباسك",
      "official_name:es": "Comunidad Autónoma del País Vasco",
      "official_name:eu": "Euskal Autonomia Erkidegoa",
      "official_name:fr": "Communauté autonome basque",
      "official_name:zh": "巴斯克自治区"
    }
  },
  {
    "osm_id": -349022,
    "boundary": "administrative",
    "admin_level": 6,
    "parents": "-349045,-1311341",
    "name": "Huesca",
    "local_name": "Huesca",
    "name_en": "Huesca",
    "all_tags": {
      "name": "Huesca",
      "place": "province",
      "name:an": "Uesca",
      "name:ar": "وشقة",
      "name:be": "Уэска",
      "name:bg": "Уеска",
      "name:ca": "Osca",
      "name:el": "Ουέσκα",
      "name:en": "Huesca",
      "name:es": "Huesca",
      "name:fa": "هوئسکا",
      "name:fr": "Huesca",
      "name:he": "אואסקה",
      "name:hu": "Huesca",
      "name:ja": "ウエスカ",
      "name:la": "Osca",
      "name:lt": "Hueska",
      "name:oc": "Òsca",
      "name:ru": "Уэска",
      "name:sr": "Уеска",
      "boundary": "administrative",
      "ref:nuts": "ES241",
      "way_area": "1.70471",
      "wikidata": "Q55182",
      "ISO3166-2": "ES-HU",
      "wikipedia": "es:Provincia de Huesca",
      "ref:nuts:3": "ES241",
      "admin_level": "6",
      "admin_type:ES": "provincia",
      "ine:provincia": "22",
      "official_name": "Provincia de Huesca",
      "official_name:an": "Provincia de Uesca",
      "official_name:be": "Правінцыя Уэска",
      "official_name:ca": "Província d'Osca",
      "official_name:es": "Provincia de Huesca"
    }
  },
  {
    "osm_id": -348991,
    "boundary": "administrative",
    "admin_level": 4,
    "parents": "-1311341",
    "name": "Rioja",
    "local_name": "La Rioja",
    "name_en": "Rioja",
    "all_tags": {
      "name": "La Rioja",
      "name:ar": "لا ريوخا",
      "name:be": "Рыёха",
      "name:ca": "La Rioja",
      "name:cs": "La Rioja",
      "name:el": "Λα Ριόχα",
      "name:en": "Rioja",
      "name:es": "La Rioja",
      "name:eu": "Errioxa",
      "name:fr": "La Rioja",
      "name:hu": "La Rioja",
      "name:ja": "ラ・リオハ州",
      "name:pl": "La Rioja",
      "name:pt": "La Rioja",
      "name:ru": "Риоха",
      "name:sk": "La Rioja",
      "boundary": "administrative",
      "ine:ccaa": "17",
      "ref:nuts": "ES23",
      "way_area": "0.550612",
      "wikidata": "Q5727",
      "ISO3166-2": "ES-RI",
      "wikipedia": "es:La Rioja (España)",
      "ref:nuts:2": "ES23",
      "admin_level": "4",
      "border_type": "region",
      "official_name": "La Rioja"
    }
  },
  {
    "osm_id": -6426654,
    "boundary": "administrative",
    "admin_level": 6,
    "parents": "-348991,-1311341",
    "name": "Rioja",
    "local_name": "La Rioja",
    "name_en": "Rioja",
    "all_tags": {
      "name": "La Rioja",
      "name:ar": "لا ريوخا",
      "name:be": "Ла-Рыёха",
      "name:ca": "La Rioja",
      "name:el": "Λα Ριόχα",
      "name:en": "Rioja",
      "name:es": "La Rioja",
      "name:eu": "Errioxa",
      "name:fr": "La Rioja",
      "name:pl": "La Rioja",
      "name:pt": "La Rioja",
      "name:ru": "Риоха",
      "boundary": "administrative",
      "ref:nuts": "ES230",
      "way_area": "0.550612",
      "wikidata": "Q5727",
      "ISO3166-2": "ES-LO",
      "wikipedia": "es:La Rioja (España)",
      "ref:nuts:3": "ES230",
      "admin_level": "6",
      "ine:provincia": "26",
      "official_name": "La Rioja"
    }
  },
  {
    "osm_id": -349016,
    "boundary": "administrative",
    "admin_level": 6,
    "parents": "-349044,-1311341",
    "name": "Cordova",
    "local_name": "Córdoba",
    "name_en": "Cordova",
    "all_tags": {
      "name": "Córdoba",
      "name:ar": "قرطبة",
      "name:be": "Кордава",
      "name:bg": "Кордоба",
      "name:ca": "Província de Còrdova",
      "name:el": "Κόρδοβα",
      "name:en": "Cordova",
      "name:es": "Córdoba",
      "name:eu": "Kordoba",
      "name:fr": "Cordoue",
      "name:he": "קורדובה",
      "name:id": "Kordoba",
      "name:it": "Cordova",
      "name:ja": "コルドバ",
      "name:pt": "Córdova",
      "name:ru": "Кордова",
      "name:sr": "Кордоба",
      "boundary": "administrative",
      "name:ext": "Córduba",
      "ref:nuts": "ES613",
      "way_area": "1.41225",
      "wikidata": "Q81972",
      "ISO3166-2": "ES-CO",
      "wikipedia": "es:Provincia de Córdoba (España)",
      "ref:nuts:3": "ES613",
      "admin_level": "6",
      "ine:provincia": "14",
      "official_name:be": "Правінцыя Кордава",
      "official_name:es": "Provincia de Córdoba"
    }
  },
  {
    "osm_id": -5921806,
    "boundary": "administrative",
    "admin_level": 4,
    "parents": "-1311341",
    "name": "Plazas de Soberanía",
    "local_name": "Plazas de Soberanía",
    "name_en": null,
    "all_tags": {
      "name": "Plazas de Soberanía",
      "name:ar": "بلاثاس دي سوبيرانيا",
      "name:es": "Plazas de Soberanía",
      "name:fa": "پلاساس د سبرانیا",
      "name:ur": "خود مختار مقامات",
      "boundary": "administrative",
      "name:lrc": "پلاتاس دی سوبرانیا",
      "timezone": "Europe/Madrid",
      "way_area": "5.8946e-05",
      "wikidata": "Q191011",
      "wikipedia": "es:Plazas de soberanía",
      "admin_level": "4",
      "alt_name:ar": "مواقع السيادة",
      "wikipedia:ar": "بلاثاس دي سوبيرانيا"
    }
  },
  {
    "osm_id": -349007,
    "boundary": "administrative",
    "admin_level": 6,
    "parents": "-349041,-1311341",
    "name": "Segovia",
    "local_name": "Segovia",
    "name_en": null,
    "all_tags": {
      "name": "Segovia",
      "name:ar": "شقوبية",
      "name:be": "Сеговія",
      "name:ca": "Segòvia",
      "name:el": "Σεγόβια",
      "name:fa": "سگوبیا",
      "name:fr": "Ségovie",
      "name:ru": "Сеговия",
      "name:ur": "شقوبیہ",
      "boundary": "administrative",
      "ref:nuts": "ES416",
      "way_area": "0.742855",
      "wikidata": "Q55283",
      "ISO3166-2": "ES-SG",
      "wikipedia": "es:Provincia de Segovia",
      "ref:nuts:3": "ES416",
      "admin_level": "6",
      "alt_name:ar": "شقوبي;شقوبيه;أشقوبيه;سيجوفيا",
      "ine:provincia": "40",
      "official_name:ar": "مقاطعة شقوبية",
      "official_name:be": "Правінцыя Сеговія"
    }
  }
]
