[
  {
    "osm_id": -918897,
    "boundary": "administrative",
    "admin_level": 6,
    "parents": "-2579841,-2375172,-54224",
    "name": "South Savo",
    "local_name": "Etelä-Savo",
    "name_en": "South Savo",
    "all_tags": {
      "ref": "FI131",
      "name": "Etelä-Savo",
      "name:cs": "Jižní Savo",
      "name:de": "Südsavo",
      "name:en": "South Savo",
      "name:fi": "Etelä-Savo",
      "name:fr": "Savonie du Sud",
      "name:hu": "Dél-Szavónia",
      "name:nl": "Zuid-Savo",
      "name:ru": "Этеля-Саво",
      "name:se": "Lulli-Savo",
      "name:sv": "Södra Savolax",
      "boundary": "administrative",
      "ref:nuts": "FI1D1",
      "way_area": "2.91376",
      "wikidata": "Q5693",
      "ISO3166-2": "FI-04",
      "wikipedia": "fi:Etelä-Savon maakunta",
      "ref:nuts:3": "FI1D1",
      "admin_level": "6",
      "official_name:en": "South Savo County",
      "is_in:country_code": "FI"
    }
  },
  {
    "osm_id": -2375171,
    "boundary": "administrative",
    "admin_level": 6,
    "parents": "-2587236,-2375170,-1650407,-54224",
    "name": "Åland Islands",
    "local_name": "Landskapet Åland",
    "name_en": "Åland Islands",
    "all_tags": {
      "ref": "FI200",
      "name": "Landskapet Åland",
      "name:cs": "Ålandy",
      "name:de": "Åland-Inseln",
      "name:en": "Åland Islands",
      "name:fi": "Ahvenanmaan maakunta",
      "name:hu": "Åland-szigetek",
      "name:ru": "Аландские острова",
      "name:sv": "Landskapet Åland",
      "boundary": "administrative",
      "way_area": "2.15403",
      "wikidata": "Q5689",
      "ISO3166-2": "FI-01",
      "wikipedia": "sv:Åland",
      "admin_level": "6",
      "is_in:country_code": "FI"
    }
  },
  {
    "osm_id": -2375170,
    "boundary": "historic",
    "admin_level": 4,
    "parents": "-1650407,-54224",
    "name": "Åland Islands",
    "local_name": "Åland",
    "name_en": "Åland Islands",
    "all_tags": {
      "ref": "FI20",
      "name": "Åland",
      "name:ar": "جزر أولاند",
      "name:de": "Åland",
      "name:en": "Åland Islands",
      "name:es": "Åland",
      "name:fi": "Ahvenanmaa",
      "name:fr": "Åland",
      "name:hu": "Åland-szigetek",
      "name:nl": "Ålandseilanden",
      "name:ru": "Аландские острова",
      "name:sk": "Alandy",
      "name:sv": "Åland",
      "boundary": "historic",
      "int_name": "Åland",
      "way_area": "2.15403",
      "wikidata": "Q5689",
      "ref:nuts:2": "FI20",
      "ref:nuts:3": "FI200",
      "admin_level": "4",
      "ISO3166-2:old": "FI-AL",
      "is_in:country": "Finland",
      "is_in:continent": "Europe",
      "is_in:country_code": "FI"
    }
  },
  {
    "osm_id": -2587236,
    "boundary": "historic",
    "admin_level": 5,
    "parents": "-2375170,-1650407,-54224",
    "name": "Regional State Agency Åland",
    "local_name": "Regional State Agency Åland",
    "name_en": null,
    "all_tags": {
      "name": "Regional State Agency Åland",
      "name:ru": "Государственное агентство Аландских островов",
      "boundary": "historic",
      "way_area": "2.15403",
      "admin_level": "5"
    }
  },
  {
    "osm_id": -1702330,
    "boundary": "administrative",
    "admin_level": 6,
    "parents": "-2526815,-2375172,-54224",
    "name": "Central Ostrobothnia",
    "local_name": "Keski-Pohjanmaa",
    "name_en": "Central Ostrobothnia",
    "all_tags": {
      "ref": "FI1A1",
      "name": "Keski-Pohjanmaa",
      "name:cs": "Střední Pohjanmaa",
      "name:de": "Mittelösterbotten",
      "name:en": "Central Ostrobothnia",
      "name:fi": "Keski-Pohjanmaa",
      "name:fr": "Ostrobotnie centrale",
      "name:hu": "Közép-Pohjanmaa",
      "name:nl": "Centraal-Oost-Botnië",
      "name:ru": "Кески-Похьянмаа",
      "name:sv": "Mellersta Österbotten",
      "boundary": "administrative",
      "ref:nuts": "FI1D5",
      "way_area": "1.17135",
      "wikidata": "Q5696",
      "ISO3166-2": "FI-07",
      "ref:nuts:3": "FI1D5",
      "admin_level": "6",
      "official_name:en": "Central Ostrobothnia County",
      "is_in:country_code": "FI"
    }
  },
  {
    "osm_id": -38092,
    "boundary": "administrative",
    "admin_level": 6,
    "parents": "-2505139,-38091,-2375172,-54224",
    "name": "Southwest Finland",
    "local_name": "Varsinais-Suomi",
    "name_en": "Southwest Finland",
    "all_tags": {
      "ref": "FI183",
      "name": "Varsinais-Suomi",
      "name:cs": "Vlastní Finsko",
      "name:de": "Eigentliches Finnland",
      "name:en": "Southwest Finland",
      "name:fi": "Varsinais-Suomi",
      "name:hu": "Valódi Finnország",
      "name:ru": "Варсинайс-Суоми",
      "name:sv": "Egentliga Finland",
      "boundary": "administrative",
      "ref:nuts": "FI1C1",
      "way_area": "3.36559",
      "wikidata": "Q5712",
      "ISO3166-2": "FI-19",
      "wikipedia": "fi:Varsinais-Suomen maakunta",
      "ref:nuts:3": "FI1C1",
      "admin_level": "6",
      "alt_name:en": "Finland Proper",
      "official_name:en": "Southwest Finland County",
      "is_in:country_code": "FI"
    }
  },
  {
    "osm_id": -2000361,
    "boundary": "administrative",
    "admin_level": 6,
    "parents": "-2505139,-38091,-2375172,-54224",
    "name": "Satakunta",
    "local_name": "Satakunta",
    "name_en": "Satakunta",
    "all_tags": {
      "ref": "FI196",
      "name": "Satakunta",
      "name:en": "Satakunta",
      "name:fi": "Satakunta",
      "name:hu": "Satakunta",
      "name:ru": "Сатакунта",
      "name:sv": "Satakunda",
      "old_ref": "FI191",
      "boundary": "administrative",
      "ref:nuts": "FI196",
      "way_area": "1.93793",
      "wikidata": "Q5709",
      "ISO3166-2": "FI-17",
      "wikipedia": "fi:Satakunnan maakunta",
      "ref:nuts:3": "FI196",
      "admin_level": "6",
      "official_name:en": "Satakunta County",
      "is_in:country_code": "FI"
    }
  },
  {
    "osm_id": -37355,
    "boundary": "administrative",
    "admin_level": 6,
    "parents": "-2579844,-38090,-2375172,-54224",
    "name": "Uusimaa",
    "local_name": "Uusimaa",
    "name_en": "Uusimaa",
    "all_tags": {
      "ref": "FI181",
      "name": "Uusimaa",
      "name:en": "Uusimaa",
      "name:fi": "Uusimaa",
      "name:hu": "Uusimaa",
      "name:ru": "Уусимаа",
      "name:sv": "Nyland",
      "boundary": "administrative",
      "ref:nuts": "FI1B;FI1B1",
      "way_area": "2.59946",
      "wikidata": "Q5711",
      "ISO3166-2": "FI-18",
      "wikipedia": "fi:Uudenmaan maakunta",
      "ref:nuts:2": "FI1B",
      "ref:nuts:3": "FI1B1",
      "admin_level": "6",
      "official_name": "Uudenmaan maakunta",
      "official_name:en": "Uusimaa County",
      "official_name:fi": "Uudenmaan maakunta",
      "official_name:sv": "Nylands landskap",
      "is_in:country_code": "FI"
    }
  },
  {
    "osm_id": -38091,
    "boundary": "historic",
    "admin_level": 4,
    "parents": "-2375172,-54224",
    "name": "Western Finland",
    "local_name": "Länsi-Suomi",
    "name_en": "Western Finland",
    "all_tags": {
      "ref": "FI19",
      "name": "Länsi-Suomi",
      "name:ar": "فنلندا الغربية",
      "name:de": "Westfinnland",
      "name:en": "Western Finland",
      "name:es": "Finlandia Occidental",
      "name:fi": "Länsi-Suomi",
      "name:fr": "Finlande occidentale",
      "name:lt": "Vakarų Suomija",
      "name:ru": "Западная Финляндия",
      "name:sk": "Západné Fínsko",
      "name:sv": "Västra Finland",
      "boundary": "historic",
      "end_date": "2009_12_31",
      "way_area": "16.9416",
      "wikidata": "Q192759",
      "ISO3166-2": "FI-LS",
      "wikipedia": "en:Western Finland Province",
      "start_date": "1997",
      "admin_level": "4"
    }
  },
  {
    "osm_id": -1701741,
    "boundary": "administrative",
    "admin_level": 6,
    "parents": "-2526815,-2375172,-54224",
    "name": "Pirkanmaa",
    "local_name": "Pirkanmaa",
    "name_en": "Pirkanmaa",
    "all_tags": {
      "ref": "FI197",
      "name": "Pirkanmaa",
      "name:en": "Pirkanmaa",
      "name:fi": "Pirkanmaa",
      "name:hu": "Pirkanmaa",
      "name:lt": "Pirkanma",
      "name:ru": "Пирканмаа",
      "name:sv": "Birkaland",
      "old_ref": "FI192",
      "boundary": "administrative",
      "ref:nuts": "FI197",
      "way_area": "2.63617",
      "wikidata": "Q5701",
      "ISO3166-2": "FI-11",
      "wikipedia": "fi:Pirkanmaan maakunta",
      "ref:nuts:3": "FI197",
      "admin_level": "6",
      "official_name:en": "Pirkanmaa County"
    }
  },
  {
    "osm_id": -38090,
    "boundary": "historic",
    "admin_level": 4,
    "parents": "-2375172,-54224",
    "name": "Southern Finland",
    "local_name": "Etelä-Suomi",
    "name_en": "Southern Finland",
    "all_tags": {
      "ref": "FI18",
      "name": "Etelä-Suomi",
      "name:ar": "فنلندا الجنوبية",
      "name:be": "Паўднёвая Фінляндыя",
      "name:de": "Südfinnland",
      "name:en": "Southern Finland",
      "name:es": "Finlandia Meridional",
      "name:et": "Lõuna-Soome lään",
      "name:fi": "Etelä-Suomi",
      "name:fr": "Finlande méridionale",
      "name:hu": "Dél-Finnország",
      "name:lt": "Pietų Suomija",
      "name:lv": "Dienvidsomija",
      "name:pl": "Finlandia Południowa",
      "name:pt": "Finlândia Meridional",
      "name:ru": "Южная Финляндия",
      "name:sk": "Južné Fínsko",
      "name:sv": "Södra Finland",
      "boundary": "historic",
      "end_date": "2009-12-31",
      "way_area": "7.0223",
      "wikidata": "Q188752",
      "ISO3166-2": "FI-ES",
      "wikipedia": "en:Southern Finland Province",
      "start_date": "1997",
      "admin_level": "4",
      "was:official_name": "Etelä-Suomen lääni",
      "was:official_name:fi": "Etelä-Suomen lääni",
      "was:official_name:sv": "Södra Finlands län"
    }
  },
  {
    "osm_id": -2579844,
    "boundary": "administrative",
    "admin_level": 5,
    "parents": "-38090,-2375172,-54224",
    "name": "Southern Finland",
    "local_name": "Etelä-Suomen aluehallintovirasto",
    "name_en": "Southern Finland",
    "all_tags": {
      "name": "Etelä-Suomen aluehallintovirasto",
      "name:da": "Sydfinlands regionsforvaltning",
      "name:de": "Südfinnland",
      "name:en": "Southern Finland",
      "name:fi": "Etelä-Suomen aluehallintovirasto",
      "name:ru": "Агентство регионального управления Южной Финляндии",
      "name:sk": "Južné Fínsko",
      "name:sv": "Södra Finlands regionförvaltningsverk",
      "boundary": "administrative",
      "way_area": "6.96147",
      "admin_level": "5",
      "ISO3166-2:old": "FI-ES"
    }
  },
  {
    "osm_id": -1703362,
    "boundary": "administrative",
    "admin_level": 6,
    "parents": "-2579844,-38090,-2375172,-54224",
    "name": "Päijät-Häme",
    "local_name": "Päijät-Häme",
    "name_en": "Päijät-Häme",
    "all_tags": {
      "ref": "FI185",
      "name": "Päijät-Häme",
      "name:en": "Päijät-Häme",
      "name:fi": "Päijät-Häme",
      "name:hu": "Päijät-Häme",
      "name:ru": "Пяйят-Хяме",
      "name:sv": "Päijänne-Tavastland",
      "boundary": "administrative",
      "ref:nuts": "FI1C3",
      "way_area": "1.15728",
      "wikidata": "Q5708",
      "ISO3166-2": "FI-16",
      "wikipedia": "fi:Päijät-Hämeen maakunta",
      "ref:nuts:3": "FI1C3",
      "admin_level": "6",
      "official_name:en": "Päijät-Häme County",
      "is_in:country_code": "FI"
    }
  },
  {
    "osm_id": -2102313,
    "boundary": "administrative",
    "admin_level": 6,
    "parents": "-2579844,-38090,-2375172,-54224",
    "name": "Kymenlaakso",
    "local_name": "Kymenlaakso",
    "name_en": "Kymenlaakso",
    "all_tags": {
      "ref": "FI186",
      "name": "Kymenlaakso",
      "name:en": "Kymenlaakso",
      "name:fi": "Kymenlaakso",
      "name:hu": "Kymenlaakso",
      "name:ru": "Кюменлааксо",
      "name:sv": "Kymmenedalen",
      "boundary": "administrative",
      "ref:nuts": "FI1C4",
      "way_area": "1.11304",
      "wikidata": "Q5698",
      "ISO3166-2": "FI-09",
      "ref:nuts:3": "FI1C4",
      "admin_level": "6",
      "official_name:en": "Kymeenlaakso County"
    }
  },
  {
    "osm_id": -2067231,
    "boundary": "administrative",
    "admin_level": 6,
    "parents": "-2579844,-38090,-2375172,-54224",
    "name": "South Karelia",
    "local_name": "Etelä-Karjala",
    "name_en": "South Karelia",
    "all_tags": {
      "ref": "FI187",
      "name": "Etelä-Karjala",
      "name:cs": "Jižní Karélie",
      "name:de": "Südkarelien",
      "name:en": "South Karelia",
      "name:fi": "Etelä-Karjala",
      "name:fr": "Carélie du Sud",
      "name:hu": "Dél-Karélia",
      "name:nl": "Zuid-Karelië",
      "name:ru": "Южная Карелия",
      "name:sv": "Södra Karelen",
      "boundary": "administrative",
      "ref:nuts": "FI1C5",
      "way_area": "1.14683",
      "wikidata": "Q5691",
      "ISO3166-2": "FI-02",
      "ref:nuts:3": "FI1C5",
      "admin_level": "6",
      "addr:country": "FI",
      "official_name:en": "South Karelia County"
    }
  },
  {
    "osm_id": -1701740,
    "boundary": "administrative",
    "admin_level": 6,
    "parents": "-2526815,-2375172,-54224",
    "name": "Central Finland",
    "local_name": "Keski-Suomi",
    "name_en": "Central Finland",
    "all_tags": {
      "ref": "FI193",
      "name": "Keski-Suomi",
      "name:cs": "Střední Finsko",
      "name:de": "Mittelfinnland",
      "name:en": "Central Finland",
      "name:fi": "Keski-Suomi",
      "name:fr": "Finlande centrale",
      "name:hu": "Közép-Finnország",
      "name:lt": "Vidurio Suomija",
      "name:nl": "Centraal-Finland",
      "name:ru": "Центральная Финляндия",
      "name:sv": "Mellersta Finland",
      "boundary": "administrative",
      "ref:nuts": "FI193",
      "way_area": "3.31649",
      "wikidata": "Q5697",
      "ISO3166-2": "FI-08",
      "ref:nuts:3": "FI193",
      "admin_level": "6",
      "official_name:en": "Central Finland County",
      "is_in:country_code": "FI"
    }
  },
  {
    "osm_id": -918898,
    "boundary": "administrative",
    "admin_level": 6,
    "parents": "-2579841,-2375172,-54224",
    "name": "North Savo",
    "local_name": "Pohjois-Savo",
    "name_en": "North Savo",
    "all_tags": {
      "ref": "FI132",
      "name": "Pohjois-Savo",
      "name:cs": "Severní Savo",
      "name:de": "Nord-Savo",
      "name:en": "North Savo",
      "name:fi": "Pohjois-Savo",
      "name:fr": "Savonie du Nord",
      "name:hu": "Észak-Szavónia",
      "name:lt": "Šiaurės Savas",
      "name:nl": "Noord-Savo",
      "name:ru": "Северное Саво",
      "name:sv": "Norra Savolax",
      "boundary": "administrative",
      "ref:nuts": "FI1D2",
      "way_area": "3.74833",
      "wikidata": "Q5706",
      "ISO3166-2": "FI-15",
      "ref:nuts:3": "FI1D2",
      "admin_level": "6",
      "official_name:en": "North Savo County",
      "is_in:country_code": "FI"
    }
  },
  {
    "osm_id": -2541118,
    "boundary": "administrative",
    "admin_level": 5,
    "parents": "-2375172,-54224",
    "name": "Regional State Administrative Agency for Northern Finland",
    "local_name": "Pohjois-Suomen aluehallintovirasto",
    "name_en": "Regional State Administrative Agency for Northern Finland",
    "all_tags": {
      "name": "Pohjois-Suomen aluehallintovirasto",
      "name:de": "Regionalverwaltungsbehörde Nordfinnland",
      "name:en": "Regional State Administrative Agency for Northern Finland",
      "name:fi": "Pohjois-Suomen aluehallintovirasto",
      "name:ru": "Агентство регионального управления Северной Финляндии",
      "name:sk": "Severné Fínsko",
      "name:sv": "Norra Finlands regionförvaltningsverk",
      "boundary": "administrative",
      "way_area": "12.9292",
      "admin_level": "5",
      "ISO3166-2:old": "FI-OL"
    }
  },
  {
    "osm_id": -1724360,
    "boundary": "administrative",
    "admin_level": 6,
    "parents": "-2541118,-2375172,-54224",
    "name": "North Ostrobothnia",
    "local_name": "Pohjois-Pohjanmaa",
    "name_en": "North Ostrobothnia",
    "all_tags": {
      "ref": "FI1A2",
      "name": "Pohjois-Pohjanmaa",
      "name:cs": "Severní Pohjanmaa",
      "name:de": "Nordösterbotten",
      "name:en": "North Ostrobothnia",
      "name:fi": "Pohjois-Pohjanmaa",
      "name:fr": "Ostrobotnie du Nord",
      "name:hu": "Észak-Pohjanmaa",
      "name:nl": "Noord-Oost-Botnië",
      "name:ru": "Похьойс-Похьянмаа",
      "name:se": "Davvi-Pohjanmaa",
      "name:sv": "Norra Österbotten",
      "boundary": "administrative",
      "ref:nuts": "FI1D9",
      "way_area": "8.36212",
      "wikidata": "Q5704",
      "ISO3166-2": "FI-14",
      "ref:nuts:3": "FI1D9",
      "admin_level": "6",
      "official_name:en": "North Ostrobothnia County",
      "is_in:country_code": "FI"
    }
  },
  {
    "osm_id": -2579841,
    "boundary": "administrative",
    "admin_level": 5,
    "parents": "-2375172,-54224",
    "name": "Regional State Administrative Agency for Eastern Finland",
    "local_name": "Itä-Suomen aluehallintovirasto",
    "name_en": "Regional State Administrative Agency for Eastern Finland",
    "all_tags": {
      "name": "Itä-Suomen aluehallintovirasto",
      "name:en": "Regional State Administrative Agency for Eastern Finland",
      "name:fi": "Itä-Suomen aluehallintovirasto",
      "name:ru": "Агентство регионального управления Восточной Финляндии",
      "name:sk": "Východné Fínsko",
      "name:sv": "Östra Finlands regionförvaltningsverk",
      "boundary": "administrative",
      "way_area": "10.701",
      "admin_level": "5",
      "ISO3166-2:old": "FI-IS"
    }
  },
  {
    "osm_id": -1999428,
    "boundary": "administrative",
    "admin_level": 6,
    "parents": "-2579841,-2375172,-54224",
    "name": "North Karelia",
    "local_name": "Pohjois-Karjala",
    "name_en": "North Karelia",
    "all_tags": {
      "ref": "FI133",
      "name": "Pohjois-Karjala",
      "name:cs": "Severní Karélie",
      "name:de": "Nordkarelien",
      "name:en": "North Karelia",
      "name:fi": "Pohjois-Karjala",
      "name:fr": "Carélie du Nord",
      "name:hu": "Észak-Karélia",
      "name:nl": "Noord-Karelië",
      "name:ru": "Северная Карелия",
      "name:se": "Davvi-Gárjila",
      "name:sv": "Norra Karelen",
      "boundary": "administrative",
      "ref:nuts": "FI1D3",
      "way_area": "4.03894",
      "wikidata": "Q5703",
      "ISO3166-2": "FI-13",
      "ref:nuts:3": "FI1D3",
      "admin_level": "6",
      "official_name:en": "North Karelia County",
      "is_in:country_code": "FI"
    }
  },
  {
    "osm_id": -1997164,
    "boundary": "administrative",
    "admin_level": 6,
    "parents": "-2541118,-2375172,-54224",
    "name": "Kainuu",
    "local_name": "Kainuu",
    "name_en": null,
    "all_tags": {
      "ref": "FI134",
      "name": "Kainuu",
      "name:fi": "Kainuu",
      "name:he": "קינואו",
      "name:hu": "Kainuu",
      "name:ja": "カイヌー県",
      "name:ko": "카이누 지역",
      "name:ru": "Кайнуу",
      "name:sv": "Kajanaland",
      "name:zh": "凱努區",
      "website": "https://www.kainuu.fi/",
      "boundary": "administrative",
      "ref:nuts": "FI1D8",
      "way_area": "4.56709",
      "wikidata": "Q5694",
      "ISO3166-2": "FI-05",
      "wikipedia": "fi:Kainuun maakunta",
      "population": "73284",
      "ref:nuts:3": "FI1D8",
      "admin_level": "6",
      "official_name": "Kainuun maakunta",
      "official_name:en": "Kainuu County"
    }
  },
  {
    "osm_id": -2541341,
    "boundary": "administrative",
    "admin_level": 5,
    "parents": "-2375172,-54224",
    "name": "Lapland",
    "local_name": "Lapin aluehallintovirasto",
    "name_en": "Lapland",
    "all_tags": {
      "name": "Lapin aluehallintovirasto",
      "name:en": "Lapland",
      "name:fi": "Lapin aluehallintovirasto",
      "name:nl": "Lapland",
      "name:ru": "Агентство регионального управления Лапландии",
      "name:se": "Lappi guovlohálddahusdoaimmahat",
      "name:sk": "Laponsko",
      "name:sv": "Lapplands regionalförvaltningsverk",
      "boundary": "administrative",
      "way_area": "21.2514",
      "admin_level": "5",
      "ISO3166-2:old": "FI-LL"
    }
  },
  {
    "osm_id": -1724359,
    "boundary": "administrative",
    "admin_level": 6,
    "parents": "-2541341,-2375172,-54224",
    "name": "Lapland",
    "local_name": "Lappi",
    "name_en": "Lapland",
    "all_tags": {
      "ref": "FI1A3",
      "name": "Lappi",
      "name:cs": "Laponsko (Finsko)",
      "name:de": "Lappland",
      "name:en": "Lapland",
      "name:eo": "Sameio",
      "name:fi": "Lappi",
      "name:fy": "Laplân",
      "name:hu": "Lappföld",
      "name:it": "Lapponia",
      "name:nl": "Lapland",
      "name:ru": "Лапландия",
      "name:se": "Sápmi",
      "name:sv": "Lappland",
      "name:vo": "Samiyän",
      "boundary": "administrative",
      "int_name": "Lappi",
      "name:tok": "ma Sami",
      "ref:nuts": "FI1D7",
      "way_area": "21.2514",
      "wikidata": "Q5700",
      "ISO3166-2": "FI-10",
      "ref:nuts:3": "FI1D7",
      "admin_level": "6",
      "alt_name:eo": "Sameujo;Laponio;Laponujo",
      "alt_name:nl": "Samenland",
      "official_name:en": "Lapland County",
      "is_in:country_code": "FI"
    }
  },
  {
    "osm_id": -2000320,
    "boundary": "administrative",
    "admin_level": 6,
    "parents": "-2526815,-2375172,-54224",
    "name": "Ostrobothnia",
    "local_name": "Österbotten",
    "name_en": "Ostrobothnia",
    "all_tags": {
      "ref": "FI195",
      "name": "Österbotten",
      "name:de": "Ostbottnien",
      "name:en": "Ostrobothnia",
      "name:fi": "Pohjanmaa",
      "name:fr": "Ostrobotnie",
      "name:hu": "Pohjanmaa",
      "name:nl": "Oost-Botnië",
      "name:ru": "Похьянмаа",
      "name:sv": "Österbotten",
      "boundary": "administrative",
      "old_name": "Ostrobothnia",
      "ref:nuts": "FI195",
      "way_area": "3.1662",
      "wikidata": "Q5702",
      "ISO3166-2": "FI-12",
      "population": "181283",
      "ref:nuts:3": "FI195",
      "admin_level": "6",
      "population:date": "2015-08-31",
      "official_name:en": "Ostrobothnia County",
      "is_in:country_code": "FI",
      "start_date:old_name": "before 1532"
    }
  },
  {
    "osm_id": -1702263,
    "boundary": "administrative",
    "admin_level": 6,
    "parents": "-2526815,-2375172,-54224",
    "name": "South Ostrobothnia",
    "local_name": "Etelä-Pohjanmaa",
    "name_en": "South Ostrobothnia",
    "all_tags": {
      "ref": "FI194",
      "name": "Etelä-Pohjanmaa",
      "name:cs": "Jižní Pohjanmaa",
      "name:de": "Südösterbotten",
      "name:en": "South Ostrobothnia",
      "name:fi": "Etelä-Pohjanmaa",
      "name:fr": "Ostrobotnie du Sud",
      "name:hu": "Dél-Pohjanmaa",
      "name:nl": "Zuid-Oost-Botnië",
      "name:ru": "Этеля-Похьянмаа",
      "name:sv": "Södra Österbotten",
      "boundary": "administrative",
      "ref:nuts": "FI194",
      "way_area": "2.51923",
      "wikidata": "Q5692",
      "ISO3166-2": "FI-03",
      "ref:nuts:3": "FI194",
      "admin_level": "6",
      "official_name:en": "South Ostrobothnia County",
      "is_in:country_code": "FI"
    }
  },
  {
    "osm_id": -1473990,
    "boundary": "administrative",
    "admin_level": 6,
    "parents": "-2579844,-38090,-2375172,-54224",
    "name": "Kanta-Häme",
    "local_name": "Kanta-Häme",
    "name_en": "Kanta-Häme",
    "all_tags": {
      "ref": "FI184",
      "name": "Kanta-Häme",
      "name:de": "Eigentliche Häme",
      "name:en": "Kanta-Häme",
      "name:fi": "Kanta-Häme",
      "name:hu": "Kanta Häme",
      "name:ru": "Канта-Хяме",
      "name:sv": "Egentliga Tavastland",
      "boundary": "administrative",
      "ref:nuts": "FI1C2",
      "way_area": "0.94485",
      "wikidata": "Q5695",
      "ISO3166-2": "FI-06",
      "wikipedia": "fi:Kanta-Hämeen maakunta",
      "ref:nuts:3": "FI1C2",
      "admin_level": "6",
      "alt_name:en": "Tavastia Proper",
      "official_name:en": "Kanta-Häme County",
      "is_in:country_code": "FI"
    }
  },
  {
    "osm_id": -2505139,
    "boundary": "administrative",
    "admin_level": 5,
    "parents": "-38091,-2375172,-54224",
    "name": "South-Western Finland",
    "local_name": "Lounais-Suomen aluehallintovirasto",
    "name_en": "South-Western Finland",
    "all_tags": {
      "name": "Lounais-Suomen aluehallintovirasto",
      "name:en": "South-Western Finland",
      "name:fi": "Lounais-Suomen aluehallintovirasto",
      "name:ru": "Агентство регионального управления Юго-Западной Финляндии",
      "name:sk": "Juhozápadné Fínsko",
      "name:sv": "Sydvästra Finlands regionförvaltningsverk",
      "boundary": "administrative",
      "way_area": "5.30352",
      "wikidata": "Q3940508",
      "wikipedia": "fi:Lounais-Suomen aluehallintovirasto",
      "admin_level": "5",
      "ISO3166-2:old": "FI-LS"
    }
  },
  {
    "osm_id": -2526815,
    "boundary": "administrative",
    "admin_level": 5,
    "parents": "-2375172,-54224",
    "name": "Western and Central Finland",
    "local_name": "Länsi- ja Sisä-Suomen aluehallintovirasto",
    "name_en": "Western and Central Finland",
    "all_tags": {
      "name": "Länsi- ja Sisä-Suomen aluehallintovirasto",
      "name:da": "Vest og Indre Finlands regionsforvaltning",
      "name:en": "Western and Central Finland",
      "name:fi": "Länsi- ja Sisä-Suomen aluehallintovirasto",
      "name:ru": "Агентство регионального управления Западной и Внутренней Финляндии",
      "name:sk": "Západné Fínsko",
      "name:sv": "Västra och Inre Finlands regionförvaltningsverk",
      "boundary": "administrative",
      "way_area": "12.8094",
      "admin_level": "5"
    }
  }
]
