[
  {
    "osm_id": -1363095,
    "boundary": "administrative",
    "admin_level": 6,
    "parents": "-3412620,-2202162",
    "name": "Austral Islands",
    "local_name": "Îles Australes",
    "name_en": "Austral Islands",
    "all_tags": {
      "name": "Îles Australes",
      "place": "archipelago",
      "name:cs": "Jižní ostrovy",
      "name:de": "Austral-Inseln",
      "name:en": "Austral Islands",
      "name:fr": "Îles Australes",
      "name:ty": "Tuha’a Pae Mā",
      "boundary": "administrative",
      "timezone": "Pacific/Tahiti",
      "way_area": "0.0128639",
      "wikidata": "Q930426",
      "ref:INSEE": "9874",
      "wikipedia": "fr:Îles Australes",
      "admin_level": "6",
      "alt_name:cs": "Jižní souostroví",
      "short_name:cs": "ostrovy Tubuai"
    }
  },
  {
    "osm_id": -7451,
    "boundary": "administrative",
    "admin_level": 6,
    "parents": "-3792883,-1403916,-2202162",
    "name": "Aveyron",
    "local_name": "Aveyron",
    "name_en": null,
    "all_tags": {
      "ref": "12",
      "name": "Aveyron",
      "name:ar": "أفيرون",
      "name:br": "Avairon",
      "name:ca": "Avairon",
      "name:fa": "آویرون",
      "name:fr": "Aveyron",
      "name:oc": "Avairon",
      "name:ru": "Аверон",
      "name:ur": "اویرون",
      "boundary": "administrative",
      "ref:nuts": "FRJ22",
      "way_area": "0.989112",
      "wikidata": "Q3216",
      "ISO3166-2": "FR-12",
      "ref:INSEE": "12",
      "wikipedia": "fr:Aveyron (département)",
      "population": "279595",
      "ref:nuts:3": "FRJ22",
      "admin_level": "6",
      "border_type": "departement",
      "population:date": "2019"
    }
  },
  {
    "osm_id": -7459,
    "boundary": "administrative",
    "admin_level": 6,
    "parents": "-3792880,-1403916,-2202162",
    "name": "Creuse",
    "local_name": "Creuse",
    "name_en": null,
    "all_tags": {
      "ref": "23",
      "name": "Creuse",
      "name:br": "Cruesa",
      "name:ca": "Cruesa",
      "name:fr": "Creuse",
      "name:oc": "Cruesa",
      "name:ru": "Крёз",
      "boundary": "administrative",
      "ref:nuts": "FRI22",
      "way_area": "0.651357",
      "wikidata": "Q3353",
      "ISO3166-2": "FR-23",
      "ref:INSEE": "23",
      "wikipedia": "fr:Creuse (département)",
      "population": "116617",
      "ref:nuts:3": "FRI22",
      "admin_level": "6",
      "border_type": "departement",
      "population:date": "2019"
    }
  },
  {
    "osm_id": -6080162,
    "boundary": "administrative",
    "admin_level": 4,
    "parents": "-2186658,-2202162",
    "name": "Tromelin Island",
    "local_name": "Île Tromelin",
    "name_en": "Tromelin Island",
    "all_tags": {
      "name": "Île Tromelin",
      "name:de": "Tromelin Insel",
      "name:en": "Tromelin Island",
      "name:eo": "Tromelininsulo",
      "name:fr": "Île Tromelin",
      "name:ru": "Остров Тромлен",
      "name:uk": "Острів Тромлен",
      "name:zh": "特罗姆兰岛",
      "alt_name": "Tromelin",
      "boundary": "administrative",
      "int_name": "Tromelin Island",
      "way_area": "0.13878",
      "wikidata": "Q234208",
      "wikipedia": "fr:Île Tromelin",
      "admin_level": "4",
      "alt_name:de": "Tromelin",
      "alt_name:en": "Tromelin",
      "alt_name:eo": "Tromelino",
      "alt_name:fr": "Tromelin",
      "alt_name:ru": "Тромлен",
      "alt_name:uk": "Тромлен;Тромелін",
      "alt_name:zh": "特罗姆兰",
      "border_type": "territorial",
      "country_code_fips": "TE"
    }
  },
  {
    "osm_id": -7981339,
    "boundary": "religious_administration",
    "admin_level": 6,
    "parents": "-3792880,-1403916,-2202162",
    "name": "Paroisse Sainte-Croix des deux Creuse",
    "local_name": "Paroisse Sainte-Croix des deux Creuse",
    "name_en": null,
    "all_tags": {
      "name": "Paroisse Sainte-Croix des deux Creuse",
      "boundary": "religious_administration",
      "religion": "christian",
      "way_area": "0.0952896",
      "admin_level": "6",
      "denomination": "catholic"
    }
  },
  {
    "osm_id": -7376,
    "boundary": "administrative",
    "admin_level": 6,
    "parents": "-3792880,-1403916,-2202162",
    "name": "Landes",
    "local_name": "Landes",
    "name_en": null,
    "all_tags": {
      "ref": "40",
      "name": "Landes",
      "name:br": "Lanas",
      "name:el": "Λάνδες",
      "name:es": "Landas",
      "name:eu": "Landak",
      "name:fr": "Landes",
      "name:oc": "Lanas",
      "name:ru": "Ланды",
      "boundary": "administrative",
      "ref:nuts": "FRI13",
      "way_area": "1.04915",
      "wikidata": "Q12563",
      "ISO3166-2": "FR-40",
      "ref:INSEE": "40",
      "wikipedia": "fr:Landes (département)",
      "population": "413690",
      "ref:nuts:3": "FRI13",
      "admin_level": "6",
      "border_type": "departement",
      "population:date": "2019"
    }
  },
  {
    "osm_id": -10485338,
    "boundary": "religious_administration",
    "admin_level": 6,
    "parents": "-8650,-1403916,-2202162",
    "name": "Diocèse de Nantes",
    "local_name": "Diocèse de Nantes",
    "name_en": null,
    "all_tags": {
      "name": "Diocèse de Nantes",
      "name:br": "Eskopti Naoned",
      "website": "https://diocese44.fr/",
      "boundary": "religious_administration",
      "religion": "christian",
      "way_area": "0.821944",
      "wikipedia": "fr:Diocèse de Nantes",
      "admin_level": "6",
      "denomination": "catholic"
    }
  },
  {
    "osm_id": -7404,
    "boundary": "administrative",
    "admin_level": 6,
    "parents": "-2713391,-1403916,-2202162",
    "name": "Manche",
    "local_name": "Manche",
    "name_en": null,
    "all_tags": {
      "ref": "50",
      "name": "Manche",
      "name:br": "La Manche",
      "name:es": "Mancha",
      "name:fr": "Manche",
      "name:ru": "Манш",
      "boundary": "administrative",
      "ref:nuts": "FRD12",
      "way_area": "0.743241",
      "wikidata": "Q12589",
      "ISO3166-2": "FR-50",
      "ref:INSEE": "50",
      "wikipedia": "fr:Manche (département)",
      "population": "495045",
      "ref:nuts:3": "FRD12",
      "admin_level": "6",
      "border_type": "departement",
      "population:date": "2019"
    }
  },
  {
    "osm_id": -3126313,
    "boundary": "religious_administration",
    "admin_level": 6,
    "parents": "-2713391,-1403916,-2202162",
    "name": "Diocèse de Bayeux - Lisieux",
    "local_name": "Diocèse de Bayeux - Lisieux",
    "name_en": null,
    "all_tags": {
      "name": "Diocèse de Bayeux - Lisieux",
      "boundary": "religious_administration",
      "religion": "christian",
      "way_area": "0.68855",
      "admin_level": "6",
      "denomination": "catholic"
    }
  },
  {
    "osm_id": -7453,
    "boundary": "administrative",
    "admin_level": 6,
    "parents": "-2713391,-1403916,-2202162",
    "name": "Calvados",
    "local_name": "Calvados",
    "name_en": null,
    "all_tags": {
      "ref": "14",
      "name": "Calvados",
      "name:ar": "كالفادوس",
      "name:br": "Calvados",
      "name:el": "Καλβαντός",
      "name:fr": "Calvados",
      "name:ru": "Кальвадос",
      "boundary": "administrative",
      "ref:nuts": "FRD11",
      "way_area": "0.688523",
      "wikidata": "Q3249",
      "ISO3166-2": "FR-14",
      "ref:INSEE": "14",
      "wikipedia": "fr:Calvados (département)",
      "population": "694905",
      "ref:nuts:3": "FRD11",
      "admin_level": "6",
      "border_type": "departement",
      "population:date": "2019"
    }
  },
  {
    "osm_id": -2713391,
    "boundary": "religious_administration",
    "admin_level": 4,
    "parents": "-1403916,-2202162",
    "name": "Province apostolique de Normandie",
    "local_name": "Province apostolique de Normandie",
    "name_en": null,
    "all_tags": {
      "name": "Province apostolique de Normandie",
      "boundary": "religious_administration",
      "religion": "christian",
      "way_area": "3.71235",
      "start_date": "2004-07-01",
      "admin_level": "4",
      "denomination": "catholic"
    }
  },
  {
    "osm_id": -3793170,
    "boundary": "administrative",
    "admin_level": 4,
    "parents": "-1403916,-2202162",
    "name": "Normandy",
    "local_name": "Normandie",
    "name_en": "Normandy",
    "all_tags": {
      "name": "Normandie",
      "image": "File:Blason duche fr Normandie.svg",
      "name:ar": "نورماندي",
      "name:be": "Нармандыя",
      "name:br": "Normandi",
      "name:ca": "Normandia",
      "name:cs": "Normandie",
      "name:de": "Normandie",
      "name:en": "Normandy",
      "name:eo": "Normandio",
      "name:es": "Normandía",
      "name:et": "Normandia",
      "name:eu": "Normandia",
      "name:fa": "نرماندی",
      "name:fr": "Normandie",
      "name:he": "נורמנדי",
      "name:hu": "Normandia",
      "name:is": "Normandí",
      "name:it": "Normandia",
      "name:ja": "ノルマンディー",
      "name:la": "Normannia",
      "name:nl": "Normandië",
      "name:oc": "Normandia",
      "name:pl": "Normandia",
      "name:pt": "Normandia",
      "name:ro": "Normandia",
      "name:ru": "Нормандия",
      "name:sk": "Normandia",
      "name:uk": "Нормандія",
      "name:ur": "نورمینڈی",
      "boundary": "administrative",
      "ref:nuts": "FRD",
      "way_area": "3.71235",
      "wikidata": "Q18677875",
      "ISO3166-2": "FR-NOR",
      "ref:INSEE": "28",
      "wikipedia": "fr:Normandie (région administrative)",
      "population": "3325032",
      "ref:nuts:1": "FRD",
      "start_date": "2016-01-01",
      "admin_level": "4",
      "name:zh-Hans": "诺曼底",
      "name:zh-Hant": "諾曼底",
      "population:date": "2019"
    }
  },
  {
    "osm_id": -7441,
    "boundary": "administrative",
    "admin_level": 6,
    "parents": "-3792876,-1403916,-2202162",
    "name": "Aube",
    "local_name": "Aube",
    "name_en": null,
    "all_tags": {
      "ref": "10",
      "name": "Aube",
      "name:ar": "أوب",
      "name:be": "Об",
      "name:br": "Aube",
      "name:ca": "Auba",
      "name:cv": "Об",
      "name:el": "Ωμπ",
      "name:fa": "اوب",
      "name:fr": "Aube",
      "name:he": "אוב",
      "name:hy": "Օբ",
      "name:ja": "オーブ県",
      "name:ka": "ობი",
      "name:kk": "Об",
      "name:ko": "오브",
      "name:la": "Alba",
      "name:lt": "Obas",
      "name:lv": "Oba",
      "name:mr": "ऑब",
      "name:oc": "Auba",
      "name:ru": "Об",
      "name:sr": "Об",
      "name:tg": "Об",
      "name:th": "โอบ",
      "name:uk": "Об",
      "name:zh": "奥布省",
      "boundary": "administrative",
      "name:frp": "Ôbe",
      "name:mzn": "اوب",
      "name:pnb": "اوب",
      "ref:nuts": "FRF22",
      "way_area": "0.73071",
      "wikidata": "Q3194",
      "ISO3166-2": "FR-10",
      "ref:INSEE": "10",
      "wikipedia": "fr:Aube (département)",
      "population": "310242",
      "ref:nuts:3": "FRF22",
      "admin_level": "6",
      "border_type": "departement",
      "population:date": "2019"
    }
  },
  {
    "osm_id": -7413,
    "boundary": "administrative",
    "admin_level": 6,
    "parents": "-3792883,-1403916,-2202162",
    "name": "Haute-Garonne",
    "local_name": "Haute-Garonne",
    "name_en": null,
    "all_tags": {
      "ref": "31",
      "name": "Haute-Garonne",
      "name:an": "Alta Garona",
      "name:ar": "غارون-العليا",
      "name:be": "Гарона Верхняя",
      "name:bg": "От-Гарон",
      "name:br": "Garona Uhel",
      "name:ca": "Alta Garona",
      "name:cv": "Тури Гаронна",
      "name:el": "Άνω Γαρούνας",
      "name:es": "Alto Garona",
      "name:eu": "Garona Garaia",
      "name:fa": "اوت-گارون",
      "name:fr": "Haute-Garonne",
      "name:gl": "Alta Garona",
      "name:hy": "Վերին-Գարոն",
      "name:it": "Alta-Garonna",
      "name:ja": "オート＝ガロンヌ県",
      "name:ka": "ზემო-გარონა",
      "name:kk": "Жоғарғы Гаронна",
      "name:ko": "오트가론",
      "name:la": "Garunna Superior",
      "name:lt": "Aukštutinė Garona",
      "name:lv": "Augšgaronna",
      "name:mr": "ऑत-गारोन",
      "name:oc": "Nauta Garona",
      "name:pl": "Górna Garonna",
      "name:pt": "Alto Garona",
      "name:ru": "Верхняя Гаронна",
      "name:sr": "Горња Гарона",
      "name:tg": "Гароннаи Болоӣ",
      "name:th": "จังหวัดโอต การอน",
      "name:uk": "Верхня Гаронна",
      "name:zh": "上加龙省",
      "boundary": "administrative",
      "name:frp": "Hôta Garona",
      "name:hak": "Sông Garonne-sén",
      "name:pms": "Àuta Garona",
      "name:pnb": "ضلع-اوت-گارون",
      "name:vec": "Alta Garona",
      "ref:nuts": "FRJ23",
      "way_area": "0.706169",
      "wikidata": "Q12538",
      "ISO3166-2": "FR-31",
      "ref:INSEE": "31",
      "wikipedia": "fr:Haute-Garonne",
      "population": "1400039",
      "ref:nuts:3": "FRJ23",
      "start_date": "1790-03-04",
      "admin_level": "6",
      "border_type": "departement",
      "description": "Pas de Trait d'union dans les autres langues",
      "name:be-tarask": "Верхняя Гарона",
      "population:date": "2019"
    }
  },
  {
    "osm_id": -7439,
    "boundary": "administrative",
    "admin_level": 6,
    "parents": "-3792883,-1403916,-2202162",
    "name": "Ariège",
    "local_name": "Ariège",
    "name_en": null,
    "all_tags": {
      "ref": "09",
      "name": "Ariège",
      "name:br": "Arièja",
      "name:ca": "Arieja",
      "name:fr": "Ariège",
      "name:oc": "Arièja",
      "name:ru": "Арьеж",
      "boundary": "administrative",
      "ref:nuts": "FRJ21",
      "way_area": "0.541291",
      "wikidata": "Q3184",
      "ISO3166-2": "FR-09",
      "ref:INSEE": "09",
      "wikipedia": "fr:Ariège (département)",
      "population": "153287",
      "ref:nuts:3": "FRJ21",
      "admin_level": "6",
      "border_type": "departement",
      "population:date": "2019"
    }
  },
  {
    "osm_id": -7461,
    "boundary": "administrative",
    "admin_level": 6,
    "parents": "-3792883,-1403916,-2202162",
    "name": "Gard",
    "local_name": "Gard",
    "name_en": null,
    "all_tags": {
      "ref": "30",
      "name": "Gard",
      "name:an": "Gardon",
      "name:ar": "غارد",
      "name:be": "Гар",
      "name:bg": "Гар",
      "name:cv": "Гар",
      "name:el": "Γκαρ",
      "name:fa": "گار",
      "name:fr": "Gard",
      "name:hy": "Գար",
      "name:ja": "ガール県",
      "name:ka": "ოდის",
      "name:kk": "Гар",
      "name:ko": "가르 주",
      "name:la": "Vardo",
      "name:lt": "Gāra",
      "name:mn": "Гар",
      "name:mr": "गार्द",
      "name:ru": "Гар",
      "name:sr": "Гар",
      "name:tg": "Гар",
      "name:th": "การ์",
      "name:uk": "Гар",
      "name:zh": "加尔省",
      "boundary": "administrative",
      "name:hak": "Gard-sén",
      "name:nan": "Gard",
      "name:pnb": "گارد",
      "ref:nuts": "FRJ12",
      "way_area": "0.659277",
      "wikidata": "Q12515",
      "ISO3166-2": "FR-30",
      "ref:INSEE": "30",
      "wikipedia": "fr:Gard",
      "population": "748437",
      "ref:nuts:3": "FRJ12",
      "admin_level": "6",
      "border_type": "departement",
      "name:be-tarask": "Гар",
      "population:date": "2019"
    }
  },
  {
    "osm_id": -7381,
    "boundary": "administrative",
    "admin_level": 6,
    "parents": "-3792877,-1403916,-2202162",
    "name": "Cantal",
    "local_name": "Cantal",
    "name_en": null,
    "all_tags": {
      "ref": "15",
      "name": "Cantal",
      "name:br": "Cantal",
      "name:el": "Καντάλ",
      "name:fr": "Cantal",
      "name:oc": "Cantau",
      "name:ru": "Канталь",
      "boundary": "administrative",
      "ref:nuts": "FRK12",
      "way_area": "0.65957",
      "wikidata": "Q3259",
      "ISO3166-2": "FR-15",
      "ref:INSEE": "15",
      "wikipedia": "fr:Cantal (département)",
      "population": "144692",
      "ref:nuts:3": "FRK12",
      "admin_level": "6",
      "border_type": "departement",
      "population:date": "2019"
    }
  },
  {
    "osm_id": -7377,
    "boundary": "administrative",
    "admin_level": 6,
    "parents": "-3792880,-1403916,-2202162",
    "name": "Vienne",
    "local_name": "Vienne",
    "name_en": null,
    "all_tags": {
      "ref": "86",
      "name": "Vienne",
      "name:ca": "Viena",
      "name:fr": "Vienne",
      "name:ru": "Вьенна",
      "boundary": "administrative",
      "ref:nuts": "FRI34",
      "way_area": "0.825874",
      "wikidata": "Q12804",
      "ISO3166-2": "FR-86",
      "ref:INSEE": "86",
      "wikipedia": "fr:Vienne (département)",
      "population": "438435",
      "ref:nuts:3": "FRI34",
      "admin_level": "6",
      "border_type": "departement",
      "population:date": "2019"
    }
  },
  {
    "osm_id": -7408,
    "boundary": "administrative",
    "admin_level": 6,
    "parents": "-8640,-1403916,-2202162",
    "name": "Indre-et-Loire",
    "local_name": "Indre-et-Loire",
    "name_en": null,
    "all_tags": {
      "ref": "37",
      "name": "Indre-et-Loire",
      "name:ar": "أندر ولوار",
      "name:br": "Indre-ha-Liger",
      "name:ca": "Indre i Loira",
      "name:es": "Indre y Loira",
      "name:ru": "Эндр и Луара",
      "boundary": "administrative",
      "ref:nuts": "FRB04",
      "way_area": "0.731787",
      "wikidata": "Q12556",
      "ISO3166-2": "FR-37",
      "ref:INSEE": "37",
      "wikipedia": "fr:Indre-et-Loire",
      "population": "610079",
      "ref:nuts:3": "FRB04",
      "admin_level": "6",
      "border_type": "departement",
      "population:date": "2019"
    }
  },
  {
    "osm_id": -10831635,
    "boundary": "religious_administration",
    "admin_level": 6,
    "parents": "-8640,-1403916,-2202162",
    "name": "Archidiocèse de Tours",
    "local_name": "Archidiocèse de Tours",
    "name_en": null,
    "all_tags": {
      "name": "Archidiocèse de Tours",
      "website": "https://diocesedetours.catholique.fr/",
      "alt_name": "Diocèse de Tours",
      "boundary": "religious_administration",
      "religion": "christian",
      "way_area": "0.721131",
      "wikipedia": "fr:Archidiocèse de Tours",
      "admin_level": "6",
      "denomination": "catholic"
    }
  },
  {
    "osm_id": -7399,
    "boundary": "administrative",
    "admin_level": 6,
    "parents": "-8640,-1403916,-2202162",
    "name": "Loir-et-Cher",
    "local_name": "Loir-et-Cher",
    "name_en": null,
    "all_tags": {
      "ref": "41",
      "name": "Loir-et-Cher",
      "name:es": "Loir y Cher",
      "name:ru": "Луар и Шер",
      "boundary": "administrative",
      "ref:nuts": "FRB05",
      "way_area": "0.768347",
      "wikidata": "Q12564",
      "ISO3166-2": "FR-41",
      "ref:INSEE": "41",
      "wikipedia": "fr:Loir-et-Cher",
      "population": "329470",
      "ref:nuts:3": "FRFRB05",
      "admin_level": "6",
      "border_type": "departement",
      "population:date": "2019"
    }
  },
  {
    "osm_id": -7378,
    "boundary": "administrative",
    "admin_level": 5,
    "parents": "-3792877,-1403916,-2202162",
    "name": "Departemental constituency of Rhône",
    "local_name": "Circonscription départementale du Rhône",
    "name_en": "Departemental constituency of Rhône",
    "all_tags": {
      "ref": "69",
      "name": "Circonscription départementale du Rhône",
      "name:en": "Departemental constituency of Rhône",
      "name:fr": "Circonscription départementale du Rhône",
      "website": "http://www.rhone.gouv.fr/",
      "boundary": "administrative",
      "ref:nuts": "FRK26",
      "way_area": "0.377641",
      "wikidata": "Q18914778",
      "ISO3166-2": "FR-69",
      "ref:INSEE": "69",
      "wikipedia": "fr:Circonscription départementale du Rhône",
      "ref:nuts:3": "FRK26",
      "admin_level": "5",
      "border_type": "prefecture",
      "description": "zone de compétence administrative de la préfecture du Rhône depuis 2015-01-01, portant sur le territoire de l'ancien département du Rhône et incluant localement le conseil départemental du Rhône et la métropole de Lyon",
      "disused:admin_level": "6",
      "disused:border_type": "department"
    }
  },
  {
    "osm_id": -4850451,
    "boundary": "administrative",
    "admin_level": 6,
    "parents": "-7378,-3792877,-1403916,-2202162",
    "name": "Rhône",
    "local_name": "Rhône",
    "name_en": null,
    "all_tags": {
      "ref": "69D",
      "name": "Rhône",
      "name:br": "Ron",
      "name:es": "Ródano",
      "name:fr": "Rhône",
      "name:lt": "Rona",
      "name:oc": "Ròse",
      "name:ru": "Рона",
      "website": "https://www.rhone.fr/",
      "boundary": "administrative",
      "way_area": "0.315365",
      "wikidata": "Q46130",
      "ref:INSEE": "69D",
      "wikipedia": "fr:Rhône (département)",
      "start_date": "2015-01-01",
      "admin_level": "6",
      "border_type": "departement",
      "description": "territoire de compétence du conseil départemental du Rhône, sur un territoire identique à l'arrondissement de Villefranche-sur-Saône"
    }
  },
  {
    "osm_id": -7443,
    "boundary": "administrative",
    "admin_level": 6,
    "parents": "-8650,-1403916,-2202162",
    "name": "Sarthe",
    "local_name": "Sarthe",
    "name_en": null,
    "all_tags": {
      "ref": "72",
      "name": "Sarthe",
      "name:br": "Seurzh",
      "name:el": "Σαρτ",
      "name:ru": "Сарта",
      "boundary": "administrative",
      "ref:nuts": "FRG04",
      "way_area": "0.752614",
      "wikidata": "Q12740",
      "ISO3166-2": "FR-72",
      "ref:INSEE": "72",
      "wikipedia": "fr:Sarthe (département)",
      "population": "566412",
      "ref:nuts:3": "FRG04",
      "admin_level": "6",
      "border_type": "departement",
      "population:date": "2019"
    }
  },
  {
    "osm_id": -7435,
    "boundary": "administrative",
    "admin_level": 6,
    "parents": "-2713391,-1403916,-2202162",
    "name": "Eure",
    "local_name": "Eure",
    "name_en": null,
    "all_tags": {
      "ref": "27",
      "name": "Eure",
      "name:ru": "Эр",
      "boundary": "administrative",
      "ref:nuts": "FRD21",
      "way_area": "0.742851",
      "wikidata": "Q3372",
      "ISO3166-2": "FR-27",
      "ref:INSEE": "27",
      "wikipedia": "fr:Eure (département)",
      "population": "599507",
      "ref:nuts:3": "FRD21",
      "admin_level": "6",
      "border_type": "departement",
      "population:date": "2019"
    }
  },
  {
    "osm_id": -7449,
    "boundary": "administrative",
    "admin_level": 6,
    "parents": "-5833187,-8649,-1403916,-2202162",
    "name": "Hauts-de-Seine",
    "local_name": "Hauts-de-Seine",
    "name_en": null,
    "all_tags": {
      "ref": "92",
      "name": "Hauts-de-Seine",
      "name:el": "Ω-ντε-Σεν",
      "name:es": "Altos del Sena",
      "name:fr": "Hauts-de-Seine",
      "name:ru": "О-де-Сен",
      "boundary": "administrative",
      "ref:nuts": "FR105",
      "way_area": "0.0215207",
      "wikidata": "Q12543",
      "ISO3166-2": "FR-92",
      "ref:INSEE": "92",
      "wikipedia": "fr:Hauts-de-Seine",
      "population": "1624357",
      "ref:nuts:3": "FR105",
      "admin_level": "6",
      "population:date": "2019"
    }
  },
  {
    "osm_id": -7375,
    "boundary": "administrative",
    "admin_level": 6,
    "parents": "-3792880,-1403916,-2202162",
    "name": "Dordogne",
    "local_name": "Dordogne",
    "name_en": null,
    "all_tags": {
      "ref": "24",
      "name": "Dordogne",
      "name:ar": "دوردونيي",
      "name:br": "Dordonha",
      "name:ca": "Dordonya",
      "name:fr": "Dordogne",
      "name:oc": "Dordonha",
      "name:ru": "Дордонь",
      "boundary": "administrative",
      "ref:nuts": "FRI11",
      "way_area": "1.05445",
      "wikidata": "Q3357",
      "ISO3166-2": "FR-24",
      "ref:INSEE": "24",
      "wikipedia": "fr:Dordogne (département)",
      "population": "413223",
      "ref:nuts:3": "FRI11",
      "admin_level": "6",
      "border_type": "departement",
      "population:date": "2019"
    }
  },
  {
    "osm_id": -76910,
    "boundary": "administrative",
    "admin_level": 4,
    "parents": "-1403916,-2202162",
    "name": "Corsica",
    "local_name": "Corse",
    "name_en": "Corsica",
    "all_tags": {
      "name": "Corse",
      "name:ar": "كورسيكا",
      "name:be": "Корсіка",
      "name:br": "Korsika",
      "name:ca": "Còrsega",
      "name:co": "Corsica",
      "name:cs": "Korsika",
      "name:de": "Korsika",
      "name:el": "Κορσική",
      "name:en": "Corsica",
      "name:eo": "Korsiko",
      "name:es": "Córcega",
      "name:eu": "Korsika",
      "name:fi": "Korsika",
      "name:fr": "Corse",
      "name:hr": "Korzika",
      "name:hu": "Korzika",
      "name:is": "Korsíka",
      "name:it": "Corsica",
      "name:ja": "コルシカ島",
      "name:kn": "ಕೋರ್ಸಿಕ",
      "name:ku": "Korsîka",
      "name:la": "Corsica",
      "name:lv": "Korsika",
      "name:nl": "Corsica",
      "name:oc": "Corsega",
      "name:pl": "Korsyka",
      "name:pt": "Córsega",
      "name:ro": "Corsica",
      "name:ru": "Корсика",
      "name:sk": "Korzika",
      "name:sl": "Korzika",
      "name:uk": "Корсика",
      "name:zh": "科西嘉",
      "website": "https://www.corse.fr/",
      "alt_name": "Collectivité territoriale de Corse",
      "boundary": "administrative",
      "ref:nuts": "FRM;FRM0",
      "way_area": "0.950241",
      "wikidata": "Q14112",
      "ISO3166-2": "FR-COR",
      "land_area": "administrative",
      "ref:INSEE": "94",
      "wikipedia": "fr:Corse",
      "population": "340440",
      "ref:nuts:1": "FRM",
      "ref:nuts:2": "FRM0",
      "admin_level": "4",
      "name:zh-Hans": "科西嘉",
      "name:zh-Hant": "科西嘉",
      "population:date": "2019"
    }
  },
  {
    "osm_id": -7463,
    "boundary": "administrative",
    "admin_level": 6,
    "parents": "-4217435,-1403916,-2202162",
    "name": "Somme",
    "local_name": "Somme",
    "name_en": null,
    "all_tags": {
      "ref": "80",
      "name": "Somme",
      "name:fr": "Somme",
      "name:ru": "Сомма",
      "boundary": "administrative",
      "ref:nuts": "FRE23",
      "way_area": "0.775795",
      "wikidata": "Q12770",
      "ISO3166-2": "FR-80",
      "ref:INSEE": "80",
      "wikipedia": "fr:Somme (département)",
      "population": "570559",
      "ref:nuts:3": "FRE23",
      "admin_level": "6",
      "border_type": "departement",
      "population:date": "2019"
    }
  },
  {
    "osm_id": -7392,
    "boundary": "administrative",
    "admin_level": 6,
    "parents": "-3792878,-1403916,-2202162",
    "name": "Yonne",
    "local_name": "Yonne",
    "name_en": null,
    "all_tags": {
      "ref": "89",
      "name": "Yonne",
      "name:ar": "يون",
      "name:be": "Іона",
      "name:bg": "Йон",
      "name:cv": "Йонна",
      "name:el": "Ιόν",
      "name:fa": "یون",
      "name:fr": "Yonne",
      "name:he": "יון",
      "name:hy": "Յոն",
      "name:ja": "ヨンヌ県",
      "name:ka": "იონა",
      "name:kk": "Йонна",
      "name:ko": "욘",
      "name:la": "Icauna",
      "name:lt": "Jonas",
      "name:lv": "Jona",
      "name:mr": "योन",
      "name:ru": "Йонна",
      "name:sr": "Јон",
      "name:tg": "Йонна",
      "name:th": "อียอน",
      "name:uk": "Йонна",
      "name:ur": "یوننے",
      "name:zh": "约讷省",
      "boundary": "administrative",
      "name:frp": "Yona",
      "name:pnb": "جون",
      "ref:nuts": "FRC14",
      "way_area": "0.896522",
      "wikidata": "Q12816",
      "ISO3166-2": "FR-89",
      "ref:INSEE": "89",
      "wikipedia": "fr:Yonne (département)",
      "population": "335707",
      "ref:nuts:3": "FRC14",
      "admin_level": "6",
      "border_type": "departement",
      "population:date": "2019"
    }
  },
  {
    "osm_id": -7427,
    "boundary": "administrative",
    "admin_level": 6,
    "parents": "-4217435,-1403916,-2202162",
    "name": "Oise",
    "local_name": "Oise",
    "name_en": null,
    "all_tags": {
      "ref": "60",
      "name": "Oise",
      "name:fr": "Oise",
      "name:ru": "Уаза",
      "boundary": "administrative",
      "ref:nuts": "FRE22",
      "way_area": "0.729891",
      "wikidata": "Q12675",
      "ISO3166-2": "FR-60",
      "ref:INSEE": "60",
      "wikipedia": "fr:Oise (département)",
      "population": "829419",
      "ref:nuts:3": "FRE22",
      "admin_level": "6",
      "border_type": "departement",
      "population:date": "2019"
    }
  },
  {
    "osm_id": -7383,
    "boundary": "administrative",
    "admin_level": 6,
    "parents": "-8649,-1403916,-2202162",
    "name": "Seine-et-Marne",
    "local_name": "Seine-et-Marne",
    "name_en": null,
    "all_tags": {
      "ref": "77",
      "name": "Seine-et-Marne",
      "name:br": "Saena-ha-Marn",
      "name:es": "Sena y Marne",
      "name:lt": "Sena ir Marna",
      "name:ru": "Сена и Марна",
      "boundary": "administrative",
      "ref:nuts": "FR102",
      "way_area": "0.723085",
      "wikidata": "Q12753",
      "ISO3166-2": "FR-77",
      "ref:INSEE": "77",
      "wikipedia": "fr:Seine-et-Marne",
      "population": "1421197",
      "ref:nuts:3": "FR102",
      "admin_level": "6",
      "border_type": "departement",
      "population:date": "2019"
    }
  },
  {
    "osm_id": -7428,
    "boundary": "administrative",
    "admin_level": 6,
    "parents": "-3792880,-1403916,-2202162",
    "name": "Charente",
    "local_name": "Charente",
    "name_en": null,
    "all_tags": {
      "ref": "16",
      "name": "Charente",
      "name:ar": "شارنت",
      "name:fr": "Charente",
      "name:oc": "Charanta",
      "name:ru": "Шаранта",
      "boundary": "administrative",
      "ref:nuts": "FRI31",
      "way_area": "0.690364",
      "wikidata": "Q3266",
      "ISO3166-2": "FR-16",
      "ref:INSEE": "16",
      "wikipedia": "fr:Charente (département)",
      "population": "352015",
      "ref:nuts:3": "FRI31",
      "admin_level": "6",
      "border_type": "departement",
      "population:date": "2019"
    }
  },
  {
    "osm_id": -7379,
    "boundary": "administrative",
    "admin_level": 6,
    "parents": "-3792876,-1403916,-2202162",
    "name": "Marne",
    "local_name": "Marne",
    "name_en": null,
    "all_tags": {
      "ref": "51",
      "name": "Marne",
      "name:ar": "المارن",
      "name:be": "Марна",
      "name:bg": "Марн",
      "name:br": "Marn",
      "name:cv": "Марна",
      "name:fa": "مرن",
      "name:fr": "Marne",
      "name:hy": "Մարն",
      "name:it": "Marna",
      "name:ja": "マルヌ県",
      "name:ka": "მარნა",
      "name:kk": "Марна",
      "name:la": "Matrona",
      "name:lt": "Marna",
      "name:lv": "Marna",
      "name:mr": "मार्न",
      "name:oc": "Marna",
      "name:pl": "Marna",
      "name:ru": "Марна",
      "name:sr": "Марна",
      "name:tg": "Марна",
      "name:th": "มาร์น",
      "name:uk": "Марна",
      "name:zh": "马恩省",
      "boundary": "administrative",
      "name:pnb": "ماغنے",
      "ref:nuts": "FRF23",
      "way_area": "1.00621",
      "wikidata": "Q12594",
      "ISO3166-2": "FR-51",
      "ref:INSEE": "51",
      "wikipedia": "fr:Marne (département)",
      "population": "566855",
      "ref:nuts:3": "FRF23",
      "admin_level": "6",
      "border_type": "departement",
      "population:date": "2019"
    }
  },
  {
    "osm_id": -6843093,
    "boundary": "religious_administration",
    "admin_level": 6,
    "parents": "-4217435,-1403916,-2202162",
    "name": "Diocese of Soissons, Laon and Saint-Quentin",
    "local_name": "Diocèse de Soissons, Laon et Saint-Quentin",
    "name_en": "Diocese of Soissons, Laon and Saint-Quentin",
    "all_tags": {
      "url": "http://www.soissons.catholique.fr/accueil-soissons.html",
      "name": "Diocèse de Soissons, Laon et Saint-Quentin",
      "name:en": "Diocese of Soissons, Laon and Saint-Quentin",
      "name:la": "Dioecesis Suessionensis, Laudunensis et Sanquintinensis",
      "boundary": "religious_administration",
      "old_name": "Diocèse de Soissons et Laon",
      "religion": "christian",
      "way_area": "0.92394",
      "wikidata": "Q876673",
      "ref:FR:CEF": "sl",
      "short_name": "Diocèse de Soissons",
      "admin_level": "6",
      "denomination": "catholic"
    }
  },
  {
    "osm_id": -7411,
    "boundary": "administrative",
    "admin_level": 6,
    "parents": "-4217435,-1403916,-2202162",
    "name": "Aisne",
    "local_name": "Aisne",
    "name_en": null,
    "all_tags": {
      "ref": "02",
      "name": "Aisne",
      "name:el": "Αιν",
      "name:fr": "Aisne",
      "name:ru": "Эна",
      "boundary": "administrative",
      "ref:nuts": "FRE21",
      "way_area": "0.921045",
      "wikidata": "Q3093",
      "ISO3166-2": "FR-02",
      "ref:INSEE": "02",
      "wikipedia": "fr:Aisne (département)",
      "population": "531345",
      "ref:nuts:3": "FRE21",
      "admin_level": "6",
      "border_type": "departement",
      "population:date": "2019"
    }
  },
  {
    "osm_id": -4217435,
    "boundary": "administrative",
    "admin_level": 4,
    "parents": "-1403916,-2202162",
    "name": "Hauts-de-France",
    "local_name": "Hauts-de-France",
    "name_en": "Hauts-de-France",
    "all_tags": {
      "name": "Hauts-de-France",
      "name:ar": "شمال فرنسا",
      "name:br": "Krec'hioù-Frañs",
      "name:ca": "Alts de França",
      "name:de": "Nordfrankreich",
      "name:en": "Hauts-de-France",
      "name:es": "Alta Francia",
      "name:eu": "Frantzia Garaia",
      "name:fr": "Hauts-de-France",
      "name:hu": "Felső-Franciaország",
      "name:it": "Alta Francia",
      "name:ja": "オー＝ド＝フランス",
      "name:zh": "上法蘭西大區",
      "boundary": "administrative",
      "old_name": "Nord-Pas-de-Calais-Picardie",
      "ref:nuts": "FRE",
      "way_area": "4.00348",
      "wikidata": "Q18677767",
      "ISO3166-2": "FR-HDF",
      "ref:INSEE": "32",
      "wikipedia": "fr:Hauts-de-France",
      "population": "6004947",
      "ref:nuts:1": "FRE",
      "start_date": "2016-01-01",
      "admin_level": "4",
      "old_name:ar": "نور-با-دو-كاليه-بيكاردي",
      "old_name:br": "Nord-Pas-de-Calais ha Pikardi",
      "old_name:ca": "Nord-Pas-de-Calais i Picardia",
      "old_name:en": "Nord-Pas-de-Calais and Picardy",
      "old_name:eo": "Nordo-Kaleza Markolo kaj Pikardio",
      "old_name:es": "Norte-Paso de Calais y Picardía",
      "old_name:eu": "Nord-Pas-de-Calais eta Pikardia",
      "old_name:fr": "Nord-Pas-de-Calais-Picardie",
      "old_name:it": "Nord-Passo di Calais e Piccardia",
      "old_name:oc": "Nòrd-Pas de Calais e Picardia",
      "old_name:pt": "Norte-Passo-de-Calais e Picardia",
      "old_name:ro": "Nord - Pasul Calais și Picardia",
      "old_name:ru": "Нор — Па-де-Кале и Пикардия",
      "name:zh-Hans": "上法兰西大区",
      "name:zh-Hant": "上法蘭西大區",
      "population:date": "2019"
    }
  },
  {
    "osm_id": -7400,
    "boundary": "administrative",
    "admin_level": 6,
    "parents": "-4217435,-1403916,-2202162",
    "name": "Nord",
    "local_name": "Nord",
    "name_en": null,
    "all_tags": {
      "ref": "59",
      "name": "Nord",
      "name:br": "Norzh-Pas-de-Calais",
      "name:es": "Norte",
      "name:nl": "Noorderdepartement",
      "name:ru": "Нор",
      "boundary": "administrative",
      "name:pcd": "Nord",
      "name:vls": "Noorderdepartement",
      "ref:nuts": "FRE11",
      "way_area": "0.728798",
      "wikidata": "Q12661",
      "ISO3166-2": "FR-59",
      "ref:INSEE": "59",
      "wikipedia": "fr:Nord (département français)",
      "population": "2608346",
      "ref:nuts:3": "FRE11",
      "admin_level": "6",
      "border_type": "departement",
      "official_name": "Département du Nord",
      "population:date": "2019",
      "official_name:fr": "Département du Nord",
      "official_name:pcd": "Départémint dech Nord"
    }
  },
  {
    "osm_id": -7385,
    "boundary": "administrative",
    "admin_level": 6,
    "parents": "-8654,-1403916,-2202162",
    "name": "Maritime Alps",
    "local_name": "Alpes-Maritimes",
    "name_en": "Maritime Alps",
    "all_tags": {
      "ref": "06",
      "name": "Alpes-Maritimes",
      "name:ar": "الألب البحرية",
      "name:be": "Альпы Прыморскія",
      "name:bg": "Алп Маритим",
      "name:br": "Alpoù-an-Arvor",
      "name:ca": "Alps Marítims",
      "name:de": "Seealpen",
      "name:en": "Maritime Alps",
      "name:es": "Alpes Marítimos",
      "name:eu": "Itsas Alpeak",
      "name:fa": "آلپ-ماریتیم",
      "name:fr": "Alpes-Maritimes",
      "name:gl": "Alpes Marítimos",
      "name:he": "האלפים הימיים",
      "name:hy": "Ծովափնյա Ալպեր",
      "name:it": "Alpi Marittime",
      "name:ja": "アルプ＝マリティーム県",
      "name:ka": "ზღვისპირა ალპები",
      "name:kk": "Альпі-Маритим",
      "name:ko": "알프마리팀",
      "name:la": "Alpes Maritimae",
      "name:lt": "Pajūrio Alpės",
      "name:lv": "Piejūras Alpi",
      "name:mr": "आल्प-मरितीम",
      "name:oc": "Aups Maritims",
      "name:pl": "Alpy Nadmorskie",
      "name:pt": "Alpes Marítimos",
      "name:ru": "Приморские Альпы",
      "name:sr": "Приморски Алпи",
      "name:tg": "Алп Приморские",
      "name:th": "จังหวัดอาลป์-มารีตีม",
      "name:uk": "Приморські Альпи",
      "name:zh": "滨海阿尔卑斯省",
      "boundary": "administrative",
      "name:frp": "Arpes-Marenes",
      "name:lij": "Alpi do Mâ",
      "name:pms": "Alp Marìtime",
      "ref:nuts": "FRL03",
      "way_area": "0.481454",
      "wikidata": "Q3139",
      "ISO3166-2": "FR-06",
      "ref:INSEE": "06",
      "wikipedia": "fr:Alpes-Maritimes",
      "population": "1094283",
      "ref:nuts:3": "FRL03",
      "admin_level": "6",
      "alt_name:de": "Meeralpen",
      "border_type": "departement",
      "population:date": "2019"
    }
  },
  {
    "osm_id": -1823322,
    "boundary": "religious_administration",
    "admin_level": 6,
    "parents": "-3792878,-1403916,-2202162",
    "name": "Archidiocèse de Besançon",
    "local_name": "Archidiocèse de Besançon",
    "name_en": null,
    "all_tags": {
      "name": "Archidiocèse de Besançon",
      "boundary": "religious_administration",
      "religion": "christian",
      "way_area": "1.17066",
      "wikidata": "Q1364148",
      "wikipedia": "fr:Archidiocèse de Besançon",
      "ref:FR:CEF": "Be",
      "admin_level": "6",
      "denomination": "catholic"
    }
  },
  {
    "osm_id": -51856,
    "boundary": "administrative",
    "admin_level": 6,
    "parents": "-3792876,-1403916,-2202162",
    "name": "Meurthe-et-Moselle",
    "local_name": "Meurthe-et-Moselle",
    "name_en": null,
    "all_tags": {
      "ref": "54",
      "name": "Meurthe-et-Moselle",
      "name:ca": "Meurthe i Mosel·la",
      "name:de": "Mörthe und Mosel",
      "name:es": "Meurthe y Mosela",
      "name:ru": "Мёрт и Мозель",
      "boundary": "administrative",
      "ref:nuts": "FRF31",
      "way_area": "0.646799",
      "wikidata": "Q12626",
      "ISO3166-2": "FR-54",
      "ref:INSEE": "54",
      "wikipedia": "fr:Meurthe-et-Moselle",
      "population": "733760",
      "ref:nuts:3": "FRF31",
      "admin_level": "6",
      "border_type": "departement",
      "population:date": "2019"
    }
  },
  {
    "osm_id": -51854,
    "boundary": "administrative",
    "admin_level": 6,
    "parents": "-3792876,-1403916,-2202162",
    "name": "Moselle",
    "local_name": "Moselle",
    "name_en": null,
    "all_tags": {
      "ref": "57",
      "name": "Moselle",
      "name:ar": "موزل",
      "name:de": "Mosel",
      "name:es": "Mosela",
      "name:fa": "موزل",
      "name:fr": "Moselle",
      "name:lt": "Mozelis",
      "name:ru": "Мозель",
      "name:ur": "موزل",
      "boundary": "administrative",
      "ref:nuts": "FRF33",
      "way_area": "0.76886",
      "wikidata": "Q12652",
      "ISO3166-2": "FR-57",
      "ref:INSEE": "57",
      "wikipedia": "fr:Moselle (département)",
      "population": "1046543",
      "ref:nuts:3": "FRF33",
      "admin_level": "6",
      "border_type": "departement",
      "population:date": "2019"
    }
  },
  {
    "osm_id": -3388394,
    "boundary": "administrative",
    "admin_level": 6,
    "parents": "-1363069,-1259885,-2202162",
    "name": "Mayotte",
    "local_name": "Mayotte",
    "name_en": "Mayotte",
    "all_tags": {
      "ref": "976",
      "name": "Mayotte",
      "name:ak": "Mayɔte",
      "name:am": "ሜይኦቴ",
      "name:ar": "مايوت",
      "name:az": "Mayot",
      "name:be": "Маёта",
      "name:bg": "Мейот",
      "name:bm": "Mayoti",
      "name:bn": "মায়োত্তে",
      "name:bs": "Majote",
      "name:dz": "མེ་ཡོཊ",
      "name:ee": "Mayotte nutome",
      "name:el": "Μαγιότ",
      "name:en": "Mayotte",
      "name:eo": "Majoto",
      "name:fa": "مایوت",
      "name:ff": "Mayoot",
      "name:fr": "Mayotte",
      "name:gu": "મેયોટ",
      "name:ha": "Mayoti",
      "name:he": "מאיוט",
      "name:hi": "मैयट",
      "name:hr": "Majote",
      "name:ja": "マヨット",
      "name:km": "ម៉ាយុត",
      "name:kn": "ಮಯೊಟ್ಟೆ",
      "name:ko": "마요트",
      "name:ks": "مَییٹ",
      "name:ln": "Mayotɛ",
      "name:lo": "ມາຢອດ",
      "name:lt": "Majotas",
      "name:lv": "Majota",
      "name:mg": "Mayôty",
      "name:mk": "Мајоте",
      "name:ml": "മയോട്ട്",
      "name:mr": "मायोट्टे",
      "name:mt": "Majotte",
      "name:ne": "मायोट्ट",
      "name:or": "ମାୟୋଟେ",
      "name:pl": "Majotta",
      "name:rn": "Mayote",
      "name:ru": "Майотта",
      "name:sg": "Mäyôte",
      "name:si": "මයෝටි",
      "name:sr": "Мајоте",
      "name:ta": "மயோத்",
      "name:te": "మాయొట్టి",
      "name:th": "มายอต",
      "name:ti": "ሜይኦቴ",
      "name:to": "Meioti",
      "name:uk": "Майотта",
      "name:ur": "مایوٹ",
      "name:yo": "Orílẹ́ède Mayote",
      "name:zh": "马约特",
      "name:zu": "i-Mayotte",
      "boundary": "administrative",
      "name:kab": "Mayuṭ",
      "name:ksh": "Majott",
      "ref:nuts": "FRY50",
      "way_area": "0.0308477",
      "wikidata": "Q17063",
      "ISO3166-2": "FR-YT",
      "ref:INSEE": "976",
      "wikipedia": "fr:Mayotte",
      "ref:nuts:3": "FRY50",
      "admin_level": "6",
      "description": "French overseas department",
      "official_name": "Département de Mayotte"
    }
  },
  {
    "osm_id": -7415,
    "boundary": "administrative",
    "admin_level": 6,
    "parents": "-3792876,-1403916,-2202162",
    "name": "Bas-Rhin",
    "local_name": "Bas-Rhin",
    "name_en": null,
    "all_tags": {
      "ref": "67",
      "name": "Bas-Rhin",
      "name:an": "Baixo-Rin",
      "name:ar": "الراين-الأسفل",
      "name:be": "Рэйн-Ніжні",
      "name:bg": "Ба-Рен",
      "name:br": "Roen-Izel",
      "name:ca": "Baix-Rin",
      "name:cv": "Анатри-Рейн",
      "name:de": "Unterelsass",
      "name:es": "Bajo-Rin",
      "name:fa": "با-رن",
      "name:fr": "Bas-Rhin",
      "name:gl": "Baixo-Rin",
      "name:he": "ריין-תחתון",
      "name:hy": "Ներքին-Ռեն",
      "name:it": "Basso-Reno",
      "name:ja": "バ＝ラン県",
      "name:ka": "ქვემო-რეინი",
      "name:kk": "Төменгі-Рейн",
      "name:ko": "바랭",
      "name:la": "Rhenus-Inferior",
      "name:lt": "Žemutinis-Reinas",
      "name:lv": "Lejasreina",
      "name:mk": "Долна-Рајна",
      "name:mr": "बास-ऱ्हिन",
      "name:pl": "Dolny-Ren",
      "name:pt": "Baixo-Reno",
      "name:ru": "Нижний-Рейн",
      "name:sr": "Доња-Рајна",
      "name:tg": "Ба-Рейн",
      "name:th": "บา-แร็ง",
      "name:uk": "Нижній-Рейн",
      "name:zh": "下莱茵省",
      "website": "http://www.bas-rhin.fr/",
      "boundary": "administrative",
      "name:ast": "Baxo-Rin",
      "name:frp": "Bâs-Rin",
      "name:gsw": "Unt'relsass",
      "name:hak": "Hâ-Rhin",
      "name:lad": "Bajo-Rin",
      "name:pms": "Bass-Ren",
      "name:pnb": "بیس-رہائن",
      "ref:nuts": "FRF11",
      "way_area": "0.585777",
      "wikidata": "Q12717",
      "ISO3166-2": "FR-67",
      "ref:INSEE": "67",
      "wikipedia": "fr:Bas-Rhin",
      "population": "1140057",
      "ref:nuts:3": "FRF11",
      "admin_level": "6",
      "population:date": "2019"
    }
  },
  {
    "osm_id": -7406,
    "boundary": "administrative",
    "admin_level": 6,
    "parents": "-3792877,-1403916,-2202162",
    "name": "Puy-de-Dôme",
    "local_name": "Puy-de-Dôme",
    "name_en": null,
    "all_tags": {
      "ref": "63",
      "name": "Puy-de-Dôme",
      "name:ar": "بوي-دي-دوم",
      "name:bg": "Пюі-дэ-Дом",
      "name:br": "Puèi Domat",
      "name:ca": "Puèi-Domat",
      "name:cv": "Пюи-де-Дом",
      "name:fa": "پوی-دو-دم",
      "name:fr": "Puy-de-Dôme",
      "name:hy": "Պյուի-դը-Դոմ",
      "name:ja": "ピュイ＝ド＝ドーム県",
      "name:ka": "პუი-დე-დომი",
      "name:kk": "Пюи-де-Дом",
      "name:ko": "퓌드돔",
      "name:la": "Podium-Dumiatis",
      "name:lt": "Piui-de-Domas",
      "name:lv": "Pijdedoma",
      "name:mr": "पुय-दे-दोम",
      "name:oc": "Puèi Domat",
      "name:ru": "Пюи-де-Дом",
      "name:sr": "Пиј-де-Дом",
      "name:tg": "Пюи-де-Дом",
      "name:th": "ปุย-เดอ-โดม",
      "name:uk": "Пюї-де-Дом",
      "name:zh": "多姆山省",
      "website": "https://www.puy-de-dome.fr/",
      "boundary": "administrative",
      "name:frp": "Pué-de-Dôma",
      "name:pnb": "ضلع پائی-ڈی-ڈوم",
      "ref:nuts": "FRK14",
      "way_area": "0.926417",
      "wikidata": "Q12694",
      "ISO3166-2": "FR-63",
      "ref:INSEE": "63",
      "wikipedia": "fr:Puy-de-Dôme",
      "population": "662152",
      "ref:nuts:3": "FRK14",
      "admin_level": "6",
      "border_type": "departement",
      "population:date": "2019"
    }
  },
  {
    "osm_id": -2179660,
    "boundary": "religious_administration",
    "admin_level": 6,
    "parents": "-3792878,-1403916,-2202162",
    "name": "Diocèse de Saint-Claude",
    "local_name": "Diocèse de Saint-Claude",
    "name_en": null,
    "all_tags": {
      "name": "Diocèse de Saint-Claude",
      "boundary": "religious_administration",
      "religion": "christian",
      "way_area": "0.592949",
      "wikidata": "Q528881",
      "wikipedia": "fr:Diocèse de Saint-Claude",
      "ref:FR:CEF": "Sc",
      "admin_level": "6",
      "denomination": "catholic"
    }
  },
  {
    "osm_id": -7380,
    "boundary": "administrative",
    "admin_level": 6,
    "parents": "-8654,-1403916,-2202162",
    "name": "Alpes-de-Haute-Provence",
    "local_name": "Alpes-de-Haute-Provence",
    "name_en": null,
    "all_tags": {
      "ref": "04",
      "name": "Alpes-de-Haute-Provence",
      "name:br": "Alpoù-Provañs-Uhel",
      "name:ca": "Alps de l'Alta Provença",
      "name:el": "Αλπ-ντε-Ωτ-Προβάνς",
      "name:es": "Alpes de Alta Provenza",
      "name:fr": "Alpes-de-Haute-Provence",
      "name:oc": "Aups de Provença Auta",
      "name:ru": "Альпы Верхнего Прованса",
      "boundary": "administrative",
      "ref:nuts": "FRL01",
      "way_area": "0.786213",
      "wikidata": "Q3131",
      "ISO3166-2": "FR-04",
      "ref:INSEE": "04",
      "wikipedia": "fr:Alpes-de-Haute-Provence",
      "population": "164308",
      "ref:nuts:3": "FRL01",
      "admin_level": "6",
      "border_type": "departement",
      "population:date": "2019"
    }
  },
  {
    "osm_id": -76932,
    "boundary": "administrative",
    "admin_level": 6,
    "parents": "-76910,-1403916,-2202162",
    "name": "South Corsica",
    "local_name": "Corse-du-Sud",
    "name_en": "South Corsica",
    "all_tags": {
      "ref": "2A",
      "name": "Corse-du-Sud",
      "name:ar": "جنوب قرسقة",
      "name:br": "Korsika-ar-Su",
      "name:ca": "Còrsega del Sud",
      "name:co": "Pumonte",
      "name:de": "Südkorsika",
      "name:el": "Νότια Κορσική",
      "name:en": "South Corsica",
      "name:es": "Córcega del Sur",
      "name:fr": "Corse-du-Sud",
      "name:hu": "Dél-Korzika",
      "name:it": "Corsica del Sud",
      "name:ru": "Южная Корсика",
      "boundary": "administrative",
      "ref:nuts": "FRM01",
      "way_area": "0.43574",
      "wikidata": "Q3336",
      "ISO3166-2": "FR-2A",
      "ref:INSEE": "2A",
      "wikipedia": "fr:Corse-du-Sud",
      "population": "158507",
      "ref:nuts:3": "FRM01",
      "admin_level": "6",
      "population:date": "2019"
    }
  },
  {
    "osm_id": -102740,
    "boundary": "administrative",
    "admin_level": 4,
    "parents": "-1403916,-2202162",
    "name": "Brittany",
    "local_name": "Bretagne",
    "name_en": "Brittany",
    "all_tags": {
      "name": "Bretagne",
      "name:ar": "بروتاني",
      "name:be": "Брэтань",
      "name:br": "Breizh",
      "name:ca": "Bretanya",
      "name:cs": "Bretaň",
      "name:de": "Bretagne",
      "name:en": "Brittany",
      "name:eo": "Bretonio",
      "name:es": "Bretaña",
      "name:eu": "Bretainia",
      "name:fa": "برتاین",
      "name:fr": "Bretagne",
      "name:ga": "An Bhriotáin",
      "name:hu": "Bretagne",
      "name:is": "Bretanía",
      "name:it": "Bretagna",
      "name:la": "Britannia Minor",
      "name:lt": "Bretanė",
      "name:oc": "Bretanha",
      "name:pt": "Bretanha",
      "name:ro": "Bretania",
      "name:ru": "Бретань",
      "name:sk": "Bretónsko",
      "name:uk": "Бретань",
      "name:ur": "بریتانیہ",
      "website": "https://www.bretagne.bzh/",
      "boundary": "administrative",
      "name:ast": "Bretaña",
      "name:pnb": "برٹنی",
      "ref:nuts": "FRH;FRH0",
      "way_area": "3.32422",
      "wikidata": "Q12130",
      "ISO3166-2": "FR-BRE",
      "ref:INSEE": "53",
      "wikipedia": "fr:Bretagne (région française)",
      "population": "3354854",
      "ref:nuts:1": "FRH",
      "ref:nuts:2": "FRH0",
      "admin_level": "4",
      "old_name:de": "Kleinbritannien",
      "name:zh-Hans": "布列塔尼",
      "name:zh-Hant": "布列塔尼",
      "name:fr-x-gallo": "Bertègn",
      "population:date": "2019"
    }
  },
  {
    "osm_id": -7424,
    "boundary": "administrative",
    "admin_level": 6,
    "parents": "-3792878,-1403916,-2202162",
    "name": "Côte-d'Or",
    "local_name": "Côte-d'Or",
    "name_en": null,
    "all_tags": {
      "ref": "21",
      "name": "Côte-d'Or",
      "name:ar": "كوت دور",
      "name:br": "Côte-d'Or",
      "name:ca": "Costa d'Or",
      "name:ja": "コート＝ドール県",
      "name:ru": "Кот-д'Ор",
      "boundary": "administrative",
      "ref:nuts": "FRC11",
      "way_area": "1.04936",
      "wikidata": "Q3342",
      "ISO3166-2": "FR-21",
      "ref:INSEE": "21",
      "wikipedia": "fr:Côte-d'Or",
      "population": "534124",
      "ref:nuts:3": "FRC11",
      "admin_level": "6",
      "border_type": "departement",
      "population:date": "2019"
    }
  },
  {
    "osm_id": -7981344,
    "boundary": "religious_administration",
    "admin_level": 6,
    "parents": "-3792880,-1403916,-2202162",
    "name": "Diocèse de Limoges",
    "local_name": "Diocèse de Limoges",
    "name_en": null,
    "all_tags": {
      "name": "Diocèse de Limoges",
      "website": "http://www.diocese-limoges.fr/",
      "boundary": "religious_administration",
      "religion": "christian",
      "way_area": "1.29563",
      "wikipedia": "fr:Diocèse de Limoges",
      "admin_level": "6",
      "denomination": "catholic"
    }
  },
  {
    "osm_id": -10573254,
    "boundary": "religious_administration",
    "admin_level": 6,
    "parents": "-8650,-1403916,-2202162",
    "name": "Diocèse de Luçon",
    "local_name": "Diocèse de Luçon",
    "name_en": null,
    "all_tags": {
      "name": "Diocèse de Luçon",
      "website": "http://vendee.catholique.fr/",
      "boundary": "religious_administration",
      "religion": "christian",
      "way_area": "0.797948",
      "wikipedia": "fr:Diocèse de Luçon",
      "admin_level": "6",
      "denomination": "catholic"
    }
  },
  {
    "osm_id": -10513621,
    "boundary": "religious_administration",
    "admin_level": 6,
    "parents": "-8650,-1403916,-2202162",
    "name": "Diocèse d'Angers",
    "local_name": "Diocèse d'Angers",
    "name_en": null,
    "all_tags": {
      "name": "Diocèse d'Angers",
      "website": "https://www.diocese49.org/",
      "boundary": "religious_administration",
      "religion": "christian",
      "way_area": "0.866236",
      "wikidata": "Q1082675",
      "wikipedia": "fr:Diocèse d'Angers",
      "admin_level": "6",
      "denomination": "catholic"
    }
  },
  {
    "osm_id": -10625851,
    "boundary": "religious_administration",
    "admin_level": 6,
    "parents": "-102740,-1403916,-2202162",
    "name": "Diocèse de Quimper et Léon",
    "local_name": "Diocèse de Quimper et Léon",
    "name_en": null,
    "all_tags": {
      "name": "Diocèse de Quimper et Léon",
      "name:br": "Eskopti Kemper ha Leon",
      "website": "https://diocese-quimper.fr/",
      "alt_name": "Diocèse de Quimper",
      "boundary": "religious_administration",
      "religion": "christian",
      "way_area": "0.821119",
      "wikidata": "Q12182",
      "wikipedia": "fr:Diocèse de Quimper et Léon",
      "admin_level": "6",
      "denomination": "catholic"
    }
  },
  {
    "osm_id": -10661317,
    "boundary": "religious_administration",
    "admin_level": 6,
    "parents": "-2713391,-1403916,-2202162",
    "name": "Diocèse de Séez",
    "local_name": "Diocèse de Séez",
    "name_en": null,
    "all_tags": {
      "name": "Diocèse de Séez",
      "website": "http://www.orne.catholique.fr/",
      "boundary": "religious_administration",
      "religion": "christian",
      "way_area": "0.753106",
      "wikipedia": "fr:Diocèse de Séez",
      "admin_level": "6",
      "denomination": "catholic"
    }
  },
  {
    "osm_id": -2502058,
    "boundary": "administrative",
    "admin_level": 4,
    "parents": "-1260551,-2202162",
    "name": "French Guiana",
    "local_name": "Guyane",
    "name_en": "French Guiana",
    "all_tags": {
      "flag": "http://upload.wikimedia.org/wikipedia/commons/c/c3/Flag_of_France.svg",
      "name": "Guyane",
      "name:af": "Frans-Guyana",
      "name:ak": "Frɛnkye Gayana",
      "name:am": "የፈረንሳይ ጉዊአና",
      "name:ar": "غيانا",
      "name:az": "Fransız Quyanası",
      "name:be": "Французская Гвіяна",
      "name:bg": "Френска Гвиана",
      "name:bm": "Faransi ka gwiyani",
      "name:bn": "ফরাসী গায়ানা",
      "name:br": "Gwiana c’hall",
      "name:bs": "Francuska Gvajana",
      "name:ca": "Guaiana Francesa",
      "name:cs": "Francouzská Guyana",
      "name:cy": "Guyane",
      "name:da": "Fransk Guyana",
      "name:de": "Französisch-Guayana",
      "name:dz": "གུའི་ཡ་ན་ ཕྲནས྄་མངའ་ཁོངས",
      "name:ee": "Frentsi Gayana nutome",
      "name:el": "Γαλλική Γουιάνα",
      "name:en": "French Guiana",
      "name:eo": "Franca Gviano",
      "name:es": "Guayana Francesa",
      "name:et": "Prantsuse Guajaana",
      "name:eu": "Guyana Frantsesa",
      "name:fa": "گویان فرانسه",
      "name:ff": "Giyaan Farayse",
      "name:fi": "Ranskan Guayana",
      "name:fo": "Fransk Gujana",
      "name:fr": "Guyane",
      "name:fy": "Frânsk Guyana",
      "name:ga": "Guáin na Fraince",
      "name:gd": "Guiana Fhrangach",
      "name:gl": "Güiana Francesa",
      "name:gu": "ફ્રેંચ ગયાના",
      "name:ha": "Gini Ta Faransa",
      "name:he": "גיאנה הצרפתית",
      "name:hi": "फ़्रांसीसी गिआना",
      "name:hr": "Francuska Gvajana",
      "name:hu": "Francia Guyana",
      "name:ia": "Guyana francese",
      "name:id": "Guyana Perancis",
      "name:is": "Franska Gvæjana",
      "name:it": "Guyana francese",
      "name:ja": "仏領ギアナ",
      "name:ki": "Gwiyana ya Ufaransa",
      "name:km": "ហ្វ្វេន​ហ្គៀណា",
      "name:kn": "ಫ್ರೆಂಚ್ ಗಯಾನಾ",
      "name:ko": "프랑스령 기아나",
      "name:ks": "فرٛانسِسی گِانا",
      "name:la": "Guiana Francica",
      "name:lg": "Guyana enfalansa",
      "name:li": "Frans Guyana",
      "name:ln": "Giyanɛ ya Falánsɛ",
      "name:lo": "ເຟັນສກິວນາ",
      "name:lt": "Prancūzijos Gviana",
      "name:lv": "Franču Gviāna",
      "name:mg": "Guyana frantsay",
      "name:mi": "Kaiana Wīwī",
      "name:mk": "Француска Гвајана",
      "name:ml": "ഫ്രഞ്ച് ഗയാന",
      "name:mn": "Франц Гвиана",
      "name:mr": "फ्रेंच गयाना",
      "name:ms": "French Guiana",
      "name:mt": "Gujana Franċiża",
      "name:my": "ပြင်သစ် ဂီယာနာ",
      "name:ne": "फ्रान्सेली गायना",
      "name:nl": "Frans-Guyana",
      "name:nn": "Fransk Guyana",
      "name:no": "Fransk Guyana",
      "name:or": "ଫ୍ରେଞ୍ଚ ଗୁଇନା",
      "name:pl": "Gujana Francuska",
      "name:pt": "Guiana Francesa",
      "name:rm": "Guyana Franzosa",
      "name:rn": "Gwayana y'Abafaransa",
      "name:ro": "Guyana Franceză",
      "name:ru": "Французская Гвиана",
      "name:se": "Frankriikka Guayana",
      "name:sg": "Güyâni tî farânzi",
      "name:si": "ප්රංශ ගයනාව",
      "name:sk": "Francúzska Guyana",
      "name:sl": "Francoska Gvajana",
      "name:sn": "French Guiana",
      "name:so": "French Guiana",
      "name:sr": "Француска Гвајана",
      "name:sv": "Franska Guyana",
      "name:sw": "Gwiyana ya Ufaransa",
      "name:te": "ఫ్రెంచ్ గియానా",
      "name:th": "เฟรนช์เกียนา",
      "name:ti": "የፈረንሳይ ጉዊአና",
      "name:to": "Falanise Kuiana",
      "name:tr": "Fransız Guyanası",
      "name:tt": "Француз Гвианасы",
      "name:uk": "Французька Гвіана",
      "name:ur": "فرینچ گیانا",
      "name:vi": "Guyane thuộc Pháp",
      "name:yo": "Orílẹ́ède Firenṣi Guana",
      "name:zh": "法属圭亚那 / 法屬圭亞那",
      "name:zu": "isi-French Guiana",
      "website": "http://www.cr-guyane.fr/",
      "boundary": "administrative",
      "name:ast": "Guyana Francesa",
      "name:chr": "ᎠᏂᎦᎸᏥ ᎩᎠ",
      "name:fur": "Guiana francês",
      "name:kab": "Ɣana tafransist",
      "name:ksh": "Franzüüsesch Jujaana",
      "name:yue": "法屬圭亞那",
      "way_area": "6.80718",
      "wikidata": "Q3769",
      "ISO3166-1": "GF",
      "ISO3166-2": "FR-GF",
      "land_area": "administrative",
      "ref:INSEE": "973R",
      "wikipedia": "fr:Guyane",
      "population": "276128",
      "ref:nuts:2": "FRY3",
      "ref:nuts:3": "FRY30",
      "admin_level": "4",
      "alt_name:ru": "Французская Гвиана",
      "description": "France, départements et régions d'outre-mer, territoire régi par l’article 73 de la Constitution",
      "old_name:fr": "Guyane française",
      "name:zh-Hans": "法属圭亚那",
      "name:zh-Hant": "法屬圭亞那",
      "official_name": "Collectivité Territoriale Unique de la Guyane",
      "population:date": "2018",
      "ISO3166-1:alpha2": "GF",
      "ISO3166-1:alpha3": "GUF",
      "ISO3166-1:numeric": "254"
    }
  },
  {
    "osm_id": -1260552,
    "boundary": "administrative",
    "admin_level": 6,
    "parents": "-2473088,-1891495,-2202162",
    "name": "Martinique",
    "local_name": "Martinique",
    "name_en": "Martinique",
    "all_tags": {
      "ref": "972",
      "name": "Martinique",
      "name:en": "Martinique",
      "name:pl": "Martynika",
      "boundary": "administrative",
      "ref:nuts": "FRY20",
      "way_area": "0.0915728",
      "wikidata": "Q17054",
      "ISO3166-1": "MQ",
      "ref:INSEE": "972",
      "wikipedia": "fr:Martinique",
      "population": "364508",
      "ref:nuts:3": "FRY20",
      "admin_level": "6",
      "population:date": "2019",
      "ISO3166-1:alpha2": "MQ",
      "ISO3166-1:alpha3": "MTQ",
      "ISO3166-1:numeric": "474"
    }
  },
  {
    "osm_id": -3792883,
    "boundary": "administrative",
    "admin_level": 4,
    "parents": "-1403916,-2202162",
    "name": "Occitania",
    "local_name": "Occitanie",
    "name_en": "Occitania",
    "all_tags": {
      "name": "Occitanie",
      "name:ar": "أوسيتاني",
      "name:br": "Okitania",
      "name:ca": "Occitània",
      "name:cs": "Okcitánie",
      "name:da": "Occitanien",
      "name:de": "Okzitanien",
      "name:el": "Οξιτανία",
      "name:en": "Occitania",
      "name:eo": "Okcitanio",
      "name:es": "Occitania",
      "name:eu": "Okzitania",
      "name:fa": "اکسیتنی",
      "name:fr": "Occitanie",
      "name:hu": "Okcitánia",
      "name:it": "Occitania",
      "name:ja": "オクシタニー",
      "name:lt": "Oksitanija",
      "name:nl": "Occitanië",
      "name:no": "Oksitania",
      "name:oc": "Occitania",
      "name:pl": "Oksytania",
      "name:pt": "Occitânia",
      "name:ro": "Occitania",
      "name:ru": "Окситания",
      "name:sv": "Occitanien",
      "name:ur": "اوکیتانی",
      "alt_name": "Occitanie Pyrénées-Méditerranée",
      "boundary": "administrative",
      "ref:nuts": "FRJ",
      "way_area": "8.19258",
      "wikidata": "Q18678265",
      "ISO3166-2": "FR-OCC",
      "ref:INSEE": "76",
      "population": "5933185",
      "ref:nuts:1": "FRJ",
      "start_date": "2016-01-01",
      "admin_level": "4",
      "alt_name:ar": "الأوكيتانية",
      "name:zh-Hans": "奥克西塔尼大区",
      "name:zh-Hant": "奧克西塔尼大區",
      "is_in:country": "France",
      "population:date": "2019"
    }
  },
  {
    "osm_id": -7409,
    "boundary": "administrative",
    "admin_level": 6,
    "parents": "-8650,-1403916,-2202162",
    "name": "Maine-et-Loire",
    "local_name": "Maine-et-Loire",
    "name_en": null,
    "all_tags": {
      "ref": "49",
      "name": "Maine-et-Loire",
      "name:an": "Maine-y-Loira",
      "name:ar": "ماين-ولوار",
      "name:be": "Мен-і-Луара",
      "name:bg": "Мен-е-Лоар",
      "name:br": "Maine-ha-Liger",
      "name:ca": "Maine i Loira",
      "name:co": "Maine-é-Loira",
      "name:cv": "Мэн-тата-Луара",
      "name:el": "Μαιν-ε-Λουάρ",
      "name:es": "Maine-y-Loira",
      "name:fa": "من-ا-لوآر",
      "name:fr": "Maine-et-Loire",
      "name:gl": "Maine-e-Loira",
      "name:he": "מן-ולואר",
      "name:ht": "Maine-ak-Lwar",
      "name:hy": "Մեն-և-Լուար",
      "name:ja": "メーヌ＝エ＝ロワール県",
      "name:ka": "მენი-და-ლუარა",
      "name:kk": "Мен-және-Луара",
      "name:ko": "멘에루아르",
      "name:la": "Meduana-et-Liger",
      "name:lt": "Menas-ir-Luara",
      "name:lv": "Mēna-un-Luāra",
      "name:mr": "मेन-एत-लावार",
      "name:oc": "Maine-e-Léger",
      "name:pl": "Maine-i-Loara",
      "name:ru": "Мен-и-Луара",
      "name:sr": "Мен-и-Лоара",
      "name:tg": "Мэн-ва-Луара",
      "name:th": "แมเนลัวร์",
      "name:uk": "Мен-і-Луара",
      "name:zh": "曼恩-卢瓦尔省",
      "website": "http://www.cg49.fr/",
      "boundary": "administrative",
      "name:frp": "Mêne-et-Lêre",
      "name:pms": "Maine-e-Lòira",
      "name:pnb": "مین-ے-لوار",
      "ref:nuts": "FRG02",
      "way_area": "0.854472",
      "wikidata": "Q12584",
      "ISO3166-2": "FR-49",
      "ref:INSEE": "49",
      "wikipedia": "fr:Maine-et-Loire",
      "population": "818273",
      "ref:nuts:3": "FRG02",
      "admin_level": "6",
      "border_type": "departement",
      "population:date": "2019"
    }
  },
  {
    "osm_id": -1047206,
    "boundary": "administrative",
    "admin_level": 6,
    "parents": "-2562137,-1401835,-2202162",
    "name": "Guadeloupe",
    "local_name": "Guadeloupe",
    "name_en": "Guadeloupe",
    "all_tags": {
      "ref": "971",
      "name": "Guadeloupe",
      "name:ak": "Guwadelup",
      "name:am": "ጉዋደሉፕ",
      "name:ar": "غوادلوب",
      "name:az": "Qvadelupa",
      "name:be": "Гвадэлупа",
      "name:bg": "Гваделупа",
      "name:bm": "Gwadelup",
      "name:bn": "গুয়াদেলৌপ",
      "name:br": "Gwadeloup",
      "name:bs": "Gvadelupe",
      "name:ca": "Guadalupe",
      "name:da": "Guadeloupe",
      "name:de": "Guadeloupe",
      "name:dz": "གོ་ཌེ་ལུ་པེ",
      "name:ee": "Guadelupe",
      "name:el": "Γουαδελούπη",
      "name:en": "Guadeloupe",
      "name:eo": "Gvadelupo",
      "name:es": "Guadalupe",
      "name:eu": "Guadalupe",
      "name:fa": "گوادلوپ",
      "name:ff": "Gwaadalup",
      "name:fi": "Guadeloupe",
      "name:fr": "Guadeloupe",
      "name:fy": "Guadelûp",
      "name:ga": "Guadalúip",
      "name:gd": "Guadalup",
      "name:gl": "Guadalupe",
      "name:gu": "ગ્વાડેલોપ",
      "name:ha": "Gwadaluf",
      "name:he": "גוואדלופ",
      "name:hi": "ग्वाडेलोप",
      "name:hr": "Gvadalupa",
      "name:hu": "Guadeloupe",
      "name:is": "Gvadelúpeyjar",
      "name:it": "Guadalupa",
      "name:ja": "グアドループ",
      "name:ka": "გვადელუპე",
      "name:ki": "Gwadelupe",
      "name:km": "ហ្គោដឺឡុប",
      "name:kn": "ಗುಡೆಲೋಪ್",
      "name:ko": "과들루프",
      "name:ks": "گَواڑیلوپ",
      "name:la": "Guadalupa",
      "name:lg": "Gwadalupe",
      "name:ln": "Gwadɛlupɛ",
      "name:lo": "ກວດເດລູບ",
      "name:lt": "Gvadelupa",
      "name:lv": "Gvadelupa",
      "name:mg": "Goadelopy",
      "name:mk": "Гвадалупе",
      "name:ml": "ഗുവാഡെലോപ്",
      "name:mn": "Гуаделупе",
      "name:mr": "ग्वाडेलोउपे",
      "name:mt": "Gwadelupe",
      "name:ne": "ग्वाडेलुप",
      "name:or": "ଗୌଡେଲୌପେ",
      "name:pl": "Gwadelupa",
      "name:pt": "Guadalupe",
      "name:rn": "Gwadelupe",
      "name:ro": "Guadelupa",
      "name:ru": "Гваделупа",
      "name:sg": "Guadelûpu",
      "name:si": "ග්වෝඩලෝප්",
      "name:sl": "Gvadalupa",
      "name:sr": "Гвадалупа",
      "name:sv": "Guadeloupe",
      "name:sw": "Gwadelupe",
      "name:ta": "க்வாதேலோப்",
      "name:te": "గ్వాడేలోప్",
      "name:th": "กวาเดอลูป",
      "name:ti": "ጉዋደሉፕ",
      "name:to": "Kuatalupe",
      "name:tr": "Guadalupe",
      "name:uk": "Гваделупа",
      "name:ur": "گواڈیلوپ",
      "name:vi": "Guadeloupe",
      "name:yo": "Gadelope",
      "name:zh": "瓜德罗普",
      "name:zu": "i-Guadeloupe",
      "website": "http://www.cg971.fr/",
      "boundary": "administrative",
      "name:ast": "Guadalupe",
      "name:chr": "ᏩᏓᎷᏇ",
      "name:fur": "Guadalupe",
      "name:gcf": "Gwadloup",
      "name:kab": "Gwadalupi",
      "name:ksh": "Juadelupp",
      "ref:nuts": "FRY10",
      "way_area": "0.138235",
      "wikidata": "Q17012",
      "ISO3166-1": "GP",
      "ISO3166-2": "FR-GP",
      "land_area": "administrative",
      "ref:INSEE": "971",
      "wikipedia": "fr:Guadeloupe",
      "population": "384239",
      "ref:nuts:3": "FRY10",
      "admin_level": "6",
      "official_name": "Département de la Guadeloupe",
      "population:date": "2019",
      "ISO3166-1:alpha2": "GP",
      "ISO3166-1:alpha3": "GLP",
      "ISO3166-1:numeric": "312"
    }
  },
  {
    "osm_id": -1363094,
    "boundary": "administrative",
    "admin_level": 6,
    "parents": "-3412620,-2202162",
    "name": "Windward Islands",
    "local_name": "Îles du Vent",
    "name_en": "Windward Islands",
    "all_tags": {
      "ref": "Îles du Vent",
      "name": "Îles du Vent",
      "place": "archipelago",
      "name:ar": "جزر ويندوارد",
      "name:ca": "Illes del Vent",
      "name:cs": "Návětrné ostrovy",
      "name:de": "Inseln über dem Winde",
      "name:en": "Windward Islands",
      "name:eo": "Alventaj Insuloj",
      "name:es": "Islas de Barlovento",
      "name:et": "Tuulepealsed saared",
      "name:eu": "Haizealdeko uharteak",
      "name:fa": "جزایر بادگیر",
      "name:fi": "Windwardsaaret",
      "name:fr": "Îles du Vent",
      "name:gl": "Illas do Vento",
      "name:hu": "Szél felőli szigetek",
      "name:it": "Isole del Vento",
      "name:ja": "ウィンドワード諸島",
      "name:lt": "Priešvėjinės salos",
      "name:nl": "Bovenwindse Eilanden",
      "name:pl": "Wyspy Na Wietrze",
      "name:pt": "Ilhas de Barlavento",
      "name:th": "หมู่เกาะวินด์เวิร์ด",
      "name:ty": "Te fenua ni’a mata’i mā",
      "name:zh": "向风群岛",
      "boundary": "administrative",
      "timezone": "Pacific/Tahiti",
      "way_area": "0.101929",
      "wikidata": "Q140298",
      "ref:INSEE": "9872",
      "wikipedia": "fr:Îles du Vent (Polynésie)",
      "short_name": "IDV",
      "admin_level": "6"
    }
  },
  {
    "osm_id": -8650,
    "boundary": "administrative",
    "admin_level": 4,
    "parents": "-1403916,-2202162",
    "name": "Pays de la Loire",
    "local_name": "Pays de la Loire",
    "name_en": "Pays de la Loire",
    "all_tags": {
      "name": "Pays de la Loire",
      "name:an": "Países d'a Loira",
      "name:ar": "وادي اللوار",
      "name:az": "Luara Torpağı",
      "name:be": "Землі Луары",
      "name:bg": "Пеи дьо ла Лоар",
      "name:br": "Broioù al Liger",
      "name:ca": "País del Loira",
      "name:ce": "Луаран латтанаш",
      "name:en": "Pays de la Loire",
      "name:eo": "Luarlandoj",
      "name:es": "Países del Loira",
      "name:eu": "Loirerria",
      "name:fa": "پیی دو لا لوآر",
      "name:fr": "Pays de la Loire",
      "name:gd": "Broioù al Liger",
      "name:gl": "Países do Loira",
      "name:he": "פיי דה לה לואר",
      "name:hr": "Zemlja Loire",
      "name:hu": "Loire mente",
      "name:hy": "Լուարայի երկիր",
      "name:io": "Lando di Loire",
      "name:it": "Paesi della Loira",
      "name:ja": "ペイ・ド・ラ・ロワール",
      "name:ka": "ლუარის რეგიონი",
      "name:ko": "페이드라루아르",
      "name:la": "Pagi Ligeris",
      "name:lt": "Luaros Kraštas",
      "name:lv": "Luāras Zeme",
      "name:mk": "Лоарски Крај",
      "name:mr": "पेई दा ला लोआर",
      "name:oc": "Païses de Léger",
      "name:pa": "ਪੇ ਡ ਲਾ ਲੁਆਰ",
      "name:pl": "Kraj Loary",
      "name:pt": "País do Loire",
      "name:ro": "Ținuturile Loarei",
      "name:ru": "Земли Луары",
      "name:sl": "Regija Loire",
      "name:sr": "Регион Лоара",
      "name:th": "แคว้นเปอีเดอลาลัวร์",
      "name:uk": "Пеї де ла Луар",
      "name:zh": "卢瓦尔河",
      "website": "http://www.paysdelaloire.fr/",
      "boundary": "administrative",
      "name:frp": "Payis de la Lêre",
      "name:pms": "Pais ëd la Lòira",
      "name:pnb": "لوائیر وادی",
      "name:scn": "Paisi dâ Loira",
      "name:xmf": "ლუარაშ რეგიონი",
      "ref:nuts": "FRG;FRG0",
      "way_area": "3.8689",
      "wikidata": "Q16994",
      "ISO3166-2": "FR-PDL",
      "ref:INSEE": "52",
      "wikipedia": "fr:Pays de la Loire",
      "population": "3806461",
      "ref:nuts:1": "FRG",
      "ref:nuts:2": "FRG0",
      "admin_level": "4",
      "name:zh-Hant": "盧瓦爾河",
      "name:be-tarask": "Пэй-дэ-ля-Люар",
      "population:date": "2019"
    }
  },
  {
    "osm_id": -7442,
    "boundary": "administrative",
    "admin_level": 6,
    "parents": "-3792883,-1403916,-2202162",
    "name": "Tarn",
    "local_name": "Tarn",
    "name_en": null,
    "all_tags": {
      "ref": "81",
      "name": "Tarn",
      "name:br": "Tarn",
      "name:el": "Τάρνη",
      "name:fr": "Tarn",
      "name:oc": "Tarn",
      "name:ru": "Тарн",
      "boundary": "administrative",
      "ref:nuts": "FRJ27",
      "way_area": "0.646541",
      "wikidata": "Q12772",
      "ISO3166-2": "FR-81",
      "ref:INSEE": "81",
      "wikipedia": "fr:Tarn (département)",
      "population": "389844",
      "ref:nuts:3": "FRJ27",
      "admin_level": "6",
      "border_type": "departement",
      "population:date": "2019"
    }
  },
  {
    "osm_id": -7402,
    "boundary": "administrative",
    "admin_level": 6,
    "parents": "-8650,-1403916,-2202162",
    "name": "Vendée",
    "local_name": "Vendée",
    "name_en": null,
    "all_tags": {
      "ref": "85",
      "name": "Vendée",
      "name:el": "Βαντέ",
      "name:es": "Vandea",
      "name:ru": "Вандея",
      "boundary": "administrative",
      "ref:nuts": "FRG05",
      "way_area": "0.797956",
      "wikidata": "Q12798",
      "ISO3166-2": "FR-85",
      "ref:INSEE": "85",
      "wikipedia": "fr:Vendée (département)",
      "population": "685442",
      "ref:nuts:3": "FRG05",
      "admin_level": "6",
      "border_type": "departement",
      "population:date": "2019"
    }
  },
  {
    "osm_id": -3222336,
    "boundary": "administrative",
    "admin_level": 6,
    "parents": "-3407643,-2202162",
    "name": "North Province",
    "local_name": "Province Nord",
    "name_en": "North Province",
    "all_tags": {
      "name": "Province Nord",
      "name:de": "Nordprovinz",
      "name:en": "North Province",
      "name:fr": "Province Nord",
      "boundary": "administrative",
      "maritime": "yes",
      "way_area": "3.03307",
      "wikidata": "Q1612920",
      "population": "45137",
      "admin_level": "6",
      "border_type": "baseline",
      "website:regulation": "http://www.legifrance.gouv.fr/affichTexte.do?cidTexte=JORFTEXT000000230256"
    }
  },
  {
    "osm_id": -1363096,
    "boundary": "administrative",
    "admin_level": 6,
    "parents": "-3412620,-2202162",
    "name": "Leeward Islands",
    "local_name": "Îles Sous-le-Vent",
    "name_en": "Leeward Islands",
    "all_tags": {
      "name": "Îles Sous-le-Vent",
      "place": "archipelago",
      "name:cs": "Závětrné ostrovy",
      "name:de": "Inseln unter dem Winde",
      "name:en": "Leeward Islands",
      "name:es": "Islas de Sotavento",
      "name:fr": "Îles Sous-le-Vent",
      "name:it": "Isole Sottovento",
      "name:lt": "Pavėjinės salos",
      "name:nl": "Benedenwindse Eilanden",
      "name:pl": "Wyspy Pod Wiatrem",
      "name:pt": "Ilhas de Sotavento",
      "boundary": "administrative",
      "timezone": "Pacific/Tahiti",
      "way_area": "0.0338687",
      "wikidata": "Q1999082",
      "ref:INSEE": "9875",
      "short_name": "ISLV",
      "admin_level": "6",
      "old_name:cs": "Podvětrné ostrovy"
    }
  },
  {
    "osm_id": -6063137,
    "boundary": "administrative",
    "admin_level": 6,
    "parents": "-3412620,-2202162",
    "name": "Gambier",
    "local_name": "Gambier",
    "name_en": "Gambier",
    "all_tags": {
      "name": "Gambier",
      "place": "archipelago",
      "name:en": "Gambier",
      "name:fr": "Gambier",
      "name:ru": "Гамбье",
      "boundary": "administrative",
      "maritime": "yes",
      "timezone": "Pacific/Gambier",
      "way_area": "1.38345",
      "wikidata": "Q186430",
      "ref:INSEE": "98719",
      "wikipedia": "fr:Gambier (Polynésie française)",
      "admin_level": "6",
      "postal_code": "98755",
      "admin_type:FR": "commune simple et subdivision"
    }
  },
  {
    "osm_id": -2562137,
    "boundary": "administrative",
    "admin_level": 4,
    "parents": "-1401835,-2202162",
    "name": "Guadeloupe",
    "local_name": "Guadeloupe",
    "name_en": "Guadeloupe",
    "all_tags": {
      "flag": "http://upload.wikimedia.org/wikipedia/commons/0/04/Flag_of_Guadeloupe_(local).svg",
      "name": "Guadeloupe",
      "name:ak": "Guwadelup",
      "name:am": "ጉዋደሉፕ",
      "name:ar": "غوادلوب",
      "name:az": "Qvadelupa",
      "name:be": "Гвадэлупа",
      "name:bg": "Гваделупа",
      "name:bm": "Gwadelup",
      "name:bn": "গুয়াদেলৌপ",
      "name:br": "Gwadeloup",
      "name:bs": "Gvadelupe",
      "name:ca": "Guadalupe",
      "name:da": "Guadeloupe",
      "name:de": "Guadeloupe",
      "name:dz": "གོ་ཌེ་ལུ་པེ",
      "name:ee": "Guadelupe",
      "name:el": "Γουαδελούπη",
      "name:en": "Guadeloupe",
      "name:eo": "Gvadelupo",
      "name:es": "Guadalupe",
      "name:eu": "Guadalupe",
      "name:fa": "گوادلوپ",
      "name:ff": "Gwaadalup",
      "name:fi": "Guadeloupe",
      "name:fr": "Guadeloupe",
      "name:fy": "Guadelûp",
      "name:ga": "Guadalúip",
      "name:gd": "Guadalup",
      "name:gl": "Guadalupe",
      "name:gu": "ગ્વાડેલોપ",
      "name:ha": "Gwadaluf",
      "name:he": "גוואדלופ",
      "name:hi": "ग्वाडेलोप",
      "name:hr": "Gvadalupa",
      "name:hu": "Guadeloupe",
      "name:is": "Gvadelúpeyjar",
      "name:it": "Guadalupa",
      "name:ja": "グアドループ",
      "name:ka": "გვადელუპე",
      "name:ki": "Gwadelupe",
      "name:km": "ហ្គោដឺឡុប",
      "name:kn": "ಗುಡೆಲೋಪ್",
      "name:ko": "과들루프",
      "name:ks": "گَواڑیلوپ",
      "name:la": "Guadalupa",
      "name:lg": "Gwadalupe",
      "name:ln": "Gwadɛlupɛ",
      "name:lo": "ກວດເດລູບ",
      "name:lt": "Gvadelupa",
      "name:lv": "Gvadelupa",
      "name:mg": "Goadelopy",
      "name:mk": "Гвадалупе",
      "name:ml": "ഗുവാഡെലോപ്",
      "name:mn": "Гуаделупе",
      "name:mr": "ग्वाडेलोउपे",
      "name:mt": "Gwadelupe",
      "name:ne": "ग्वाडेलुप",
      "name:or": "ଗୌଡେଲୌପେ",
      "name:pl": "Gwadelupa",
      "name:pt": "Guadalupe",
      "name:rn": "Gwadelupe",
      "name:ro": "Guadelupa",
      "name:ru": "Гваделупа",
      "name:sg": "Guadelûpu",
      "name:si": "ග්වෝඩලෝප්",
      "name:sl": "Gvadalupa",
      "name:sr": "Гвадалупа",
      "name:sv": "Guadeloupe",
      "name:sw": "Gwadelupe",
      "name:ta": "க்வாதேலோப்",
      "name:te": "గ్వాడేలోప్",
      "name:th": "กวาเดอลูป",
      "name:ti": "ጉዋደሉፕ",
      "name:to": "Kuatalupe",
      "name:tr": "Guadalupe",
      "name:uk": "Гваделупа",
      "name:ur": "گواڈیلوپ",
      "name:vi": "Guadeloupe",
      "name:yo": "Gadelope",
      "name:zh": "瓜德罗普",
      "name:zu": "i-Guadeloupe",
      "website": "https://www.cr-guadeloupe.fr/",
      "boundary": "administrative",
      "name:ast": "Guadalupe",
      "name:chr": "ᏩᏓᎷᏇ",
      "name:fur": "Guadalupe",
      "name:gcf": "Gwadloup",
      "name:kab": "Gwadalupi",
      "name:ksh": "Juadelupp",
      "ref:nuts": "FRY1",
      "way_area": "0.138242",
      "wikidata": "Q17012",
      "ISO3166-1": "GP",
      "ISO3166-2": "FR-GUA",
      "land_area": "administrative",
      "ref:INSEE": "01",
      "wikipedia": "fr:Guadeloupe",
      "population": "384239",
      "ref:nuts:2": "FRY1",
      "admin_level": "4",
      "description": "France, départements et régions d'outre-mer, territoire régi par l’article 73 de la Constitution",
      "official_name": "Région de la Guadeloupe",
      "population:date": "2019",
      "ISO3166-1:alpha2": "GP",
      "ISO3166-1:alpha3": "GLP",
      "ISO3166-1:numeric": "312"
    }
  },
  {
    "osm_id": -3222337,
    "boundary": "administrative",
    "admin_level": 6,
    "parents": "-3407643,-2202162",
    "name": "South Province",
    "local_name": "Province Sud",
    "name_en": "South Province",
    "all_tags": {
      "name": "Province Sud",
      "name:de": "Südprovinz",
      "name:en": "South Province",
      "name:fr": "Province Sud",
      "boundary": "administrative",
      "maritime": "yes",
      "way_area": "1.40384",
      "wikidata": "Q965632",
      "population": "183007",
      "admin_level": "6",
      "border_type": "baseline",
      "website:regulation": "http://www.legifrance.gouv.fr/affichTexte.do?cidTexte=JORFTEXT000000230256"
    }
  },
  {
    "osm_id": -1401905,
    "boundary": "administrative",
    "admin_level": 6,
    "parents": "-3412620,-2202162",
    "name": "Tuamotu-Gambier",
    "local_name": "Tuamotu-Gambier",
    "name_en": "Tuamotu-Gambier",
    "all_tags": {
      "name": "Tuamotu-Gambier",
      "name:en": "Tuamotu-Gambier",
      "name:fr": "Tuamotu-Gambier",
      "name:ru": "Туамоту-Гамбье",
      "boundary": "administrative",
      "way_area": "0.0110271",
      "admin_level": "6"
    }
  },
  {
    "osm_id": -7447,
    "boundary": "administrative",
    "admin_level": 6,
    "parents": "-102740,-1403916,-2202162",
    "name": "Morbihan",
    "local_name": "Morbihan",
    "name_en": null,
    "all_tags": {
      "ref": "56",
      "name": "Morbihan",
      "name:br": "Mor-Bihan",
      "name:ru": "Морбиан",
      "boundary": "administrative",
      "ref:nuts": "FRH04",
      "way_area": "0.825182",
      "wikidata": "Q12642",
      "ISO3166-2": "FR-56",
      "ref:INSEE": "56",
      "wikipedia": "fr:Morbihan",
      "population": "759684",
      "ref:nuts:3": "FRH04",
      "admin_level": "6",
      "border_type": "departement",
      "population:date": "2019"
    }
  },
  {
    "osm_id": -102430,
    "boundary": "administrative",
    "admin_level": 6,
    "parents": "-102740,-1403916,-2202162",
    "name": "Finistère",
    "local_name": "Finistère",
    "name_en": null,
    "all_tags": {
      "ref": "29",
      "name": "Finistère",
      "name:an": "Finisterre",
      "name:ar": "فنستير",
      "name:be": "Фіністэр",
      "name:bg": "Финистер",
      "name:br": "Penn-ar-Bed",
      "name:ca": "Finisterre",
      "name:cv": "Финистер",
      "name:cy": "Penn-ar-Bed",
      "name:es": "Finisterre",
      "name:fa": "فینیستر",
      "name:fr": "Finistère",
      "name:ga": "Penn-ar-Bed",
      "name:gd": "Penn-ar-Bed",
      "name:gv": "Penn-ar-Bed",
      "name:he": "פיניסטר",
      "name:hy": "Ֆինիստեր",
      "name:ja": "フィニステール県",
      "name:ka": "ფინისტერი",
      "name:kk": "Финистер",
      "name:ko": "피니스테르",
      "name:kw": "Penn-ar-Bed",
      "name:la": "Finis Terrae",
      "name:lt": "Finisteras",
      "name:lv": "Finistēra",
      "name:mr": "फिनिस्तर",
      "name:oc": "Finistèrra",
      "name:ru": "Финистер",
      "name:sr": "Финистер",
      "name:tg": "Финистер",
      "name:th": "ฟีนิสแตร์",
      "name:uk": "Фіністер",
      "name:zh": "非尼斯泰尔省",
      "website": "http://www.cg29.fr/",
      "boundary": "administrative",
      "name:frp": "Finistèro",
      "name:pnb": "ضلع فنستر",
      "ref:nuts": "FRH02",
      "way_area": "0.822778",
      "wikidata": "Q3389",
      "ISO3166-2": "FR-29",
      "ref:INSEE": "29",
      "wikipedia": "fr:Finistère",
      "population": "915090",
      "ref:nuts:3": "FRH02",
      "admin_level": "6",
      "border_type": "departement",
      "population:date": "2019"
    }
  },
  {
    "osm_id": -1284995,
    "boundary": "administrative",
    "admin_level": 6,
    "parents": "-3792880,-1403916,-2202162",
    "name": "Lot-et-Garonne",
    "local_name": "Lot-et-Garonne",
    "name_en": null,
    "all_tags": {
      "ref": "47",
      "name": "Lot-et-Garonne",
      "name:ca": "Òlt i Garona",
      "name:es": "Lot y Garona",
      "name:eu": "Lot eta Garona",
      "name:fr": "Lot-et-Garonne",
      "name:oc": "Òlt e Garona",
      "name:ru": "Ло и Гаронна",
      "boundary": "administrative",
      "ref:nuts": "FRI14",
      "way_area": "0.608033",
      "wikidata": "Q12578",
      "ISO3166-2": "FR-47",
      "ref:INSEE": "47",
      "wikipedia": "fr:Lot-et-Garonne",
      "population": "331271",
      "ref:nuts:3": "FRI14",
      "admin_level": "6",
      "border_type": "departement",
      "population:date": "2019"
    }
  },
  {
    "osm_id": -2470060,
    "boundary": "administrative",
    "admin_level": 4,
    "parents": "-1785276,-2202162",
    "name": "Réunion",
    "local_name": "La Réunion",
    "name_en": "Réunion",
    "all_tags": {
      "flag": "http://upload.wikimedia.org/wikipedia/commons/c/c3/Flag_of_France.svg",
      "name": "La Réunion",
      "name:af": "Réunion",
      "name:ak": "Reyuniɔn",
      "name:am": "ሪዩኒየን",
      "name:ar": "ريونيون",
      "name:az": "Reyunion",
      "name:be": "Руньён",
      "name:bg": "Реюниън",
      "name:bm": "Reyuɲɔŋ",
      "name:bn": "রিইউনিয়ন",
      "name:br": "Enez ar Reunion",
      "name:bs": "Rejunion",
      "name:ca": "Illa de la Reunió",
      "name:cs": "Réunion",
      "name:cy": "Réunion",
      "name:da": "Reunion",
      "name:de": "Réunion",
      "name:dv": "ރިޔޫނިއަން",
      "name:dz": "རེ་ཡུ་ནི་ཡོན",
      "name:ee": "Réunion nutome",
      "name:el": "Ρεϊνιόν",
      "name:en": "Réunion",
      "name:eo": "Reunio",
      "name:es": "La Reunión",
      "name:et": "Réunion",
      "name:eu": "Reunion",
      "name:fa": "رئونیون",
      "name:ff": "Rewiñoo",
      "name:fi": "Réunion",
      "name:fo": "Réunion",
      "name:fr": "La Réunion",
      "name:ga": "Réunion",
      "name:gd": "Réunion",
      "name:gl": "Reunión",
      "name:gu": "રીયુનિયન",
      "name:ha": "Rawuniyan",
      "name:he": "ראוניון",
      "name:hi": "रियूनियन",
      "name:hr": "Reunion",
      "name:hu": "Réunion",
      "name:hy": "Ռեյունյոն",
      "name:ia": "Reunion",
      "name:id": "Réunion",
      "name:io": "Reunion",
      "name:is": "Réunion",
      "name:it": "Riunione",
      "name:ja": "レユニオン島",
      "name:jv": "Réunion",
      "name:ka": "რეიუნიონი",
      "name:ki": "Riyunioni",
      "name:kk": "Реюньон",
      "name:kl": "Réunion",
      "name:km": "រ៉េអ៊ុយ៉ុង",
      "name:kn": "ರೀಯೂನಿಯನ್",
      "name:ko": "리유니온",
      "name:ks": "رِیوٗنِیَن",
      "name:ku": "Réunion",
      "name:kw": "Réunion",
      "name:la": "Reunio",
      "name:lb": "Departement La Réunion",
      "name:lg": "Leyunyoni",
      "name:ln": "Lenyo",
      "name:lo": "ເຣອູນິຍົງ",
      "name:lt": "Reunionas",
      "name:lv": "Reinjona",
      "name:mg": "Larenion",
      "name:mk": "Реинион",
      "name:ml": "റീയൂണിയൻ",
      "name:mn": "Реюньон",
      "name:mr": "रियूनियन",
      "name:ms": "Réunion",
      "name:mt": "Réunion",
      "name:ne": "रियुनियन",
      "name:nl": "Réunion",
      "name:nn": "Réunion",
      "name:no": "Réunion",
      "name:oc": "Reünion",
      "name:or": "ରିୟୁନିଅନ୍",
      "name:os": "Реюньон",
      "name:pa": "ਰੇਊਨੀਓਂ",
      "name:pl": "Reunion",
      "name:pt": "Reunião",
      "name:qu": "Riyunyun",
      "name:rm": "Réunion",
      "name:rn": "Amazinga ya Reyiniyo",
      "name:ro": "Reunion",
      "name:ru": "Реюньон",
      "name:rw": "Reyiniyo",
      "name:se": "Réunion",
      "name:sg": "Reinïon",
      "name:si": "රීයුනියන්",
      "name:sk": "Reunion",
      "name:sl": "Reunion",
      "name:sn": "Réunion",
      "name:so": "Réunion",
      "name:sr": "Реинион",
      "name:su": "Réunion",
      "name:sv": "Réunion",
      "name:sw": "Riyunioni",
      "name:ta": "ரீயூனியன்",
      "name:te": "రియూనియన్",
      "name:th": "เรอูนียง",
      "name:ti": "ሪዩኒየን",
      "name:tl": "Réunion",
      "name:to": "Liʻiunioni",
      "name:tr": "Réunion",
      "name:uk": "Реюньйон",
      "name:ur": "ری یونین",
      "name:vi": "Réunion",
      "name:wa": "Iye del Reyunion",
      "name:wo": "Reiñõo",
      "name:yo": "Orílẹ́ède Riuniyan",
      "name:zh": "留尼汪",
      "name:zu": "i-Réunion",
      "website": "http://www.regionreunion.com/",
      "boundary": "administrative",
      "currency": "EUR",
      "name:ast": "Reunión",
      "name:fur": "Reunion",
      "name:kab": "Timlilit",
      "name:ksh": "Rehunjohn",
      "ref:nuts": "FRY4",
      "way_area": "0.217812",
      "wikidata": "Q17070",
      "ISO3166-1": "RE",
      "ISO3166-2": "FR-LRE",
      "land_area": "administrative",
      "ref:INSEE": "04",
      "wikipedia": "fr:La Réunion",
      "population": "861210",
      "ref:nuts:2": "FRY4",
      "admin_level": "4",
      "description": "France, départements et régions d'outre-mer, territoire régi par l’article 73 de la Constitution",
      "official_name": "Région de La Réunion",
      "name:zh_pinyin": "Liúníwāng",
      "population:date": "2019",
      "ISO3166-1:alpha2": "RE",
      "ISO3166-1:alpha3": "REU",
      "ISO3166-1:numeric": "638"
    }
  },
  {
    "osm_id": -77601,
    "boundary": "administrative",
    "admin_level": 6,
    "parents": "-2470060,-1785276,-2202162",
    "name": "Réunion",
    "local_name": "La Réunion",
    "name_en": "Réunion",
    "all_tags": {
      "ref": "974",
      "name": "La Réunion",
      "name:af": "Réunion",
      "name:ak": "Reyuniɔn",
      "name:am": "ሪዩኒየን",
      "name:ar": "ريونيون",
      "name:az": "Reyunion",
      "name:be": "Руньён",
      "name:bg": "Реюниън",
      "name:bm": "Reyuɲɔŋ",
      "name:bn": "রিইউনিয়ন",
      "name:br": "Enez ar Reunion",
      "name:bs": "Rejunion",
      "name:ca": "Illa de la Reunió",
      "name:cs": "Réunion",
      "name:cy": "Réunion",
      "name:da": "Reunion",
      "name:de": "Réunion",
      "name:dv": "ރިޔޫނިއަން",
      "name:dz": "རེ་ཡུ་ནི་ཡོན",
      "name:ee": "Réunion nutome",
      "name:el": "Ρεϊνιόν",
      "name:en": "Réunion",
      "name:eo": "Reunio",
      "name:es": "La Reunión",
      "name:et": "Réunion",
      "name:eu": "Reunion",
      "name:fa": "رئونیون",
      "name:ff": "Rewiñoo",
      "name:fi": "Réunion",
      "name:fo": "Réunion",
      "name:fr": "La Réunion",
      "name:ga": "Réunion",
      "name:gd": "Réunion",
      "name:gl": "Reunión",
      "name:gu": "રીયુનિયન",
      "name:ha": "Rawuniyan",
      "name:he": "ראוניון",
      "name:hi": "रियूनियन",
      "name:hr": "Reunion",
      "name:hu": "Réunion",
      "name:hy": "Ռեյունյոն",
      "name:ia": "Reunion",
      "name:id": "Réunion",
      "name:io": "Reunion",
      "name:is": "Réunion",
      "name:it": "Riunione",
      "name:ja": "レユニオン島",
      "name:jv": "Réunion",
      "name:ka": "რეიუნიონი",
      "name:ki": "Riyunioni",
      "name:kk": "Реюньон",
      "name:kl": "Réunion",
      "name:km": "រ៉េអ៊ុយ៉ុង",
      "name:kn": "ರೀಯೂನಿಯನ್",
      "name:ko": "리유니온",
      "name:ks": "رِیوٗنِیَن",
      "name:ku": "Réunion",
      "name:kw": "Réunion",
      "name:la": "Reunio",
      "name:lb": "Departement La Réunion",
      "name:lg": "Leyunyoni",
      "name:ln": "Lenyo",
      "name:lo": "ເຣອູນິຍົງ",
      "name:lt": "Reunionas",
      "name:lv": "Reinjona",
      "name:mg": "Larenion",
      "name:mk": "Реинион",
      "name:ml": "റീയൂണിയൻ",
      "name:mn": "Реюньон",
      "name:mr": "रियूनियन",
      "name:ms": "Réunion",
      "name:mt": "Réunion",
      "name:ne": "रियुनियन",
      "name:nl": "Réunion",
      "name:nn": "Réunion",
      "name:no": "Réunion",
      "name:oc": "Reünion",
      "name:or": "ରିୟୁନିଅନ୍",
      "name:os": "Реюньон",
      "name:pa": "ਰੇਊਨੀਓਂ",
      "name:pl": "Reunion",
      "name:pt": "Reunião",
      "name:qu": "Riyunyun",
      "name:rm": "Réunion",
      "name:rn": "Amazinga ya Reyiniyo",
      "name:ro": "Reunion",
      "name:ru": "Реюньон",
      "name:rw": "Reyiniyo",
      "name:se": "Réunion",
      "name:sg": "Reinïon",
      "name:si": "රීයුනියන්",
      "name:sk": "Reunion",
      "name:sl": "Reunion",
      "name:sn": "Réunion",
      "name:so": "Réunion",
      "name:sr": "Реинион",
      "name:su": "Réunion",
      "name:sv": "Réunion",
      "name:sw": "Riyunioni",
      "name:ta": "ரீயூனியன்",
      "name:te": "రియూనియన్",
      "name:th": "เรอูนียง",
      "name:ti": "ሪዩኒየን",
      "name:tl": "Réunion",
      "name:to": "Liʻiunioni",
      "name:tr": "Réunion",
      "name:uk": "Реюньйон",
      "name:ur": "ری یونین",
      "name:vi": "Réunion",
      "name:wa": "Iye del Reyunion",
      "name:wo": "Reiñõo",
      "name:yo": "Orílẹ́ède Riuniyan",
      "name:zh": "留尼汪",
      "name:zu": "i-Réunion",
      "boundary": "administrative",
      "name:ast": "Reunión",
      "name:fur": "Reunion",
      "name:kab": "Timlilit",
      "name:ksh": "Rehunjohn",
      "ref:nuts": "FRY40",
      "way_area": "0.217812",
      "wikidata": "Q17070",
      "ISO3166-1": "RE",
      "ISO3166-2": "FR-RE",
      "ref:INSEE": "974",
      "wikipedia": "fr:La Réunion",
      "population": "861210",
      "ref:nuts:3": "FRY40",
      "admin_level": "6",
      "name:zh_pinyin": "Liúníwāng",
      "population:date": "2019",
      "ISO3166-1:alpha2": "RE",
      "ISO3166-1:alpha3": "REU",
      "ISO3166-1:numeric": "638"
    }
  },
  {
    "osm_id": -7450,
    "boundary": "administrative",
    "admin_level": 6,
    "parents": "-3792880,-1403916,-2202162",
    "name": "Pyrénées-Atlantiques",
    "local_name": "Pyrénées-Atlantiques",
    "name_en": null,
    "all_tags": {
      "ref": "64",
      "name": "Pyrénées-Atlantiques",
      "name:an": "Pireneus Atlanticos",
      "name:ar": "البرانيس-الأطلسية",
      "name:be": "Пірэнеі Атлантычныя",
      "name:bg": "Пирене Атлантик",
      "name:br": "Pireneoù Atlantel",
      "name:ca": "Pirineus Atlàntics",
      "name:cv": "Атлантика енчи Пиреней",
      "name:de": "Pyrenäen-Atlantik",
      "name:el": "Ατλαντικές Πυρηναίες",
      "name:eu": "Pirinio Atlantikoak",
      "name:fa": "پیرنه-آتلانتیک",
      "name:fr": "Pyrénées-Atlantiques",
      "name:gl": "Pireneos Atlánticos",
      "name:he": "הפירנאים האטלנטיים",
      "name:hr": "Atlantski-Pireneji",
      "name:hy": "Ատլանտյան-Պիրենեյներ",
      "name:it": "Pirenei Atlantici",
      "name:ja": "ピレネー＝アトランティック県",
      "name:ka": "ატლანტური პირენეები",
      "name:kk": "Атлантикалық-Пиреней",
      "name:ko": "피레네자틀랑티크",
      "name:la": "Pyrenaeus-Atlanticus",
      "name:lt": "Atlanto-Pirėnai",
      "name:lv": "Atlantijas-Pireneji",
      "name:mr": "पिरेने-अतलांतिक",
      "name:oc": "Pirenèus Atlantics",
      "name:pl": "Pireneje Atlantyckie",
      "name:pt": "Pirenéus Atlânticos",
      "name:ru": "Атлантические Пиренеи",
      "name:sr": "Атлантски Пиринеји",
      "name:tg": "Пиренеи Атлантикӣ",
      "name:th": "จังหวัดปีเรเน อัตล็องติก",
      "name:uk": "Атлантичні Піренеї",
      "name:zh": "比利牛斯 大西洋省",
      "boundary": "administrative",
      "name:frp": "Pirènês Atlanticos",
      "name:mzn": "پیرنه-آتلانتیک",
      "name:pms": "Pirené Atlàntich",
      "name:pnb": "ضلع-پیرینیز-اٹلانٹک",
      "ref:nuts": "FRI15",
      "way_area": "0.851648",
      "wikidata": "Q12703",
      "ISO3166-2": "FR-64",
      "ref:INSEE": "64",
      "wikipedia": "fr:Pyrénées-Atlantiques",
      "population": "682621",
      "ref:nuts:3": "FRI15",
      "admin_level": "6",
      "border_type": "departement",
      "description": "Pas de Trait d'union dans les autres langues",
      "population:date": "2019"
    }
  },
  {
    "osm_id": -7405,
    "boundary": "administrative",
    "admin_level": 6,
    "parents": "-3792880,-1403916,-2202162",
    "name": "Gironde",
    "local_name": "Gironde",
    "name_en": null,
    "all_tags": {
      "ref": "33",
      "name": "Gironde",
      "name:ar": "جيروند",
      "name:az": "Jironda",
      "name:be": "Жыронда",
      "name:br": "Gironda",
      "name:ca": "Gironda",
      "name:cv": "Жиронда",
      "name:es": "Gironda",
      "name:eu": "Gironda",
      "name:fa": "ژیروند",
      "name:fr": "Gironde",
      "name:gl": "Xironda",
      "name:he": "ז'ירונד",
      "name:hy": "Ժիրոնդ",
      "name:it": "Gironda",
      "name:ja": "ジロンド県",
      "name:ka": "ჟირონდა",
      "name:kk": "Жиронда",
      "name:ko": "지롱드",
      "name:la": "Girundia",
      "name:lt": "Žironda",
      "name:lv": "Žironda",
      "name:mr": "जिरोंद",
      "name:oc": "Gironda",
      "name:pl": "Żyronda",
      "name:pt": "Gironda",
      "name:ru": "Жиронда",
      "name:sr": "Жиронда",
      "name:tg": "Жиронда",
      "name:th": "ฌีรงด์",
      "name:tl": "Gironda",
      "name:uk": "Жиронда",
      "name:zh": "吉倫特省",
      "boundary": "administrative",
      "name:frp": "G·ironde",
      "name:pms": "Gironda",
      "name:pnb": "یروند",
      "name:vec": "Zironda",
      "ref:nuts": "FRI12",
      "way_area": "1.14797",
      "wikidata": "Q12526",
      "ISO3166-2": "FR-33",
      "ref:INSEE": "33",
      "wikipedia": "fr:Gironde (département)",
      "population": "1623749",
      "ref:nuts:3": "FRI12",
      "admin_level": "6",
      "border_type": "departement",
      "population:date": "2019"
    }
  },
  {
    "osm_id": -7431,
    "boundary": "administrative",
    "admin_level": 6,
    "parents": "-3792880,-1403916,-2202162",
    "name": "Charente-Maritime",
    "local_name": "Charente-Maritime",
    "name_en": null,
    "all_tags": {
      "ref": "17",
      "name": "Charente-Maritime",
      "name:br": "Charentez-an-Arvor",
      "name:ca": "Charente Marítim",
      "name:eu": "Itsas Charente",
      "name:fr": "Charente-Maritime",
      "name:ru": "Приморская Шаранта",
      "boundary": "administrative",
      "ref:nuts": "FRI32",
      "way_area": "0.798842",
      "wikidata": "Q3278",
      "ISO3166-2": "FR-17",
      "ref:INSEE": "17",
      "wikipedia": "fr:Charente-Maritime",
      "population": "651358",
      "ref:nuts:3": "FRI32",
      "admin_level": "6",
      "border_type": "departement",
      "population:date": "2019"
    }
  },
  {
    "osm_id": -7448,
    "boundary": "administrative",
    "admin_level": 6,
    "parents": "-3792878,-1403916,-2202162",
    "name": "Nièvre",
    "local_name": "Nièvre",
    "name_en": null,
    "all_tags": {
      "ref": "58",
      "name": "Nièvre",
      "name:ar": "نيافر",
      "name:be": "Ньеўр",
      "name:bg": "Ниевър",
      "name:cv": "Ньевр",
      "name:el": "Νιέβρ",
      "name:fa": "نی‌یور",
      "name:fr": "Nièvre",
      "name:hy": "Նյևր",
      "name:ja": "ニエーヴル県",
      "name:ka": "ნიევრი",
      "name:kk": "Ньевр",
      "name:ko": "니에브르",
      "name:la": "Niver",
      "name:lt": "Njevras",
      "name:lv": "Njevra",
      "name:mr": "न्येव्र",
      "name:ru": "Ньевр",
      "name:sr": "Нијевр",
      "name:tg": "Невр",
      "name:th": "เนียฟวร์",
      "name:uk": "Ньєвр",
      "name:zh": "涅夫勒省",
      "boundary": "administrative",
      "name:frp": "Niévre",
      "name:pnb": "نیور",
      "ref:nuts": "FRC12",
      "way_area": "0.814905",
      "wikidata": "Q12657",
      "ISO3166-2": "FR-58",
      "ref:INSEE": "58",
      "wikipedia": "fr:Nièvre (département)",
      "population": "204452",
      "ref:nuts:3": "FRC12",
      "admin_level": "6",
      "border_type": "departement",
      "population:date": "2019"
    }
  },
  {
    "osm_id": -7467,
    "boundary": "administrative",
    "admin_level": 6,
    "parents": "-3792883,-1403916,-2202162",
    "name": "Hautes Pyrenees",
    "local_name": "Hautes-Pyrénées",
    "name_en": "Hautes Pyrenees",
    "all_tags": {
      "ref": "65",
      "name": "Hautes-Pyrénées",
      "name:an": "Altos Pireneus",
      "name:ar": "البرانيس العليا",
      "name:be": "Верхнія Пірэнеі",
      "name:bg": "От Пирене",
      "name:br": "Pireneoù Uhel",
      "name:ca": "Alts Pirineus",
      "name:cv": "Тури Пиреней",
      "name:en": "Hautes Pyrenees",
      "name:eo": "Altaj Pireneoj",
      "name:es": "Altos Pirineos",
      "name:eu": "Pirinio Garaiak",
      "name:fa": "اوت پیرنه",
      "name:fr": "Hautes-Pyrénées",
      "name:gl": "Altos Pireneos",
      "name:hy": "Վերին-Պիրենեյներ",
      "name:it": "Alti-Pirenei",
      "name:ja": "オート＝ピレネー県",
      "name:ka": "ზემო პირენეები",
      "name:kk": "Жоғарғы Пиреней",
      "name:ko": "오트피레네",
      "name:la": "Pyrenaeus Superior",
      "name:lt": "Aukštutiniai Pirėnai",
      "name:lv": "Augšpireneji",
      "name:mr": "ऑत-पिरेने",
      "name:oc": "Hauts Pirenèus",
      "name:pl": "Pireneje Wysokie",
      "name:pt": "Altos Pirineus",
      "name:ru": "Верхние Пиренеи",
      "name:sr": "Високи Пиринеји",
      "name:tg": "Пиренеи Верхние",
      "name:th": "จังหวัดโอต ปีเรเน",
      "name:uk": "Верхні Піренеї",
      "name:zh": "上比利牛斯省",
      "alt_name": "Canal de l'Alaric",
      "boundary": "administrative",
      "name:frp": "Hôts Pirènês",
      "name:hak": "Sông Pyrénées sén",
      "name:pms": "Àut Pirené",
      "name:pnb": "ضلع-اوٹ پیرینیز",
      "ref:nuts": "FRJ26",
      "way_area": "0.499283",
      "wikidata": "Q12700",
      "ISO3166-2": "FR-65",
      "ref:INSEE": "65",
      "wikipedia": "fr:Hautes-Pyrénées",
      "population": "229567",
      "ref:nuts:3": "FRJ26",
      "admin_level": "6",
      "border_type": "departement",
      "alt_name:fro": "Пиренеи-Боло",
      "population:date": "2019"
    }
  },
  {
    "osm_id": -7466,
    "boundary": "administrative",
    "admin_level": 6,
    "parents": "-3792883,-1403916,-2202162",
    "name": "Pyrénées-Orientales",
    "local_name": "Pyrénées-Orientales",
    "name_en": null,
    "all_tags": {
      "ref": "66",
      "name": "Pyrénées-Orientales",
      "name:br": "Pireneoù-ar-Reter",
      "name:ca": "Pirineus Orientals",
      "name:de": "Ostpyrenäen",
      "name:es": "Pirineos Orientales",
      "name:fr": "Pyrénées-Orientales",
      "name:it": "Pirenei Orientali",
      "name:lt": "Rytų Pirėnai",
      "name:oc": "Pirenèus Orientals",
      "name:ru": "Восточные Пиренеи",
      "boundary": "administrative",
      "ref:nuts": "FRJ15",
      "way_area": "0.453838",
      "wikidata": "Q12709",
      "ISO3166-2": "FR-66",
      "ref:INSEE": "66",
      "wikipedia": "fr:Pyrénées-Orientales",
      "population": "479979",
      "ref:nuts:3": "FRJ15",
      "admin_level": "6",
      "border_type": "departement",
      "population:date": "2019"
    }
  },
  {
    "osm_id": -7422,
    "boundary": "administrative",
    "admin_level": 6,
    "parents": "-3792883,-1403916,-2202162",
    "name": "Gers",
    "local_name": "Gers",
    "name_en": null,
    "all_tags": {
      "ref": "32",
      "name": "Gers",
      "name:fr": "Gers",
      "name:oc": "Gers",
      "name:ru": "Жер",
      "boundary": "administrative",
      "ref:nuts": "FRJ24",
      "way_area": "0.703383",
      "wikidata": "Q12517",
      "ISO3166-2": "FR-32",
      "ref:INSEE": "32",
      "wikipedia": "fr:Gers (département)",
      "population": "191377",
      "ref:nuts:3": "FRJ24",
      "admin_level": "6",
      "border_type": "departement",
      "population:date": "2019"
    }
  },
  {
    "osm_id": -7388,
    "boundary": "administrative",
    "admin_level": 6,
    "parents": "-3792883,-1403916,-2202162",
    "name": "Tarn-et-Garonne",
    "local_name": "Tarn-et-Garonne",
    "name_en": null,
    "all_tags": {
      "ref": "82",
      "name": "Tarn-et-Garonne",
      "name:ca": "Tarn i Garona",
      "name:el": "Ταρν-ε-Γκαρόν",
      "name:es": "Tarn y Garona",
      "name:eu": "Tarn eta Garona",
      "name:fr": "Tarn-et-Garonne",
      "name:oc": "Tarn e Garona",
      "name:ru": "Тарн и Гаронна",
      "boundary": "administrative",
      "ref:nuts": "FRJ28",
      "way_area": "0.419286",
      "wikidata": "Q12779",
      "ISO3166-2": "FR-82",
      "ref:INSEE": "82",
      "wikipedia": "fr:Tarn-et-Garonne",
      "population": "260669",
      "ref:nuts:3": "FRJ28",
      "start_date": "1808-11-21",
      "admin_level": "6",
      "border_type": "departement",
      "population:date": "2019"
    }
  },
  {
    "osm_id": -7454,
    "boundary": "administrative",
    "admin_level": 6,
    "parents": "-3792883,-1403916,-2202162",
    "name": "Lot",
    "local_name": "Lot",
    "name_en": null,
    "all_tags": {
      "ref": "46",
      "name": "Lot",
      "name:ar": "لوت",
      "name:be": "Лот",
      "name:bg": "Лот",
      "name:br": "Lot",
      "name:ca": "Òlt",
      "name:fa": "لو",
      "name:fr": "Lot",
      "name:he": "לוט",
      "name:hy": "Լո",
      "name:ja": "ロット県",
      "name:ka": "ლო",
      "name:ko": "로트",
      "name:mr": "लॉत",
      "name:oc": "Òlt",
      "name:ru": "Лот",
      "name:sr": "Лот",
      "name:th": "ล็อต",
      "name:uk": "Лот",
      "name:zh": "洛特省",
      "boundary": "administrative",
      "ref:nuts": "FRJ25",
      "way_area": "0.592609",
      "wikidata": "Q12576",
      "ISO3166-2": "FR-46",
      "ref:INSEE": "46",
      "wikipedia": "fr:Lot (département)",
      "population": "174094",
      "ref:nuts:3": "FRJ25",
      "admin_level": "6",
      "border_type": "departement",
      "population:date": "2019"
    }
  },
  {
    "osm_id": -7429,
    "boundary": "administrative",
    "admin_level": 6,
    "parents": "-3792883,-1403916,-2202162",
    "name": "Hérault",
    "local_name": "Hérault",
    "name_en": null,
    "all_tags": {
      "ref": "34",
      "name": "Hérault",
      "name:an": "Erau",
      "name:ar": "هيرولت",
      "name:be": "Эро",
      "name:bg": "Еро",
      "name:br": "Erau",
      "name:ca": "Erau",
      "name:cv": "Эро",
      "name:fa": "ارو",
      "name:fr": "Hérault",
      "name:he": "ארו",
      "name:hy": "Էրո",
      "name:ja": "エロー県",
      "name:ka": "ეროს",
      "name:kk": "Эро",
      "name:ko": "에로 주",
      "name:la": "Arauris",
      "name:lt": "Hero",
      "name:lv": "Ēro",
      "name:mn": "Эро",
      "name:mr": "एरॉ",
      "name:oc": "Erau",
      "name:ru": "Эро",
      "name:sr": "Еро",
      "name:tg": "Эро",
      "name:th": "เอโร",
      "name:uk": "Еро",
      "name:zh": "埃罗省",
      "boundary": "administrative",
      "name:frp": "Hèrôlt",
      "name:nan": "Hérault",
      "name:pnb": "ایرو",
      "ref:nuts": "FRJ13",
      "way_area": "0.694491",
      "wikidata": "Q12545",
      "ISO3166-2": "FR-34",
      "ref:INSEE": "34",
      "wikipedia": "fr:Hérault (département)",
      "population": "1175623",
      "ref:nuts:3": "FRJ13",
      "admin_level": "6",
      "border_type": "departement",
      "name:be-tarask": "Эро",
      "population:date": "2019"
    }
  },
  {
    "osm_id": -7445,
    "boundary": "administrative",
    "admin_level": 6,
    "parents": "-8654,-1403916,-2202162",
    "name": "Vaucluse",
    "local_name": "Vaucluse",
    "name_en": null,
    "all_tags": {
      "ref": "84",
      "name": "Vaucluse",
      "name:ar": "فوكلوز",
      "name:br": "Vauclusa",
      "name:ca": "Valclusa",
      "name:el": "Βωκλύζ",
      "name:oc": "Vauclusa",
      "name:ru": "Воклюз",
      "boundary": "administrative",
      "ref:nuts": "FRL06",
      "way_area": "0.401427",
      "wikidata": "Q12792",
      "ISO3166-2": "FR-84",
      "ref:INSEE": "84",
      "wikipedia": "fr:Vaucluse (département)",
      "population": "561469",
      "ref:nuts:3": "FRL06",
      "admin_level": "6",
      "border_type": "departement",
      "population:date": "2019"
    }
  },
  {
    "osm_id": -7430,
    "boundary": "administrative",
    "admin_level": 6,
    "parents": "-3792877,-1403916,-2202162",
    "name": "Ardèche",
    "local_name": "Ardèche",
    "name_en": null,
    "all_tags": {
      "ref": "07",
      "name": "Ardèche",
      "name:br": "Ardecha",
      "name:ca": "Ardecha",
      "name:el": "Αρντές",
      "name:es": "Ardecha",
      "name:oc": "Ardecha",
      "name:ru": "Ардеш",
      "boundary": "administrative",
      "ref:nuts": "FRK22",
      "way_area": "0.632589",
      "wikidata": "Q3148",
      "ISO3166-2": "FR-07",
      "ref:INSEE": "07",
      "wikipedia": "fr:Ardèche (département)",
      "population": "328278",
      "ref:nuts:3": "FRK22",
      "admin_level": "6",
      "border_type": "departement",
      "population:date": "2019"
    }
  },
  {
    "osm_id": -13125698,
    "boundary": "religious_administration",
    "admin_level": 6,
    "parents": "-3792877,-1403916,-2202162",
    "name": "Diocèse de Viviers",
    "local_name": "Diocèse de Viviers",
    "name_en": null,
    "all_tags": {
      "name": "Diocèse de Viviers",
      "boundary": "religious_administration",
      "religion": "christian",
      "way_area": "0.632589",
      "wikidata": "Q877953",
      "wikipedia": "fr:Diocèse de Viviers",
      "ref:FR:CEF": "vv",
      "admin_level": "6",
      "border_type": "diocese",
      "denomination": "catholic"
    }
  },
  {
    "osm_id": -13125720,
    "boundary": "religious_administration",
    "admin_level": 6,
    "parents": "-3792877,-1403916,-2202162",
    "name": "Diocèse de Valence",
    "local_name": "Diocèse de Valence",
    "name_en": null,
    "all_tags": {
      "name": "Diocèse de Valence",
      "boundary": "religious_administration",
      "religion": "christian",
      "way_area": "0.744483",
      "wikidata": "Q822731",
      "wikipedia": "fr:Diocèse de Valence",
      "ref:FR:CEF": "vl",
      "admin_level": "6",
      "denomination": "catholic"
    }
  },
  {
    "osm_id": -7434,
    "boundary": "administrative",
    "admin_level": 6,
    "parents": "-3792877,-1403916,-2202162",
    "name": "Drôme",
    "local_name": "Drôme",
    "name_en": null,
    "all_tags": {
      "ref": "26",
      "name": "Drôme",
      "name:an": "Droma",
      "name:ar": "دروم",
      "name:be": "Дром",
      "name:bg": "Дром",
      "name:br": "Droma",
      "name:ca": "Droma",
      "name:cv": "Дром",
      "name:fa": "دروم",
      "name:fr": "Drôme",
      "name:hy": "Դրոմ",
      "name:ja": "ドローム県",
      "name:ka": "დრომი",
      "name:kk": "Дром",
      "name:ko": "드롬",
      "name:la": "Drona",
      "name:lt": "Dromas",
      "name:lv": "Droma",
      "name:mr": "द्रोम",
      "name:oc": "Droma",
      "name:ru": "Дром",
      "name:sr": "Дром",
      "name:tg": "Дром",
      "name:th": "โดรม",
      "name:uk": "Дром",
      "name:zh": "德龙省",
      "boundary": "administrative",
      "name:frp": "Drôma",
      "name:pnb": "دروم",
      "ref:nuts": "FRK23",
      "way_area": "0.744483",
      "wikidata": "Q3364",
      "ISO3166-2": "FR-26",
      "ref:INSEE": "26",
      "wikipedia": "fr:Drôme (département)",
      "population": "516762",
      "ref:nuts:3": "FRK23",
      "admin_level": "6",
      "alt_name:th": "โดรมา;ดรูมอ",
      "border_type": "departement",
      "population:date": "2019"
    }
  },
  {
    "osm_id": -8654,
    "boundary": "administrative",
    "admin_level": 4,
    "parents": "-1403916,-2202162",
    "name": "Provence-Alpes-Côte d'Azur",
    "local_name": "Provence-Alpes-Côte d'Azur",
    "name_en": "Provence-Alpes-Côte d'Azur",
    "all_tags": {
      "name": "Provence-Alpes-Côte d'Azur",
      "image": "https://upload.wikimedia.org/wikipedia/commons/2/22/Blason_r%C3%A9gion_fr_Provence-Alpes-C%C3%B4te_d%27Azur.svg",
      "name:ar": "بروفنس ألب كوت دازور",
      "name:be": "Праванс-Альпы-Лазурны бераг",
      "name:br": "Provañs-Alpoù-Aod an Azur",
      "name:ca": "Provença-Alps-Costa Blava",
      "name:el": "Προβηγκία-Άλπεις-Κυανή Ακτή",
      "name:en": "Provence-Alpes-Côte d'Azur",
      "name:eo": "Provenco-Alpoj-Bordo Lazura",
      "name:es": "Provenza-Alpes-Costa Azul",
      "name:eu": "Proventza-Alpeak-Kosta Urdina",
      "name:hu": "Provence–Alpes–Côte d’Azur",
      "name:it": "Provenza-Alpi-Costa Azzurra",
      "name:lt": "Provansas-Alpės-Žydrasis Krantas",
      "name:oc": "Provença-Aups-Còsta d'Azur",
      "name:pl": "Prowansja-Alpy-Lazurowe Wybrzeże",
      "name:pt": "Provença-Alpes-Costa Azul",
      "name:ro": "Provenţa-Alpi-Coasta de Azur",
      "name:ru": "Прованс-Альпы-Лазурный Берег",
      "name:sl": "Provansa-Alpe-Azurna obala",
      "name:uk": "Прованс-Альпи-Лазурний берег",
      "website": "http://www.regionpaca.fr/",
      "boundary": "administrative",
      "name:ast": "Provenza-Alpes-Costa Azul",
      "ref:nuts": "FRL;FRL0",
      "way_area": "3.57071",
      "wikidata": "Q15104",
      "ISO3166-2": "FR-PAC",
      "ref:INSEE": "93",
      "wikipedia": "fr:Provence-Alpes-Côte d'Azur",
      "population": "5081101",
      "admin_level": "4",
      "border_type": "region",
      "name:zh-Hans": "普罗旺斯-阿尔卑斯-蓝色海岸",
      "name:zh-Hant": "普羅旺斯-阿爾卑斯-藍色海岸",
      "population:date": "2019"
    }
  },
  {
    "osm_id": -76931,
    "boundary": "administrative",
    "admin_level": 6,
    "parents": "-76910,-1403916,-2202162",
    "name": "Haute-Corse",
    "local_name": "Haute-Corse",
    "name_en": null,
    "all_tags": {
      "ref": "2B",
      "name": "Haute-Corse",
      "name:br": "Korsika-Uhel",
      "name:ca": "Alta Còrsega",
      "name:co": "Cismonte",
      "name:el": "Άνω Κορσική",
      "name:es": "Alta Córcega",
      "name:fr": "Haute-Corse",
      "name:hu": "Felső-Korzika",
      "name:ru": "Верхняя Корсика",
      "boundary": "administrative",
      "ref:nuts": "FRM02",
      "way_area": "0.514502",
      "wikidata": "Q3334",
      "ISO3166-2": "FR-2B",
      "ref:INSEE": "2B",
      "wikipedia": "fr:Haute-Corse",
      "population": "181933",
      "ref:nuts:3": "FRM02",
      "admin_level": "6",
      "population:date": "2019"
    }
  },
  {
    "osm_id": -7460,
    "boundary": "administrative",
    "admin_level": 6,
    "parents": "-3792878,-1403916,-2202162",
    "name": "Jura",
    "local_name": "Jura",
    "name_en": null,
    "all_tags": {
      "ref": "39",
      "name": "Jura",
      "name:an": "جورا",
      "name:be": "Юра",
      "name:bg": "Жура",
      "name:cv": "Юра",
      "name:de": "Jura",
      "name:eo": "Ĵuraso",
      "name:fa": "ژورا",
      "name:fr": "Jura",
      "name:hy": "Յուրա",
      "name:it": "Giura",
      "name:ja": "ジュラ県",
      "name:ka": "იურის",
      "name:kk": "Юра",
      "name:ko": "쥐라",
      "name:la": "Iura",
      "name:mr": "श्युरॅ",
      "name:ru": "Юра",
      "name:sr": "Жира",
      "name:tg": "Юра",
      "name:th": "ฌูว์รา",
      "name:uk": "Жура",
      "name:zh": "汝拉省",
      "boundary": "administrative",
      "name:pnb": "جورا",
      "name:vec": "Giura",
      "ref:nuts": "FRC22",
      "way_area": "0.594201",
      "wikidata": "Q3120",
      "ISO3166-2": "FR-39",
      "ref:INSEE": "39",
      "wikipedia": "fr:Jura (département)",
      "population": "259199",
      "ref:nuts:3": "FRC22",
      "admin_level": "6",
      "border_type": "departement",
      "ref:FR:SIREN": "223900010",
      "population:date": "2019"
    }
  },
  {
    "osm_id": -8640,
    "boundary": "administrative",
    "admin_level": 4,
    "parents": "-1403916,-2202162",
    "name": "Centre-Loire Valley",
    "local_name": "Centre-Val de Loire",
    "name_en": "Centre-Loire Valley",
    "all_tags": {
      "name": "Centre-Val de Loire",
      "name:ar": "مركز-وادي اللوار",
      "name:br": "Kreiz-Traoñ-al-Liger",
      "name:ca": "Centre – Vall del Loira",
      "name:de": "Zentrum-Loiretal",
      "name:en": "Centre-Loire Valley",
      "name:eu": "Erdialdea -Loira Harana",
      "name:fr": "Centre-Val de Loire",
      "name:hu": "Közép-Franciaország–Loire-völgy",
      "name:is": "Centre-Loiredalur",
      "name:oc": "Centre - Vau de Léger",
      "name:ro": "Centru - Valea Loarei",
      "website": "http://www.regioncentre.fr/",
      "boundary": "administrative",
      "old_name": "Centre",
      "ref:nuts": "FRB;FRB0",
      "way_area": "4.71798",
      "wikidata": "Q13947",
      "ISO3166-2": "FR-CVL",
      "ref:INSEE": "24",
      "wikipedia": "fr:Centre-Val de Loire",
      "population": "2573180",
      "ref:nuts:1": "FRB",
      "ref:nuts:2": "FRB0",
      "admin_level": "4",
      "old_name:ar": "مركز",
      "old_name:be": "Цэнтр",
      "old_name:br": "Centre",
      "old_name:ca": "Centre",
      "old_name:de": "Zentrum",
      "old_name:eo": "Centro",
      "old_name:es": "Centro",
      "old_name:eu": "Erdialdea -Loira Harana",
      "old_name:fr": "Centre",
      "old_name:it": "Centro",
      "old_name:la": "Centrum",
      "old_name:pt": "Centro",
      "old_name:ru": "Центр",
      "old_name:uk": "Центр",
      "name:zh-Hans": "中央-卢瓦尔河谷",
      "name:zh-Hant": "中央-羅亞爾河谷",
      "population:date": "2019"
    }
  },
  {
    "osm_id": -7452,
    "boundary": "administrative",
    "admin_level": 6,
    "parents": "-3792877,-1403916,-2202162",
    "name": "Haute-Loire",
    "local_name": "Haute-Loire",
    "name_en": null,
    "all_tags": {
      "ref": "43",
      "name": "Haute-Loire",
      "name:br": "Liger-Uhel",
      "name:es": "Alto Loira",
      "name:oc": "Naut Léger",
      "name:ru": "Верхняя Луара",
      "boundary": "administrative",
      "ref:nuts": "FRK13",
      "way_area": "0.572299",
      "wikidata": "Q12572",
      "ISO3166-2": "FR-43",
      "ref:INSEE": "43",
      "wikipedia": "fr:Haute-Loire",
      "population": "227570",
      "ref:nuts:3": "FRK13",
      "admin_level": "6",
      "border_type": "departement",
      "population:date": "2019"
    }
  },
  {
    "osm_id": -13125009,
    "boundary": "religious_administration",
    "admin_level": 6,
    "parents": "-3792877,-1403916,-2202162",
    "name": "Diocèse du Puy-en-Velay",
    "local_name": "Diocèse du Puy-en-Velay",
    "name_en": null,
    "all_tags": {
      "name": "Diocèse du Puy-en-Velay",
      "boundary": "religious_administration",
      "religion": "christian",
      "way_area": "0.572299",
      "wikidata": "Q871118",
      "wikipedia": "fr:Diocèse du Puy-en-Velay",
      "ref:FR:CEF": "lp",
      "admin_level": "6",
      "denomination": "catholic"
    }
  },
  {
    "osm_id": -1450201,
    "boundary": "administrative",
    "admin_level": 6,
    "parents": "-3792877,-1403916,-2202162",
    "name": "Allier",
    "local_name": "Allier",
    "name_en": null,
    "all_tags": {
      "ref": "03",
      "name": "Allier",
      "name:oc": "Alèir",
      "name:ru": "Алье",
      "boundary": "administrative",
      "ref:nuts": "FRK11",
      "way_area": "0.863162",
      "wikidata": "Q3113",
      "ISO3166-2": "FR-03",
      "ref:INSEE": "03",
      "wikipedia": "fr:Allier (département)",
      "population": "335975",
      "ref:nuts:3": "FRK11",
      "admin_level": "6",
      "border_type": "departement",
      "population:date": "2019"
    }
  },
  {
    "osm_id": -13010532,
    "boundary": "religious_administration",
    "admin_level": 6,
    "parents": "-3792877,-1403916,-2202162",
    "name": "Diocèse de Grenoble-Vienne",
    "local_name": "Diocèse de Grenoble-Vienne",
    "name_en": null,
    "all_tags": {
      "name": "Diocèse de Grenoble-Vienne",
      "boundary": "religious_administration",
      "religion": "christian",
      "way_area": "0.903242",
      "wikidata": "Q869226",
      "wikipedia": "fr:Diocèse de Grenoble-Vienne",
      "admin_level": "6",
      "denomination": "roman_catholic"
    }
  },
  {
    "osm_id": -7437,
    "boundary": "administrative",
    "admin_level": 6,
    "parents": "-3792877,-1403916,-2202162",
    "name": "Isère",
    "local_name": "Isère",
    "name_en": null,
    "all_tags": {
      "ref": "38",
      "name": "Isère",
      "name:br": "Isèra",
      "name:lt": "Izeras",
      "name:nl": "Isère",
      "name:oc": "Isèra",
      "name:ru": "Изер",
      "boundary": "administrative",
      "ref:nuts": "FRK24",
      "way_area": "0.903242",
      "wikidata": "Q12559",
      "ISO3166-2": "FR-38",
      "ref:INSEE": "38",
      "wikipedia": "fr:Isère (département)",
      "population": "1271166",
      "ref:nuts:3": "FRK24",
      "admin_level": "6",
      "border_type": "departement",
      "population:date": "2019"
    }
  },
  {
    "osm_id": -7387,
    "boundary": "administrative",
    "admin_level": 6,
    "parents": "-3792877,-1403916,-2202162",
    "name": "Ain",
    "local_name": "Ain",
    "name_en": null,
    "all_tags": {
      "ref": "01",
      "name": "Ain",
      "name:br": "Ain",
      "name:el": "Αν",
      "name:fr": "Ain",
      "name:ru": "Эн",
      "boundary": "administrative",
      "ref:nuts": "FRK21",
      "way_area": "0.673031",
      "wikidata": "Q3083",
      "ISO3166-2": "FR-01",
      "ref:INSEE": "01",
      "wikipedia": "fr:Ain (département)",
      "population": "652432",
      "ref:nuts:3": "FRK21",
      "admin_level": "6",
      "border_type": "departement",
      "population:date": "2019"
    }
  },
  {
    "osm_id": -12186198,
    "boundary": "religious_administration",
    "admin_level": 6,
    "parents": "-3792877,-1403916,-2202162",
    "name": "Diocèse de Belley-Ars",
    "local_name": "Diocèse de Belley-Ars",
    "name_en": null,
    "all_tags": {
      "name": "Diocèse de Belley-Ars",
      "boundary": "religious_administration",
      "religion": "christian",
      "way_area": "0.663786",
      "wikidata": "Q1165193",
      "wikipedia": "fr:Diocèse de Belley-Ars",
      "admin_level": "6",
      "denomination": "catholic"
    }
  },
  {
    "osm_id": -3792877,
    "boundary": "administrative",
    "admin_level": 4,
    "parents": "-1403916,-2202162",
    "name": "Auvergne-Rhône-Alpes",
    "local_name": "Auvergne-Rhône-Alpes",
    "name_en": null,
    "all_tags": {
      "name": "Auvergne-Rhône-Alpes",
      "name:ar": "أوفيرن-رون ألب",
      "name:ca": "Alvèrnia-Roine-Alps",
      "name:de": "Auvergne-Rhone-Alpen",
      "name:eo": "Aŭvernjo-Rodano-Alpoj",
      "name:eu": "Auvernia-Rodano-Alpeak",
      "name:fa": "اوورنی-رون-آلپ",
      "name:hu": "Auvergne-Rhône-Alpes",
      "name:ja": "オーヴェルニュ＝ローヌ＝アルプ",
      "name:pl": "Owernia-Rodan-Alpy",
      "name:ur": "اوویغنئے-غون-آلپ",
      "boundary": "administrative",
      "name:azb": "اوورنی-رون-آلپ",
      "ref:nuts": "FRK",
      "way_area": "8.19186",
      "wikidata": "Q18338206",
      "ISO3166-2": "FR-ARA",
      "ref:INSEE": "84",
      "wikipedia": "fr:Auvergne-Rhône-Alpes",
      "population": "8042936",
      "ref:nuts:1": "FRK",
      "start_date": "2016-01-01",
      "admin_level": "4",
      "name:zh-Hans": "奥弗涅-罗讷-阿尔卑斯",
      "name:zh-Hant": "奧弗涅-隆-阿爾卑斯",
      "population:date": "2019"
    }
  },
  {
    "osm_id": -3792878,
    "boundary": "administrative",
    "admin_level": 4,
    "parents": "-1403916,-2202162",
    "name": "Bourgogne-Franche-Comté",
    "local_name": "Bourgogne-Franche-Comté",
    "name_en": null,
    "all_tags": {
      "name": "Bourgogne-Franche-Comté",
      "name:ar": "بورغون فرانش كومتيه",
      "name:br": "Bourgogn-Frank-Kontelezh",
      "name:ca": "Borgonya – Franc Comtat",
      "name:de": "Burgund und Freigrafschaft",
      "name:el": "Βουργουνδία-Φρανς-Κοντέ",
      "name:eo": "Burgonjo-Franĉkonteo",
      "name:es": "Borgoña-Franco Condado",
      "name:eu": "Borgoina-Franche-Comté",
      "name:fa": "بورغونئے-فغانش-کومتے",
      "name:hu": "Burgundia–Franche-Comté",
      "name:it": "Borgogna-Franca Contea",
      "name:ja": "ブルゴーニュ＝フランシュ＝コンテ地域圏",
      "name:ko": "부르고뉴프랑슈콩테",
      "name:nl": "Bourgondië-Franche-Comté",
      "name:pl": "Burgundia-Franche-Comté",
      "name:pt": "Borgonha-Franco-Condado",
      "name:ru": "Бургундия — Франш-Конте",
      "name:th": "แคว้นบูร์กอญ-ฟร็องช์-กงเต",
      "boundary": "administrative",
      "ref:nuts": "FRC",
      "way_area": "5.70901",
      "wikidata": "Q18578267",
      "ISO3166-2": "FR-BFC",
      "ref:INSEE": "27",
      "wikipedia": "fr:Bourgogne-Franche-Comté",
      "population": "2805580",
      "ref:nuts:1": "FRC",
      "short_name": "BFC",
      "start_date": "2016-01-01",
      "admin_level": "4",
      "name:zh-Hans": "勃艮第-弗朗什-孔泰大区",
      "name:zh-Hant": "勃艮第-法蘭琪-康堤大區",
      "population:date": "2019"
    }
  },
  {
    "osm_id": -7374,
    "boundary": "administrative",
    "admin_level": 6,
    "parents": "-8640,-1403916,-2202162",
    "name": "Eure-et-Loir",
    "local_name": "Eure-et-Loir",
    "name_en": null,
    "all_tags": {
      "ref": "28",
      "name": "Eure-et-Loir",
      "name:an": "Eure-y-Loir",
      "name:ar": "أور-ولوار",
      "name:be": "Эр-і-Луар",
      "name:bg": "Йор-е-Лоар",
      "name:ca": "Eure-i-Loir",
      "name:cv": "Эр-тата-Луар",
      "name:es": "Eure-y-Loir",
      "name:fa": "اور-ا-لوآر",
      "name:fr": "Eure-et-Loir",
      "name:gl": "Eure-e-Loir",
      "name:he": "אר-ולואר",
      "name:hy": "Էր-և-Լուար",
      "name:ja": "ウール＝エ＝ロワール県",
      "name:ka": "ერი-და-ლუარი",
      "name:kk": "Эр-және-Луар",
      "name:ko": "외르에루아르",
      "name:la": "Ebura-et-Lidericus",
      "name:lt": "Eras-ir-Luara",
      "name:lv": "Ēra-un-Luāra",
      "name:mr": "युर-ए-लुआर",
      "name:oc": "Eure-e-Loir",
      "name:ru": "Эр-и-Луар",
      "name:sr": "Ер-и-Лоар",
      "name:tg": "Эр-ва-Луар",
      "name:th": "เออเรลัวร์",
      "name:uk": "Ер-і-Луар",
      "name:zh": "厄尔-卢瓦尔省",
      "boundary": "administrative",
      "name:frp": "Ere-et-Lêr",
      "name:pnb": "ضلع یورے-ات-لویر",
      "ref:nuts": "FRB02",
      "way_area": "0.720257",
      "wikidata": "Q3377",
      "ISO3166-2": "FR-28",
      "ref:INSEE": "28",
      "wikipedia": "fr:Eure-et-Loir",
      "population": "431575",
      "ref:nuts:3": "FRB02",
      "admin_level": "6",
      "border_type": "departement",
      "population:date": "2019"
    }
  },
  {
    "osm_id": -7457,
    "boundary": "administrative",
    "admin_level": 6,
    "parents": "-8649,-1403916,-2202162",
    "name": "Yvelines",
    "local_name": "Yvelines",
    "name_en": null,
    "all_tags": {
      "ref": "78",
      "name": "Yvelines",
      "name:el": "Υβελίνες",
      "name:ru": "Ивелин",
      "boundary": "administrative",
      "ref:nuts": "FR103",
      "way_area": "0.28246",
      "wikidata": "Q12820",
      "ISO3166-2": "FR-78",
      "ref:INSEE": "78",
      "wikipedia": "fr:Yvelines",
      "population": "1448207",
      "ref:nuts:3": "FR103",
      "admin_level": "6",
      "population:date": "2019"
    }
  },
  {
    "osm_id": -7401,
    "boundary": "administrative",
    "admin_level": 6,
    "parents": "-8649,-1403916,-2202162",
    "name": "Essonne",
    "local_name": "Essonne",
    "name_en": null,
    "all_tags": {
      "ref": "91",
      "name": "Essonne",
      "name:el": "Εσσόν",
      "name:fr": "Essonne",
      "name:ru": "Эсон",
      "boundary": "administrative",
      "ref:nuts": "FR104",
      "way_area": "0.221529",
      "wikidata": "Q3368",
      "ISO3166-2": "FR-91",
      "ref:INSEE": "91",
      "wikipedia": "fr:Essonne (département)",
      "population": "1301659",
      "ref:nuts:3": "FR104",
      "admin_level": "6",
      "population:date": "2019"
    }
  },
  {
    "osm_id": -5833187,
    "boundary": "police",
    "admin_level": 5,
    "parents": "-8649,-1403916,-2202162",
    "name": "Paris Police Prefecture",
    "local_name": "Préfecture de police de Paris",
    "name_en": "Paris Police Prefecture",
    "all_tags": {
      "name": "Préfecture de police de Paris",
      "name:en": "Paris Police Prefecture",
      "name:fr": "Préfecture de police de Paris",
      "boundary": "police",
      "way_area": "0.0934715",
      "wikidata": "Q163265",
      "wikipedia": "fr:Préfecture de police (Paris)",
      "admin_level": "5"
    }
  },
  {
    "osm_id": -7458,
    "boundary": "administrative",
    "admin_level": 6,
    "parents": "-5833187,-8649,-1403916,-2202162",
    "name": "Val-de-Marne",
    "local_name": "Val-de-Marne",
    "name_en": null,
    "all_tags": {
      "ref": "94",
      "name": "Val-de-Marne",
      "name:el": "Βαλ-ντε-Μαρν",
      "name:es": "Valle del Marne",
      "name:fr": "Val-de-Marne",
      "name:ru": "Валь-де-Марн",
      "boundary": "administrative",
      "ref:nuts": "FR107",
      "way_area": "0.0299632",
      "wikidata": "Q12788",
      "ISO3166-2": "FR-94",
      "ref:INSEE": "94",
      "wikipedia": "fr:Val-de-Marne",
      "population": "1407124",
      "ref:nuts:3": "FR107",
      "admin_level": "6",
      "population:date": "2019"
    }
  },
  {
    "osm_id": -10795083,
    "boundary": "religious_administration",
    "admin_level": 6,
    "parents": "-3792880,-1403916,-2202162",
    "name": "Archidiocèse de Poitiers",
    "local_name": "Archidiocèse de Poitiers",
    "name_en": null,
    "all_tags": {
      "name": "Archidiocèse de Poitiers",
      "website": "https://paroisses.poitiers.catholique.fr/",
      "alt_name": "Diocèse de Poitiers",
      "boundary": "religious_administration",
      "religion": "christian",
      "way_area": "1.53674",
      "wikipedia": "fr:Archidiocèse de Poitiers",
      "admin_level": "6",
      "denomination": "catholic"
    }
  },
  {
    "osm_id": -4850450,
    "boundary": "administrative",
    "admin_level": 6,
    "parents": "-7378,-3792877,-1403916,-2202162",
    "name": "Métropole de Lyon",
    "local_name": "Métropole de Lyon",
    "name_en": null,
    "all_tags": {
      "ref": "69M",
      "name": "Métropole de Lyon",
      "name:ru": "Лионская метрополия",
      "website": "https://www.grandlyon.com/",
      "alt_name": "Grand Lyon",
      "boundary": "administrative",
      "old_name": "COURLY",
      "way_area": "0.0622752",
      "wikidata": "Q16665897",
      "ref:INSEE": "69M",
      "wikipedia": "fr:Métropole de Lyon",
      "start_date": "2015-01-01",
      "admin_level": "6",
      "border_type": "departement",
      "ref:FR:SIREN": "200046977",
      "local_authority:FR": "metropole"
    }
  },
  {
    "osm_id": -7426,
    "boundary": "administrative",
    "admin_level": 6,
    "parents": "-2713391,-1403916,-2202162",
    "name": "Seine-Maritime",
    "local_name": "Seine-Maritime",
    "name_en": null,
    "all_tags": {
      "ref": "76",
      "name": "Seine-Maritime",
      "name:an": "Sena-Maritimo",
      "name:ar": "السان-البحرية",
      "name:be": "Сена-Прыморская",
      "name:bg": "Сена-Маритим",
      "name:br": "Saena-an-Arvor",
      "name:ca": "Sena-Marítim",
      "name:cv": "Тинĕсçум-Сена",
      "name:es": "Sena-Marítimo",
      "name:fa": "سن-ماریتیم",
      "name:fr": "Seine-Maritime",
      "name:he": "סן-מריטים",
      "name:hy": "Ծովամերձ-Սեն",
      "name:ja": "セーヌ＝マリティーム県",
      "name:ka": "ზღვისპირა-სენა",
      "name:kk": "Сена-Маритим",
      "name:ko": "센마리팀",
      "name:la": "Sequana-Maritima",
      "name:lt": "Pajūrio-Sena",
      "name:lv": "Piejūras-Sēna",
      "name:mr": "सीन-मरितीम",
      "name:oc": "Sèina-Maritima",
      "name:pl": "Sekwana-Nadmorska",
      "name:pt": "Sena-Marítimo",
      "name:ru": "Приморская-Сена",
      "name:sr": "Приморска-Сена",
      "name:tg": "Сена-Приморская",
      "name:th": "จังหวัดแซน-มารีตีม",
      "name:uk": "Приморська-Сена",
      "name:zh": "滨海塞纳省",
      "boundary": "administrative",
      "name:frp": "Sêna-Maritima",
      "name:pms": "Sen-a-Marìtima",
      "name:pnb": "ضلع-سین-میریٹائم",
      "ref:nuts": "FRD22",
      "way_area": "0.78805",
      "wikidata": "Q12758",
      "ISO3166-2": "FR-76",
      "ref:INSEE": "76",
      "wikipedia": "fr:Seine-Maritime",
      "population": "1255633",
      "ref:nuts:3": "FRD22",
      "admin_level": "6",
      "border_type": "departement",
      "name:zh-Hans": "滨海塞纳省",
      "name:zh-Hant": "濱海塞納省",
      "population:date": "2019"
    }
  },
  {
    "osm_id": -7465,
    "boundary": "administrative",
    "admin_level": 6,
    "parents": "-102740,-1403916,-2202162",
    "name": "Ille-et-Vilaine",
    "local_name": "Ille-et-Vilaine",
    "name_en": null,
    "all_tags": {
      "ref": "35",
      "name": "Ille-et-Vilaine",
      "name:br": "Il-ha-Gwilen",
      "name:ru": "Иль и Вилен",
      "boundary": "administrative",
      "ref:nuts": "FRH03",
      "way_area": "0.827018",
      "wikidata": "Q12549",
      "ISO3166-2": "FR-35",
      "ref:INSEE": "35",
      "wikipedia": "fr:Ille-et-Vilaine",
      "population": "1079498",
      "ref:nuts:3": "FRH03",
      "admin_level": "6",
      "border_type": "departement",
      "population:date": "2019"
    }
  },
  {
    "osm_id": -7440,
    "boundary": "administrative",
    "admin_level": 6,
    "parents": "-8640,-1403916,-2202162",
    "name": "Loiret",
    "local_name": "Loiret",
    "name_en": null,
    "all_tags": {
      "ref": "45",
      "name": "Loiret",
      "name:ar": "لواريت",
      "name:ru": "Луаре",
      "boundary": "administrative",
      "ref:nuts": "FRB06",
      "way_area": "0.819638",
      "wikidata": "Q12574",
      "ISO3166-2": "FR-45",
      "ref:INSEE": "45",
      "wikipedia": "fr:Loiret (département)",
      "population": "680434",
      "ref:nuts:3": "FRB06",
      "admin_level": "6",
      "border_type": "departement",
      "population:date": "2019"
    }
  },
  {
    "osm_id": -7394,
    "boundary": "administrative",
    "admin_level": 6,
    "parents": "-4217435,-1403916,-2202162",
    "name": "Pas-de-Calais",
    "local_name": "Pas-de-Calais",
    "name_en": null,
    "all_tags": {
      "ref": "62",
      "name": "Pas-de-Calais",
      "name:ar": "باد كاليه",
      "name:es": "Paso de Calais",
      "name:fa": "پا-دو-کاله",
      "name:la": "Fretum Calisii",
      "name:ru": "Па-де-Кале",
      "name:ur": "پا-دو-کالے",
      "boundary": "administrative",
      "name:pcd": "Pas-d'Caleus",
      "name:vls": "Nauw van Kales",
      "ref:nuts": "FRE12",
      "way_area": "0.847952",
      "wikidata": "Q12689",
      "ISO3166-2": "FR-62",
      "ref:INSEE": "62",
      "wikipedia": "fr:Pas-de-Calais",
      "population": "1465278",
      "ref:nuts:3": "FRE12",
      "admin_level": "6",
      "border_type": "departement",
      "population:date": "2019"
    }
  },
  {
    "osm_id": -7446,
    "boundary": "administrative",
    "admin_level": 6,
    "parents": "-3792883,-1403916,-2202162",
    "name": "Aude",
    "local_name": "Aude",
    "name_en": null,
    "all_tags": {
      "ref": "11",
      "name": "Aude",
      "name:br": "Aude",
      "name:fr": "Aude",
      "name:oc": "Aude",
      "name:ru": "Од",
      "boundary": "administrative",
      "ref:nuts": "FRJ11",
      "way_area": "0.701535",
      "wikidata": "Q3207",
      "ISO3166-2": "FR-11",
      "ref:INSEE": "11",
      "wikipedia": "fr:Aude (département)",
      "population": "374070",
      "ref:nuts:3": "FRJ11",
      "admin_level": "6",
      "border_type": "departement",
      "population:date": "2019"
    }
  },
  {
    "osm_id": -7455,
    "boundary": "administrative",
    "admin_level": 6,
    "parents": "-3792880,-1403916,-2202162",
    "name": "Deux-Sèvres",
    "local_name": "Deux-Sèvres",
    "name_en": null,
    "all_tags": {
      "ref": "79",
      "name": "Deux-Sèvres",
      "name:br": "Deux-Sèvres",
      "name:el": "Ντε-Σεβρ",
      "name:fr": "Deux-Sèvres",
      "name:ru": "Дё-Севр",
      "boundary": "administrative",
      "ref:nuts": "FRI33",
      "way_area": "0.708604",
      "wikidata": "Q12765",
      "ISO3166-2": "FR-79",
      "ref:INSEE": "79",
      "wikipedia": "fr:Deux-Sèvres",
      "population": "374878",
      "ref:nuts:3": "FRI33",
      "admin_level": "6",
      "border_type": "departement",
      "population:date": "2019"
    }
  },
  {
    "osm_id": -7436,
    "boundary": "administrative",
    "admin_level": 6,
    "parents": "-8654,-1403916,-2202162",
    "name": "Hautes-Alpes",
    "local_name": "Hautes-Alpes",
    "name_en": null,
    "all_tags": {
      "ref": "05",
      "name": "Hautes-Alpes",
      "name:ca": "Alts Alps",
      "name:de": "Hochalpen",
      "name:es": "Altos Alpes",
      "name:fr": "Hautes-Alpes",
      "name:oc": "Aups de Provença Auta",
      "name:pl": "Alpy Wysokie",
      "name:ru": "Верхние Альпы",
      "boundary": "administrative",
      "ref:nuts": "FRL02",
      "way_area": "0.646566",
      "wikidata": "Q3125",
      "ISO3166-2": "FR-05",
      "ref:INSEE": "05",
      "wikipedia": "fr:Hautes-Alpes",
      "population": "141220",
      "ref:nuts:3": "FRL02",
      "admin_level": "6",
      "border_type": "departement",
      "official_name": "Département des Hautes-Alpes",
      "population:date": "2019"
    }
  },
  {
    "osm_id": -7438,
    "boundary": "administrative",
    "admin_level": 6,
    "parents": "-8650,-1403916,-2202162",
    "name": "Mayenne",
    "local_name": "Mayenne",
    "name_en": null,
    "all_tags": {
      "ref": "53",
      "name": "Mayenne",
      "name:br": "Mezven",
      "name:fr": "Mayenne",
      "name:ru": "Майен",
      "name:uk": "Майєнн",
      "boundary": "administrative",
      "ref:nuts": "FRG03",
      "way_area": "0.630114",
      "wikidata": "Q12620",
      "ISO3166-2": "FR-53",
      "ref:INSEE": "53",
      "wikipedia": "fr:Mayenne (département)",
      "population": "307062",
      "ref:nuts:3": "FRG03",
      "admin_level": "6",
      "border_type": "departement",
      "population:date": "2019"
    }
  },
  {
    "osm_id": -7396,
    "boundary": "administrative",
    "admin_level": 6,
    "parents": "-3792876,-1403916,-2202162",
    "name": "Haute-Marne",
    "local_name": "Haute-Marne",
    "name_en": null,
    "all_tags": {
      "ref": "52",
      "name": "Haute-Marne",
      "name:el": "Ωτ-Μαρν",
      "name:es": "Alto Marne",
      "name:ru": "Верхняя Марна",
      "boundary": "administrative",
      "ref:nuts": "FRF24",
      "way_area": "0.755588",
      "wikidata": "Q12607",
      "ISO3166-2": "FR-52",
      "ref:INSEE": "52",
      "wikipedia": "fr:Haute-Marne",
      "population": "172512",
      "ref:nuts:3": "FRF24",
      "admin_level": "6",
      "border_type": "departement",
      "population:date": "2019"
    }
  },
  {
    "osm_id": -7382,
    "boundary": "administrative",
    "admin_level": 6,
    "parents": "-3792876,-1403916,-2202162",
    "name": "Meuse",
    "local_name": "Meuse",
    "name_en": null,
    "all_tags": {
      "ref": "55",
      "name": "Meuse",
      "name:el": "Μεζ",
      "name:es": "Mosa",
      "name:ru": "Мёз",
      "boundary": "administrative",
      "ref:nuts": "FRF32",
      "way_area": "0.766101",
      "wikidata": "Q12631",
      "ISO3166-2": "FR-55",
      "ref:INSEE": "55",
      "wikipedia": "fr:Meuse (département)",
      "population": "184083",
      "ref:nuts:3": "FRF32",
      "admin_level": "6",
      "border_type": "departement",
      "population:date": "2019"
    }
  },
  {
    "osm_id": -7395,
    "boundary": "administrative",
    "admin_level": 6,
    "parents": "-3792876,-1403916,-2202162",
    "name": "Ardennes",
    "local_name": "Ardennes",
    "name_en": null,
    "all_tags": {
      "ref": "08",
      "name": "Ardennes",
      "name:an": "Ardenas",
      "name:ar": "الأردين",
      "name:be": "Ардэны",
      "name:bg": "Арден",
      "name:ca": "Ardenes",
      "name:cs": "Ardensko",
      "name:cv": "Арденн",
      "name:es": "Ardenas",
      "name:eu": "Ardenak",
      "name:fa": "آردن",
      "name:fr": "Ardennes",
      "name:gl": "Ardenas",
      "name:he": "ארדן",
      "name:hy": "Արդեններ",
      "name:ja": "アルデンヌ",
      "name:ka": "ლუარე",
      "name:kk": "Арденне",
      "name:ko": "아르덴",
      "name:la": "Arduenna",
      "name:lt": "Ardėnai",
      "name:lv": "Ardēni",
      "name:mr": "अ‍ॅर्देन",
      "name:nl": "Ardennen",
      "name:oc": "Ardenas",
      "name:pl": "Ardeny",
      "name:pt": "Ardenas",
      "name:ru": "Арденны",
      "name:sr": "Ардени",
      "name:tg": "Арденн",
      "name:th": "อาร์แดน",
      "name:uk": "Арденни",
      "name:wa": "Årdenes",
      "name:zh": "阿登省",
      "boundary": "administrative",
      "name:frp": "Ardenes",
      "name:pms": "Ardënne",
      "name:pnb": "ارڈین",
      "ref:nuts": "FRF21",
      "way_area": "0.652763",
      "wikidata": "Q3164",
      "ISO3166-2": "FR-08",
      "ref:INSEE": "08",
      "wikipedia": "fr:Ardennes (département)",
      "population": "270582",
      "ref:nuts:3": "FRF21",
      "admin_level": "6",
      "border_type": "departement",
      "population:date": "2019"
    }
  },
  {
    "osm_id": -7425,
    "boundary": "administrative",
    "admin_level": 6,
    "parents": "-3792877,-1403916,-2202162",
    "name": "Savoy",
    "local_name": "Savoie",
    "name_en": "Savoy",
    "all_tags": {
      "ref": "73",
      "name": "Savoie",
      "name:br": "Savoia",
      "name:ca": "Savoia",
      "name:de": "Savoyen",
      "name:el": "Σαβοΐα",
      "name:en": "Savoy",
      "name:es": "Saboya",
      "name:fr": "Savoie",
      "name:it": "Savoia",
      "name:oc": "Savòia",
      "name:ru": "Савойя",
      "boundary": "administrative",
      "ref:nuts": "FRK27",
      "way_area": "0.721436",
      "wikidata": "Q12745",
      "ISO3166-2": "FR-73",
      "ref:INSEE": "73",
      "wikipedia": "fr:Savoie (département)",
      "population": "436434",
      "ref:nuts:3": "FRK27",
      "admin_level": "6",
      "border_type": "departement",
      "population:date": "2019"
    }
  },
  {
    "osm_id": -7462,
    "boundary": "administrative",
    "admin_level": 6,
    "parents": "-3792878,-1403916,-2202162",
    "name": "Doubs",
    "local_name": "Doubs",
    "name_en": null,
    "all_tags": {
      "ref": "25",
      "name": "Doubs",
      "name:ar": "دوبس",
      "name:be": "Ду",
      "name:bg": "Ду",
      "name:cv": "Ду",
      "name:fa": "دو",
      "name:fr": "Doubs",
      "name:he": "דו",
      "name:hy": "Դու",
      "name:ja": "ドゥー県",
      "name:ka": "დუ",
      "name:kk": "Ду",
      "name:ko": "두",
      "name:la": "Dubis",
      "name:lt": "Du",
      "name:lv": "Dū",
      "name:mr": "दूब",
      "name:oc": "Dobs",
      "name:ru": "Ду",
      "name:sr": "Ду",
      "name:tg": "Ду",
      "name:th": "ดู",
      "name:uk": "Ду",
      "name:zh": "杜省",
      "boundary": "administrative",
      "name:frp": "Dubs",
      "name:pnb": "دوبس",
      "ref:nuts": "FRC21",
      "way_area": "0.623596",
      "wikidata": "Q3361",
      "ISO3166-2": "FR-25",
      "ref:INSEE": "25",
      "wikipedia": "fr:Doubs (département)",
      "population": "543974",
      "ref:nuts:3": "FRC21",
      "admin_level": "6",
      "border_type": "departement",
      "population:date": "2019"
    }
  },
  {
    "osm_id": -1944588,
    "boundary": "religious_administration",
    "admin_level": 6,
    "parents": "-3792878,-1403916,-2202162",
    "name": "Diocèse de Belfort - Montbéliard",
    "local_name": "Diocèse de Belfort - Montbéliard",
    "name_en": null,
    "all_tags": {
      "name": "Diocèse de Belfort - Montbéliard",
      "boundary": "religious_administration",
      "religion": "christian",
      "way_area": "0.174506",
      "ref:FR:CEF": "Bf",
      "admin_level": "6",
      "denomination": "catholic"
    }
  },
  {
    "osm_id": -7384,
    "boundary": "administrative",
    "admin_level": 6,
    "parents": "-3792876,-1403916,-2202162",
    "name": "Vosges",
    "local_name": "Vosges",
    "name_en": null,
    "all_tags": {
      "ref": "88",
      "name": "Vosges",
      "name:ar": "فوج",
      "name:br": "Vogezioù",
      "name:de": "Vogesen",
      "name:es": "Vosgos",
      "name:fa": "ووژ",
      "name:hu": "Vogézek",
      "name:nl": "Vogezen",
      "name:ru": "Вогезы",
      "name:ur": "ووژ",
      "boundary": "administrative",
      "ref:nuts": "FRF34",
      "way_area": "0.713462",
      "wikidata": "Q3105",
      "ISO3166-2": "FR-88",
      "ref:INSEE": "88",
      "wikipedia": "fr:Vosges (département)",
      "population": "364499",
      "ref:nuts:3": "FRF34",
      "admin_level": "6",
      "border_type": "departement",
      "population:date": "2019"
    }
  },
  {
    "osm_id": -3792876,
    "boundary": "administrative",
    "admin_level": 4,
    "parents": "-1403916,-2202162",
    "name": "Grand Est",
    "local_name": "Grand Est",
    "name_en": "Grand Est",
    "all_tags": {
      "name": "Grand Est",
      "name:ar": "الشرق العظيم",
      "name:br": "Reter-Meur",
      "name:ca": "Gran Est",
      "name:de": "Großer Osten",
      "name:en": "Grand Est",
      "name:eo": "Grand Est",
      "name:es": "Gran Este",
      "name:eu": "Ekialde Handia",
      "name:fa": "گرانت است",
      "name:fr": "Grand Est",
      "name:hu": "Kelet-Franciaország",
      "name:it": "Grande Est",
      "name:ja": "グラン・テスト",
      "name:la": "Magnus Oriens",
      "name:pt": "Grande Leste",
      "name:ru": "Большой восточный",
      "name:ur": "گرایت است",
      "alt_name": "Grand-Est",
      "boundary": "administrative",
      "old_name": "Alsace-Champagne-Ardenne-Lorraine",
      "ref:nuts": "FRF",
      "way_area": "7.05071",
      "wikidata": "Q18677983",
      "ISO3166-2": "FR-GES",
      "ref:INSEE": "44",
      "wikipedia": "fr:Grand Est",
      "population": "5556219",
      "ref:nuts:1": "FRF",
      "start_date": "2016-01-01",
      "admin_level": "4",
      "alt_name:ar": "غراند إيست",
      "alt_name:fr": "Grand-Est",
      "old_name:ar": "ألزاس-شامبانيا-أردين-لورين",
      "old_name:de": "Elsass-Champagne-Ardennen-Lothringen",
      "old_name:en": "Alsace-Champagne-Ardenne-Lorraine",
      "old_name:eo": "Alzaco-Ĉampanjo-Ardenoj-Loreno",
      "old_name:fr": "Alsace-Champagne-Ardenne-Lorraine",
      "old_name:ru": "Эльзас-Шампань-Арденны-Лотарингия",
      "name:zh-Hans": "大东部大区",
      "name:zh-Hant": "大東部大區",
      "population:date": "2019"
    }
  },
  {
    "osm_id": -7403,
    "boundary": "administrative",
    "admin_level": 6,
    "parents": "-3792876,-1403916,-2202162",
    "name": "Haut-Rhin",
    "local_name": "Haut-Rhin",
    "name_en": null,
    "all_tags": {
      "ref": "68",
      "name": "Haut-Rhin",
      "name:ar": "الراين الأعلى",
      "name:br": "Roen-Uhel",
      "name:de": "Oberelsass",
      "name:es": "Alto Rin",
      "name:fr": "Haut-Rhin",
      "name:ru": "Верхний Рейн",
      "boundary": "administrative",
      "name:gsw": "Oww'relsass",
      "ref:nuts": "FRF12",
      "way_area": "0.424447",
      "wikidata": "Q12722",
      "ISO3166-2": "FR-68",
      "ref:INSEE": "68",
      "wikipedia": "fr:Haut-Rhin",
      "population": "767086",
      "ref:nuts:3": "FRF12",
      "admin_level": "6",
      "population:date": "2019"
    }
  },
  {
    "osm_id": -1363069,
    "boundary": "administrative",
    "admin_level": 4,
    "parents": "-1259885,-2202162",
    "name": "Mayotte",
    "local_name": "Mayotte",
    "name_en": "Mayotte",
    "all_tags": {
      "flag": "http://upload.wikimedia.org/wikipedia/commons/4/4a/Flag_of_Mayotte_(local).svg",
      "name": "Mayotte",
      "name:ak": "Mayɔte",
      "name:am": "ሜይኦቴ",
      "name:ar": "مايوت",
      "name:az": "Mayot",
      "name:be": "Маёта",
      "name:bg": "Мейот",
      "name:bm": "Mayoti",
      "name:bn": "মায়োত্তে",
      "name:bs": "Majote",
      "name:dz": "མེ་ཡོཊ",
      "name:ee": "Mayotte nutome",
      "name:el": "Μαγιότ",
      "name:en": "Mayotte",
      "name:eo": "Majoto",
      "name:fa": "مایوت",
      "name:ff": "Mayoot",
      "name:fr": "Mayotte",
      "name:gu": "મેયોટ",
      "name:ha": "Mayoti",
      "name:he": "מאיוט",
      "name:hi": "मैयट",
      "name:hr": "Majote",
      "name:ja": "マヨット",
      "name:km": "ម៉ាយុត",
      "name:kn": "ಮಯೊಟ್ಟೆ",
      "name:ko": "마요트",
      "name:ks": "مَییٹ",
      "name:ln": "Mayotɛ",
      "name:lo": "ມາຢອດ",
      "name:lt": "Majotas",
      "name:lv": "Majota",
      "name:mg": "Mayôty",
      "name:mk": "Мајоте",
      "name:ml": "മയോട്ട്",
      "name:mr": "मायोट्टे",
      "name:mt": "Majotte",
      "name:ne": "मायोट्ट",
      "name:or": "ମାୟୋଟେ",
      "name:pl": "Majotta",
      "name:rn": "Mayote",
      "name:ru": "Майотта",
      "name:sg": "Mäyôte",
      "name:si": "මයෝටි",
      "name:sr": "Мајоте",
      "name:ta": "மயோத்",
      "name:te": "మాయొట్టి",
      "name:th": "มายอต",
      "name:ti": "ሜይኦቴ",
      "name:to": "Meioti",
      "name:uk": "Майотта",
      "name:ur": "مایوٹ",
      "name:yo": "Orílẹ́ède Mayote",
      "name:zh": "马约特 / 馬約特",
      "name:zu": "i-Mayotte",
      "website": "https://cg976.fr/",
      "boundary": "administrative",
      "name:kab": "Mayuṭ",
      "name:ksh": "Majott",
      "ref:nuts": "FRY5",
      "timezone": "Indian/Mayotte",
      "way_area": "0.0308477",
      "wikidata": "Q17063",
      "ISO3166-2": "FR-MAY",
      "land_area": "administrative",
      "ref:INSEE": "06",
      "wikipedia": "fr:Mayotte",
      "population": "217091",
      "ref:nuts:2": "FRY5",
      "admin_level": "4",
      "description": "France, départements et régions d'outre-mer, territoire régi par l’article 73 de la Constitution",
      "is_in:ocean": "Indian",
      "name:zh-Hans": "马约特",
      "name:zh-Hant": "馬約特",
      "is_in:country": "France",
      "is_in:country_code": "FR"
    }
  },
  {
    "osm_id": -7389,
    "boundary": "administrative",
    "admin_level": 6,
    "parents": "-5833187,-8649,-1403916,-2202162",
    "name": "Seine-Saint-Denis",
    "local_name": "Seine-Saint-Denis",
    "name_en": null,
    "all_tags": {
      "ref": "93",
      "name": "Seine-Saint-Denis",
      "name:es": "Sena-Saint Denis",
      "name:fr": "Seine-Saint-Denis",
      "name:ru": "Сена-Сен-Дени",
      "boundary": "administrative",
      "ref:nuts": "FR106",
      "way_area": "0.029073",
      "wikidata": "Q12761",
      "ISO3166-2": "FR-93",
      "ref:INSEE": "93",
      "wikipedia": "fr:Seine-Saint-Denis",
      "population": "1644903",
      "ref:nuts:3": "FR106",
      "admin_level": "6",
      "population:date": "2019"
    }
  },
  {
    "osm_id": -7398,
    "boundary": "administrative",
    "admin_level": 6,
    "parents": "-102740,-1403916,-2202162",
    "name": "Côtes-d'Armor",
    "local_name": "Côtes-d'Armor",
    "name_en": null,
    "all_tags": {
      "ref": "22",
      "name": "Côtes-d'Armor",
      "name:br": "Aodoù-an-Arvor",
      "name:ca": "Costes del Nord",
      "name:el": "Κοτ-ντ'Αρμόρ",
      "name:fr": "Côtes-d'Armor",
      "name:ru": "Кот-д'Армор",
      "boundary": "administrative",
      "ref:nuts": "FRH01",
      "way_area": "0.849197",
      "wikidata": "Q3349",
      "ISO3166-2": "FR-22",
      "ref:INSEE": "22",
      "wikipedia": "fr:Côtes-d'Armor",
      "population": "600582",
      "ref:nuts:3": "FRH01",
      "admin_level": "6",
      "border_type": "departement",
      "population:date": "2019",
      "old_name:1790-1990": "Côtes-du-Nord"
    }
  },
  {
    "osm_id": -7407,
    "boundary": "administrative",
    "admin_level": 6,
    "parents": "-3792877,-1403916,-2202162",
    "name": "Upper Savoy",
    "local_name": "Haute-Savoie",
    "name_en": "Upper Savoy",
    "all_tags": {
      "ref": "74",
      "name": "Haute-Savoie",
      "name:br": "Savoia-Uhel",
      "name:ca": "Alta Savoia",
      "name:de": "Hochsavoyen",
      "name:el": "Άνω Σαβοΐα",
      "name:en": "Upper Savoy",
      "name:es": "Alta Saboya",
      "name:fr": "Haute-Savoie",
      "name:it": "Alta Savoia",
      "name:ru": "Верхняя Савойя",
      "boundary": "administrative",
      "ref:nuts": "FRK28",
      "way_area": "0.562648",
      "wikidata": "Q12751",
      "ISO3166-2": "FR-74",
      "ref:INSEE": "74",
      "wikipedia": "fr:Haute-Savoie",
      "population": "826094",
      "ref:nuts:3": "FRK28",
      "admin_level": "6",
      "border_type": "departement",
      "population:date": "2019"
    }
  },
  {
    "osm_id": -3792880,
    "boundary": "administrative",
    "admin_level": 4,
    "parents": "-1403916,-2202162",
    "name": "New Aquitaine",
    "local_name": "Nouvelle-Aquitaine",
    "name_en": "New Aquitaine",
    "all_tags": {
      "name": "Nouvelle-Aquitaine",
      "name:ar": "آكيتين الجديدة",
      "name:ca": "Nova Aquitània",
      "name:cs": "Nová Akvitánie",
      "name:de": "Neu-Aquitanien",
      "name:el": "Νέα Ακουιτανία",
      "name:en": "New Aquitaine",
      "name:eo": "Nova Akvitanio",
      "name:es": "Nueva Aquitania",
      "name:eu": "Akitania Berria",
      "name:fr": "Nouvelle-Aquitaine",
      "name:hu": "Új-Aquitania",
      "name:is": "Nýja-Akvitanía",
      "name:it": "Nuova Aquitania",
      "name:ja": "ヌーヴェル＝アキテーヌ地域圏",
      "name:nl": "Nieuw-Aquitanië",
      "name:oc": "Aquitània Nòva",
      "name:pl": "Nowa Akwitania",
      "boundary": "administrative",
      "old_name": "Aquitaine-Limousin-Poitou-Charentes",
      "ref:nuts": "FRI",
      "way_area": "9.70794",
      "wikidata": "Q18678082",
      "ISO3166-2": "FR-NAQ",
      "ref:INSEE": "75",
      "wikipedia": "fr:Nouvelle-Aquitaine",
      "population": "6010289",
      "ref:nuts:1": "FRI",
      "start_date": "2016-01-01",
      "admin_level": "4",
      "old_name:ar": "آكيتن-ليموزين-بواتو-شارانت",
      "old_name:eo": "Akvitanio-Limoĝio-Puatuo-Ĉarentoj",
      "old_name:es": "Aquitania-Lemosín-Poitou-Charentes",
      "old_name:fr": "Aquitaine-Limousin-Poitou-Charentes",
      "name:zh-Hans": "新阿基坦大区",
      "name:zh-Hant": "新阿基坦大區",
      "population:date": "2019"
    }
  },
  {
    "osm_id": -7390,
    "boundary": "administrative",
    "admin_level": 6,
    "parents": "-8654,-1403916,-2202162",
    "name": "Var",
    "local_name": "Var",
    "name_en": null,
    "all_tags": {
      "ref": "83",
      "name": "Var",
      "name:ar": "فار",
      "name:br": "Var",
      "name:lt": "Varas",
      "name:oc": "Var",
      "name:ru": "Вар",
      "boundary": "administrative",
      "ref:nuts": "FRL05",
      "way_area": "0.67064",
      "wikidata": "Q12789",
      "ISO3166-2": "FR-83",
      "ref:INSEE": "83",
      "wikipedia": "fr:Var (département)",
      "population": "1076711",
      "ref:nuts:3": "FRL05",
      "admin_level": "6",
      "border_type": "departement",
      "population:date": "2019"
    }
  },
  {
    "osm_id": -7418,
    "boundary": "administrative",
    "admin_level": 6,
    "parents": "-3792880,-1403916,-2202162",
    "name": "Haute-Vienne",
    "local_name": "Haute-Vienne",
    "name_en": null,
    "all_tags": {
      "ref": "87",
      "name": "Haute-Vienne",
      "name:br": "Nauta Vinhana",
      "name:es": "Alto Vienne",
      "name:eu": "Vienne Garaia",
      "name:fr": "Haute-Vienne",
      "name:oc": "Nauta Vinhana",
      "name:ru": "Верхняя Вьенна",
      "boundary": "administrative",
      "ref:nuts": "FRI23",
      "way_area": "0.644278",
      "wikidata": "Q12808",
      "ISO3166-2": "FR-87",
      "ref:INSEE": "87",
      "wikipedia": "fr:Haute-Vienne",
      "population": "372359",
      "ref:nuts:3": "FRI23",
      "admin_level": "6",
      "border_type": "departement",
      "population:date": "2019"
    }
  },
  {
    "osm_id": -7464,
    "boundary": "administrative",
    "admin_level": 6,
    "parents": "-3792880,-1403916,-2202162",
    "name": "Corrèze",
    "local_name": "Corrèze",
    "name_en": null,
    "all_tags": {
      "ref": "19",
      "name": "Corrèze",
      "name:br": "Corresa",
      "name:ca": "Corresa",
      "name:fr": "Corrèze",
      "name:oc": "Corresa",
      "name:ru": "Коррез",
      "boundary": "administrative",
      "ref:nuts": "FRI21",
      "way_area": "0.677371",
      "wikidata": "Q3326",
      "ISO3166-2": "FR-19",
      "ref:INSEE": "19",
      "wikipedia": "fr:Corrèze (département)",
      "population": "240073",
      "ref:nuts:3": "FRI21",
      "admin_level": "6",
      "border_type": "departement",
      "population:date": "2019"
    }
  },
  {
    "osm_id": -7420,
    "boundary": "administrative",
    "admin_level": 6,
    "parents": "-3792877,-1403916,-2202162",
    "name": "Loire",
    "local_name": "Loire",
    "name_en": null,
    "all_tags": {
      "ref": "42",
      "name": "Loire",
      "name:ar": "لوار",
      "name:br": "Liger",
      "name:es": "Loira",
      "name:oc": "Léger",
      "name:ru": "Луара",
      "boundary": "administrative",
      "ref:nuts": "FRK25",
      "way_area": "0.555339",
      "wikidata": "Q12569",
      "ISO3166-2": "FR-42",
      "ref:INSEE": "42",
      "wikipedia": "fr:Loire (département)",
      "population": "765634",
      "ref:nuts:3": "FRK25",
      "admin_level": "6",
      "border_type": "departement",
      "population:date": "2019"
    }
  },
  {
    "osm_id": -7397,
    "boundary": "administrative",
    "admin_level": 6,
    "parents": "-3792878,-1403916,-2202162",
    "name": "Saône-et-Loire",
    "local_name": "Saône-et-Loire",
    "name_en": null,
    "all_tags": {
      "ref": "71",
      "name": "Saône-et-Loire",
      "name:br": "Saône-ha-Liger",
      "name:es": "Saona y Loira",
      "name:ja": "ソーヌ＝エ＝ロワール県",
      "name:ru": "Сона и Луара",
      "boundary": "administrative",
      "ref:nuts": "FRC13",
      "way_area": "1.01212",
      "wikidata": "Q12736",
      "ISO3166-2": "FR-71",
      "ref:INSEE": "71",
      "wikipedia": "fr:Saône-et-Loire",
      "population": "551493",
      "ref:nuts:3": "FRC13",
      "admin_level": "6",
      "border_type": "departement",
      "population:date": "2019"
    }
  },
  {
    "osm_id": -7433,
    "boundary": "administrative",
    "admin_level": 6,
    "parents": "-8649,-1403916,-2202162",
    "name": "Val-d'Oise",
    "local_name": "Val-d'Oise",
    "name_en": null,
    "all_tags": {
      "ref": "95",
      "name": "Val-d'Oise",
      "name:br": "Val-d'Oise",
      "name:es": "Valle del Oise",
      "name:fr": "Val-d'Oise",
      "name:ru": "Валь-д’Уаз",
      "boundary": "administrative",
      "ref:nuts": "FR108",
      "way_area": "0.154258",
      "wikidata": "Q12784",
      "ISO3166-2": "FR-95",
      "ref:INSEE": "95",
      "wikipedia": "fr:Val-d'Oise",
      "population": "1249674",
      "ref:nuts:3": "FR108",
      "admin_level": "6",
      "population:date": "2019"
    }
  },
  {
    "osm_id": -10520390,
    "boundary": "religious_administration",
    "admin_level": 6,
    "parents": "-102740,-1403916,-2202162",
    "name": "Archidiocèse de Rennes, Dol et Saint-Malo",
    "local_name": "Archidiocèse de Rennes, Dol et Saint-Malo",
    "name_en": null,
    "all_tags": {
      "name": "Archidiocèse de Rennes, Dol et Saint-Malo",
      "name:br": "Arc'heskopti Roazhon, Dol ha Sant-Maloù",
      "website": "https://rennes.catholique.fr/",
      "alt_name": "Diocèse de Rennes",
      "boundary": "religious_administration",
      "religion": "christian",
      "way_area": "0.826964",
      "wikipedia": "fr:Archidiocèse de Rennes, Dol et Saint-Malo",
      "admin_level": "6",
      "denomination": "catholic"
    }
  },
  {
    "osm_id": -7393,
    "boundary": "administrative",
    "admin_level": 6,
    "parents": "-8654,-1403916,-2202162",
    "name": "Bouches-du-Rhône",
    "local_name": "Bouches-du-Rhône",
    "name_en": null,
    "all_tags": {
      "ref": "13",
      "name": "Bouches-du-Rhône",
      "name:ar": "بوش دو رون",
      "name:br": "Genoù-ar-Ron",
      "name:ca": "Boques del Roine",
      "name:el": "Μπους-ντυ-Ρον",
      "name:es": "Bocas del Ródano",
      "name:fa": "بوش-دو-رون",
      "name:fr": "Bouches-du-Rhône",
      "name:oc": "Bocas dau Ròse",
      "name:ru": "Буш-дю-Рон",
      "name:ur": "بوش-دو-رون",
      "alt_name": "Bocas dau Ròse",
      "boundary": "administrative",
      "name:pnb": "بوچے دو رہون",
      "ref:nuts": "FRL04",
      "way_area": "0.584407",
      "wikidata": "Q3240",
      "ISO3166-2": "FR-13",
      "ref:INSEE": "13",
      "wikipedia": "fr:Bouches-du-Rhône",
      "population": "2043110",
      "ref:nuts:3": "FRL04",
      "admin_level": "6",
      "border_type": "departement",
      "population:date": "2019"
    }
  },
  {
    "osm_id": -7423,
    "boundary": "administrative",
    "admin_level": 6,
    "parents": "-3792878,-1403916,-2202162",
    "name": "Haute-Saône",
    "local_name": "Haute-Saône",
    "name_en": null,
    "all_tags": {
      "ref": "70",
      "name": "Haute-Saône",
      "name:ar": "سون العليا",
      "name:br": "Saône-Uhel",
      "name:es": "Alto Saona",
      "name:fa": "اوت-سئون",
      "name:ja": "オート＝ソーヌ県",
      "name:ru": "Верхняя Сона",
      "name:ur": "بالائی-سون",
      "boundary": "administrative",
      "ref:nuts": "FRC23",
      "way_area": "0.645189",
      "wikidata": "Q12730",
      "ISO3166-2": "FR-70",
      "ref:INSEE": "70",
      "wikipedia": "fr:Haute-Saône",
      "population": "235313",
      "ref:nuts:3": "FRC23",
      "admin_level": "6",
      "border_type": "departement",
      "population:date": "2019"
    }
  },
  {
    "osm_id": -7432,
    "boundary": "administrative",
    "admin_level": 6,
    "parents": "-8650,-1403916,-2202162",
    "name": "Loire-Atlantique",
    "local_name": "Loire-Atlantique",
    "name_en": null,
    "all_tags": {
      "ref": "44",
      "name": "Loire-Atlantique",
      "name:an": "Loira-Atlantica",
      "name:ar": "لوار-الأطلسية",
      "name:az": "Luar-Atlantik",
      "name:be": "Луара-Атлантычная",
      "name:bg": "Лоар-Атлантик",
      "name:br": "Liger-Atlantel",
      "name:ca": "Loira-Atlàntic",
      "name:cv": "Атлантика-енчи-Луара",
      "name:el": "Λουάρ-Ατλαντίκ",
      "name:es": "Loira-Atlántico",
      "name:fa": "لوآر-آتلانتیک",
      "name:fr": "Loire-Atlantique",
      "name:gd": "Liger-Atlantel",
      "name:gl": "Loira-Atlántico",
      "name:gv": "Liger-Atlantel",
      "name:he": "הלואר-האטלנטי",
      "name:hy": "Ատլանտյան-Լուար",
      "name:it": "Loira-Atlantica",
      "name:ja": "ロワール＝アトランティック県",
      "name:ka": "ატლანტიკის-ლუარა",
      "name:kk": "Атлантикалық-Луара",
      "name:ko": "루아르아틀랑티크",
      "name:kw": "Liger-Atlantel",
      "name:la": "Liger-Atlanticus",
      "name:lt": "Atlanto-Luara",
      "name:lv": "Atlantijas-Luāra",
      "name:mr": "लावार-अतलांतिक",
      "name:oc": "Léger-Atlantic",
      "name:pl": "Loara-Atlantycka",
      "name:ru": "Атлантическая-Луара",
      "name:sr": "Атлантска-Лоара",
      "name:tg": "Луараи-Атлантикӣ",
      "name:th": "ลัวรัตล็องติก",
      "name:uk": "Атлантична-Луара",
      "name:zh": "大西洋卢瓦尔省",
      "website": "https://www.loire-atlantique.fr/",
      "boundary": "administrative",
      "name:frp": "Lêre-Atlantica",
      "name:pms": "Lòira-Atlàntica",
      "name:pnb": "ضلع-لوار-اٹلانٹک",
      "ref:nuts": "FRG01",
      "way_area": "0.833741",
      "wikidata": "Q3068",
      "ISO3166-2": "FR-44",
      "ref:INSEE": "44",
      "wikipedia": "fr:Loire-Atlantique",
      "population": "1429272",
      "ref:nuts:3": "FRG01",
      "admin_level": "6",
      "border_type": "departement",
      "population:date": "2019",
      "old_name:1790-1957": "Loire-Inférieure"
    }
  },
  {
    "osm_id": -2473088,
    "boundary": "administrative",
    "admin_level": 4,
    "parents": "-1891495,-2202162",
    "name": "Martinique",
    "local_name": "Martinique",
    "name_en": "Martinique",
    "all_tags": {
      "flag": "http://upload.wikimedia.org/wikipedia/commons/5/52/Flag_of_Martinique.svg",
      "name": "Martinique",
      "name:be": "Марцініка",
      "name:br": "Martinik",
      "name:ca": "Martinica",
      "name:en": "Martinique",
      "name:eo": "Martiniko",
      "name:eu": "Martinika",
      "name:fr": "Martinique",
      "name:lt": "Martinika",
      "name:no": "Martinique",
      "name:oc": "Martinica",
      "name:pl": "Martynika",
      "name:ru": "Мартиника",
      "name:sr": "Мартиник",
      "name:uk": "Мартиніка",
      "website": "http://www.region-martinique.mq/",
      "boundary": "administrative",
      "currency": "EUR",
      "ref:nuts": "FRY2",
      "way_area": "0.0915728",
      "wikidata": "Q17054",
      "ISO3166-1": "MQ",
      "ISO3166-2": "FR-MQ",
      "land_area": "administrative",
      "ref:INSEE": "02",
      "wikipedia": "fr:Martinique",
      "population": "364508",
      "ref:nuts:2": "FRY2",
      "admin_level": "4",
      "description": "France, départements et régions d'outre-mer, territoire régi par l’article 73 de la Constitution",
      "official_name": "Région de la Martinique",
      "population:date": "2019",
      "ISO3166-1:alpha2": "MQ",
      "ISO3166-1:alpha3": "MTQ",
      "ISO3166-1:numeric": "474"
    }
  },
  {
    "osm_id": -7421,
    "boundary": "administrative",
    "admin_level": 6,
    "parents": "-3792883,-1403916,-2202162",
    "name": "Lozère",
    "local_name": "Lozère",
    "name_en": null,
    "all_tags": {
      "ref": "48",
      "name": "Lozère",
      "name:ca": "Losera",
      "name:el": "Λοζέρ",
      "name:fr": "Lozère",
      "name:oc": "Losera",
      "name:ru": "Лозер",
      "boundary": "administrative",
      "ref:nuts": "FRJ14",
      "way_area": "0.585761",
      "wikidata": "Q12580",
      "ISO3166-2": "FR-48",
      "ref:INSEE": "48",
      "wikipedia": "fr:Lozère (département)",
      "population": "76604",
      "ref:nuts:3": "FRJ14",
      "admin_level": "6",
      "border_type": "departement",
      "population:date": "2019"
    }
  },
  {
    "osm_id": -7419,
    "boundary": "administrative",
    "admin_level": 6,
    "parents": "-2713391,-1403916,-2202162",
    "name": "Orne",
    "local_name": "Orne",
    "name_en": null,
    "all_tags": {
      "ref": "61",
      "name": "Orne",
      "name:ar": "أورن",
      "name:de": "Orne",
      "name:el": "Ορν",
      "name:es": "Orne",
      "name:fa": "اورن",
      "name:fr": "Orne",
      "name:ru": "Орн",
      "name:ur": "اورن",
      "boundary": "administrative",
      "name:azb": "اورن",
      "ref:nuts": "FRD13",
      "way_area": "0.749683",
      "wikidata": "Q12679",
      "ISO3166-2": "FR-61",
      "ref:INSEE": "61",
      "wikipedia": "fr:Orne (département)",
      "population": "279942",
      "ref:nuts:3": "FRD13",
      "admin_level": "6",
      "border_type": "departement",
      "name:az-Arab": "اورن",
      "population:date": "2019"
    }
  },
  {
    "osm_id": -7456,
    "boundary": "administrative",
    "admin_level": 6,
    "parents": "-8640,-1403916,-2202162",
    "name": "Cher",
    "local_name": "Cher",
    "name_en": null,
    "all_tags": {
      "ref": "18",
      "name": "Cher",
      "name:ar": "شار",
      "name:be": "Шэр",
      "name:bg": "Шер",
      "name:cv": "Шер",
      "name:fa": "شر",
      "name:fr": "Cher",
      "name:hy": "Շեր",
      "name:ja": "シェール県",
      "name:ka": "შერი",
      "name:kk": "Шер",
      "name:ko": "셰르",
      "name:la": "Carus",
      "name:lt": "Šeras",
      "name:lv": "Šēra",
      "name:mr": "शेर",
      "name:oc": "Char",
      "name:ru": "Шер",
      "name:sr": "Шер",
      "name:tg": "Шер",
      "name:th": "แชร์",
      "name:uk": "Шер",
      "name:zh": "谢尔省",
      "website": "https://www.cg18.fr/",
      "boundary": "administrative",
      "name:frp": "Ch·èr",
      "name:pnb": "شر",
      "ref:nuts": "FRB01",
      "way_area": "0.865343",
      "wikidata": "Q3286",
      "ISO3166-2": "FR-18",
      "ref:INSEE": "18",
      "wikipedia": "fr:Cher (département)",
      "population": "302306",
      "ref:nuts:3": "FRB01",
      "admin_level": "6",
      "border_type": "departement",
      "population:date": "2019"
    }
  },
  {
    "osm_id": -71525,
    "boundary": "administrative",
    "admin_level": 6,
    "parents": "-5833187,-8649,-1403916,-2202162",
    "name": "Paris",
    "local_name": "Paris",
    "name_en": null,
    "all_tags": {
      "ref": "75",
      "name": "Paris",
      "name:af": "Parys",
      "name:am": "ፓሪስ",
      "name:an": "París",
      "name:ar": "باريس",
      "name:ba": "Париж",
      "name:be": "Парыж",
      "name:bg": "Париж",
      "name:bn": "প্যারিস",
      "name:bo": "ཕ་རི།",
      "name:br": "Pariz",
      "name:bs": "Pariz",
      "name:ca": "París",
      "name:co": "Parighji",
      "name:cs": "Paříž",
      "name:cu": "Парижь",
      "name:cv": "Парис",
      "name:de": "Paris",
      "name:el": "Παρίσι",
      "name:eo": "Parizo",
      "name:es": "París",
      "name:et": "Pariis",
      "name:eu": "Paris",
      "name:fa": "پاریس",
      "name:fi": "Pariisi",
      "name:fr": "Paris",
      "name:fy": "Parys",
      "name:ga": "Páras",
      "name:gl": "París",
      "name:gn": "Parĩ",
      "name:gu": "પૅરિસ",
      "name:gv": "Paarys",
      "name:ha": "Pariis",
      "name:he": "פריז",
      "name:hi": "पैरिस",
      "name:hr": "Pariz",
      "name:ht": "Pari",
      "name:hu": "Párizs",
      "name:hy": "Փարիզ",
      "name:is": "París",
      "name:it": "Parigi",
      "name:ja": "パリ",
      "name:ka": "პარიზი",
      "name:kk": "Париж",
      "name:km": "ប៉ារីស",
      "name:kn": "ಪ್ಯಾರಿಸ್",
      "name:ko": "파리",
      "name:ku": "Parîs",
      "name:kv": "Париж",
      "name:ky": "Париж",
      "name:la": "Lutetia",
      "name:lb": "Paräis",
      "name:li": "Paries",
      "name:ln": "Pari",
      "name:lt": "Paryžius",
      "name:lv": "Parīze",
      "name:mi": "Parī",
      "name:mk": "Париз",
      "name:ml": "പാരിസ്",
      "name:mn": "Парис",
      "name:mr": "पॅरिस",
      "name:my": "ပါရီမြို့",
      "name:ne": "पेरिस",
      "name:nl": "Parijs",
      "name:no": "Paris",
      "name:oc": "París",
      "name:or": "ପ୍ୟାରିସ",
      "name:os": "Париж",
      "name:pa": "ਪੈਰਿਸ",
      "name:pl": "Paryż",
      "name:ps": "پاريس",
      "name:ru": "Париж",
      "name:sc": "Parigi",
      "name:sh": "Pariz",
      "name:sk": "Paríž",
      "name:sl": "Pariz",
      "name:so": "Baariis",
      "name:sq": "Parisi",
      "name:sr": "Париз",
      "name:sv": "Paris",
      "name:ta": "பாரிஸ்",
      "name:te": "పారిస్",
      "name:tg": "Париж",
      "name:th": "ปารีส",
      "name:tk": "Pariž",
      "name:tl": "Paris",
      "name:tt": "Париж",
      "name:ug": "پارىژ",
      "name:uk": "Париж",
      "name:ur": "پیرس",
      "name:uz": "Parij",
      "name:vi": "Paris",
      "name:wo": "Pari",
      "name:yi": "פאריז",
      "name:yo": "Parisi",
      "name:za": "Bahliz",
      "name:zh": "巴黎",
      "name:zu": "IParisi",
      "boundary": "administrative",
      "name:arc": "ܦܐܪܝܣ",
      "name:arz": "باريس",
      "name:ast": "París",
      "name:cdo": "Bă-là̤",
      "name:ckb": "پاریس",
      "name:csb": "Pariz",
      "name:eml": "Parì",
      "name:ext": "París",
      "name:fur": "Parîs",
      "name:gan": "巴黎",
      "name:hak": "Pâ-lì-sṳ",
      "name:haw": "Palika",
      "name:jbo": "Paris",
      "name:koi": "Париж",
      "name:krc": "Париж",
      "name:lez": "Париж",
      "name:lij": "Pariggi",
      "name:lzh": "巴黎",
      "name:mhr": "Париж",
      "name:mrj": "Париж",
      "name:myv": "Париж ош",
      "name:mzn": "پاریس",
      "name:nan": "Pa-lí",
      "name:nap": "Parigge",
      "name:nds": "Paris",
      "name:pnb": "پیرس",
      "name:rue": "Паріж",
      "name:sah": "Париж",
      "name:scn": "Pariggi",
      "name:szl": "Paryż",
      "name:tet": "París",
      "name:tzl": "Parighi",
      "name:udm": "Париж",
      "name:vec": "Parixe",
      "name:vep": "Pariž",
      "name:vls": "Parys",
      "name:xmf": "პარიზი",
      "name:yue": "巴黎",
      "ref:nuts": "FR101",
      "way_area": "0.0129147",
      "wikidata": "Q90",
      "ISO3166-2": "FR-75",
      "ref:INSEE": "75",
      "wikipedia": "fr:Paris",
      "population": "2165423",
      "ref:nuts:3": "FR101",
      "admin_level": "6",
      "alt_name:fr": "Lutèce",
      "alt_name:vi": "Ba Lê",
      "loc_name:fr": "Panam",
      "name:nds-nl": "Paries",
      "old_name:vi": "Ba Lê",
      "name:bat-smg": "Parīžios",
      "name:fiu-vro": "Pariis",
      "name:roa-rup": "Parij",
      "name:roa-tara": "Parigge",
      "name:be-tarask": "Парыж",
      "name:zh_pinyin": "Bālí",
      "population:date": "2019"
    }
  },
  {
    "osm_id": -379252,
    "boundary": "administrative",
    "admin_level": 6,
    "parents": "-3407643,-2202162",
    "name": "Loyalty Islands Province",
    "local_name": "Province des Îles Loyauté",
    "name_en": "Loyalty Islands Province",
    "all_tags": {
      "name": "Province des Îles Loyauté",
      "name:de": "Provinz Loyalitätsinseln",
      "name:en": "Loyalty Islands Province",
      "name:fr": "Province des Îles Loyauté",
      "boundary": "administrative",
      "maritime": "yes",
      "way_area": "0.746373",
      "wikidata": "Q18655787",
      "population": "17436",
      "admin_level": "6",
      "border_type": "baseline",
      "website:regulation": "http://www.legifrance.gouv.fr/affichTexte.do?cidTexte=JORFTEXT000000230256"
    }
  },
  {
    "osm_id": -8649,
    "boundary": "administrative",
    "admin_level": 4,
    "parents": "-1403916,-2202162",
    "name": "Ile-de-France",
    "local_name": "Île-de-France",
    "name_en": "Ile-de-France",
    "all_tags": {
      "name": "Île-de-France",
      "name:ar": "إيل دو فرانس",
      "name:az": "İl de Frans",
      "name:be": "Іль-дэ-Франс",
      "name:br": "Enez-Frañs",
      "name:ca": "Illa de França",
      "name:el": "Νήσος της Γαλλίας",
      "name:en": "Ile-de-France",
      "name:eo": "Francilio",
      "name:es": "Isla de Francia",
      "name:eu": "Île-de-France",
      "name:fa": "ایل-دو-فرانس",
      "name:he": "איל-דה-פראנס",
      "name:hi": "इल-दा-फ़्रान्स",
      "name:hu": "Île-de-France",
      "name:it": "Isola di Francia",
      "name:ko": "일드프랑스",
      "name:la": "Insula Franciae",
      "name:oc": "Illa de França",
      "name:pt": "Ilha de França",
      "name:ru": "Иль-де-Франс",
      "name:uk": "Іль-де-Франс",
      "name:zh": "法蘭西島",
      "website": "http://www.iledefrance.fr/",
      "boundary": "administrative",
      "ref:nuts": "FR1;FR10",
      "way_area": "1.4748",
      "wikidata": "Q13917",
      "ISO3166-2": "FR-IDF",
      "ref:INSEE": "11",
      "wikipedia": "fr:Île-de-France",
      "population": "12262544",
      "ref:nuts:1": "FR1",
      "ref:nuts:2": "FR10",
      "admin_level": "4",
      "name:zh-Hans": "法兰西岛",
      "name:zh-Hant": "法蘭西島",
      "population:date": "2019"
    }
  },
  {
    "osm_id": -7410,
    "boundary": "administrative",
    "admin_level": 6,
    "parents": "-3792878,-1403916,-2202162",
    "name": "Territoire-de-Belfort",
    "local_name": "Territoire-de-Belfort",
    "name_en": null,
    "all_tags": {
      "ref": "90",
      "name": "Territoire-de-Belfort",
      "name:br": "Tiriad Belfort",
      "name:el": "Έδαφος του Μπελφόρ",
      "name:es": "Territorio de Belfort",
      "name:ja": "テリトワール・ド・ベルフォール県",
      "name:ru": "Территория Бельфор",
      "boundary": "administrative",
      "ref:nuts": "FRC24",
      "way_area": "0.0731193",
      "wikidata": "Q12782",
      "ISO3166-2": "FR-90",
      "ref:INSEE": "90",
      "wikipedia": "fr:Territoire de Belfort",
      "population": "141318",
      "ref:nuts:3": "FRC24",
      "admin_level": "6",
      "border_type": "departement",
      "population:date": "2019"
    }
  },
  {
    "osm_id": -7417,
    "boundary": "administrative",
    "admin_level": 6,
    "parents": "-8640,-1403916,-2202162",
    "name": "Indre",
    "local_name": "Indre",
    "name_en": null,
    "all_tags": {
      "ref": "36",
      "name": "Indre",
      "name:fr": "Indre",
      "name:ru": "Эндр",
      "boundary": "administrative",
      "ref:nuts": "FRB03",
      "way_area": "0.812611",
      "wikidata": "Q12553",
      "ISO3166-2": "FR-36",
      "ref:INSEE": "36",
      "wikipedia": "fr:Indre (département)",
      "population": "219316",
      "ref:nuts:3": "FRB03",
      "admin_level": "6",
      "border_type": "departement",
      "population:date": "2019"
    }
  }
]
