[
  {
    "osm_id": -8374250,
    "boundary": "administrative",
    "admin_level": 6,
    "parents": "-2000040,-28699",
    "name": "Gori",
    "local_name": "გორი",
    "name_en": "Gori",
    "all_tags": {
      "name": "გორი",
      "name:cs": "Gori",
      "name:en": "Gori",
      "name:ka": "გორი",
      "name:ru": "Гори",
      "boundary": "administrative",
      "way_area": "0.00199023",
      "wikidata": "Q19583",
      "wikipedia": "ka:გორი",
      "admin_level": "6"
    }
  },
  {
    "osm_id": -8374207,
    "boundary": "administrative",
    "admin_level": 6,
    "parents": "-1996031,-28699",
    "name": "Akhaltsikhe",
    "local_name": "ახალციხე",
    "name_en": "Akhaltsikhe",
    "all_tags": {
      "name": "ახალციხე",
      "name:ar": "آخالتسيخه",
      "name:en": "Akhaltsikhe",
      "name:fa": "آخالتسیخه",
      "name:ka": "ახალციხე",
      "name:ru": "Ахалцихе",
      "name:ur": "آخالتسیخے",
      "boundary": "administrative",
      "name:mzn": "آخالت سیکه",
      "way_area": "0.000438736",
      "admin_level": "6",
      "alt_name:ar": "أخالتسيخ"
    }
  },
  {
    "osm_id": -8374200,
    "boundary": "administrative",
    "admin_level": 6,
    "parents": "-1996076,-28699",
    "name": "Zugdidi",
    "local_name": "ზუგდიდი",
    "name_en": "Zugdidi",
    "all_tags": {
      "name": "ზუგდიდი",
      "name:en": "Zugdidi",
      "name:ka": "ზუგდიდი",
      "name:ru": "Зугдиди",
      "boundary": "administrative",
      "way_area": "0.00231932",
      "admin_level": "6"
    }
  },
  {
    "osm_id": -8374177,
    "boundary": "administrative",
    "admin_level": 6,
    "parents": "-1997284,-28699",
    "name": "Ambrolauri",
    "local_name": "ამბროლაური",
    "name_en": "Ambrolauri",
    "all_tags": {
      "name": "ამბროლაური",
      "name:en": "Ambrolauri",
      "name:ka": "ამბროლაური",
      "name:ru": "Амбролаури",
      "boundary": "administrative",
      "way_area": "0.000279156",
      "admin_level": "6"
    }
  },
  {
    "osm_id": -8374155,
    "boundary": "administrative",
    "admin_level": 6,
    "parents": "-2000090,-28699",
    "name": "Mtskheta",
    "local_name": "მცხეთა",
    "name_en": "Mtskheta",
    "all_tags": {
      "name": "მცხეთა",
      "name:en": "Mtskheta",
      "name:ka": "მცხეთა",
      "name:ru": "Мцхета",
      "boundary": "administrative",
      "way_area": "0.00013823",
      "admin_level": "6"
    }
  },
  {
    "osm_id": -8374133,
    "boundary": "administrative",
    "admin_level": 6,
    "parents": "-2000091,-28699",
    "name": "Telavi",
    "local_name": "თელავი",
    "name_en": "Telavi",
    "all_tags": {
      "name": "თელავი",
      "name:en": "Telavi",
      "name:ka": "თელავი",
      "name:ru": "Телави",
      "boundary": "administrative",
      "way_area": "0.00153475",
      "admin_level": "6"
    }
  },
  {
    "osm_id": -8374107,
    "boundary": "administrative",
    "admin_level": 6,
    "parents": "-1995971,-28699",
    "name": "Ozurgeti",
    "local_name": "ოზურგეთი",
    "name_en": "Ozurgeti",
    "all_tags": {
      "name": "ოზურგეთი",
      "name:en": "Ozurgeti",
      "name:ru": "Озургети",
      "name:uk": "Озурґеті",
      "boundary": "administrative",
      "way_area": "0.000667239",
      "admin_level": "6"
    }
  },
  {
    "osm_id": -3572912,
    "boundary": "administrative",
    "admin_level": 4,
    "parents": "-1152720,-28699",
    "name": "Autonomous Republic of Abkhazia",
    "local_name": "აფხაზეთის ავტონომიური რესპუბლიკა - Аҧсны Автономтә Республика",
    "name_en": "Autonomous Republic of Abkhazia",
    "all_tags": {
      "name": "აფხაზეთის ავტონომიური რესპუბლიკა - Аҧсны Автономтә Республика",
      "name:ab": "Аҧсны Автономтә Республика",
      "name:ca": "República Autònoma d'Abkhàzia",
      "name:de": "Autonome Republik Abchasien",
      "name:en": "Autonomous Republic of Abkhazia",
      "name:es": "República Autónoma de Abjasia",
      "name:fr": "Gouvernement de la République autonome d'Abkhazie",
      "name:ka": "აფხაზეთის ავტონომიური რესპუბლიკა",
      "name:ru": "Автономная Республика Абхазия",
      "name:uk": "Абхазька Автономна Республіка",
      "boundary": "administrative",
      "way_area": "1.37841",
      "wikidata": "Q2914461",
      "ISO3166-2": "GE-AB",
      "wikipedia": "ru:Абхазская Автономная Республика",
      "admin_level": "4"
    }
  },
  {
    "osm_id": -2624775,
    "boundary": "administrative",
    "admin_level": 6,
    "parents": "-3572912,-1152720,-28699",
    "name": "Tkuarchal District",
    "local_name": "Тҟәарчал араион - Ткуарчалский район",
    "name_en": "Tkuarchal District",
    "all_tags": {
      "name": "Тҟәарчал араион - Ткуарчалский район",
      "name:ab": "Тҟәарчал араион",
      "name:en": "Tkuarchal District",
      "name:ru": "Ткуарчалский район",
      "name:uk": "Ткуарчальський район",
      "boundary": "administrative",
      "way_area": "0.0397563",
      "wikidata": "Q114966",
      "wikipedia": "en:Tkvarcheli District",
      "admin_level": "6",
      "wikipedia:en": "Tquarchal District"
    }
  },
  {
    "osm_id": -2624774,
    "boundary": "administrative",
    "admin_level": 6,
    "parents": "-3572912,-1152720,-28699",
    "name": "Ochamchira District",
    "local_name": "Очамчыра араион - Очамчырский район",
    "name_en": "Ochamchira District",
    "all_tags": {
      "name": "Очамчыра араион - Очамчырский район",
      "name:ab": "Очамчыра араион",
      "name:de": "Rajon Otschamtschira",
      "name:en": "Ochamchira District",
      "name:ru": "Очамчырский район",
      "name:uk": "Очамчирський район",
      "boundary": "administrative",
      "way_area": "0.242202",
      "wikidata": "Q621000",
      "wikipedia": "ru:Очамчырский район",
      "admin_level": "6"
    }
  },
  {
    "osm_id": -2624773,
    "boundary": "administrative",
    "admin_level": 6,
    "parents": "-3572912,-1152720,-28699",
    "name": "Gal District",
    "local_name": "Гал араион - Галский район",
    "name_en": "Gal District",
    "all_tags": {
      "name": "Гал араион - Галский район",
      "name:ab": "Гал араион",
      "name:de": "Rajon Gal",
      "name:en": "Gal District",
      "name:ru": "Галский район",
      "name:uk": "Гальський район",
      "boundary": "administrative",
      "way_area": "0.152451",
      "wikidata": "Q620971",
      "wikipedia": "ru:Гальский район",
      "admin_level": "6"
    }
  },
  {
    "osm_id": -2537350,
    "boundary": "administrative",
    "admin_level": 6,
    "parents": "-1152717,-28699",
    "name": "Znaur District",
    "local_name": "Знауыры район",
    "name_en": "Znaur District",
    "all_tags": {
      "name": "Знауыры район",
      "name:de": "Rajon Snaur",
      "name:en": "Znaur District",
      "name:ka": "ყორნისის რაიონი",
      "name:os": "Знауыры район",
      "name:ru": "Знаурский район",
      "name:uk": "Корніський район",
      "boundary": "administrative",
      "way_area": "0.0432504",
      "wikidata": "Q1815665",
      "wikipedia": "bg:Знаурски район",
      "admin_level": "6",
      "old_name:uk": "Знаурський район"
    }
  },
  {
    "osm_id": -2027335,
    "boundary": "administrative",
    "admin_level": 6,
    "parents": "-2000091,-28699",
    "name": "Sagarejo Municipality",
    "local_name": "საგარეჯოს მუნიციპალიტეტი",
    "name_en": "Sagarejo Municipality",
    "all_tags": {
      "name": "საგარეჯოს მუნიციპალიტეტი",
      "name:de": "Munizipalität Sagaredscho",
      "name:en": "Sagarejo Municipality",
      "name:ka": "საგარეჯოს მუნიციპალიტეტი",
      "name:ru": "Сагареджойский муниципалитет",
      "boundary": "administrative",
      "int_name": "Sagarejo",
      "way_area": "0.163942",
      "wikidata": "Q1647344",
      "wikipedia": "de:Munizipalität Sagaredscho",
      "admin_level": "6"
    }
  },
  {
    "osm_id": -2027334,
    "boundary": "administrative",
    "admin_level": 6,
    "parents": "-2000091,-28699",
    "name": "Dedoplistsqaro Municipality",
    "local_name": "დედოფლისწყაროს მუნიციპალიტეტი",
    "name_en": "Dedoplistsqaro Municipality",
    "all_tags": {
      "name": "დედოფლისწყაროს მუნიციპალიტეტი",
      "name:de": "Munizipalität Dedopliszqaro",
      "name:en": "Dedoplistsqaro Municipality",
      "name:ka": "დედოფლისწყაროს მუნიციპალიტეტი",
      "name:ru": "Дедоплисцкаройский муниципалитет",
      "name:uk": "Дедоплісцкаройський муніципалітет",
      "boundary": "administrative",
      "way_area": "0.269154",
      "wikidata": "Q1490703",
      "wikipedia": "de:Munizipalität Dedopliszqaro",
      "admin_level": "6",
      "alt_name:en": "Dedoplistsqaro",
      "old_name:ka": "წითელწყარო",
      "old_name:ru": "Царские Колодцы"
    }
  },
  {
    "osm_id": -2027333,
    "boundary": "administrative",
    "admin_level": 6,
    "parents": "-2000091,-28699",
    "name": "Signagi Municipality",
    "local_name": "სიღნაღის მუნიციპალიტეტი",
    "name_en": "Signagi Municipality",
    "all_tags": {
      "name": "სიღნაღის მუნიციპალიტეტი",
      "name:de": "Munizipalität Sighnaghi",
      "name:en": "Signagi Municipality",
      "name:ka": "სიღნაღის მუნიციპალიტეტი",
      "name:ru": "Сигнахский муниципалитет",
      "name:uk": "Cіґнаґський район",
      "boundary": "administrative",
      "int_name": "Signagis Raioni",
      "way_area": "0.135816",
      "wikidata": "Q1953363",
      "wikipedia": "de:Munizipalität Sighnaghi",
      "admin_level": "6"
    }
  },
  {
    "osm_id": -2027332,
    "boundary": "administrative",
    "admin_level": 6,
    "parents": "-2000091,-28699",
    "name": "Raion Lagodekhi",
    "local_name": "ლაგოდეხის რაიონი",
    "name_en": "Raion Lagodekhi",
    "all_tags": {
      "name": "ლაგოდეხის რაიონი",
      "name:az": "Laqodex",
      "name:de": "Munizipalität Lagodechi",
      "name:en": "Raion Lagodekhi",
      "name:fr": "Municipalité de Lagodekhi",
      "name:ka": "ლაგოდეხის მუნიციპალიტეტი",
      "name:ru": "Лагодехский муниципалитет",
      "boundary": "administrative",
      "way_area": "0.0948638",
      "wikidata": "Q941140",
      "wikipedia": "de:Munizipalität Lagodechi",
      "admin_level": "6",
      "name-old:ka": "ლაგოდეხის რაიონი"
    }
  },
  {
    "osm_id": -2027331,
    "boundary": "administrative",
    "admin_level": 6,
    "parents": "-2000091,-28699",
    "name": "Qvareli",
    "local_name": "ყვარელი",
    "name_en": "Qvareli",
    "all_tags": {
      "name": "ყვარელი",
      "name:de": "Qwareli",
      "name:en": "Qvareli",
      "name:ka": "ყვარელი",
      "name:ru": "Кварели",
      "boundary": "administrative",
      "way_area": "0.102047",
      "wikidata": "Q1789499",
      "wikipedia": "it:Municipalità di Kvareli",
      "admin_level": "6"
    }
  },
  {
    "osm_id": -2027330,
    "boundary": "administrative",
    "admin_level": 6,
    "parents": "-2000091,-28699",
    "name": "Gurjaani Municipality",
    "local_name": "გურჯაანის მუნიციპალიტეტი",
    "name_en": "Gurjaani Municipality",
    "all_tags": {
      "name": "გურჯაანის მუნიციპალიტეტი",
      "name:az": "Qurcaani bələdiyyəsi",
      "name:de": "Muniziapalität Gurdschaani",
      "name:en": "Gurjaani Municipality",
      "name:hy": "Գուրջաանի մունիցիպալիտետ",
      "name:ka": "გურჯაანის მუნიციპალიტეტი",
      "name:ru": "Гурджаанский муниципалитет",
      "name:uk": "Гурджаанський муніципалітет",
      "boundary": "administrative",
      "way_area": "0.0923697",
      "wikidata": "Q1560942",
      "wikipedia": "ka:გურჯაანის მუნიციპალიტეტი",
      "population": "72618",
      "admin_level": "6"
    }
  },
  {
    "osm_id": -2027329,
    "boundary": "administrative",
    "admin_level": 6,
    "parents": "-2000091,-28699",
    "name": "Telavi Municipality",
    "local_name": "თელავის მუნიციპალიტეტი",
    "name_en": "Telavi Municipality",
    "all_tags": {
      "name": "თელავის მუნიციპალიტეტი",
      "name:de": "Munizipalität Telawi",
      "name:en": "Telavi Municipality",
      "name:fr": "Municipalité de Telavi",
      "name:hy": "Թելավի շրջան",
      "name:ka": "თელავის მუნიციპალიტეტი",
      "name:ru": "Телавский муниципалитет",
      "boundary": "administrative",
      "way_area": "0.124732",
      "wikidata": "Q1953364",
      "wikipedia": "de:Munizipalität Telawi",
      "admin_level": "6"
    }
  },
  {
    "osm_id": -2027328,
    "boundary": "administrative",
    "admin_level": 6,
    "parents": "-2000091,-28699",
    "name": "Akhmeta Municipality",
    "local_name": "ახმეტის მუნიციპალიტეტი",
    "name_en": "Akhmeta Municipality",
    "all_tags": {
      "name": "ახმეტის მუნიციპალიტეტი",
      "name:az": "Axmeta bələdiyyəsi",
      "name:ce": "Ахметан муниципалитет",
      "name:de": "Munizipalität Achmeta",
      "name:en": "Akhmeta Municipality",
      "name:fr": "Municipalité d'Akhmeta",
      "name:hy": "Ախմետայի շրջան",
      "name:it": "Municipalità di Akhmeta",
      "name:ka": "ახმეტის მუნიციპალიტეტი",
      "name:os": "Ахметъайы муниципалитет",
      "name:ru": "Ахметский муниципалитет",
      "name:uk": "Ахметський муніципалітет",
      "boundary": "administrative",
      "int_name": "Akhmeta",
      "way_area": "0.24419",
      "wikidata": "Q748753",
      "wikipedia": "en:Akhmeta Municipality",
      "admin_level": "6"
    }
  },
  {
    "osm_id": -2027327,
    "boundary": "administrative",
    "admin_level": 6,
    "parents": "-3572912,-1152720,-28699",
    "name": "Gali Municipality",
    "local_name": "Гал амуниципалитет",
    "name_en": "Gali Municipality",
    "all_tags": {
      "name": "Гал амуниципалитет",
      "is_in": "Autonomous Republic of Abkhazia",
      "name:ab": "Гал амуниципалитет",
      "name:de": "Munizipalität Gali",
      "name:en": "Gali Municipality",
      "name:ka": "გალის მუნიციპალიტეტი",
      "name:ru": "Гальский муниципалитет",
      "name:uk": "Ґальський муніципалітет",
      "boundary": "administrative",
      "int_name": "Gali Municipality",
      "way_area": "0.1043",
      "wikidata": "Q2043690",
      "wikipedia": "ka:გალის მუნიციპალიტეტი",
      "admin_level": "6",
      "wikipedia:ru": "Гальский муниципалитет"
    }
  },
  {
    "osm_id": -2027326,
    "boundary": "administrative",
    "admin_level": 6,
    "parents": "-3572912,-1152720,-28699",
    "name": "Ochamchire Municipality",
    "local_name": "Очамчыра амуниципалитет",
    "name_en": "Ochamchire Municipality",
    "all_tags": {
      "name": "Очамчыра амуниципалитет",
      "name:ab": "Очамчыра амуниципалитет",
      "name:de": "Munizipalität Otschamtschira",
      "name:en": "Ochamchire Municipality",
      "name:ka": "ოჩამჩირის მუნიციპალიტეტი",
      "name:ru": "Очамчирский муниципалитет",
      "name:uk": "Очамчірський муніципалітет",
      "boundary": "administrative",
      "way_area": "0.271962",
      "wikidata": "Q2043659",
      "wikipedia": "ka:ოჩამჩირის მუნიციპალიტეტი",
      "admin_level": "6",
      "wikipedia:ru": "Очамчирский муниципалитет"
    }
  },
  {
    "osm_id": -2027325,
    "boundary": "administrative",
    "admin_level": 6,
    "parents": "-3572912,-1152720,-28699",
    "name": "Gulripsh District",
    "local_name": "Гәылрыҧшь араион - Гулрыпшский район",
    "name_en": "Gulripsh District",
    "all_tags": {
      "name": "Гәылрыҧшь араион - Гулрыпшский район",
      "name:ab": "Гәылрыҧшь араион",
      "name:en": "Gulripsh District",
      "name:ka": "გულრიფშის მუნიციპალიტეტი",
      "name:ru": "Гульрыпшский район",
      "name:uk": "Гульрипський район",
      "boundary": "administrative",
      "way_area": "0.260441",
      "wikidata": "Q386777",
      "wikipedia": "ru:Гулрыпшский район",
      "population": "19918",
      "admin_level": "6",
      "old_name:ru": "Гульрипшский район"
    }
  },
  {
    "osm_id": -2027323,
    "boundary": "administrative",
    "admin_level": 6,
    "parents": "-3572912,-1152720,-28699",
    "name": "Sukhum District",
    "local_name": "Аҟәа араион - Сухумский район",
    "name_en": "Sukhum District",
    "all_tags": {
      "name": "Аҟәа араион - Сухумский район",
      "name:ab": "Аҟәа араион",
      "name:de": "Rajon Suchum",
      "name:en": "Sukhum District",
      "name:hy": "Սուխումի շրջան",
      "name:ka": "სოხუმის მუნიციპალიტეტი",
      "name:ru": "Сухумский район",
      "name:tr": "Sohum rayonu",
      "name:uk": "Сухумський район",
      "boundary": "administrative",
      "name:kbd": "Согъум къедзыгъуэ",
      "way_area": "0.203309",
      "wikidata": "Q620937",
      "wikipedia": "ru:Сухумский район",
      "population": "11513",
      "admin_level": "6",
      "wikipedia:ru": "Сухумский район"
    }
  },
  {
    "osm_id": -2027322,
    "boundary": "administrative",
    "admin_level": 6,
    "parents": "-3572912,-1152720,-28699",
    "name": "Gudauta District",
    "local_name": "Гудаутский район - Гәдоуҭа араион",
    "name_en": "Gudauta District",
    "all_tags": {
      "name": "Гудаутский район - Гәдоуҭа араион",
      "name:ab": "Гәдоуҭа араион",
      "name:de": "Rajon Gudauta",
      "name:en": "Gudauta District",
      "name:hy": "Գուդաութի շրջան",
      "name:ka": "გუდაუთის მუნიციპალიტეტი",
      "name:ru": "Гудаутский район",
      "name:tr": "Gudauta rayonu",
      "name:uk": "Гудаутський район",
      "boundary": "administrative",
      "int_name": "Gudauta District",
      "name:kbd": "Гудаутэ къедзыгъуэ",
      "way_area": "0.257286",
      "wikidata": "Q135943",
      "wikipedia": "ru:Гудаутский район",
      "admin_level": "6"
    }
  },
  {
    "osm_id": -2027320,
    "boundary": "administrative",
    "admin_level": 6,
    "parents": "-1152717,-28699",
    "name": "Leningor District",
    "local_name": "Ленингоры район",
    "name_en": "Leningor District",
    "all_tags": {
      "name": "Ленингоры район",
      "name:de": "Rajon Leningor",
      "name:en": "Leningor District",
      "name:ka": "ახალგორის მუნიციპალიტეტი",
      "name:os": "Ленингоры район",
      "name:ru": "Ленингорский район",
      "boundary": "administrative",
      "way_area": "0.104532",
      "wikidata": "Q1472064",
      "wikipedia": "ru:Ленингорский район",
      "population": "3665",
      "admin_level": "6",
      "alt_name:en": "Akhalgori Municipality",
      "alt_name:ru": "Ахалгорский муниципалитет",
      "population:date": "2020"
    }
  },
  {
    "osm_id": -2027319,
    "boundary": "administrative",
    "admin_level": 6,
    "parents": "-1152717,-28699",
    "name": "Tskhinvali District",
    "local_name": "Цхинвалы район",
    "name_en": "Tskhinvali District",
    "all_tags": {
      "name": "Цхинвалы район",
      "name:de": "Rajon Zchinwal",
      "name:en": "Tskhinvali District",
      "name:ka": "ცხინვალის რაიონი",
      "name:os": "Цхинвалы район",
      "name:ru": "Цхинвальский район",
      "name:uk": "Цхінвальський район",
      "boundary": "administrative",
      "way_area": "0.107758",
      "wikidata": "Q664205",
      "wikipedia": "en:Tskhinval district",
      "admin_level": "6"
    }
  },
  {
    "osm_id": -2027316,
    "boundary": "administrative",
    "admin_level": 6,
    "parents": "-1152717,-28699",
    "name": "Dzau District",
    "local_name": "Дзауы район",
    "name_en": "Dzau District",
    "all_tags": {
      "name": "Дзауы район",
      "name:de": "Rajon Dsau",
      "name:en": "Dzau District",
      "name:ka": "ჯავა",
      "name:os": "Дзауы район",
      "name:ru": "Дзауский район",
      "boundary": "administrative",
      "way_area": "0.164779",
      "wikidata": "Q2995277",
      "wikipedia": "bg:Дзауски район",
      "population": "10000",
      "admin_level": "6"
    }
  },
  {
    "osm_id": -2025553,
    "boundary": "administrative",
    "admin_level": 6,
    "parents": "-2000090,-28699",
    "name": "Kazbegi Municipality",
    "local_name": "ყაზბეგის მუნიციპალიტეტი",
    "name_en": "Kazbegi Municipality",
    "all_tags": {
      "name": "ყაზბეგის მუნიციპალიტეტი",
      "name:de": "Munizipalität Kasbegi",
      "name:en": "Kazbegi Municipality",
      "name:fi": "Qazbegin piirikunta",
      "name:hy": "Ղազբեգի մունիցիպալիտետ",
      "name:ka": "ყაზბეგის მუნიციპალიტეტი",
      "name:os": "Хъазыбеджы муниципалитет",
      "name:ru": "Казбегский муниципалитет",
      "boundary": "administrative",
      "int_name": "Kazbegis Raioni",
      "way_area": "0.117223",
      "wikidata": "Q2475628",
      "wikipedia": "ru:Казбегский муниципалитет",
      "admin_level": "6"
    }
  },
  {
    "osm_id": -2025552,
    "boundary": "administrative",
    "admin_level": 6,
    "parents": "-2000090,-28699",
    "name": "Dusheti Municipality",
    "local_name": "დუშეთის მუნიციპალიტეტი",
    "name_en": "Dusheti Municipality",
    "all_tags": {
      "name": "დუშეთის მუნიციპალიტეტი",
      "name:de": "Munizipalität Duscheti",
      "name:en": "Dusheti Municipality",
      "name:fi": "Dušetin piirikunta",
      "name:hy": "Ախալգորիի մունիցիպալիտետ",
      "name:ka": "დუშეთის მუნიციპალიტეტი",
      "name:os": "Душеты муниципалитет",
      "name:ru": "Душетский муниципалитет",
      "boundary": "administrative",
      "int_name": "Dusheti",
      "way_area": "0.326621",
      "wikidata": "Q2474310",
      "wikipedia": "ru:Душетский муниципалитет",
      "admin_level": "6"
    }
  },
  {
    "osm_id": -2025551,
    "boundary": "administrative",
    "admin_level": 6,
    "parents": "-2000090,-28699",
    "name": "Tianeti Municipality",
    "local_name": "თიანეთის მუნიციპალიტეტი",
    "name_en": "Tianeti Municipality",
    "all_tags": {
      "name": "თიანეთის მუნიციპალიტეტი",
      "name:de": "Munizipalität Tianeti",
      "name:en": "Tianeti Municipality",
      "name:hy": "Թիանեթի շրջան",
      "name:ka": "თიანეთის მუნიციპალიტეტი",
      "name:ru": "Тианетский муниципалитет",
      "boundary": "administrative",
      "int_name": "Tianeti",
      "way_area": "0.09892",
      "wikidata": "Q2586447",
      "wikipedia": "en:Tianeti Municipality",
      "admin_level": "6"
    }
  },
  {
    "osm_id": -2025550,
    "boundary": "administrative",
    "admin_level": 6,
    "parents": "-2000090,-28699",
    "name": "Mtskheta Municipality",
    "local_name": "მცხეთის მუნიციპალიტეტი",
    "name_en": "Mtskheta Municipality",
    "all_tags": {
      "name": "მცხეთის მუნიციპალიტეტი",
      "name:de": "Munizipalität Mzcheta",
      "name:en": "Mtskheta Municipality",
      "name:ka": "მცხეთის მუნიციპალიტეტი",
      "name:ru": "Мцхетский муниципалитет",
      "boundary": "administrative",
      "int_name": "Raion Mtskheta",
      "way_area": "0.0788141",
      "wikidata": "Q2266679",
      "wikipedia": "en:Mtskheta Municipality",
      "admin_level": "6"
    }
  },
  {
    "osm_id": -2025549,
    "boundary": "administrative",
    "admin_level": 6,
    "parents": "-2000040,-28699",
    "name": "Kaspi Municipality",
    "local_name": "კასპის მუნიციპალიტეტი",
    "name_en": "Kaspi Municipality",
    "all_tags": {
      "name": "კასპის მუნიციპალიტეტი",
      "name:de": "Munizipalität Kaspi",
      "name:en": "Kaspi Municipality",
      "name:ka": "კასპის მუნიციპალიტეტი",
      "name:os": "Къаспийы муниципалитет",
      "name:ru": "Каспский муниципалитет",
      "boundary": "administrative",
      "int_name": "Kaspi",
      "way_area": "0.0867909",
      "wikidata": "Q1518087",
      "wikipedia": "it:Municipalità di Kaspi",
      "admin_level": "6"
    }
  },
  {
    "osm_id": -2025548,
    "boundary": "administrative",
    "admin_level": 6,
    "parents": "-2000040,-28699",
    "name": "Gori Municipality",
    "local_name": "გორის მუნიციპალიტეტი",
    "name_en": "Gori Municipality",
    "all_tags": {
      "name": "გორის მუნიციპალიტეტი",
      "name:de": "Munizipalität Gori",
      "name:en": "Gori Municipality",
      "name:hy": "Գորիի մունիցիպալիտետ",
      "name:ka": "გორის მუნიციპალიტეტი",
      "name:os": "Гуры муниципалитет",
      "name:ru": "Горийский муниципалитет",
      "name:uk": "Ґорійський муніципалітет",
      "boundary": "administrative",
      "int_name": "Gori",
      "way_area": "0.137533",
      "wikidata": "Q1417170",
      "wikipedia": "ka:გორის მუნიციპალიტეტი",
      "admin_level": "6"
    }
  },
  {
    "osm_id": -2025547,
    "boundary": "administrative",
    "admin_level": 6,
    "parents": "-2000040,-28699",
    "name": "Kareli Municipality",
    "local_name": "ქარელის მუნიციპალიტეტი",
    "name_en": "Kareli Municipality",
    "all_tags": {
      "name": "ქარელის მუნიციპალიტეტი",
      "name:de": "Munizipalität Kareli",
      "name:en": "Kareli Municipality",
      "name:fr": "Municipalité de Kareli",
      "name:ka": "ქარელის მუნიციპალიტეტი",
      "name:os": "Карелы муниципалитет",
      "name:ru": "Карельский муниципалитет",
      "boundary": "administrative",
      "int_name": "Kareli",
      "way_area": "0.0760291",
      "wikidata": "Q1756629",
      "wikipedia": "ru:Карельский муниципалитет",
      "admin_level": "6"
    }
  },
  {
    "osm_id": -2025546,
    "boundary": "administrative",
    "admin_level": 6,
    "parents": "-2000040,-28699",
    "name": "Khashuri Municipality",
    "local_name": "ხაშურის მუნიციპალიტეტი",
    "name_en": "Khashuri Municipality",
    "all_tags": {
      "name": "ხაშურის მუნიციპალიტეტი",
      "name:de": "Munizipalität Chaschuri",
      "name:en": "Khashuri Municipality",
      "name:es": "Distrito de Jashuri",
      "name:fr": "Municipalité de Khachouri",
      "name:hy": "Խաշուրի մունիցիպալիտետ",
      "name:ka": "ხაშურის მუნიციპალიტეტი",
      "name:os": "Хашуры муниципалитет",
      "name:ru": "Хашурский муниципалитет",
      "name:uk": "Хашурський муніципалітет",
      "boundary": "administrative",
      "int_name": "Khashuris Raioni",
      "way_area": "0.0629871",
      "wikidata": "Q1790675",
      "wikipedia": "ka:ხაშურის მუნიციპალიტეტი",
      "admin_level": "6"
    }
  },
  {
    "osm_id": -2024548,
    "boundary": "administrative",
    "admin_level": 6,
    "parents": "-1997289,-28699",
    "name": "Tskaltubo Municipality",
    "local_name": "წყალტუბოს მუნიციპალიტეტი",
    "name_en": "Tskaltubo Municipality",
    "all_tags": {
      "name": "წყალტუბოს მუნიციპალიტეტი",
      "name:de": "Munizipalität Zqaltubo",
      "name:en": "Tskaltubo Municipality",
      "name:hy": "Ծղալտուբոյի շրջան",
      "name:ka": "წყალტუბოს მუნიციპალიტეტი",
      "name:ru": "Цхалтубский муниципалитет",
      "name:uk": "Цхалтубський муніципалітет",
      "boundary": "administrative",
      "int_name": "Tskaltubos Raioni",
      "name:xmf": "წყალტუბოშ მუნიციპალიტეტი",
      "way_area": "0.0741976",
      "wikidata": "Q1892810",
      "wikipedia": "ka:წყალტუბოს მუნიციპალიტეტი",
      "admin_level": "6"
    }
  },
  {
    "osm_id": -2024547,
    "boundary": "administrative",
    "admin_level": 6,
    "parents": "-1997289,-28699",
    "name": "Kutaisi",
    "local_name": "ქუთაისი",
    "name_en": "Kutaisi",
    "all_tags": {
      "name": "ქუთაისი",
      "name:de": "Kutaissi",
      "name:en": "Kutaisi",
      "name:ka": "ქუთაისი",
      "name:ru": "Кутаиси",
      "name:uk": "Кутаїсі муніципалітет",
      "boundary": "administrative",
      "int_name": "Kutaisi",
      "name:xmf": "ქუთეში",
      "old_name": "Aea;Aia;Kutatisi;Kutaïssi",
      "way_area": "0.00613589",
      "wikidata": "Q172415",
      "wikipedia": "de:Kutaissi",
      "admin_level": "6"
    }
  },
  {
    "osm_id": -2024546,
    "boundary": "administrative",
    "admin_level": 6,
    "parents": "-1997289,-28699",
    "name": "Tqibuli Municipality",
    "local_name": "ტყიბულის მუნიციპალიტეტი",
    "name_en": "Tqibuli Municipality",
    "all_tags": {
      "name": "ტყიბულის მუნიციპალიტეტი",
      "name:de": "Munizipalität Tqibuli",
      "name:en": "Tqibuli Municipality",
      "name:es": "Distrito de Tkibuli",
      "name:hy": "Տղիբուլիի մունիցիպալիտետ",
      "name:it": "Municipalità di Tkibuli",
      "name:ka": "ტყიბულის მუნიციპალიტეტი",
      "name:ru": "Ткибульский муниципалитет",
      "boundary": "administrative",
      "int_name": "Tkibuli",
      "name:xmf": "ტყიბულიშ მუნიციპალიტეტი",
      "way_area": "0.051717",
      "wikidata": "Q2212773",
      "wikipedia": "ru:Ткибульский муниципалитет",
      "admin_level": "6"
    }
  },
  {
    "osm_id": -2024545,
    "boundary": "administrative",
    "admin_level": 6,
    "parents": "-1997289,-28699",
    "name": "Raion Sachkhere",
    "local_name": "საჩხერის რაიონი",
    "name_en": "Raion Sachkhere",
    "all_tags": {
      "name": "საჩხერის რაიონი",
      "name:cs": "Sačchere",
      "name:de": "Raion Satschchere",
      "name:en": "Raion Sachkhere",
      "name:et": "Satšhere",
      "name:he": "סצ'חרה",
      "name:hy": "Սաչխերե",
      "name:ka": "საჩხერის რაიონი",
      "name:lt": "Sačcherė",
      "name:nl": "Satsjchere",
      "name:pt": "Sachkhere",
      "name:ru": "Сачхере",
      "name:sv": "Satjchere",
      "name:zh": "薩奇海雷",
      "boundary": "administrative",
      "int_name": "Sachkhere",
      "name:mzn": "ساچخره",
      "name:war": "Sachkhere",
      "name:xmf": "საჩხერე",
      "way_area": "0.0810686",
      "wikidata": "Q893325",
      "wikipedia": "ru:Сачхерский муниципалитет",
      "admin_level": "6"
    }
  },
  {
    "osm_id": -2024543,
    "boundary": "administrative",
    "admin_level": 6,
    "parents": "-1997289,-28699",
    "name": "Raion Chiatura",
    "local_name": "ჭიათურის რაიონი",
    "name_en": "Raion Chiatura",
    "all_tags": {
      "name": "ჭიათურის რაიონი",
      "name:cs": "Čiatura",
      "name:da": "Tjiatura",
      "name:de": "Raion Tschiatura",
      "name:en": "Raion Chiatura",
      "name:eo": "Ĉiatura",
      "name:es": "Chiatura",
      "name:et": "Tšiathura",
      "name:fi": "Tšiatura",
      "name:fr": "Tchiatoura (municipalité)",
      "name:he": "צ'יאתורה",
      "name:hy": "Ճիաթուրա",
      "name:ja": "チアトゥラ",
      "name:ka": "ჭიათურის რაიონი",
      "name:ko": "치아투라",
      "name:lt": "Čiatura",
      "name:nl": "Tsjiatoera",
      "name:nn": "Tsjiatura",
      "name:pl": "Cziatura",
      "name:ro": "Chiatura",
      "name:ru": "Чиатурский муниципалитет",
      "name:sr": "Чијатура",
      "name:sv": "Tjiatura",
      "name:uk": "Чіатура",
      "name:zh": "奇阿圖拉",
      "boundary": "administrative",
      "int_name": "Chiaturis Raioni",
      "name:mzn": "چیاتورا",
      "name:war": "Chiatura",
      "name:xmf": "ჭიათურა",
      "way_area": "0.0592289",
      "wikidata": "Q269506",
      "wikipedia": "ru:Чиатурский муниципалитет",
      "admin_level": "6"
    }
  },
  {
    "osm_id": -2024542,
    "boundary": "administrative",
    "admin_level": 6,
    "parents": "-1997289,-28699",
    "name": "Terjola",
    "local_name": "თერჯოლის რაიონი",
    "name_en": "Terjola",
    "all_tags": {
      "name": "თერჯოლის რაიონი",
      "name:de": "Terdschola",
      "name:en": "Terjola",
      "name:it": "Provincia di Tergiola",
      "name:ka": "თერჯოლის რაიონი",
      "name:ru": "Терджолский Район",
      "boundary": "administrative",
      "int_name": "Raion Terjola",
      "way_area": "0.0383005",
      "wikidata": "Q2374974",
      "wikipedia": "it:Municipalità di Terjola",
      "admin_level": "6"
    }
  },
  {
    "osm_id": -2024541,
    "boundary": "administrative",
    "admin_level": 6,
    "parents": "-1997289,-28699",
    "name": "Zestaponi Municipality",
    "local_name": "ზესტაფონის მუნიციპალიტეტი",
    "name_en": "Zestaponi Municipality",
    "all_tags": {
      "name": "ზესტაფონის მუნიციპალიტეტი",
      "name:de": "Munizipalität Sestafoni",
      "name:en": "Zestaponi Municipality",
      "name:hy": "Զեստափոնի մունիցիպալիտետ",
      "name:it": "Municipalità di Zestaponi",
      "name:ka": "ზესტაფონის მუნიციპალიტეტი",
      "name:ru": "Зестафонский муниципалитет",
      "name:uk": "Зестафонський муніципалітет",
      "boundary": "administrative",
      "int_name": "Zestaponis Raioni;Zestafonis Raioni",
      "way_area": "0.0485994",
      "wikidata": "Q2464187",
      "wikipedia": "ka:ზესტაფონის მუნიციპალიტეტი",
      "admin_level": "6",
      "old_name:ka": "ზესტაფონია რაიონი",
      "old_name:ru": "Зестафонский Район"
    }
  },
  {
    "osm_id": -2024540,
    "boundary": "administrative",
    "admin_level": 6,
    "parents": "-1997289,-28699",
    "name": "Raion Kharagauli",
    "local_name": "ხარაგაულის რაიონი",
    "name_en": "Raion Kharagauli",
    "all_tags": {
      "name": "ხარაგაულის რაიონი",
      "name:de": "Raion Charagauli",
      "name:en": "Raion Kharagauli",
      "name:ka": "ხარაგაულის რაიონი",
      "name:ru": "Харагаулский Район",
      "boundary": "administrative",
      "int_name": "Kharagaulis Raioni",
      "way_area": "0.0985895",
      "wikidata": "Q2513642",
      "wikipedia": "it:Municipalità di Kharagauli",
      "admin_level": "6"
    }
  },
  {
    "osm_id": -2024539,
    "boundary": "administrative",
    "admin_level": 6,
    "parents": "-1997289,-28699",
    "name": "Baghdati Municipality",
    "local_name": "ბაღდათის მუნიციპალიტეტი",
    "name_en": "Baghdati Municipality",
    "all_tags": {
      "name": "ბაღდათის მუნიციპალიტეტი",
      "name:de": "Munizipalität Baghdati",
      "name:en": "Baghdati Municipality",
      "name:fr": "Municipalité de Baghdati",
      "name:ka": "ბაღდადი;მაიაკოვსკი",
      "name:ru": "Багдатский муниципалитет",
      "boundary": "administrative",
      "int_name": "Baghdati",
      "old_name": "Baghdadi;Mayakovskiy",
      "way_area": "0.0887507",
      "wikidata": "Q2018619",
      "wikipedia": "it:Municipalità di Bagdati",
      "admin_level": "6",
      "old_name:ka": "ბაღდადი;მაიაკოვსკი",
      "old_name:ru": "Маяковский"
    }
  },
  {
    "osm_id": -2024538,
    "boundary": "administrative",
    "admin_level": 6,
    "parents": "-1997289,-28699",
    "name": "Vani Municipality",
    "local_name": "ვანის მუნიციპალიტეტი",
    "name_en": "Vani Municipality",
    "all_tags": {
      "name": "ვანის მუნიციპალიტეტი",
      "name:de": "Munizipalität Wani",
      "name:en": "Vani Municipality",
      "name:ka": "ვანის მუნიციპალიტეტი",
      "name:ru": "Ванский муниципалитет",
      "boundary": "administrative",
      "int_name": "Vanis Raioni",
      "way_area": "0.0659033",
      "wikidata": "Q893220",
      "wikipedia": "it:Municipalità di Vani",
      "admin_level": "6"
    }
  },
  {
    "osm_id": -2024537,
    "boundary": "administrative",
    "admin_level": 6,
    "parents": "-1997289,-28699",
    "name": "Samtredia Municipality",
    "local_name": "სამტრედიის რაიონი",
    "name_en": "Samtredia Municipality",
    "all_tags": {
      "name": "სამტრედიის რაიონი",
      "name:de": "Munizipalität Samtredia",
      "name:en": "Samtredia Municipality",
      "name:ka": "სამტრედიის მუნიციპალიტეტი",
      "name:ru": "Самтредский муниципалитет",
      "boundary": "administrative",
      "way_area": "0.0376647",
      "wikidata": "Q2142574",
      "wikipedia": "it:Municipalità di Samtredia",
      "admin_level": "6"
    }
  },
  {
    "osm_id": -2024536,
    "boundary": "administrative",
    "admin_level": 6,
    "parents": "-1997289,-28699",
    "name": "Khoni",
    "local_name": "ხონი",
    "name_en": "Khoni",
    "all_tags": {
      "name": "ხონი",
      "name:cs": "Choni",
      "name:de": "Choni",
      "name:en": "Khoni",
      "name:et": "Honi",
      "name:hy": "Խոնի",
      "name:ka": "ხონი",
      "name:lt": "Chonis",
      "name:nl": "Choni",
      "name:pl": "Choni",
      "name:ru": "Хонийский муниуипалитет",
      "name:sv": "Choni",
      "name:uk": "Хоні",
      "name:zh": "霍尼",
      "boundary": "administrative",
      "int_name": "Khoni",
      "name:mzn": "خوئنی",
      "name:war": "Khoni",
      "old_name": "Tsulukidze",
      "way_area": "0.0453007",
      "wikidata": "Q2513080",
      "wikipedia": "ru:Хонийский муниципалитет",
      "admin_level": "6",
      "old_name:ka": "წულუკიძე",
      "old_name:ru": "Цулукидзе"
    }
  },
  {
    "osm_id": -2016168,
    "boundary": "administrative",
    "admin_level": 6,
    "parents": "-1996076,-28699",
    "name": "Mestia Municipality",
    "local_name": "მესტიის რაიონი",
    "name_en": "Mestia Municipality",
    "all_tags": {
      "name": "მესტიის რაიონი",
      "name:de": "Munizipalität Mestia",
      "name:en": "Mestia Municipality",
      "name:ka": "მესტიის რაიონი",
      "name:ru": "Местийский муниципалитет",
      "alt_name": "ზემო სვანეთი",
      "boundary": "administrative",
      "int_name": "Mestia",
      "way_area": "0.339391",
      "wikidata": "Q2490962",
      "wikipedia": "ka:მესტიის მუნიციპალიტეტი",
      "admin_level": "6",
      "alt_name:de": "Oberswanetien",
      "alt_name:en": "Upper Svaneti",
      "alt_name:ka": "ზემო სვანეთი",
      "alt_name:ru": "Верхняя Сванетия"
    }
  },
  {
    "osm_id": -2016167,
    "boundary": "administrative",
    "admin_level": 6,
    "parents": "-1996076,-28699",
    "name": "Tsalenjikha Municipality",
    "local_name": "წალენჯიხის მუნიციპალიტეტი",
    "name_en": "Tsalenjikha Municipality",
    "all_tags": {
      "name": "წალენჯიხის მუნიციპალიტეტი",
      "name:de": "Munizipalität Zalendschicha",
      "name:en": "Tsalenjikha Municipality",
      "name:hy": "Ծալենջիխայի մունիցիպալիտետ",
      "name:it": "Municipalità di Tsalenjikha",
      "name:ka": "წალენჯიხის მუნიციპალიტეტი",
      "name:ru": "Цаленджихский муниципалитет",
      "name:uk": "Цаленджіський район",
      "boundary": "administrative",
      "int_name": "Tsalendjikha;Tzalenjikha",
      "name:xmf": "წალენჯიხაშ მუნიციპალიტეტი",
      "way_area": "0.0734653",
      "wikidata": "Q2475606",
      "wikipedia": "ka:წალენჯიხის მუნიციპალიტეტი",
      "admin_level": "6"
    }
  },
  {
    "osm_id": -2016166,
    "boundary": "administrative",
    "admin_level": 6,
    "parents": "-1996076,-28699",
    "name": "Chkhorotsqu Municipality",
    "local_name": "ჩხოროწყუს მუნიციპალიტეტი",
    "name_en": "Chkhorotsqu Municipality",
    "all_tags": {
      "name": "ჩხოროწყუს მუნიციპალიტეტი",
      "name:de": "Munizipalität Tschchorotzku",
      "name:en": "Chkhorotsqu Municipality",
      "name:hy": "Չխորոծղույի մունիցիպալիտետ",
      "name:it": "Municipalità di Chkhorotsqu",
      "name:ka": "ჩხოროწყუს მუნიციპალიტეტი",
      "name:ru": "Чхороцкуский муниципалитет",
      "boundary": "administrative",
      "int_name": "Chkhorotsqu",
      "name:xmf": "ჩხოროწყუშ მუნიციპალიტეტი",
      "way_area": "0.0676405",
      "wikidata": "Q2327517",
      "wikipedia": "ru:Чхороцкуский муниципалитет",
      "admin_level": "6"
    }
  },
  {
    "osm_id": -2016165,
    "boundary": "administrative",
    "admin_level": 6,
    "parents": "-1996076,-28699",
    "name": "Martvili Municipality",
    "local_name": "მარტვილის მუნიციპალიტეტი",
    "name_en": "Martvili Municipality",
    "all_tags": {
      "name": "მარტვილის მუნიციპალიტეტი",
      "name:de": "Munizipalität Martwili",
      "name:en": "Martvili Municipality",
      "name:hy": "Մարտվիլի մունիցիպալիտետ",
      "name:ka": "მარტვილის მუნიციპალიტეტი",
      "name:ru": "Мартвильский муниципалитет",
      "name:uk": "Мартвільський муніципалітет",
      "boundary": "administrative",
      "int_name": "Martvili",
      "way_area": "0.0993983",
      "wikidata": "Q2511190",
      "wikipedia": "ka:მარტვილის_მუნიციპალიტეტი",
      "admin_level": "6"
    }
  },
  {
    "osm_id": -2016164,
    "boundary": "administrative",
    "admin_level": 6,
    "parents": "-1996076,-28699",
    "name": "Abasha Municipality",
    "local_name": "აბაშის რაიონი",
    "name_en": "Abasha Municipality",
    "all_tags": {
      "name": "აბაშის რაიონი",
      "name:ar": "أباشا",
      "name:de": "Munizipalität Abascha",
      "name:en": "Abasha Municipality",
      "name:et": "Abaša",
      "name:fi": "Abaša",
      "name:fr": "Rayon de Abacha",
      "name:he": "אבשה",
      "name:hy": "Աբաշա",
      "name:ka": "აბაშის რაიონი",
      "name:lt": "Abaša",
      "name:nl": "Abasja",
      "name:os": "Абашæ",
      "name:ru": "Абашский муниципалитет",
      "name:sv": "Abasja",
      "name:uk": "Абашський муніципалітет",
      "name:zh": "阿巴沙",
      "boundary": "administrative",
      "int_name": "Abashis Raioni",
      "name:mzn": "آباشا",
      "name:war": "Abasha",
      "name:xmf": "აბაშა",
      "way_area": "0.0337209",
      "wikidata": "Q2513666",
      "wikipedia": "ka:აბაშის მუნიციპალიტეტი",
      "admin_level": "6"
    }
  },
  {
    "osm_id": -2016163,
    "boundary": "administrative",
    "admin_level": 6,
    "parents": "-1996076,-28699",
    "name": "Senaki Municipality",
    "local_name": "სენაკის რაიონი",
    "name_en": "Senaki Municipality",
    "all_tags": {
      "name": "სენაკის რაიონი",
      "name:de": "Munizipalität Senaki",
      "name:en": "Senaki Municipality",
      "name:ka": "სენაკის რაიონი",
      "name:ru": "Сенакский муниципалитет",
      "boundary": "administrative",
      "int_name": "Senakis Raioni",
      "way_area": "0.0570914",
      "wikidata": "Q2490876",
      "wikipedia": "ka:სენაკის მუნიციპალიტეტი",
      "admin_level": "6"
    }
  },
  {
    "osm_id": -2016162,
    "boundary": "administrative",
    "admin_level": 6,
    "parents": "-1996076,-28699",
    "name": "Khobi Municipality",
    "local_name": "ხობის მუნიციპალიტეტი",
    "name_en": "Khobi Municipality",
    "all_tags": {
      "name": "ხობის მუნიციპალიტეტი",
      "name:de": "Munizipalität Chobi",
      "name:en": "Khobi Municipality",
      "name:hy": "Խոբիի մունիցիպալիտետ",
      "name:it": "Municipalità di Khobi",
      "name:ka": "ხობის მუნიციპალიტეტი",
      "name:ru": "Хобский муниципалитет",
      "boundary": "administrative",
      "int_name": "Khobis Raioni",
      "name:xmf": "ხობიშ მუნიციპალიტეტი",
      "way_area": "0.0742425",
      "wikidata": "Q2475615",
      "wikipedia": "ru:Хобский муниципалитет",
      "admin_level": "6"
    }
  },
  {
    "osm_id": -2016161,
    "boundary": "administrative",
    "admin_level": 6,
    "parents": "-1996076,-28699",
    "name": "Zugdidi Municipality",
    "local_name": "ზუგდიდის მუნიციპალიტეტი",
    "name_en": "Zugdidi Municipality",
    "all_tags": {
      "name": "ზუგდიდის მუნიციპალიტეტი",
      "name:de": "Munizipalität Sugdidi",
      "name:en": "Zugdidi Municipality",
      "name:ka": "ზუგდიდის მუნიციპალიტეტი",
      "name:ru": "Зугдидский муниципалитет",
      "name:uk": "Зуґдідський муніципалітет",
      "boundary": "administrative",
      "int_name": "Zugdidis raioni",
      "name:xmf": "ზუგდიდიშ მუნიციპალიტეტი",
      "way_area": "0.072032",
      "wikidata": "Q2176973",
      "wikipedia": "ka:ზუგდიდის_მუნიციპალიტეტი",
      "admin_level": "6"
    }
  },
  {
    "osm_id": -2014334,
    "boundary": "administrative",
    "admin_level": 6,
    "parents": "-2000092,-28699",
    "name": "Gardabani Municipality",
    "local_name": "გარდაბნის მუნიციპალიტეტი",
    "name_en": "Gardabani Municipality",
    "all_tags": {
      "name": "გარდაბნის მუნიციპალიტეტი",
      "name:az": "Qarayazı bələdiyyəsi",
      "name:de": "Munizipalität Gardabani",
      "name:en": "Gardabani Municipality",
      "name:ka": "გარდაბნის მუნიციპალიტეტი",
      "name:ru": "Гардабанский муниципалитет",
      "name:uk": "Ґардабанський муніципалітет",
      "boundary": "administrative",
      "way_area": "0.112902",
      "wikidata": "Q2512996",
      "wikipedia": "ka:გარდაბნის მუნიციპალიტეტი",
      "population": "114384",
      "admin_level": "6"
    }
  },
  {
    "osm_id": -2014301,
    "boundary": "administrative",
    "admin_level": 6,
    "parents": "-2000092,-28699",
    "name": "Tetritskaro Municipality",
    "local_name": "თეთრიწყაროს რაიონი",
    "name_en": "Tetritskaro Municipality",
    "all_tags": {
      "name": "თეთრიწყაროს რაიონი",
      "name:de": "Munizipalität Tetrizkaro",
      "name:en": "Tetritskaro Municipality",
      "name:hy": "Թեթրի Ծղարոյի մունիցիպալիտետ",
      "name:ka": "თეთრიწყაროს რაიონი",
      "name:ru": "Тетрицкаройский муниципалитет",
      "boundary": "administrative",
      "int_name": "Tetritsqaros Raioni",
      "way_area": "0.126359",
      "wikidata": "Q1954407",
      "wikipedia": "it:Municipalità di TetriTsqaro",
      "admin_level": "6"
    }
  },
  {
    "osm_id": -2014300,
    "boundary": "administrative",
    "admin_level": 6,
    "parents": "-2000092,-28699",
    "name": "Bolnisi Municipality",
    "local_name": "ბოლნისის რაიონი",
    "name_en": "Bolnisi Municipality",
    "all_tags": {
      "name": "ბოლნისის რაიონი",
      "name:az": "Bolus bələdiyyəsi",
      "name:de": "Munizipalität Bolnissi",
      "name:en": "Bolnisi Municipality",
      "name:hy": "ბოლნისის რაიონი",
      "name:ka": "ბოლნისის რაიონი",
      "name:ru": "Болнисский муниципалитет",
      "name:uk": "Болніський муніципалітет",
      "boundary": "administrative",
      "int_name": "Bolnisis Raioni",
      "way_area": "0.0880517",
      "wikidata": "Q2513580",
      "wikipedia": "ka:ბოლნისის_მუნიციპალიტეტი",
      "admin_level": "6"
    }
  },
  {
    "osm_id": -2014299,
    "boundary": "administrative",
    "admin_level": 6,
    "parents": "-2000092,-28699",
    "name": "Dmanisi Municipality",
    "local_name": "დმანისის რაიონი",
    "name_en": "Dmanisi Municipality",
    "all_tags": {
      "name": "დმანისის რაიონი",
      "name:az": "Başkeçid bələdiyyəsi",
      "name:de": "Munizipalität Dmanissi",
      "name:en": "Dmanisi Municipality",
      "name:hy": "დმანისის რაიონი",
      "name:ka": "დმანისის რაიონი",
      "name:ru": "Дманисский муниципалитет",
      "name:uk": "Дманіський муніципалітет",
      "boundary": "administrative",
      "int_name": "Dmanisis Raioni",
      "way_area": "0.127167",
      "wikidata": "Q681371",
      "wikipedia": "ka:დმანისის_მუნიციპალიტეტი",
      "admin_level": "6",
      "old_name:ru": "Дманисский район"
    }
  },
  {
    "osm_id": -2014298,
    "boundary": "administrative",
    "admin_level": 6,
    "parents": "-2000092,-28699",
    "name": "Tsalka Municipality",
    "local_name": "წალკის მუნიციპალიტეტი",
    "name_en": "Tsalka Municipality",
    "all_tags": {
      "name": "წალკის მუნიციპალიტეტი",
      "name:az": "Barmaqsız bələdiyyəsi",
      "name:de": "Munizipalität Zalka",
      "name:en": "Tsalka Municipality",
      "name:fi": "Tsalkan piirikunta",
      "name:fr": "Municipalité de Tsalka",
      "name:hy": "Ծալկայի մունիցիպալիտետ",
      "name:it": "Municipalità di Tsalka",
      "name:ka": "წალკის მუნიციპალიტეტი",
      "name:nl": "Tsalka District",
      "name:os": "Цалкæ",
      "name:ru": "Цалкский муниципалитет",
      "website": "http://www.tsalka.ge",
      "boundary": "administrative",
      "int_name": "Tsalka",
      "way_area": "0.113163",
      "wikidata": "Q2238147",
      "wikipedia": "ru:Цалкский муниципалитет",
      "admin_level": "6"
    }
  },
  {
    "osm_id": -2013752,
    "boundary": "administrative",
    "admin_level": 6,
    "parents": "-1996031,-28699",
    "name": "Borjomi Municipality",
    "local_name": "ბორჯომის რაიონი",
    "name_en": "Borjomi Municipality",
    "all_tags": {
      "name": "ბორჯომის რაიონი",
      "name:de": "Munizipalität Bordschomi",
      "name:en": "Borjomi Municipality",
      "name:hy": "Բորժոմի մունիցիպալիտետ",
      "name:ka": "ბორჯომის რაიონი",
      "name:ru": "Боржомский муниципалитет",
      "name:uk": "Боржомський муніципалітет",
      "boundary": "administrative",
      "int_name": "Borjomis Raioni",
      "way_area": "0.130057",
      "wikidata": "Q2475809",
      "wikipedia": "ka:ბორჯომის მუნიციპალიტეტი",
      "admin_level": "6"
    }
  },
  {
    "osm_id": -2013751,
    "boundary": "administrative",
    "admin_level": 6,
    "parents": "-1996031,-28699",
    "name": "Ninotsminda Municipality",
    "local_name": "ნინოწმინდის მუნიციპალიტეტი",
    "name_en": "Ninotsminda Municipality",
    "all_tags": {
      "name": "ნინოწმინდის მუნიციპალიტეტი",
      "name:de": "Munizipalität Ninozminda",
      "name:en": "Ninotsminda Municipality",
      "name:fr": "Municipalité de Ninotsminda",
      "name:hy": "Նինոծմինդայի մունիցիպալիտետ",
      "name:ka": "ნინოწმინდის რაიონი",
      "name:os": "Ниноцминдæ",
      "name:ru": "Ниноцминдский муниципалитет",
      "name:tr": "Altunkale",
      "name:uk": "Ніноцміндійський муніципалітет",
      "boundary": "administrative",
      "int_name": "Ninotsminda",
      "old_name": "Bogdanovka District",
      "way_area": "0.146764",
      "wikidata": "Q1025123",
      "wikipedia": "it:Municipalità di Ninotsminda",
      "admin_level": "6",
      "old_name:ka": "ბოგდანოვკა",
      "old_name:ru": "Богдановский район",
      "is_in:country_code": "GE"
    }
  },
  {
    "osm_id": -2013750,
    "boundary": "administrative",
    "admin_level": 6,
    "parents": "-1996031,-28699",
    "name": "Akhalkalaki Municipality",
    "local_name": "ახალქალაქის მუნიციპალიტეტი",
    "name_en": "Akhalkalaki Municipality",
    "all_tags": {
      "name": "ახალქალაქის მუნიციპალიტეტი",
      "name:de": "Munizipalität Achalkalaki",
      "name:en": "Akhalkalaki Municipality",
      "name:fi": "Akhalkalakin piirikunta",
      "name:fr": "Municipalité d'Akhalkalaki",
      "name:he": "נפת אחלכלכי",
      "name:hy": "Ախալքալաքի մունիցիպալիտետ",
      "name:it": "Municipalità di Akhalkalaki",
      "name:ka": "ახალქალაქის_მუნიციპალიტეტი",
      "name:ru": "Ахалкалакский муниципалитет",
      "name:uk": "Ахалкалакський муніципалітет",
      "name:zh": "阿哈爾卡拉基",
      "boundary": "administrative",
      "int_name": "Akhalqalaqis Raioni",
      "name:xmf": "ახალქალაქიშ მუნიციპალიტეტი",
      "way_area": "0.135373",
      "wikidata": "Q1851196",
      "wikipedia": "ka:ახალქალაქის_მუნიციპალიტეტი",
      "admin_level": "6",
      "old_name:de": "Rajon Achalkalaki",
      "old_name:ka": "ახალქალაქის რაიონი",
      "old_name:ru": "Ахалкалакский район"
    }
  },
  {
    "osm_id": -2013749,
    "boundary": "administrative",
    "admin_level": 6,
    "parents": "-1996031,-28699",
    "name": "Aspindza Municipality",
    "local_name": "ასპინძის მუნიციპალიტეტი",
    "name_en": "Aspindza Municipality",
    "all_tags": {
      "name": "ასპინძის მუნიციპალიტეტი",
      "name:de": "Munizipalität Aspindsa",
      "name:en": "Aspindza Municipality",
      "name:he": "אספינדזה",
      "name:hy": "Ասպնջակ",
      "name:ka": "ასპინძის მუნიციპალიტეტი",
      "name:ru": "Аспиндзский муниципалитет",
      "name:uk": "Аспіндзійський муніципалітет",
      "boundary": "administrative",
      "int_name": "Aspindzis Raioni",
      "name:xmf": "ასპინძა",
      "way_area": "0.0913102",
      "wikidata": "Q2305733",
      "wikipedia": "ka:ასპინძის_მუნიციპალიტეტი",
      "admin_level": "6"
    }
  },
  {
    "osm_id": -2013748,
    "boundary": "administrative",
    "admin_level": 6,
    "parents": "-1996031,-28699",
    "name": "Akhaltsikhe Municipality",
    "local_name": "ახალციხის მუნიციპალიტეტი",
    "name_en": "Akhaltsikhe Municipality",
    "all_tags": {
      "name": "ახალციხის მუნიციპალიტეტი",
      "name:ar": "بلدية آخالتسيخه",
      "name:de": "Munizipalität Achalziche",
      "name:en": "Akhaltsikhe Municipality",
      "name:fr": "Municipalité d'Akhaltsikhe",
      "name:hy": "Ախալցխայի մունիցիպալիտետ",
      "name:it": "Municipalità di Akhaltsikhe",
      "name:ka": "ახალციხის მუნიციპალიტეტი",
      "name:ru": "Ахалцихский муниципалитет",
      "name:uk": "Ахалціхський муніципалітет",
      "boundary": "administrative",
      "int_name": "Akhaltsikhis Raioni",
      "way_area": "0.106045",
      "wikidata": "Q2513568",
      "wikipedia": "ka:ახალციხის მუნიციპალიტეტი",
      "admin_level": "6"
    }
  },
  {
    "osm_id": -2013747,
    "boundary": "administrative",
    "admin_level": 6,
    "parents": "-1996031,-28699",
    "name": "Adigeni Municipality",
    "local_name": "ადიგენის მუნიციპალიტეტი",
    "name_en": "Adigeni Municipality",
    "all_tags": {
      "name": "ადიგენის მუნიციპალიტეტი",
      "name:de": "Munizipalität Adigeni",
      "name:en": "Adigeni Municipality",
      "name:fr": "Municipalité d'Adigueni",
      "name:hy": "Ադիգենի մունիցիպալիտետ",
      "name:it": "Municipalità di Adigeni",
      "name:ka": "ადიგენის მუნიციპალიტეტი",
      "name:ru": "Адигенский муниципалитет",
      "boundary": "administrative",
      "int_name": "Adigeni",
      "way_area": "0.083644",
      "wikidata": "Q2382197",
      "wikipedia": "ru:Адигенский муниципалитет",
      "admin_level": "6"
    }
  },
  {
    "osm_id": -2009242,
    "boundary": "administrative",
    "admin_level": 6,
    "parents": "-1995970,-28699",
    "name": "Khulo Municipality",
    "local_name": "ხულოს მუნიციპალიტეტი",
    "name_en": "Khulo Municipality",
    "all_tags": {
      "name": "ხულოს მუნიციპალიტეტი",
      "name:de": "Munizipalität Chulo",
      "name:en": "Khulo Municipality",
      "name:ka": "ხულოს მუნიციპალიტეტი",
      "name:ru": "Хулойский муниципалитет",
      "boundary": "administrative",
      "int_name": "Khulo Municipality",
      "way_area": "0.0759584",
      "wikidata": "Q1252978",
      "wikipedia": "en:Khulo Municipality",
      "admin_level": "6"
    }
  },
  {
    "osm_id": -2009241,
    "boundary": "administrative",
    "admin_level": 6,
    "parents": "-1995970,-28699",
    "name": "Shuakhevi Municipality",
    "local_name": "შუახევის მუნიციპალიტეტი",
    "name_en": "Shuakhevi Municipality",
    "all_tags": {
      "name": "შუახევის მუნიციპალიტეტი",
      "name:az": "Şuaxevi bələdiyyəsi",
      "name:de": "Munizipalität Schuachewi",
      "name:en": "Shuakhevi Municipality",
      "name:hy": "Շուախևի մունիցիպալիտետ",
      "name:ka": "შუახევის მუნიციპალიტეტი",
      "name:ru": "Шуахевский муниципалитет",
      "boundary": "administrative",
      "int_name": "Shuakhevi",
      "way_area": "0.0625544",
      "wikidata": "Q660888",
      "wikipedia": "de:Munizipalität Schuachewi",
      "admin_level": "6",
      "old_name:ru": "Шуахевский район"
    }
  },
  {
    "osm_id": -2009240,
    "boundary": "administrative",
    "admin_level": 6,
    "parents": "-1995970,-28699",
    "name": "Keda Municipality",
    "local_name": "ქედის მუნიციპალიტეტი",
    "name_en": "Keda Municipality",
    "all_tags": {
      "name": "ქედის მუნიციპალიტეტი",
      "name:de": "Munizipalität Keda",
      "name:en": "Keda Municipality",
      "name:hy": "Քեդայի շրջան",
      "name:ka": "ქედის მუნიციპალიტეტი",
      "name:ru": "Кедский муниципалитет",
      "boundary": "administrative",
      "int_name": "Qeda",
      "way_area": "0.0476608",
      "wikidata": "Q1911993",
      "wikipedia": "de:Munizipalität Keda",
      "admin_level": "6"
    }
  },
  {
    "osm_id": -2009239,
    "boundary": "administrative",
    "admin_level": 6,
    "parents": "-1995970,-28699",
    "name": "Kobuleti Municipality",
    "local_name": "ქობულეთის მუნიციპალიტეტი",
    "name_en": "Kobuleti Municipality",
    "all_tags": {
      "name": "ქობულეთის მუნიციპალიტეტი",
      "name:de": "Munizipalität Kobuleti",
      "name:en": "Kobuleti Municipality",
      "name:ka": "ქობულეთის მუნიციპალიტეტი",
      "name:ru": "Кобулетский муниципалитет",
      "boundary": "administrative",
      "int_name": "Qobuleti",
      "old_name": "Çürüksu",
      "way_area": "0.0788684",
      "wikidata": "Q991409",
      "wikipedia": "de:Munizipalität Kobuleti",
      "admin_level": "6",
      "old_name:ru": "Кобулетский район"
    }
  },
  {
    "osm_id": -2009238,
    "boundary": "administrative",
    "admin_level": 6,
    "parents": "-1995970,-28699",
    "name": "Khelvachauri Municipality",
    "local_name": "ხელვაჩაურის რაიონი",
    "name_en": "Khelvachauri Municipality",
    "all_tags": {
      "name": "ხელვაჩაურის რაიონი",
      "name:de": "Munizipalität Chelwatschauri",
      "name:en": "Khelvachauri Municipality",
      "name:ka": "ხელვაჩაურის რაიონი",
      "name:ru": "Хелвачаурский муниципалитет",
      "boundary": "administrative",
      "int_name": "Khelvachauris Raioni",
      "way_area": "0.0407381",
      "wikidata": "Q175786",
      "wikipedia": "en:Khelvachauri Municipality",
      "admin_level": "6"
    }
  },
  {
    "osm_id": -2009237,
    "boundary": "administrative",
    "admin_level": 6,
    "parents": "-1995970,-28699",
    "name": "Batumi",
    "local_name": "ბათუმი",
    "name_en": "Batumi",
    "all_tags": {
      "name": "ბათუმი",
      "name:ab": "Баҭым",
      "name:ar": "باطومي",
      "name:az": "Batumi",
      "name:de": "Batumi",
      "name:en": "Batumi",
      "name:fa": "باتومی",
      "name:fr": "Batoumi",
      "name:he": "בתומי",
      "name:hy": "Բաթում",
      "name:ja": "バトゥミ",
      "name:ka": "ბათუმი",
      "name:nl": "Batoemi",
      "name:os": "Батуми",
      "name:ru": "Батуми",
      "name:tr": "Batum",
      "name:uk": "Батумі",
      "name:zh": "巴统",
      "boundary": "administrative",
      "int_name": "Batumi",
      "way_area": "0.00706648",
      "wikidata": "Q25475",
      "wikipedia": "ka:ბათუმი",
      "admin_level": "6"
    }
  },
  {
    "osm_id": -2000092,
    "boundary": "administrative",
    "admin_level": 4,
    "parents": "-28699",
    "name": "Lower Kartli",
    "local_name": "ქვემო ქართლი",
    "name_en": "Lower Kartli",
    "all_tags": {
      "ref": "KK",
      "name": "ქვემო ქართლი",
      "name:ab": "Ҵаҟатәи Қарҭли",
      "name:az": "Aşağı Kartli",
      "name:ca": "Kvemo Kartli",
      "name:de": "Niederkartlien",
      "name:en": "Lower Kartli",
      "name:es": "Kvemo Kartli",
      "name:fr": "Basse Kartlie",
      "name:it": "Bassa Cartalia",
      "name:ka": "ქვემო ქართლი",
      "name:ku": "Kvêmo Kartlî",
      "name:ru": "Нижняя Карталиния",
      "name:tr": "Aşağı Kartli",
      "boundary": "administrative",
      "int_name": "Kvemo Kartli",
      "name:xmf": "თუდოლენი ქართლიშ აკანი",
      "way_area": "0.676814",
      "wikidata": "Q200048",
      "ISO3166-2": "GE-KK",
      "wikipedia": "de:Niederkartlien",
      "admin_level": "4",
      "alt_name:ru": "Квемо-Картли"
    }
  },
  {
    "osm_id": -2000091,
    "boundary": "administrative",
    "admin_level": 4,
    "parents": "-28699",
    "name": "Kakheti",
    "local_name": "კახეთი",
    "name_en": "Kakheti",
    "all_tags": {
      "ref": "KA",
      "name": "კახეთი",
      "name:ab": "Кахеҭи",
      "name:ar": "منطقة كاخيتي",
      "name:az": "Kaxeti",
      "name:be": "Кахетыя",
      "name:bg": "Кахетия",
      "name:br": "Kac'hethi",
      "name:ca": "Kakhètia",
      "name:ce": "КӀахети",
      "name:cs": "Kachetie",
      "name:de": "Kachetien",
      "name:el": "Καχέτι",
      "name:en": "Kakheti",
      "name:eo": "Kaĥeti",
      "name:es": "Kajetia",
      "name:et": "Kahhethi",
      "name:eu": "Kakheti",
      "name:fa": "کاختی",
      "name:fi": "Kakheti",
      "name:fr": "Kakhétie",
      "name:gl": "Kakheti",
      "name:he": "קאחתי",
      "name:hu": "Kaheti",
      "name:hy": "Կախեթի մարզ",
      "name:it": "Cachezia",
      "name:ja": "カヘティ州",
      "name:ka": "კახეთის მხარე",
      "name:ko": "카헤티주",
      "name:ku": "Kaxêtî",
      "name:lt": "Kachetija",
      "name:lv": "Kahetija",
      "name:mk": "Кахетија",
      "name:ml": "കാഖേറ്റി",
      "name:nl": "Kacheti",
      "name:nn": "Kakheti",
      "name:no": "Kakheti",
      "name:os": "Къахет",
      "name:pl": "Kachetia",
      "name:pt": "Cachétia",
      "name:qu": "Kakheti suyu",
      "name:ru": "Кахетия",
      "name:sr": "Кахетија",
      "name:sv": "Kachetien",
      "name:tr": "Kaheti",
      "name:uk": "Кахеті",
      "name:ur": "کاختی",
      "name:vi": "Kakheti",
      "name:zh": "卡赫季州",
      "boundary": "administrative",
      "int_name": "Kakheti",
      "way_area": "1.22865",
      "wikidata": "Q169674",
      "ISO3166-2": "GE-KA",
      "wikipedia": "en:Kakheti",
      "admin_level": "4"
    }
  },
  {
    "osm_id": -2000090,
    "boundary": "administrative",
    "admin_level": 4,
    "parents": "-28699",
    "name": "Mtskheta-Mtianeti",
    "local_name": "მცხეთა-მთიანეთი",
    "name_en": "Mtskheta-Mtianeti",
    "all_tags": {
      "ref": "MM",
      "name": "მცხეთა-მთიანეთი",
      "name:ca": "Mtskheta-Mtianeti",
      "name:de": "Mzcheta-Mtianeti",
      "name:en": "Mtskheta-Mtianeti",
      "name:es": "Mtsjeta-Mtianeti",
      "name:fr": "Mtskheta-Mtianeti",
      "name:ka": "მცხეთა-მთიანეთი",
      "name:ku": "Mtsxêta-Mtîanêtî",
      "name:ru": "Мцхета-Мтианети",
      "name:uk": "Мцхета-Мтіанеті",
      "boundary": "administrative",
      "int_name": "Mtskheta-Mtianeti",
      "way_area": "0.621716",
      "wikidata": "Q203339",
      "ISO3166-2": "GE-MM",
      "wikipedia": "en:Mtskheta-Mtianeti",
      "admin_level": "4"
    }
  },
  {
    "osm_id": -2000040,
    "boundary": "administrative",
    "admin_level": 4,
    "parents": "-28699",
    "name": "Inner Kartli",
    "local_name": "შიდა ქართლი",
    "name_en": "Inner Kartli",
    "all_tags": {
      "ref": "SK",
      "name": "შიდა ქართლი",
      "name:ab": "Аҩнуҵҟатәи Қарҭли",
      "name:ca": "Xida Kartli",
      "name:de": "Innerkartlien",
      "name:en": "Inner Kartli",
      "name:es": "Shida Kartli",
      "name:fr": "Kartlie intérieure",
      "name:it": "Cartalia Interna",
      "name:ka": "შიდა ქართლი",
      "name:ru": "Внутренняя Карталиния",
      "name:uk": "Шида Картлі",
      "boundary": "administrative",
      "way_area": "0.36533",
      "wikidata": "Q200047",
      "ISO3166-2": "GE-SK",
      "wikipedia": "ka:შიდა ქართლის მხარე",
      "admin_level": "4",
      "alt_name:ru": "Шида-Картли",
      "old_name:uk": "Внутрішня Картлі"
    }
  },
  {
    "osm_id": -1997312,
    "boundary": "administrative",
    "admin_level": 6,
    "parents": "-2000092,-28699",
    "name": "Marneuli Municipality",
    "local_name": "მარნეულის მუნიციპალიტეტი",
    "name_en": "Marneuli Municipality",
    "all_tags": {
      "name": "მარნეულის მუნიციპალიტეტი",
      "name:ar": "بلدية مارنولي",
      "name:az": "Marneuli bələdiyyəsi",
      "name:de": "Munizipalität Marneuli",
      "name:en": "Marneuli Municipality",
      "name:hy": "Մառնեուլի մունիցիպալիտետ",
      "name:it": "Municipalità di Marneuli",
      "name:ka": "მარნეულის მუნიციპალიტეტი",
      "name:ru": "Марнеульский муниципалитет",
      "boundary": "administrative",
      "old_name": "ბორჩალო",
      "way_area": "0.101777",
      "wikidata": "Q2410306",
      "wikipedia": "ka:მარნეულის მუნიციპალიტეტი",
      "admin_level": "6",
      "old_name:ru": "Борчалы"
    }
  },
  {
    "osm_id": -1997305,
    "boundary": "administrative",
    "admin_level": 6,
    "parents": "-2000092,-28699",
    "name": "Rustavi",
    "local_name": "რუსთავი",
    "name_en": "Rustavi",
    "all_tags": {
      "name": "რუსთავი",
      "is_in": "Georgia, Kvemo Kartli",
      "name:de": "Rustawi",
      "name:en": "Rustavi",
      "name:ka": "რუსთავი",
      "name:ru": "Рустави",
      "name:sr": "Рустави",
      "name:uk": "Руставі",
      "boundary": "administrative",
      "int_name": "Rustavi",
      "way_area": "0.00739459",
      "wikidata": "Q182521",
      "wikipedia": "ka:რუსთავი",
      "population": "116400",
      "admin_level": "6",
      "addr:country": "GE",
      "is_in:continent": "Asia"
    }
  },
  {
    "osm_id": -1997289,
    "boundary": "administrative",
    "admin_level": 4,
    "parents": "-28699",
    "name": "Imereti",
    "local_name": "იმერეთი",
    "name_en": "Imereti",
    "all_tags": {
      "ref": "IM",
      "name": "იმერეთი",
      "name:ab": "Имереҭи",
      "name:ca": "Imerètia",
      "name:de": "Imeretien",
      "name:en": "Imereti",
      "name:es": "Imericia",
      "name:fr": "Iméréthie",
      "name:it": "Imerezia",
      "name:ku": "Îmêretî",
      "name:ru": "Имеретия",
      "name:uk": "Імереті",
      "boundary": "administrative",
      "int_name": "Imereti",
      "way_area": "0.695457",
      "wikidata": "Q200045",
      "ISO3166-2": "GE-IM",
      "wikipedia": "en:Imereti",
      "admin_level": "4"
    }
  },
  {
    "osm_id": -1997288,
    "boundary": "administrative",
    "admin_level": 6,
    "parents": "-1997284,-28699",
    "name": "Oni, Georgia",
    "local_name": "ონის მუნიციპალიტეტი",
    "name_en": "Oni, Georgia",
    "all_tags": {
      "name": "ონის მუნიციპალიტეტი",
      "name:de": "Munizipalität Oni",
      "name:en": "Oni, Georgia",
      "name:eo": "Oni",
      "name:es": "Oni",
      "name:et": "Oni",
      "name:fi": "Oni",
      "name:gl": "Oni",
      "name:he": "אוני",
      "name:hy": "Օնի",
      "name:ka": "ონის რაიონი",
      "name:nl": "Oni",
      "name:os": "Он",
      "name:ru": "Они",
      "name:sv": "Oni",
      "name:uk": "Оні",
      "name:zh": "奧尼",
      "boundary": "administrative",
      "int_name": "Oni",
      "name:mzn": "اونی",
      "name:war": "Oni, Heorhya",
      "name:xmf": "ონის რაიონი",
      "way_area": "0.150433",
      "wikidata": "Q893287",
      "wikipedia": "ru:Онский муниципалитет",
      "admin_level": "6"
    }
  },
  {
    "osm_id": -1997287,
    "boundary": "administrative",
    "admin_level": 6,
    "parents": "-1997284,-28699",
    "name": "Ambrolauri Municipality",
    "local_name": "ამბროლაურის მუნიციპალიტეტი",
    "name_en": "Ambrolauri Municipality",
    "all_tags": {
      "name": "ამბროლაურის მუნიციპალიტეტი",
      "name:ab": "Амбролаур",
      "name:de": "Munizipalität Ambrolauri",
      "name:en": "Ambrolauri Municipality",
      "name:fi": "Ambrolaurin piirikunta",
      "name:fr": "Municipalité de Ambrolauri",
      "name:he": "נפת אמברולאורי",
      "name:hy": "Ամբրոլաուրիի մունիցիպալիտետ",
      "name:it": "Municipalità di Ambrolauri",
      "name:ka": "ამბროლაურის მუნიციპალიტეტი",
      "name:ru": "Амбролаурский муниципалитет",
      "name:uk": "Амбролаурський муніципалітет",
      "boundary": "administrative",
      "int_name": "Ambrolauris Raioni",
      "way_area": "0.124289",
      "wikidata": "Q2464159",
      "wikipedia": "ka:ამბროლაურის_მუნიციპალიტეტი",
      "admin_level": "6"
    }
  },
  {
    "osm_id": -1997286,
    "boundary": "administrative",
    "admin_level": 6,
    "parents": "-1997284,-28699",
    "name": "Tsageri Municipality",
    "local_name": "ცაგერის მუნიციპალიტეტი",
    "name_en": "Tsageri Municipality",
    "all_tags": {
      "name": "ცაგერის მუნიციპალიტეტი",
      "name:de": "Munizipalität Zageri",
      "name:en": "Tsageri Municipality",
      "name:et": "Tsageri rajoon",
      "name:fr": "Municipalité de Tsagueri",
      "name:hy": "Ցագերի մունիցիպալիտետ",
      "name:ka": "ცაგერის მუნიციპალიტეტი",
      "name:ru": "Цагерский муниципалитет",
      "name:sv": "Tsageris Munitsip'alit'et'i",
      "boundary": "administrative",
      "int_name": "Tsageri",
      "name:xmf": "ცაგერიშ მუნიციპალიტეტი",
      "way_area": "0.0790755",
      "wikidata": "Q2489909",
      "wikipedia": "ru:Цагерский муниципалитет",
      "population": "16622",
      "admin_level": "6"
    }
  },
  {
    "osm_id": -1997285,
    "boundary": "administrative",
    "admin_level": 6,
    "parents": "-1997284,-28699",
    "name": "Lentekhi Municipality",
    "local_name": "ლენტეხის მუნიციპალიტეტი",
    "name_en": "Lentekhi Municipality",
    "all_tags": {
      "name": "ლენტეხის მუნიციპალიტეტი",
      "name:de": "Munizipalität Lentechi",
      "name:en": "Lentekhi Municipality",
      "name:hy": "Լենտեխի մունիցիպալիտետ",
      "name:ka": "ლენტეხის მუნიციპალიტეტი",
      "name:ru": "Лентехский муниципалитет",
      "boundary": "administrative",
      "int_name": "Lentekhi",
      "way_area": "0.160723",
      "wikidata": "Q2464174",
      "wikipedia": "ru:Лентехский муниципалитет",
      "admin_level": "6"
    }
  },
  {
    "osm_id": -1997284,
    "boundary": "administrative",
    "admin_level": 4,
    "parents": "-28699",
    "name": "Racha-Lechkhumi and Lower Svaneti",
    "local_name": "რაჭა-ლეჩხუმი და ქვემო სვანეთი",
    "name_en": "Racha-Lechkhumi and Lower Svaneti",
    "all_tags": {
      "name": "რაჭა-ლეჩხუმი და ქვემო სვანეთი",
      "name:ca": "Racha-Lechkhumi i Kvemo Svaneti",
      "name:de": "Ratscha-Letschchumien und Niederswanetien",
      "name:en": "Racha-Lechkhumi and Lower Svaneti",
      "name:es": "Racha-Lechjumi y Kvemo Svaneti",
      "name:fr": "Racha-Lechkhumi et Kvemo Svaneti",
      "name:ka": "რაჭა-ლეჩხუმი და ქვემო სვანეთი",
      "name:ku": "Raça-Lêçxûmî û Kvêmo-Svanêtî",
      "name:nl": "Ratsja-Letsjchoemi en Kvemo Svaneti",
      "name:ru": "Рача-Лечхуми и Нижняя Сванетия",
      "boundary": "administrative",
      "way_area": "0.5148",
      "wikidata": "Q38893",
      "ISO3166-2": "GE-RL",
      "wikipedia": "en:Racha-Lechkhumi and Kvemo Svaneti",
      "population": "50969",
      "admin_level": "4"
    }
  },
  {
    "osm_id": -1996871,
    "boundary": "administrative",
    "admin_level": 4,
    "parents": "-28699",
    "name": "Tbilisi",
    "local_name": "თბილისი",
    "name_en": "Tbilisi",
    "all_tags": {
      "name": "თბილისი",
      "name:ab": "Қарҭ",
      "name:af": "Tbilisi",
      "name:am": "ትብሊሲ",
      "name:an": "Tbilisi",
      "name:ar": "تبليسي",
      "name:av": "Тбилиси",
      "name:az": "Tbilisi",
      "name:be": "Тбілісі",
      "name:bg": "Тбилиси",
      "name:bn": "তিবি‌লিসি",
      "name:bo": "ཁྲེ་བྷི་ལི་སི།",
      "name:br": "Tbilisi",
      "name:bs": "Tbilisi",
      "name:ca": "Tbilissi",
      "name:cs": "Tbilisi",
      "name:cv": "Тбилиси",
      "name:cy": "Tbilisi",
      "name:da": "Tbilisi",
      "name:de": "Tiflis",
      "name:el": "Τιφλίδα",
      "name:en": "Tbilisi",
      "name:eo": "Tbiliso",
      "name:es": "Tiflis",
      "name:et": "Thbilisi",
      "name:eu": "Tbilisi",
      "name:fa": "تفلیس",
      "name:fi": "Tbilisi",
      "name:fo": "Tbilisi",
      "name:fr": "Tbilissi",
      "name:fy": "Tbilisy",
      "name:gd": "Tbilisi",
      "name:gl": "Tbilisi",
      "name:gv": "Tbilisi",
      "name:he": "טביליסי",
      "name:hi": "तिब्लिसी",
      "name:hr": "Tbilisi",
      "name:ht": "Tbilisi",
      "name:hu": "Tbiliszi",
      "name:hy": "Թբիլիսի",
      "name:id": "Tbilisi",
      "name:io": "Tbilisi",
      "name:is": "Tíblisi",
      "name:it": "Tbilisi",
      "name:ja": "トビリシ",
      "name:jv": "Tbilisi",
      "name:ka": "თბილისი",
      "name:kk": "Тбилиси",
      "name:ko": "트빌리시",
      "name:ku": "Tibîlîsî",
      "name:kv": "Тбилиси",
      "name:ky": "Тбилиси",
      "name:la": "Triphelis",
      "name:lt": "Tbilisis",
      "name:lv": "Tbilisi",
      "name:mi": "Tbilisi",
      "name:mk": "Тбилиси",
      "name:mn": "Тбилис",
      "name:mr": "त्बिलिसी",
      "name:ms": "Tbilisi",
      "name:nl": "Tbilisi",
      "name:nn": "Tbilisi",
      "name:no": "Tbilisi",
      "name:oc": "Tbilissi",
      "name:os": "Тбилис",
      "name:pl": "Tbilisi",
      "name:pt": "Tbilisi",
      "name:ro": "Tbilisi",
      "name:ru": "Тбилиси",
      "name:sc": "Tbilisi",
      "name:sh": "Tbilisi",
      "name:sk": "Tbilisi",
      "name:sl": "Tbilisi",
      "name:sq": "Tbilisi",
      "name:sr": "Тбилиси",
      "name:sv": "Tbilisi",
      "name:sw": "Tbilisi",
      "name:ta": "திபிலீசி",
      "name:tg": "Тбилисӣ",
      "name:th": "ทบิลิซิ",
      "name:tl": "Tbilisi",
      "name:ug": "تبىلىسى",
      "name:uk": "Тбілісі",
      "name:ur": "تبلیسی",
      "name:vi": "Tbilisi",
      "name:vo": "Tbilisi",
      "name:wo": "Tibilisi",
      "name:yi": "טביליסי",
      "name:yo": "Tbilisi",
      "name:zh": "第比利斯",
      "website": "http://tbilisi.gov.ge/",
      "boundary": "administrative",
      "int_name": "Tbilisi",
      "name:ace": "Tbilisi",
      "name:arc": "ܛܒܝܠܝܣܝ",
      "name:bcl": "Tbilisi",
      "name:ckb": "تبلیس",
      "name:diq": "Tıflis",
      "name:frp": "Tbilisi",
      "name:hif": "Tbilisi",
      "name:hsb": "Tbilisi",
      "name:kbd": "Тбилиси",
      "name:lbe": "Ттуплис",
      "name:lij": "Tiblisi",
      "name:lmo": "Tbilisi",
      "name:mhr": "Тбилиси",
      "name:mrj": "Тбилиси",
      "name:myv": "Тбилиси ош",
      "name:mzn": "تفلیس",
      "name:nah": "Tbilisi",
      "name:nan": "Tbilisi",
      "name:nov": "Tbilisi",
      "name:pam": "Tbilisi",
      "name:pms": "Tbilisi",
      "name:pnb": "تبلیسی",
      "name:sah": "Тбилиси",
      "name:scn": "Tbilisi",
      "name:sco": "Tbilisi",
      "name:szl": "Tbilisi",
      "name:udm": "Тбилиси",
      "name:vep": "Tbilisi",
      "name:war": "Tbilisi",
      "name:xmf": "ქართი",
      "old_name": "ტფილისი",
      "way_area": "0.0548173",
      "wikidata": "Q994",
      "ISO3166-2": "GE-TB",
      "wikipedia": "en:Tbilisi",
      "population": "1152500",
      "admin_level": "4",
      "alt_name:ca": "Tiflis",
      "alt_name:ko": "뜨빌리씨",
      "name:simple": "Tbilisi",
      "old_name:en": "Tiflisi",
      "old_name:ru": "Тифлис",
      "addr:country": "GE",
      "name:bat-smg": "Tbėlėsis",
      "name:fiu-vro": "Thbilisi",
      "name:roa-tara": "Tbilisi",
      "name:be-tarask": "Тбілісі"
    }
  },
  {
    "osm_id": -1996076,
    "boundary": "administrative",
    "admin_level": 4,
    "parents": "-28699",
    "name": "Samegrelo-Upper Svaneti",
    "local_name": "სამეგრელო-ზემო სვანეთი",
    "name_en": "Samegrelo-Upper Svaneti",
    "all_tags": {
      "ref": "SZ",
      "name": "სამეგრელო-ზემო სვანეთი",
      "name:ab": "Агырны-Хыхьтәи Шәаны",
      "name:ca": "Samegrelo - Zemo Svaneti",
      "name:de": "Mingrelien-Oberswanetien",
      "name:en": "Samegrelo-Upper Svaneti",
      "name:es": "Samegrelo-Zemo Svaneti",
      "name:fr": "Mingrélie-et-Haute-Svanétie",
      "name:it": "Mingrelia-Alta Svanezia",
      "name:ka": "სამეგრელო-ზემო სვანეთი",
      "name:ku": "Samêgrelo û Zêmo Svanêtî",
      "name:ru": "Самегрело и Верхняя Сванетия",
      "name:uk": "Самеґрело-Земо Сванеті",
      "website": "http://www.szs.gov.ge/cgi-bin/admin/index.pl",
      "boundary": "administrative",
      "int_name": "Samegrelo-Zemo Svaneti",
      "name:xmf": "სამარგალო-ჟიმოლენი შონეშ აკანი",
      "way_area": "0.932152",
      "wikidata": "Q200309",
      "ISO3166-2": "GE-SZ",
      "wikipedia": "ka:სამეგრელო-ზემო სვანეთის მხარე",
      "population": "466000",
      "admin_level": "4"
    }
  },
  {
    "osm_id": -1996031,
    "boundary": "administrative",
    "admin_level": 4,
    "parents": "-28699",
    "name": "Samtskhe-Javakheti",
    "local_name": "სამცხე-ჯავახეთი",
    "name_en": "Samtskhe-Javakheti",
    "all_tags": {
      "ref": "SJ",
      "name": "სამცხე-ჯავახეთი",
      "name:ab": "Самцхе-Џьавахеҭи",
      "name:ar": "سامتسخه-جافاخيتي",
      "name:ca": "Samtskhé-Txavtxètia",
      "name:de": "Samzche-Dschawachetien",
      "name:en": "Samtskhe-Javakheti",
      "name:es": "Samtsje-Yavajeti",
      "name:fa": "سامتسخه-جاواختی",
      "name:fr": "Samtskhé-Djavakhétie",
      "name:hy": "Սամցխե-Ջավախք",
      "name:it": "Samtskhe-Giavachezia",
      "name:ka": "სამცხე-ჯავახეთი",
      "name:ku": "Samtsxê-Cevaxêtî",
      "name:lt": "Samcchė-Džavachetija",
      "name:ru": "Самцхе-Джавахети",
      "name:tr": "Samtshe-Cavaheti",
      "name:uk": "Самцхе-Джавахеті мхаре",
      "name:ur": "سامتسخے-جاواختی",
      "boundary": "administrative",
      "int_name": "Samtskhe-Javakheti",
      "old_name": "მესხეთი",
      "way_area": "0.693632",
      "wikidata": "Q19039",
      "ISO3166-2": "GE-SJ",
      "wikipedia": "ka:სამცხე-ჯავახეთის მხარე",
      "population": "208000",
      "admin_level": "4",
      "old_name:en": "Meskhetia",
      "addr:country": "GE"
    }
  },
  {
    "osm_id": -1995971,
    "boundary": "administrative",
    "admin_level": 4,
    "parents": "-28699",
    "name": "Guria",
    "local_name": "გურია",
    "name_en": "Guria",
    "all_tags": {
      "ref": "GU",
      "name": "გურია",
      "name:ca": "Gúria",
      "name:de": "Gurien",
      "name:en": "Guria",
      "name:es": "Guria",
      "name:fr": "Gourie",
      "name:ka": "გურია",
      "name:ku": "Gûrya",
      "name:ru": "Гурия",
      "name:uk": "Гурія",
      "boundary": "administrative",
      "int_name": "Guria",
      "way_area": "0.26026",
      "wikidata": "Q19038",
      "ISO3166-2": "GE-GU",
      "wikipedia": "en:Guria",
      "admin_level": "4",
      "is_in:country": "Georgia",
      "is_in:continent": "Asia",
      "is_in:country_code": "GE"
    }
  },
  {
    "osm_id": -1995970,
    "boundary": "administrative",
    "admin_level": 4,
    "parents": "-28699",
    "name": "Autonomous Republic of Adjara",
    "local_name": "აჭარის ავტონომიური რესპუბლიკა",
    "name_en": "Autonomous Republic of Adjara",
    "all_tags": {
      "name": "აჭარის ავტონომიური რესპუბლიკა",
      "name:ca": "Adjària",
      "name:de": "Autonome Republik Adscharien",
      "name:en": "Autonomous Republic of Adjara",
      "name:es": "Ayaria",
      "name:fr": "Adjarie",
      "name:it": "Repubblica Autonoma Agiara",
      "name:ka": "აჭარის ავტონომიური რესპუბლიკა",
      "name:ku": "Komara Xweserî ya Acaristanê",
      "name:nl": "Adzjarië",
      "name:pl": "Adżaria",
      "name:ru": "Аджарская Автономная Республика",
      "name:uk": "Аджарська Автономна Республіка",
      "boundary": "administrative",
      "way_area": "0.418514",
      "wikidata": "Q45693",
      "ISO3166-2": "GE-AJ",
      "wikipedia": "ru:Аджария",
      "population": "376016",
      "admin_level": "4",
      "alt_name:ku": "Acaristan;Acarî"
    }
  },
  {
    "osm_id": -1995969,
    "boundary": "administrative",
    "admin_level": 6,
    "parents": "-1995971,-28699",
    "name": "Chokhatauri Municipality",
    "local_name": "ჩოხატაურის მუნიციპალიტეტი",
    "name_en": "Chokhatauri Municipality",
    "all_tags": {
      "ref": "GE-13",
      "name": "ჩოხატაურის მუნიციპალიტეტი",
      "name:de": "Munizipalität Tschochatauri",
      "name:en": "Chokhatauri Municipality",
      "name:fr": "Municipalité de Tchokhataouri",
      "name:hy": "Չոխատաուրի շրջան",
      "name:ka": "ჩოხატაურის მუნიციპალიტეტი",
      "name:ru": "Чохатаурский муниципалитет",
      "name:uk": "Чохатаурський муніципалітет",
      "boundary": "administrative",
      "int_name": "Chokhatauris Raioni",
      "name:xmf": "ჩოხატაურიშ მუნიციპალიტეტი",
      "way_area": "0.0891071",
      "wikidata": "Q2466860",
      "wikipedia": "ru:Чохатаурский муниципалитет",
      "population": "2409",
      "admin_level": "6",
      "addr:country": "GE"
    }
  },
  {
    "osm_id": -1995783,
    "boundary": "administrative",
    "admin_level": 6,
    "parents": "-1995971,-28699",
    "name": "Lanchkhuti Municipality",
    "local_name": "ლანჩხუთის მუნიციპალიტეტი",
    "name_en": "Lanchkhuti Municipality",
    "all_tags": {
      "ref": "GE-35",
      "name": "ლანჩხუთის მუნიციპალიტეტი",
      "name:de": "Munizipalität Lantschchuti",
      "name:en": "Lanchkhuti Municipality",
      "name:et": "Lantšhuthi rajoon",
      "name:hy": "Լանչխութի մունիցիպալիտետ",
      "name:it": "Municipalità di Lanchkhuti",
      "name:ka": "ლანჩხუთის მუნიციპალიტეტი",
      "name:ru": "Ланчхутский муниципалитет",
      "name:uk": "Ланчхутський муніципалітет",
      "boundary": "administrative",
      "int_name": "Lanchkhutis Raioni",
      "name:xmf": "ლანჩხუთი",
      "way_area": "0.0596928",
      "wikidata": "Q2380601",
      "wikipedia": "ru:Ланчхутский муниципалитет",
      "population": "40507",
      "admin_level": "6",
      "addr:country": "GE"
    }
  },
  {
    "osm_id": -1995403,
    "boundary": "administrative",
    "admin_level": 6,
    "parents": "-1995971,-28699",
    "name": "Ozurgeti Municipality",
    "local_name": "ოზურგეთის მუნიციპალიტეტი",
    "name_en": "Ozurgeti Municipality",
    "all_tags": {
      "ref": "GE-44",
      "name": "ოზურგეთის მუნიციპალიტეტი",
      "name:az": "Ozurgeti bələdiyyəsi",
      "name:de": "Munizipalität Osurgeti",
      "name:el": "Οζουργκέτι",
      "name:en": "Ozurgeti Municipality",
      "name:fr": "Municipalité d'Ozourguéti",
      "name:he": "נפת אוזורגתי",
      "name:hy": "Օզուրգեթի շրջան",
      "name:it": "Municipalità di Ozurgeti",
      "name:ka": "ოზურგეთის მუნიციპალიტეტი",
      "name:ru": "Озургетский муниципалитет",
      "name:uk": "Озурґетський муніципалітет",
      "name:zh": "奧祖爾蓋蒂",
      "boundary": "administrative",
      "int_name": "Ozurgeti",
      "name:xmf": "ოზურგეთიშ მუნიციპალიტეტი",
      "way_area": "0.0720351",
      "wikidata": "Q510761",
      "wikipedia": "ka:ოზურგეთის მუნიციპალიტეტი",
      "population": "78760",
      "admin_level": "6",
      "addr:country": "GE"
    }
  },
  {
    "osm_id": -1995348,
    "boundary": "administrative",
    "admin_level": 6,
    "parents": "-1996076,-28699",
    "name": "Poti",
    "local_name": "ფოთი",
    "name_en": "Poti",
    "all_tags": {
      "ref": "GE-PTI",
      "name": "ფოთი",
      "name:de": "Poti",
      "name:en": "Poti",
      "name:ka": "ფოთი",
      "name:ru": "Поти",
      "name:tr": "Faş",
      "name:uk": "Поті",
      "boundary": "administrative",
      "int_name": "Poti",
      "name:lzz": "ფაში",
      "name:xmf": "ფუთი",
      "way_area": "0.00673544",
      "wikidata": "Q185345",
      "wikipedia": "de:Poti",
      "population": "47300",
      "admin_level": "6"
    }
  },
  {
    "osm_id": -1245702,
    "boundary": "administrative",
    "admin_level": 6,
    "parents": "-3572912,-1152720,-28699",
    "name": "Gagra District",
    "local_name": "Гагра араион - Гагрский район",
    "name_en": "Gagra District",
    "all_tags": {
      "name": "Гагра араион - Гагрский район",
      "name:ab": "Гагра араион",
      "name:de": "Rajon Gagra",
      "name:en": "Gagra District",
      "name:hy": "Գագրայի մունիցիպալիտետ",
      "name:ka": "გაგრის რაიონი",
      "name:ru": "Гагрский район",
      "name:uk": "Ґаґрський район",
      "boundary": "administrative",
      "way_area": "0.220988",
      "wikidata": "Q40349",
      "wikipedia": "ru:Гагрский район",
      "admin_level": "6",
      "description": "check exact position of border"
    }
  }
]
