[
  {
    "osm_id": -1973200,
    "boundary": "administrative",
    "admin_level": 4,
    "parents": "-270009",
    "name": "Alderney",
    "local_name": "Alderney",
    "name_en": "Alderney",
    "all_tags": {
      "name": "Alderney",
      "place": "state",
      "name:ar": "آلدرني",
      "name:en": "Alderney",
      "name:fa": "آلدرنی",
      "name:fr": "Aurigny",
      "name:ks": "الدرنی",
      "name:mk": "Олдерни",
      "name:ur": "الدرنی",
      "boundary": "administrative",
      "name:azb": "آلدرنی",
      "way_area": "0.00105664",
      "wikidata": "Q179313",
      "wikipedia": "en:Alderney",
      "admin_level": "4",
      "is_in:country": "Guernsey"
    }
  },
  {
    "osm_id": -1973199,
    "boundary": "administrative",
    "admin_level": 4,
    "parents": "-270009",
    "name": "Sark",
    "local_name": "Sark",
    "name_en": "Sark",
    "all_tags": {
      "name": "Sark",
      "place": "state",
      "name:af": "Sark",
      "name:ar": "سارك",
      "name:ba": "Сарк",
      "name:be": "Сарк",
      "name:bn": "সার্ক",
      "name:br": "Sark",
      "name:ca": "Sark",
      "name:cs": "Sark",
      "name:cy": "Sark",
      "name:da": "Sark",
      "name:de": "Sark",
      "name:el": "Σαρκ",
      "name:en": "Sark",
      "name:eo": "Sark",
      "name:es": "Sark",
      "name:et": "Sark",
      "name:fa": "سرک",
      "name:fi": "Sark",
      "name:fr": "Sercq",
      "name:ga": "An tSairc",
      "name:gd": "Sark",
      "name:gl": "Sark",
      "name:he": "סֶרְק",
      "name:hr": "Sark",
      "name:hu": "Sark",
      "name:id": "Sark",
      "name:ie": "Sark",
      "name:it": "Sark",
      "name:ja": "サーク島",
      "name:jv": "Sark",
      "name:ko": "사크 섬",
      "name:lt": "Sarkas",
      "name:mk": "Сарк",
      "name:nl": "Sark",
      "name:nn": "Sark",
      "name:no": "Sark",
      "name:oc": "Sarc",
      "name:pl": "Sark",
      "name:pt": "Sark",
      "name:ro": "Sark",
      "name:ru": "Сарк",
      "name:sh": "Sark",
      "name:sk": "Sark",
      "name:sl": "Sark",
      "name:sr": "Сарк",
      "name:sv": "Sark",
      "name:ta": "சார்க்",
      "name:tr": "Sark",
      "name:uk": "Сарк",
      "name:vi": "Sark",
      "name:zh": "薩克島",
      "boundary": "administrative",
      "name:nov": "Sark",
      "name:nrm": "Ser",
      "name:sco": "Sark",
      "name:stq": "Sark",
      "name:vls": "Sark",
      "way_area": "0.000715043",
      "wikidata": "Q3405693",
      "wikipedia": "en:Sark",
      "admin_level": "4",
      "alt_name:gd": "Sarc",
      "alt_name:vi": "Sercq",
      "is_in:country": "Guernsey"
    }
  },
  {
    "osm_id": -1711291,
    "boundary": "administrative",
    "admin_level": 4,
    "parents": "-270009",
    "name": "Guernsey",
    "local_name": "Guernsey",
    "name_en": "Guernsey",
    "all_tags": {
      "name": "Guernsey",
      "name:ar": "غيرنزي",
      "name:be": "Гернсі",
      "name:en": "Guernsey",
      "name:eo": "Gvernsejo",
      "name:fa": "گرنزی",
      "name:fr": "Guernesey",
      "name:ks": "گرنزی",
      "name:lt": "Gernsis",
      "name:mk": "Гернзи",
      "name:pa": "ਗਰਨਜ਼ੇ",
      "name:ur": "گرنزی",
      "boundary": "administrative",
      "name:azb": "گرنزی",
      "name:kmr": "گوەرنسەی",
      "name:pnb": "گرنزی",
      "way_area": "0.00810677",
      "wikidata": "Q12348376",
      "admin_level": "4",
      "alt_name:el": "Γουερνισία",
      "alt_name2:el": "Λισία",
      "name:kk-Arab": "گەرنسىي",
      "name:ku-Arab": "گوەرنسەی",
      "is_in:country": "Guernsey",
      "name:be-tarask": "Гернсі"
    }
  }
]
