[
  {
    "osm_id": -1851752,
    "boundary": "administrative",
    "admin_level": 5,
    "parents": "-4496067,-192307",
    "name": "South Aegean",
    "local_name": "Περιφέρεια Νοτίου Αιγαίου",
    "name_en": "South Aegean",
    "all_tags": {
      "name": "Περιφέρεια Νοτίου Αιγαίου",
      "name:ca": "Perifèria de l'Egeu Meridional",
      "name:de": "Region Südliche Ägäis",
      "name:el": "Περιφέρεια Νοτίου Αιγαίου",
      "name:en": "South Aegean",
      "name:fr": "Égée-Méridionale",
      "name:hu": "Déli-Égei-szigetek",
      "name:nl": "Zuid-Egeïsche Eilanden",
      "name:pl": "Wyspy Egejskie Południowe",
      "name:ru": "периферия Южные Эгейские острова",
      "name:tr": "Güney Ege",
      "boundary": "administrative",
      "ref:nuts": "EL42",
      "way_area": "3.65401",
      "wikidata": "Q173616",
      "ISO3166-2": "GR-L",
      "wikipedia": "el:Περιφέρεια Νοτίου Αιγαίου",
      "population": "309015",
      "ref:nuts:2": "EL42",
      "admin_level": "5",
      "official_name:en": "Region of the Southern Aegean"
    }
  },
  {
    "osm_id": -1379347,
    "boundary": "administrative",
    "admin_level": 6,
    "parents": "-956701,-4458374,-192307",
    "name": "Grevena Regional Unit",
    "local_name": "Περιφερειακή Ενότητα Γρεβενών",
    "name_en": "Grevena Regional Unit",
    "all_tags": {
      "ref": "15",
      "name": "Περιφερειακή Ενότητα Γρεβενών",
      "name:ca": "Unitat perifèrica de Grevenà",
      "name:de": "Regionalbezirk Grevena",
      "name:el": "Περιφερειακή Ενότητα Γρεβενών",
      "name:en": "Grevena Regional Unit",
      "name:mk": "Гребенски округ",
      "name:ru": "периферийная единица Гревена",
      "website": "http://www.grevena.gov.gr/",
      "boundary": "administrative",
      "int_name": "Periferiaki Enotita Grevenon",
      "old_name": "Νομός Γρεβενών",
      "way_area": "0.242165",
      "wikidata": "Q209385",
      "wikipedia": "el:Νομός Γρεβενών",
      "population": "31757",
      "short_name": "Π.Ε. Γρεβενών",
      "admin_level": "6"
    }
  },
  {
    "osm_id": -958236,
    "boundary": "administrative",
    "admin_level": 5,
    "parents": "-4495677,-192307",
    "name": "Thessaly",
    "local_name": "Περιφέρεια Θεσσαλίας",
    "name_en": "Thessaly",
    "all_tags": {
      "name": "Περιφέρεια Θεσσαλίας",
      "name:ca": "Perifèria de Tessàlia",
      "name:de": "Region Thessalien",
      "name:el": "Περιφέρεια Θεσσαλίας",
      "name:en": "Thessaly",
      "name:fr": "Thessalie",
      "name:hu": "Thesszália",
      "name:lt": "Tesalijos periferija",
      "name:mk": "Тесалија",
      "name:nl": "Thessalië",
      "name:pl": "Region Tesalia",
      "name:ru": "периферия Фессалия",
      "boundary": "administrative",
      "ref:nuts": "EL61",
      "way_area": "1.96305",
      "wikidata": "Q22807284",
      "ISO3166-2": "GR-E",
      "wikipedia": "el:Περιφέρεια Θεσσαλίας",
      "population": "732762",
      "ref:nuts:2": "EL61",
      "admin_level": "5",
      "contact:website": "http://www.pthes.gov.gr/",
      "official_name:en": "Region of Thessaly"
    }
  },
  {
    "osm_id": -282436,
    "boundary": "administrative",
    "admin_level": 5,
    "parents": "-4496068,-192307",
    "name": "Region of Crete",
    "local_name": "Περιφέρεια Κρήτης",
    "name_en": "Region of Crete",
    "all_tags": {
      "name": "Περιφέρεια Κρήτης",
      "name:ar": "منطقة إقريطش",
      "name:ca": "Perifèria de Creta",
      "name:de": "Region Kreta",
      "name:el": "Περιφέρεια Κρήτης",
      "name:en": "Region of Crete",
      "name:fr": "Crète",
      "name:hu": "Kréta régió",
      "name:nl": "Kreta",
      "name:pl": "Region Kreta",
      "name:ru": "периферия Крит",
      "name:zh": "克里特大区",
      "boundary": "administrative",
      "ref:nuts": "EL43",
      "way_area": "1.74406",
      "wikidata": "Q1267522",
      "ISO3166-2": "GR-M",
      "wikipedia": "el:Περιφέρεια Κρήτης",
      "population": "623065",
      "ref:nuts:2": "EL43",
      "admin_level": "5",
      "alt_name:zh": "克里特",
      "contact:website": "http://www.crete.gov.gr",
      "official_name:en": "Region of Crete"
    }
  },
  {
    "osm_id": -554424,
    "boundary": "administrative",
    "admin_level": 5,
    "parents": "-4458374,-192307",
    "name": "Epirus",
    "local_name": "Περιφέρεια Ηπείρου",
    "name_en": "Epirus",
    "all_tags": {
      "name": "Περιφέρεια Ηπείρου",
      "name:ca": "Perifèria d'Epir",
      "name:de": "Region Epirus",
      "name:el": "Περιφέρεια Ηπείρου",
      "name:en": "Epirus",
      "name:fr": "Épire",
      "name:hu": "Epirusz",
      "name:nl": "Epirus",
      "name:pl": "Region Epir",
      "name:ru": "периферия Эпир",
      "website": "http://www.php.gov.gr/",
      "boundary": "administrative",
      "ref:nuts": "EL54",
      "way_area": "1.10788",
      "wikidata": "Q180484",
      "ISO3166-2": "GR-D",
      "wikipedia": "el:Περιφέρεια Ηπείρου",
      "population": "336856",
      "ref:nuts:2": "EL54",
      "admin_level": "5",
      "official_name:en": "Region of Epirus"
    }
  },
  {
    "osm_id": -956701,
    "boundary": "administrative",
    "admin_level": 5,
    "parents": "-4458374,-192307",
    "name": "Western Macedonia",
    "local_name": "Περιφέρεια Δυτικής Μακεδονίας",
    "name_en": "Western Macedonia",
    "all_tags": {
      "name": "Περιφέρεια Δυτικής Μακεδονίας",
      "name:ca": "Perifèria de Macedònia Occidental",
      "name:de": "Region Westmakedonien",
      "name:el": "Περιφέρεια Δυτικής Μακεδονίας",
      "name:en": "Western Macedonia",
      "name:fr": "Macédoine-Occidentale",
      "name:hu": "Nyugat-Makedónia",
      "name:mk": "Западна Македонија",
      "name:nl": "West-Macedonië",
      "name:pl": "Region Macedonia Zachodnia",
      "name:ru": "периферия Западная Македония",
      "boundary": "administrative",
      "ref:nuts": "EL53",
      "way_area": "1.00324",
      "wikidata": "Q165408",
      "ISO3166-2": "GR-C",
      "wikipedia": "el:Περιφέρεια Δυτικής Μακεδονίας",
      "population": "283689",
      "ref:nuts:2": "EL53",
      "admin_level": "5",
      "contact:website": "http://www.pdm.gov.gr/",
      "official_name:en": "Region of Western Macedonia"
    }
  },
  {
    "osm_id": -1360426,
    "boundary": "administrative",
    "admin_level": 6,
    "parents": "-957717,-4495892,-192307",
    "name": "Laconia Regional Unit",
    "local_name": "Περιφερειακή Ενότητα Λακωνίας",
    "name_en": "Laconia Regional Unit",
    "all_tags": {
      "name": "Περιφερειακή Ενότητα Λακωνίας",
      "name:ca": "Unitat perifèrica de Lacònia",
      "name:de": "Regionalbezirk Lakonien",
      "name:el": "Περιφερειακή Ενότητα Λακωνίας",
      "name:en": "Laconia Regional Unit",
      "name:fr": "Laconie",
      "name:it": "Unità periferica della Laconia",
      "name:mk": "Лаконија",
      "name:nl": "Laconië",
      "name:ru": "периферийная единица Лакония",
      "boundary": "administrative",
      "way_area": "0.783093",
      "wikidata": "Q190216",
      "admin_level": "6",
      "official_name:fr": "District régional de Laconie",
      "official_name:mk": "Лаконија Округ"
    }
  },
  {
    "osm_id": -5324202,
    "boundary": "administrative",
    "admin_level": 6,
    "parents": "-1851752,-4496067,-192307",
    "name": "Kalmynos Regional Unit",
    "local_name": "Περιφερειακή Ενότητα Καλύμνου",
    "name_en": "Kalmynos Regional Unit",
    "all_tags": {
      "name": "Περιφερειακή Ενότητα Καλύμνου",
      "name:ca": "Unitat perifèrica de Kàlimnos",
      "name:de": "Regionalbezirk Kalymnos",
      "name:el": "Περιφερειακή Ενότητα Καλύμνου",
      "name:en": "Kalmynos Regional Unit",
      "name:ru": "периферийная единица Калимнос",
      "boundary": "administrative",
      "way_area": "0.678569",
      "wikidata": "Q1541953",
      "admin_level": "6"
    }
  },
  {
    "osm_id": -956612,
    "boundary": "administrative",
    "admin_level": 6,
    "parents": "-910919,-4495892,-192307",
    "name": "Aetolia-Acarnania Regional Unit",
    "local_name": "Περιφερειακή Ενότητα Αιτωλοακαρνανίας",
    "name_en": "Aetolia-Acarnania Regional Unit",
    "all_tags": {
      "name": "Περιφερειακή Ενότητα Αιτωλοακαρνανίας",
      "name:ca": "Unitat perifèrica d'Etòlia-Acarnània",
      "name:de": "Regionalbezirk Ätolien-Akarnanien",
      "name:el": "Περιφερειακή Ενότητα Αιτωλοακαρνανίας",
      "name:en": "Aetolia-Acarnania Regional Unit",
      "name:ru": "периферийная единица Этолия и Акарнания",
      "boundary": "administrative",
      "way_area": "0.66905",
      "wikidata": "Q202624",
      "population": "223188",
      "admin_level": "6"
    }
  },
  {
    "osm_id": -5324258,
    "boundary": "administrative",
    "admin_level": 6,
    "parents": "-1851752,-4496067,-192307",
    "name": "Rhodes Regional Unit",
    "local_name": "Περιφερειακή Ενότητα Ρόδου",
    "name_en": "Rhodes Regional Unit",
    "all_tags": {
      "name": "Περιφερειακή Ενότητα Ρόδου",
      "name:ca": "Unitat perifèrica de Rodes",
      "name:de": "Regionalbezirk Rhodos",
      "name:el": "Περιφερειακή Ενότητα Ρόδου",
      "name:en": "Rhodes Regional Unit",
      "name:nl": "Rhodos",
      "name:ru": "периферийная единица Родос",
      "boundary": "administrative",
      "way_area": "0.558086",
      "wikidata": "Q1541945",
      "admin_level": "6"
    }
  },
  {
    "osm_id": -558486,
    "boundary": "administrative",
    "admin_level": 6,
    "parents": "-554424,-4458374,-192307",
    "name": "Ioannina Regional Unit",
    "local_name": "Περιφερειακή Ενότητα Ιωαννίνων",
    "name_en": "Ioannina Regional Unit",
    "all_tags": {
      "ref": "18",
      "name": "Περιφερειακή Ενότητα Ιωαννίνων",
      "name:ca": "Unitat perifèrica de Ioànnina",
      "name:de": "Regionalbezirk Ioannina",
      "name:el": "Περιφερειακή Ενότητα Ιωαννίνων",
      "name:en": "Ioannina Regional Unit",
      "name:ru": "периферийная единица Янина",
      "boundary": "administrative",
      "old_name": "Νομός Ιωαννίνων",
      "way_area": "0.525328",
      "wikidata": "Q212921",
      "wikipedia": "el:Νομός Ιωαννίνων",
      "population": "167901",
      "short_name": "Π.Ε. Ιωαννίνων",
      "admin_level": "6"
    }
  },
  {
    "osm_id": -563230,
    "boundary": "administrative",
    "admin_level": 6,
    "parents": "-937958,-5208399,-192307",
    "name": "Thessaloniki Regional Unit",
    "local_name": "Περιφερειακή Ενότητα Θεσσαλονίκης",
    "name_en": "Thessaloniki Regional Unit",
    "all_tags": {
      "name": "Περιφερειακή Ενότητα Θεσσαλονίκης",
      "name:ca": "Unitat perifèrica de Tessalònica",
      "name:de": "Regionalbezirk Thessaloniki",
      "name:el": "Περιφερειακή Ενότητα Θεσσαλονίκης",
      "name:en": "Thessaloniki Regional Unit",
      "name:mk": "Солунски округ",
      "name:ru": "периферийная единица Салоники",
      "alt_name": "Νομός Θεσσαλονίκης",
      "boundary": "administrative",
      "way_area": "0.452579",
      "wikidata": "Q210176",
      "wikipedia": "el:Νομός Θεσσαλονίκης",
      "population": "1110312",
      "admin_level": "6",
      "alt_name:el": "Θεσσαλονίκη",
      "alt_name:en": "Thessaloniki",
      "wikipedia:el": "Νομός Θεσσαλονίκης"
    }
  },
  {
    "osm_id": -5323612,
    "boundary": "administrative",
    "admin_level": 6,
    "parents": "-1851752,-4496067,-192307",
    "name": "Thira Regional Unit",
    "local_name": "Περιφερειακή Ενότητα Θήρας",
    "name_en": "Thira Regional Unit",
    "all_tags": {
      "name": "Περιφερειακή Ενότητα Θήρας",
      "name:ca": "Unitat perifèrica de Thira",
      "name:de": "Regionalbezirk Thira",
      "name:el": "Περιφερειακή Ενότητα Θήρας",
      "name:en": "Thira Regional Unit",
      "name:ru": "периферийная единица Тира (Санторини)",
      "boundary": "administrative",
      "way_area": "0.389543",
      "wikidata": "Q763524",
      "admin_level": "6",
      "alt_name:ca": "Unitat perifèrica de Santorini"
    }
  },
  {
    "osm_id": -938042,
    "boundary": "administrative",
    "admin_level": 6,
    "parents": "-937937,-5208399,-192307",
    "name": "Drama Regional Unit",
    "local_name": "Περιφερειακή Ενότητα Δράμας",
    "name_en": "Drama Regional Unit",
    "all_tags": {
      "name": "Περιφερειακή Ενότητα Δράμας",
      "name:ca": "Unitat perifèrica de Drama",
      "name:de": "Regionalbezirk Drama",
      "name:en": "Drama Regional Unit",
      "name:mk": "Драмски округ",
      "name:ru": "периферийная единица Драма",
      "boundary": "administrative",
      "way_area": "0.372747",
      "wikidata": "Q208606",
      "wikipedia": "el:Νομός Δράμας",
      "population": "106371",
      "admin_level": "6"
    }
  },
  {
    "osm_id": -956726,
    "boundary": "administrative",
    "admin_level": 6,
    "parents": "-956701,-4458374,-192307",
    "name": "Kozani Regional Unit",
    "local_name": "Περιφερειακή Ενότητα Κοζάνης",
    "name_en": "Kozani Regional Unit",
    "all_tags": {
      "ref": "14",
      "name": "Περιφερειακή Ενότητα Κοζάνης",
      "name:ca": "Unitat perifèrica de Kozani",
      "name:de": "Regionalbezirk Kozani",
      "name:el": "Περιφερειακή Ενότητα Κοζάνης",
      "name:en": "Kozani Regional Unit",
      "name:mk": "Кожански округ",
      "name:ru": "периферийная единица Козани",
      "website": "http://www.kozani.gr/",
      "boundary": "administrative",
      "old_name": "Νομός Κοζάνης",
      "way_area": "0.372587",
      "wikidata": "Q211732",
      "wikipedia": "el:Νομός Κοζάνης",
      "population": "150196",
      "short_name": "Π.Ε. Κοζάνης",
      "admin_level": "6"
    }
  },
  {
    "osm_id": -558521,
    "boundary": "administrative",
    "admin_level": 6,
    "parents": "-958236,-4495677,-192307",
    "name": "Trikala Regional Unit",
    "local_name": "Περιφερειακή Ενότητα Τρικάλων",
    "name_en": "Trikala Regional Unit",
    "all_tags": {
      "name": "Περιφερειακή Ενότητα Τρικάλων",
      "name:ca": "Unitat perifèrica de Trikala",
      "name:de": "Regionalbezirk Trikala",
      "name:el": "Περιφερειακή Ενότητα Τρικάλων",
      "name:en": "Trikala Regional Unit",
      "name:ru": "периферийная единица Трикала",
      "boundary": "administrative",
      "way_area": "0.355128",
      "wikidata": "Q17320461",
      "admin_level": "6"
    }
  },
  {
    "osm_id": -5323628,
    "boundary": "administrative",
    "admin_level": 6,
    "parents": "-1851752,-4496067,-192307",
    "name": "Naxos Regional Unit",
    "local_name": "Περιφερειακή Ενότητα Νάξου",
    "name_en": "Naxos Regional Unit",
    "all_tags": {
      "name": "Περιφερειακή Ενότητα Νάξου",
      "name:ca": "Unitat perifèrica de Naxos",
      "name:de": "Regionalbezirk Naxos",
      "name:el": "Περιφερειακή Ενότητα Νάξου",
      "name:en": "Naxos Regional Unit",
      "name:ru": "периферийная единица Наксос",
      "boundary": "administrative",
      "way_area": "0.349767",
      "wikidata": "Q546132",
      "admin_level": "6"
    }
  },
  {
    "osm_id": -5324274,
    "boundary": "administrative",
    "admin_level": 6,
    "parents": "-1851752,-4496067,-192307",
    "name": "Karpathos-Kasos Regional Unit",
    "local_name": "Περιφερειακή Ενότητα Καρπάθου-Ηρωικής Νήσου Κάσου",
    "name_en": "Karpathos-Kasos Regional Unit",
    "all_tags": {
      "name": "Περιφερειακή Ενότητα Καρπάθου-Ηρωικής Νήσου Κάσου",
      "name:ca": "Unitat perifèrica de Càrpatos",
      "name:de": "Regionalbezirk Karpathos-Kasos",
      "name:el": "Περιφερειακή Ενότητα Καρπάθου-Ηρωικής Νήσου Κάσου",
      "name:en": "Karpathos-Kasos Regional Unit",
      "name:ru": "периферийная единица Карпатос",
      "boundary": "administrative",
      "old_name": "Περιφερειακή Ενότητα Καρπάθου",
      "way_area": "0.341402",
      "wikidata": "Q1246141",
      "admin_level": "6",
      "old_name:de": "Regionalbezirk Karpathos",
      "old_name:el": "Περιφερειακή Ενότητα Καρπάθου",
      "old_name:en": "Karpathos Regional Unit"
    }
  },
  {
    "osm_id": -5323577,
    "boundary": "administrative",
    "admin_level": 6,
    "parents": "-1851752,-4496067,-192307",
    "name": "Milos Regional Unit",
    "local_name": "Περιφερειακή Ενότητα Μήλου",
    "name_en": "Milos Regional Unit",
    "all_tags": {
      "name": "Περιφερειακή Ενότητα Μήλου",
      "name:ca": "Unitat perifèrica de Melos",
      "name:de": "Regionalbezirk Milos",
      "name:el": "Περιφερειακή Ενότητα Μήλου",
      "name:en": "Milos Regional Unit",
      "name:ru": "периферийная единица Милос",
      "boundary": "administrative",
      "way_area": "0.333417",
      "wikidata": "Q737908",
      "admin_level": "6",
      "alt_name:ca": "Unitat perifèrica de Milos"
    }
  },
  {
    "osm_id": -939214,
    "boundary": "administrative",
    "admin_level": 6,
    "parents": "-937937,-5208399,-192307",
    "name": "Rodopi Regional Unit",
    "local_name": "Περιφερειακή Ενότητα Ροδόπης",
    "name_en": "Rodopi Regional Unit",
    "all_tags": {
      "name": "Περιφερειακή Ενότητα Ροδόπης",
      "name:ca": "Unitat perifèrica de Ròdope",
      "name:de": "Regionalbezirk Rodopi",
      "name:en": "Rodopi Regional Unit",
      "name:mk": "Родопски округ",
      "name:ru": "периферийная единица Родопи",
      "boundary": "administrative",
      "way_area": "0.321221",
      "wikidata": "Q208604",
      "wikipedia": "el:Νομός Ροδόπης",
      "population": "112883",
      "admin_level": "6"
    }
  },
  {
    "osm_id": -4477554,
    "boundary": "administrative",
    "admin_level": 6,
    "parents": "-957716,-4477553,-192307",
    "name": "Regional Unit of East Attica",
    "local_name": "Περιφερειακή Ενότητα Ανατολικής Αττικής",
    "name_en": "Regional Unit of East Attica",
    "all_tags": {
      "ref": "49",
      "name": "Περιφερειακή Ενότητα Ανατολικής Αττικής",
      "name:ca": "Unitat perifèrica d'Àtica Oriental",
      "name:de": "Regionalbezirk Ostattika",
      "name:el": "Περιφερειακή Ενότητα Ανατολικής Αττικής",
      "name:en": "Regional Unit of East Attica",
      "name:ru": "периферийная единица Восточная Аттика",
      "boundary": "administrative",
      "way_area": "0.280782",
      "wikidata": "Q211934",
      "ISO3166-2": "GR-A2",
      "population": "502348",
      "short_name": "Π.Ε. Ανατολικής Αττικής",
      "admin_level": "6"
    }
  },
  {
    "osm_id": -563226,
    "boundary": "administrative",
    "admin_level": 6,
    "parents": "-937958,-5208399,-192307",
    "name": "Pieria Regional Unit",
    "local_name": "Περιφερειακή Ενότητα Πιερίας",
    "name_en": "Pieria Regional Unit",
    "all_tags": {
      "name": "Περιφερειακή Ενότητα Πιερίας",
      "name:ca": "Unitat perifèrica de Pieria",
      "name:de": "Regionalbezirk Pieria",
      "name:el": "Περιφερειακή Ενότητα Πιερίας",
      "name:en": "Pieria Regional Unit",
      "name:mk": "Пиериски округ",
      "name:ru": "периферийная единица Пиерия",
      "boundary": "administrative",
      "way_area": "0.216709",
      "wikidata": "Q208846",
      "wikipedia": "el:Περιφερειακή Ενότητα Πιερίας",
      "population": "134739",
      "admin_level": "6"
    }
  },
  {
    "osm_id": -956714,
    "boundary": "administrative",
    "admin_level": 6,
    "parents": "-956701,-4458374,-192307",
    "name": "Florina Regional Unit",
    "local_name": "Περιφερεική Ενότητα Φλώρινας",
    "name_en": "Florina Regional Unit",
    "all_tags": {
      "ref": "17",
      "name": "Περιφερεική Ενότητα Φλώρινας",
      "name:ca": "Unitat perifèrica de Flórina",
      "name:de": "Regionalbezirk Florina",
      "name:el": "Περιφερειακή Ενότητα Φλώρινας",
      "name:en": "Florina Regional Unit",
      "name:mk": "Лерински округ",
      "name:ru": "периферийная единица Флорина",
      "website": "http://www.florina.gr/",
      "boundary": "administrative",
      "int_name": "Periferiaki Enotita Florinas",
      "old_name": "Νομός Φλώρινας",
      "way_area": "0.205404",
      "wikidata": "Q211314",
      "wikipedia": "el:Νομός Φλώρινας",
      "population": "51414",
      "short_name": "Π.Ε. Φλώρινας",
      "admin_level": "6"
    }
  },
  {
    "osm_id": -937635,
    "boundary": "administrative",
    "admin_level": 6,
    "parents": "-957717,-4495892,-192307",
    "name": "Argolis Regional Unit",
    "local_name": "Περιφερειακή Ενότητα Αργολίδος",
    "name_en": "Argolis Regional Unit",
    "all_tags": {
      "name": "Περιφερειακή Ενότητα Αργολίδος",
      "name:ca": "Unitat perifèrica d'Argòlida",
      "name:de": "Regionalbezirk Argolis",
      "name:el": "Περιφερειακή Ενότητα Αργολίδος",
      "name:en": "Argolis Regional Unit",
      "name:fr": "Argolide",
      "name:mk": "Арголида",
      "name:ru": "периферийная единица Арголида",
      "boundary": "administrative",
      "way_area": "0.29133",
      "wikidata": "Q191897",
      "wikipedia": "en:Argolis",
      "population": "97044",
      "admin_level": "6",
      "official_name:fr": "District régional de Argolide",
      "official_name:mk": "Арголида Округ"
    }
  },
  {
    "osm_id": -557547,
    "boundary": "administrative",
    "admin_level": 6,
    "parents": "-910915,-4495677,-192307",
    "name": "Regional Unit of Phocis",
    "local_name": "Περιφερειακή Ενότητα Φωκίδας",
    "name_en": "Regional Unit of Phocis",
    "all_tags": {
      "ref": "31",
      "name": "Περιφερειακή Ενότητα Φωκίδας",
      "name:ca": "Unitat perifèrica de Fòcida",
      "name:de": "Regionalbezirk Fokida",
      "name:el": "Περιφερειακή Ενότητα Φωκίδας",
      "name:en": "Regional Unit of Phocis",
      "name:ru": "периферийная единица Фокида",
      "boundary": "administrative",
      "way_area": "0.291807",
      "wikidata": "Q19890323",
      "population": "40343",
      "admin_level": "6"
    }
  },
  {
    "osm_id": -956611,
    "boundary": "administrative",
    "admin_level": 6,
    "parents": "-957830,-4495892,-192307",
    "name": "Lefkada Regional Unit",
    "local_name": "Περιφερειακή Ενότητα Λευκάδας",
    "name_en": "Lefkada Regional Unit",
    "all_tags": {
      "name": "Περιφερειακή Ενότητα Λευκάδας",
      "name:ca": "Unitat perifèrica de Lèucada",
      "name:de": "Regionalbezirk Lefkada",
      "name:el": "Περιφερειακή Ενότητα Λευκάδας",
      "name:en": "Lefkada Regional Unit",
      "name:ru": "периферийная единица Лефкас",
      "boundary": "administrative",
      "way_area": "0.202165",
      "wikidata": "Q1248071",
      "population": "22879",
      "admin_level": "6"
    }
  },
  {
    "osm_id": -558485,
    "boundary": "administrative",
    "admin_level": 6,
    "parents": "-554424,-4458374,-192307",
    "name": "Arta Regional Unit",
    "local_name": "Περιφερειακή Ενότητα Άρτας",
    "name_en": "Arta Regional Unit",
    "all_tags": {
      "ref": "19",
      "name": "Περιφερειακή Ενότητα Άρτας",
      "name:ca": "Unitat perifèrica d'Arta",
      "name:de": "Regionalbezirk Arta",
      "name:el": "Περιφερειακή Ενότητα Άρτας",
      "name:en": "Arta Regional Unit",
      "name:ru": "периферийная единица Арта",
      "website": "http://www.peartas.gov.gr/",
      "boundary": "administrative",
      "old_name": "Νομός Άρτας",
      "way_area": "0.185556",
      "wikidata": "Q209149",
      "wikipedia": "el:Νομός Άρτας",
      "population": "67877",
      "short_name": "Π.Ε. Άρτας",
      "admin_level": "6"
    }
  },
  {
    "osm_id": -1845173,
    "boundary": "administrative",
    "admin_level": 6,
    "parents": "-958517,-4496067,-192307",
    "name": "Samos Regional Unit",
    "local_name": "Περιφερειακή Ενότητα Σάμου",
    "name_en": "Samos Regional Unit",
    "all_tags": {
      "name": "Περιφερειακή Ενότητα Σάμου",
      "name:ca": "Unitat perifèrica de Samos",
      "name:de": "Regionalbezirk Samos",
      "name:el": "Περιφερειακή Ενότητα Σάμου",
      "name:en": "Samos Regional Unit",
      "name:ru": "периферийная единица Самос",
      "boundary": "administrative",
      "way_area": "0.156766",
      "wikidata": "Q214208",
      "wikipedia": "el:Νομός Σάμου",
      "admin_level": "6"
    }
  },
  {
    "osm_id": -5323832,
    "boundary": "administrative",
    "admin_level": 6,
    "parents": "-1851752,-4496067,-192307",
    "name": "Syros Regional Unit",
    "local_name": "Περιφερειακή Ενότητα Σύρου",
    "name_en": "Syros Regional Unit",
    "all_tags": {
      "name": "Περιφερειακή Ενότητα Σύρου",
      "name:ca": "Unitat perifèrica de Siros",
      "name:de": "Regionalbezirk Syros",
      "name:el": "Περιφερειακή Ενότητα Σύρου",
      "name:en": "Syros Regional Unit",
      "name:ru": "периферийная единица Сирос",
      "boundary": "administrative",
      "way_area": "0.137315",
      "wikidata": "Q11723845",
      "admin_level": "6"
    }
  },
  {
    "osm_id": -5324075,
    "boundary": "administrative",
    "admin_level": 6,
    "parents": "-1851752,-4496067,-192307",
    "name": "Tinos Regional Unit",
    "local_name": "Περιφερειακή Ενότητα Τήνου",
    "name_en": "Tinos Regional Unit",
    "all_tags": {
      "name": "Περιφερειακή Ενότητα Τήνου",
      "name:ca": "Unitat perifèrica de Tinos",
      "name:de": "Regionalbezirk Tinos",
      "name:en": "Tinos Regional Unit",
      "name:ru": "периферийная единица Тинос",
      "boundary": "administrative",
      "way_area": "0.0848541",
      "wikidata": "Q211285",
      "admin_level": "6",
      "alt_name:ca": "Unitat perifèrica de Tenos"
    }
  },
  {
    "osm_id": -5225311,
    "boundary": "administrative",
    "admin_level": 6,
    "parents": "-957830,-4495892,-192307",
    "name": "Ithaca Regional Unit",
    "local_name": "Περιφερειακή Ενότητα Ιθάκης",
    "name_en": "Ithaca Regional Unit",
    "all_tags": {
      "name": "Περιφερειακή Ενότητα Ιθάκης",
      "name:ca": "Unitat perifèrica d'Ítaca",
      "name:de": "Regionalbezirk Ithaka",
      "name:el": "Περιφερειακή Ενότητα Ιθάκης",
      "name:en": "Ithaca Regional Unit",
      "name:ru": "периферийная единица Итака",
      "boundary": "administrative",
      "way_area": "0.0846936",
      "wikidata": "Q17233268",
      "admin_level": "6"
    }
  },
  {
    "osm_id": -5207386,
    "boundary": "administrative",
    "admin_level": 6,
    "parents": "-957830,-4495892,-192307",
    "name": "Zakynthos Regional Unit",
    "local_name": "Περιφερειακή Ενότητα Ζακύνθου",
    "name_en": "Zakynthos Regional Unit",
    "all_tags": {
      "name": "Περιφερειακή Ενότητα Ζακύνθου",
      "name:ca": "Unitat perifèrica de Zacint",
      "name:de": "Regionalbezirk Zakynthos",
      "name:el": "Περιφερειακή Ενότητα Ζακύνθου",
      "name:en": "Zakynthos Regional Unit",
      "name:ru": "периферийная единица Закинф",
      "boundary": "administrative",
      "way_area": "0.483707",
      "wikidata": "Q144880",
      "admin_level": "6"
    }
  },
  {
    "osm_id": -957717,
    "boundary": "administrative",
    "admin_level": 5,
    "parents": "-4495892,-192307",
    "name": "Peloponnese Region",
    "local_name": "Περιφέρεια Πελοποννήσου",
    "name_en": "Peloponnese Region",
    "all_tags": {
      "name": "Περιφέρεια Πελοποννήσου",
      "name:br": "Peloponnez",
      "name:ca": "Perifèria del Peloponès",
      "name:de": "Region Peloponnes",
      "name:el": "Περιφέρεια Πελοποννήσου",
      "name:en": "Peloponnese Region",
      "name:fr": "Péloponnèse Région",
      "name:hu": "Peloponnészosz",
      "name:ku": "Pelopones",
      "name:mk": "Пелопонез област",
      "name:nl": "Peloponnesos regio",
      "name:pl": "Region Peloponez",
      "name:ru": "периферия Пелопоннес",
      "name:zh": "伯罗奔尼撒大区",
      "boundary": "administrative",
      "ref:nuts": "EL65",
      "way_area": "2.64445",
      "wikidata": "Q202484",
      "ISO3166-2": "GR-J",
      "wikipedia": "el:Περιφέρεια Πελοποννήσου",
      "population": "577903",
      "ref:nuts:2": "EL65",
      "admin_level": "5",
      "alt_name:zh": "伯罗奔尼撒",
      "contact:website": "https://ppel.gov.gr/",
      "official_name:en": "Region of the Peloponnese",
      "official_name:fr": "Périphérie du Péloponnèse",
      "official_name:mk": "Пелопонез Област"
    }
  },
  {
    "osm_id": -937632,
    "boundary": "administrative",
    "admin_level": 6,
    "parents": "-957717,-4495892,-192307",
    "name": "Arcadia Regional Unit",
    "local_name": "Περιφερειακή Ενότητα Αρκαδίας",
    "name_en": "Arcadia Regional Unit",
    "all_tags": {
      "name": "Περιφερειακή Ενότητα Αρκαδίας",
      "name:ca": "Unitat perifèrica d'Arcàdia",
      "name:de": "Regionalbezirk Arkadien",
      "name:el": "Περιφερειακή Ενότητα Αρκαδίας",
      "name:en": "Arcadia Regional Unit",
      "name:fr": "Arcadie",
      "name:mk": "Аркадија",
      "name:nl": "Arcadië",
      "name:ru": "периферийная единица Аркадия",
      "boundary": "administrative",
      "way_area": "0.503465",
      "wikidata": "Q170054",
      "admin_level": "6",
      "official_name:fr": "District régional d’Arcadie",
      "official_name:mk": "Аркадија Округ"
    }
  },
  {
    "osm_id": -957830,
    "boundary": "administrative",
    "admin_level": 5,
    "parents": "-4495892,-192307",
    "name": "Ioanian Islands",
    "local_name": "Περιφέρεια Ιονίων Νήσων",
    "name_en": "Ioanian Islands",
    "all_tags": {
      "name": "Περιφέρεια Ιονίων Νήσων",
      "name:ca": "Perifèria de les Illes Jòniques",
      "name:de": "Region der Ionischen Inseln",
      "name:el": "Περιφέρεια Ιονίων Νήσων",
      "name:en": "Ioanian Islands",
      "name:fr": "Îles Ioniennes",
      "name:hu": "Jón-szigetek",
      "name:pl": "Region Wyspy Jońskie",
      "name:ru": "периферия Ионические острова",
      "alt_name": "Περιφέρεια Ιονίων Νησιών",
      "boundary": "administrative",
      "ref:nuts": "EL62",
      "way_area": "1.82823",
      "wikidata": "Q1147674",
      "ISO3166-2": "GR-F",
      "wikipedia": "el:Περιφέρεια Ιονίων Νήσων",
      "population": "207855",
      "ref:nuts:2": "EL62",
      "admin_level": "5",
      "official_name": "Περιφέρεια Ιονίων Νήσων",
      "contact:website": "http://pin.gov.gr",
      "official_name:en": "Region of the Ionian Islands"
    }
  },
  {
    "osm_id": -957829,
    "boundary": "administrative",
    "admin_level": 6,
    "parents": "-957830,-4495892,-192307",
    "name": "Kefallonia Regional Unit",
    "local_name": "Περιφερειακή Ενότητα Κεφαλληνίας",
    "name_en": "Kefallonia Regional Unit",
    "all_tags": {
      "name": "Περιφερειακή Ενότητα Κεφαλληνίας",
      "name:ca": "Unitat perifèrica de Cefalònia",
      "name:de": "Regionalbezirk Kefalonia",
      "name:el": "Περιφερειακή Ενότητα Κεφαλληνίας",
      "name:en": "Kefallonia Regional Unit",
      "name:ru": "периферийная единица Кефалиния",
      "boundary": "administrative",
      "way_area": "0.350727",
      "wikidata": "Q178488",
      "population": "42088",
      "admin_level": "6"
    }
  },
  {
    "osm_id": -910919,
    "boundary": "administrative",
    "admin_level": 5,
    "parents": "-4495892,-192307",
    "name": "Western Greece",
    "local_name": "Περιφέρεια Δυτικής Ελλάδας",
    "name_en": "Western Greece",
    "all_tags": {
      "name": "Περιφέρεια Δυτικής Ελλάδας",
      "name:ar": "غرب اليونان",
      "name:ca": "Perifèria de Grècia Occidental",
      "name:de": "Region Westgriechenland",
      "name:el": "Περιφέρεια Δυτικής Ελλάδας",
      "name:en": "Western Greece",
      "name:fr": "Grèce-Occidentale",
      "name:hu": "Nyugat-Görögország",
      "name:mk": "Западна Грција",
      "name:nl": "West-Griekenland",
      "name:pl": "Region Grecja Zachodnia",
      "name:ru": "периферия Западная Греция",
      "boundary": "administrative",
      "ref:nuts": "EL63",
      "way_area": "1.60999",
      "wikidata": "Q170291",
      "ISO3166-2": "GR-G",
      "wikipedia": "el:Περιφέρεια Δυτικής Ελλάδας",
      "population": "679796",
      "ref:nuts:2": "EL63",
      "admin_level": "5",
      "contact:website": "http://www.pde.gov.gr",
      "official_name:ar": "إقليم غرب اليونان",
      "official_name:en": "Region of Western Greece",
      "official_name:fr": "Périphérie de Grèce-Occidentale",
      "official_name:mk": "Западна Грција Област"
    }
  },
  {
    "osm_id": -937628,
    "boundary": "administrative",
    "admin_level": 6,
    "parents": "-910919,-4495892,-192307",
    "name": "Achaea Regional Unit",
    "local_name": "Περιφερειακή Ενότητα Αχαΐας",
    "name_en": "Achaea Regional Unit",
    "all_tags": {
      "name": "Περιφερειακή Ενότητα Αχαΐας",
      "name:ar": "آخايا",
      "name:ca": "Unitat perifèrica d'Acaia",
      "name:de": "Regionalbezirk Achaia",
      "name:el": "Περιφερειακή Ενότητα Αχαΐας",
      "name:en": "Achaea Regional Unit",
      "name:fr": "Achaïe",
      "name:mk": "Ахаја",
      "name:ru": "периферийная единица Ахайя",
      "boundary": "administrative",
      "way_area": "0.414557",
      "wikidata": "Q2495811",
      "population": "331316",
      "admin_level": "6",
      "official_name:ar": "الوحدة الاقليمية آخايا",
      "official_name:fr": "District régional d’Achaïe",
      "official_name:mk": "Αχαΐα Округ"
    }
  },
  {
    "osm_id": -959069,
    "boundary": "administrative",
    "admin_level": 6,
    "parents": "-910915,-4495677,-192307",
    "name": "Regional Unit of Evrytania",
    "local_name": "Περιφερειακή Ενότητα Ευρυτανίας",
    "name_en": "Regional Unit of Evrytania",
    "all_tags": {
      "ref": "30",
      "name": "Περιφερειακή Ενότητα Ευρυτανίας",
      "name:ca": "Unitat perifèrica d'Evritania",
      "name:de": "Regionalbezirk Evrytania",
      "name:el": "Περιφερειακή Ενότητα Ευρυτανίας",
      "name:en": "Regional Unit of Evrytania",
      "name:ru": "периферийная единица Эвритания",
      "boundary": "administrative",
      "way_area": "0.194416",
      "wikidata": "Q11723827",
      "population": "20081",
      "admin_level": "6"
    }
  },
  {
    "osm_id": -554400,
    "boundary": "administrative",
    "admin_level": 6,
    "parents": "-958236,-4495677,-192307",
    "name": "Karditsa Regional Unit",
    "local_name": "Περιφερειακή Ενότητα Καρδίτσας",
    "name_en": "Karditsa Regional Unit",
    "all_tags": {
      "name": "Περιφερειακή Ενότητα Καρδίτσας",
      "name:ca": "Unitat perifèrica de Karditsa",
      "name:de": "Regionalbezirk Karditsa",
      "name:el": "Περιφερειακή Ενότητα Καρδίτσας",
      "name:en": "Karditsa Regional Unit",
      "name:ru": "периферийная единица Кардица",
      "boundary": "administrative",
      "way_area": "0.275521",
      "wikidata": "Q212810",
      "admin_level": "6"
    }
  },
  {
    "osm_id": -1369501,
    "boundary": "administrative",
    "admin_level": 6,
    "parents": "-957830,-4495892,-192307",
    "name": "Corfu Regional Unit",
    "local_name": "Περιφερειακή Ενότητα Κέρκυρας",
    "name_en": "Corfu Regional Unit",
    "all_tags": {
      "name": "Περιφερειακή Ενότητα Κέρκυρας",
      "name:ca": "Unitat perifèrica de Corfú",
      "name:de": "Regionalbezirk Korfu",
      "name:el": "Περιφερειακή Ενότητα Κέρκυρας",
      "name:en": "Corfu Regional Unit",
      "name:ru": "периферийная единица Керкира",
      "boundary": "administrative",
      "way_area": "0.639271",
      "wikidata": "Q842235",
      "wikipedia": "el:Νομός Κέρκυρας",
      "population": "113658",
      "admin_level": "6"
    }
  },
  {
    "osm_id": -956817,
    "boundary": "administrative",
    "admin_level": 6,
    "parents": "-937958,-5208399,-192307",
    "name": "Pella Regional Unit",
    "local_name": "Περιφερειακή Ενότητα Πέλλας",
    "name_en": "Pella Regional Unit",
    "all_tags": {
      "name": "Περιφερειακή Ενότητα Πέλλας",
      "name:ca": "Unitat perifèrica de Pel·la",
      "name:de": "Regionalbezirk Pella",
      "name:el": "Περιφερειακή Ενότητα Πέλλας",
      "name:en": "Pella Regional Unit",
      "name:mk": "Постолски округ",
      "name:ru": "периферийная единица Пелла",
      "boundary": "administrative",
      "way_area": "0.267755",
      "wikidata": "Q649484",
      "wikipedia": "el:Νομός Πέλλας",
      "population": "148190",
      "admin_level": "6"
    }
  },
  {
    "osm_id": -554693,
    "boundary": "administrative",
    "admin_level": 6,
    "parents": "-282436,-4496068,-192307",
    "name": "Rethymno Regional Unit",
    "local_name": "Περιφερειακή Ενότητα Ρεθύμνης",
    "name_en": "Rethymno Regional Unit",
    "all_tags": {
      "area": "yes",
      "name": "Περιφερειακή Ενότητα Ρεθύμνης",
      "name:ar": "مقاطعة ريثيمنو",
      "name:ca": "Unitat perifèrica de Réthimno",
      "name:de": "Regionalbezirk Rethymno",
      "name:el": "Περιφερειακή Ενότητα Ρεθύμνης",
      "name:en": "Rethymno Regional Unit",
      "name:ru": "периферийная единица Ретимни",
      "boundary": "administrative",
      "way_area": "0.255089",
      "wikidata": "Q210446",
      "wikipedia": "el:Νομός Ρεθύμνης",
      "admin_level": "6"
    }
  },
  {
    "osm_id": -554686,
    "boundary": "administrative",
    "admin_level": 6,
    "parents": "-282436,-4496068,-192307",
    "name": "Heraklion Regional Unit",
    "local_name": "Περιφερειακή Ενότητα Ηρακλείου",
    "name_en": "Heraklion Regional Unit",
    "all_tags": {
      "name": "Περιφερειακή Ενότητα Ηρακλείου",
      "name:ca": "Unitat perifèrica d'Iràklio",
      "name:de": "Regionalbezirk Iraklio",
      "name:el": "Περιφερειακή Ενότητα Ηρακλείου",
      "name:en": "Heraklion Regional Unit",
      "name:ru": "периферийная единица Ираклион",
      "boundary": "administrative",
      "way_area": "0.433103",
      "wikidata": "Q210457",
      "wikipedia": "el:Νομός Ηρακλείου",
      "admin_level": "6"
    }
  },
  {
    "osm_id": -4477553,
    "boundary": "administrative",
    "admin_level": 4,
    "parents": "-192307",
    "name": "Attica",
    "local_name": "Αποκεντρωμένη Διοίκηση Αττικής",
    "name_en": "Attica",
    "all_tags": {
      "name": "Αποκεντρωμένη Διοίκηση Αττικής",
      "name:bg": "Атика",
      "name:ca": "Àtica",
      "name:de": "Attika",
      "name:el": "Αποκεντρωμένη Διοίκηση Αττικής",
      "name:en": "Attica",
      "name:fr": "Attique",
      "name:mk": "Атика",
      "name:nl": "Attica",
      "name:pl": "Attyka",
      "name:ru": "Аттика",
      "name:tr": "Attika",
      "boundary": "administrative",
      "way_area": "1.10706",
      "wikidata": "Q9161823",
      "wikipedia": "el:Αποκεντρωμένη Διοίκηση Αττικής",
      "population": "3828434",
      "admin_level": "4",
      "alt_name:ca": "Administració descentralitzada d’Àtica",
      "official_name": "Αποκεντρωμένη Διοίκηση Αττικής",
      "contact:website": "http://www.apdattikis.gov.gr/",
      "official_name:bg": "Децентрализирано администриране Атика",
      "official_name:ca": "Administració descentralitzada de Àtica",
      "official_name:de": "Dezentralisierte Verwaltung Attika",
      "official_name:el": "Αποκεντρωμένη Διοίκηση Αττικής",
      "official_name:en": "Decentralized Administration of Attica",
      "official_name:fr": "Diocèse décentralisé de l'Attique",
      "official_name:mk": "Децентрализирана администрација Атика",
      "official_name:pl": "Administracja Attyka",
      "official_name:ru": "Децентрализованная администрация Аттики",
      "official_name:tr": "Attika Merkezi Olmayan Idaresi"
    }
  },
  {
    "osm_id": -937627,
    "boundary": "administrative",
    "admin_level": 6,
    "parents": "-957717,-4495892,-192307",
    "name": "Corinthia Regional Unit",
    "local_name": "Περιφερειακή Ενότητα Κορινθίας",
    "name_en": "Corinthia Regional Unit",
    "all_tags": {
      "name": "Περιφερειακή Ενότητα Κορινθίας",
      "name:ca": "Unitat perifèrica de Coríntia",
      "name:de": "Regionalbezirk Korinthia",
      "name:el": "Περιφερειακή Ενότητα Κορινθίας",
      "name:en": "Corinthia Regional Unit",
      "name:fr": "Corinthie",
      "name:mk": "Коринтија",
      "name:nl": "Korinthe",
      "name:ru": "периферийная единица Коринфия",
      "boundary": "administrative",
      "way_area": "0.340504",
      "wikidata": "Q208306",
      "admin_level": "6",
      "official_name:fr": "District régional de Corinthie",
      "official_name:mk": "Коринтија Округ"
    }
  },
  {
    "osm_id": -5324073,
    "boundary": "administrative",
    "admin_level": 6,
    "parents": "-1851752,-4496067,-192307",
    "name": "Andros Regional Unit",
    "local_name": "Περιφερειακή Ενότητα Άνδρου",
    "name_en": "Andros Regional Unit",
    "all_tags": {
      "name": "Περιφερειακή Ενότητα Άνδρου",
      "name:ca": "Unitat perifèrica d'Andros",
      "name:de": "Regionalbezirk Andros",
      "name:el": "Περιφερειακή Ενότητα Άνδρου",
      "name:en": "Andros Regional Unit",
      "name:ru": "периферийная единица Андрос",
      "boundary": "administrative",
      "way_area": "0.141165",
      "wikidata": "Q19896683",
      "admin_level": "6"
    }
  },
  {
    "osm_id": -557546,
    "boundary": "administrative",
    "admin_level": 6,
    "parents": "-910915,-4495677,-192307",
    "name": "Regional Unit of Boeotia",
    "local_name": "Περιφερειακή Ενότητα Βοιωτίας",
    "name_en": "Regional Unit of Boeotia",
    "all_tags": {
      "ref": "28",
      "name": "Περιφερειακή Ενότητα Βοιωτίας",
      "name:ca": "Unitat perifèrica de Beòcia",
      "name:de": "Regionalbezirk Böotien",
      "name:el": "Περιφερειακή Ενότητα Βοιωτίας",
      "name:en": "Regional Unit of Boeotia",
      "name:nl": "Boeotië",
      "name:ru": "периферийная единица Беотия",
      "boundary": "administrative",
      "way_area": "0.355618",
      "wikidata": "Q8257871",
      "population": "117920",
      "admin_level": "6"
    }
  },
  {
    "osm_id": -910915,
    "boundary": "administrative",
    "admin_level": 5,
    "parents": "-4495677,-192307",
    "name": "Central Greece",
    "local_name": "Περιφέρεια Στερεάς Ελλάδος",
    "name_en": "Central Greece",
    "all_tags": {
      "name": "Περιφέρεια Στερεάς Ελλάδος",
      "name:ca": "Perifèria de Grècia Central",
      "name:de": "Region Mittelgriechenland",
      "name:el": "Περιφέρεια Στερεάς Ελλάδος",
      "name:en": "Central Greece",
      "name:fr": "Grèce-Centrale",
      "name:hu": "Szárazföldi Görögország",
      "name:lt": "Centrinės Graikijos periferija",
      "name:nl": "Centraal-Griekenland",
      "name:pl": "Region Grecja Środkowa",
      "name:ru": "периферия Центральная Греция",
      "boundary": "administrative",
      "ref:nuts": "EL64",
      "way_area": "2.32026",
      "wikidata": "Q199580",
      "ISO3166-2": "GR-H",
      "wikipedia": "el:Περιφέρεια Στερεάς Ελλάδας",
      "population": "547390",
      "ref:nuts:2": "EL64",
      "admin_level": "5",
      "contact:website": "http://www.pste.gov.gr",
      "official_name:en": "Region of Central Greece"
    }
  },
  {
    "osm_id": -2607262,
    "boundary": "administrative",
    "admin_level": 6,
    "parents": "-957716,-4477553,-192307",
    "name": "Regional Unit of North Athens",
    "local_name": "Περιφερειακή Ενότητα Βορείου Τομέα Αθηνών",
    "name_en": "Regional Unit of North Athens",
    "all_tags": {
      "ref": "46",
      "name": "Περιφερειακή Ενότητα Βορείου Τομέα Αθηνών",
      "name:ca": "Unitat perifèrica d'Atenes Septentrional",
      "name:de": "Regionalbezirk Athen-Nord",
      "name:el": "Περιφερειακή Ενότητα Βορείου Τομέα Αθηνών",
      "name:en": "Regional Unit of North Athens",
      "name:ru": "периферийная единица Северные Афины",
      "boundary": "administrative",
      "way_area": "0.0140282",
      "wikidata": "Q755165",
      "wikipedia": "el:Περιφερειακή Ενότητα Βορείου Τομέα Αθηνών",
      "population": "592490",
      "short_name": "Π.Ε. Βορείου Τομέα Αθηνών",
      "admin_level": "6"
    }
  },
  {
    "osm_id": -554405,
    "boundary": "administrative",
    "admin_level": 6,
    "parents": "-910915,-4495677,-192307",
    "name": "Phthiotis Regional Unit",
    "local_name": "Περιφερειακή Ενότητα Φθιώτιδας",
    "name_en": "Phthiotis Regional Unit",
    "all_tags": {
      "ref": "27",
      "name": "Περιφερειακή Ενότητα Φθιώτιδας",
      "name:ca": "Unitat perifèrica de Ftiòtida",
      "name:de": "Regionalbezirk Fthiotida",
      "name:el": "Περιφερειακή Ενότητα Φθιώτιδας",
      "name:en": "Phthiotis Regional Unit",
      "name:ru": "периферийная единица Фтиотида",
      "boundary": "administrative",
      "way_area": "0.534183",
      "wikidata": "Q207554",
      "population": "158231",
      "admin_level": "6"
    }
  },
  {
    "osm_id": -958517,
    "boundary": "administrative",
    "admin_level": 5,
    "parents": "-4496067,-192307",
    "name": "Northern Aegean",
    "local_name": "Περιφέρεια Βόρειου Αιγαίου",
    "name_en": "Northern Aegean",
    "all_tags": {
      "name": "Περιφέρεια Βόρειου Αιγαίου",
      "name:ca": "Perifèria de l'Egeu Septentrional",
      "name:de": "Region Nördliche Ägäis",
      "name:el": "Περιφέρεια Βόρειου Αιγαίου",
      "name:en": "Northern Aegean",
      "name:fr": "Égée-Septentrionale",
      "name:hu": "Északi-Égei-szigetek",
      "name:nl": "Noord-Egeïsche Eilanden",
      "name:pl": "Wyspy Egejskie Północne",
      "name:ru": "периферия Северные Эгейские острова",
      "boundary": "administrative",
      "ref:nuts": "EL41",
      "way_area": "1.31346",
      "wikidata": "Q173620",
      "ISO3166-2": "GR-K",
      "wikipedia": "el:Περιφέρεια Βορείου Αιγαίου",
      "population": "199231",
      "ref:nuts:2": "EL41",
      "admin_level": "5",
      "contact:website": "http://www.pvaigaiou.gov.gr",
      "official_name:en": "Region of the Northern Aegean"
    }
  },
  {
    "osm_id": -938063,
    "boundary": "administrative",
    "admin_level": 6,
    "parents": "-937958,-5208399,-192307",
    "name": "Kilkis Regional Unit",
    "local_name": "Περιφερειακή Ενότητα Κιλκίς",
    "name_en": "Kilkis Regional Unit",
    "all_tags": {
      "name": "Περιφερειακή Ενότητα Κιλκίς",
      "name:ca": "Unitat perifèrica de Kilkis",
      "name:de": "Regionalbezirk Kilkis",
      "name:el": "Περιφερειακή Ενότητα Κιλκίς",
      "name:en": "Kilkis Regional Unit",
      "name:mk": "Кукушки округ",
      "name:ru": "периферийная единица Килкис",
      "boundary": "administrative",
      "way_area": "0.270378",
      "wikidata": "Q210097",
      "wikipedia": "el:Νομός Κιλκίς",
      "population": "91828",
      "admin_level": "6"
    }
  },
  {
    "osm_id": -5208399,
    "boundary": "administrative",
    "admin_level": 4,
    "parents": "-192307",
    "name": "Macedonia and Thrace",
    "local_name": "Αποκεντρωμένη Διοίκηση Μακεδονίας - Θράκης",
    "name_en": "Macedonia and Thrace",
    "all_tags": {
      "name": "Αποκεντρωμένη Διοίκηση Μακεδονίας - Θράκης",
      "name:bg": "Македония и Тракия",
      "name:ca": "Macedònia i Tràcia",
      "name:de": "Makedonien - Thrakien",
      "name:el": "Αποκεντρωμένη Διοίκηση Μακεδονίας - Θράκης",
      "name:en": "Macedonia and Thrace",
      "name:fr": "Macédoine-Thrace",
      "name:mk": "Македонија и Тракија",
      "name:nl": "Macedonië - Thracië",
      "name:pl": "Macedonia-Tracja",
      "name:ru": "Македония и Фракия",
      "name:tr": "Makedonya ve Trakya",
      "boundary": "administrative",
      "way_area": "4.36036",
      "wikidata": "Q5249082",
      "wikipedia": "el:Αποκεντρωμένη Διοίκηση Μακεδονίας - Θράκης",
      "admin_level": "4",
      "alt_name:ca": "Administració descentralitzada de Macedònia i Tràcia",
      "official_name": "Αποκεντρωμένη Διοίκηση Μακεδονίας - Θράκης",
      "official_name:bg": "Децентрализирано администриране Македония и Тракия",
      "official_name:el": "Αποκεντρωμένη Διοίκηση Μακεδονίας - Θράκης",
      "official_name:fr": "Diocèse décentralisé de Macédoine-Thrace",
      "official_name:mk": "Децентрализирана администрација Македонија и Тракија",
      "official_name:pl": "Administracja Macedonia-Tracja",
      "official_name:tr": "Makedonya ve Trakya Merkezi Olmayan Idaresi"
    }
  },
  {
    "osm_id": -937896,
    "boundary": "administrative",
    "admin_level": 6,
    "parents": "-937937,-5208399,-192307",
    "name": "Kavala Regional Unit",
    "local_name": "Περιφερειακή Ενότητα Καβάλας",
    "name_en": "Kavala Regional Unit",
    "all_tags": {
      "name": "Περιφερειακή Ενότητα Καβάλας",
      "name:ca": "Unitat perifèrica de Kavala",
      "name:de": "Regionalbezirk Kavala",
      "name:en": "Kavala Regional Unit",
      "name:mk": "Кавалски округ",
      "name:ru": "периферийная единица Кавала",
      "boundary": "administrative",
      "way_area": "0.264111",
      "wikidata": "Q213623",
      "wikipedia": "el:Νομός Καβάλας",
      "admin_level": "6"
    }
  },
  {
    "osm_id": -4496067,
    "boundary": "administrative",
    "admin_level": 4,
    "parents": "-192307",
    "name": "Aegean",
    "local_name": "Αποκεντρωμένη Διοίκηση Αιγαίου",
    "name_en": "Aegean",
    "all_tags": {
      "name": "Αποκεντρωμένη Διοίκηση Αιγαίου",
      "name:bg": "Егейските острови",
      "name:ca": "Egeu",
      "name:de": "Ägäis",
      "name:el": "Αποκεντρωμένη Διοίκηση Αιγαίου",
      "name:en": "Aegean",
      "name:fr": "Égée",
      "name:mk": "Егејските Острови",
      "name:nl": "Egeïsche Eilanden",
      "name:pl": "Wyspy Egejskie",
      "name:ru": "Эгейские острова",
      "name:tr": "Ege",
      "boundary": "administrative",
      "way_area": "4.96747",
      "wikidata": "Q9380366",
      "wikipedia": "el:Αποκεντρωμένη Διοίκηση Αιγαίου",
      "population": "508246",
      "admin_level": "4",
      "alt_name:ca": "Administració descentralitzada de l’Egeu",
      "official_name": "Αποκεντρωμένη Διοίκηση Αιγαίου",
      "contact:website": "http://www.apdaigaiou.gov.gr/",
      "official_name:bg": "Децентрализирано администриране Егейските острови",
      "official_name:el": "Αποκεντρωμένη Διοίκηση Αιγαίου",
      "official_name:fr": "Diocèse décentralisé d'Égée",
      "official_name:mk": "Децентрализирана администрација Егејските Острови",
      "official_name:pl": "Administracja Wyspy Egejskie",
      "official_name:tr": "Ege Merkezi Olmayan Idaresi"
    }
  },
  {
    "osm_id": -957716,
    "boundary": "administrative",
    "admin_level": 5,
    "parents": "-4477553,-192307",
    "name": "Attica",
    "local_name": "Περιφέρεια Αττικής",
    "name_en": "Attica",
    "all_tags": {
      "name": "Περιφέρεια Αττικής",
      "name:ca": "Perifèria d'Àtica",
      "name:de": "Region Attika",
      "name:el": "Περιφέρεια Αττικής",
      "name:en": "Attica",
      "name:fr": "Attique",
      "name:hu": "Attika",
      "name:mk": "Атика",
      "name:nl": "Attica",
      "name:pl": "Region Attyka",
      "name:ru": "периферия Аттика",
      "boundary": "administrative",
      "ref:nuts": "EL30",
      "way_area": "1.10706",
      "wikidata": "Q758056",
      "ISO3166-2": "GR-I",
      "population": "3828434",
      "ref:nuts:2": "EL30",
      "admin_level": "5",
      "official_name:en": "Region of Attica",
      "official_name:fr": "Périphérie de l’Attique",
      "official_name:mk": "Атика Област"
    }
  },
  {
    "osm_id": -557549,
    "boundary": "administrative",
    "admin_level": 6,
    "parents": "-910915,-4495677,-192307",
    "name": "Euboea Regional Unit",
    "local_name": "Περιφερειακή Ενότητα Ευβοίας",
    "name_en": "Euboea Regional Unit",
    "all_tags": {
      "ref": "29",
      "name": "Περιφερειακή Ενότητα Ευβοίας",
      "name:ca": "Unitat perifèrica d’Eubea",
      "name:de": "Regionalbezirk Euböa",
      "name:el": "Περιφερειακή Ενότητα Ευβοίας",
      "name:en": "Euboea Regional Unit",
      "name:ru": "периферийная единица Эвбея",
      "boundary": "administrative",
      "way_area": "0.944235",
      "wikidata": "Q670126",
      "population": "210815",
      "admin_level": "6"
    }
  },
  {
    "osm_id": -957704,
    "boundary": "administrative",
    "admin_level": 6,
    "parents": "-957716,-4477553,-192307",
    "name": "Regional Unit of Islands",
    "local_name": "Περιφερειακή Ενότητα Νήσων",
    "name_en": "Regional Unit of Islands",
    "all_tags": {
      "ref": "52",
      "name": "Περιφερειακή Ενότητα Νήσων",
      "name:ca": "Unitat perifèrica d'Illes",
      "name:de": "Regionalbezirk Inseln",
      "name:el": "Περιφερειακή Ενότητα Νήσων",
      "name:en": "Regional Unit of Islands",
      "name:fr": "Îles",
      "name:mk": "Острови",
      "name:ru": "периферийная единица Острова",
      "boundary": "administrative",
      "way_area": "0.644261",
      "wikidata": "Q631048",
      "wikipedia": "el:Περιφερειακή Ενότητα Νήσων Αττικής",
      "population": "74651",
      "short_name": "Π.Ε. Νήσων",
      "admin_level": "6",
      "official_name:fr": "District régional des îles",
      "official_name:mk": "Острови Округ"
    }
  },
  {
    "osm_id": -11274601,
    "boundary": "administrative",
    "admin_level": 6,
    "parents": "-958517,-4496067,-192307",
    "name": "Lesbos Regional Unit",
    "local_name": "Περιφερειακή Ενότητα Λέσβου",
    "name_en": "Lesbos Regional Unit",
    "all_tags": {
      "name": "Περιφερειακή Ενότητα Λέσβου",
      "name:ca": "Unitat perifèrica de Lesbos",
      "name:de": "Regionalbezirk Lesbos",
      "name:el": "Περιφερειακή Ενότητα Λέσβου",
      "name:en": "Lesbos Regional Unit",
      "name:ru": "периферийная единица Лесбос",
      "boundary": "administrative",
      "way_area": "0.371825",
      "wikidata": "Q128087",
      "admin_level": "6"
    }
  },
  {
    "osm_id": -2616826,
    "boundary": "administrative",
    "admin_level": 6,
    "parents": "-957716,-4477553,-192307",
    "name": "Regional Unit of Piraeus",
    "local_name": "Περιφερειακή Ενότητα Πειραιώς",
    "name_en": "Regional Unit of Piraeus",
    "all_tags": {
      "ref": "51",
      "name": "Περιφερειακή Ενότητα Πειραιώς",
      "name:ca": "Unitat perifèrica del Pireu",
      "name:de": "Regionalbezirk Piräus",
      "name:el": "Περιφερειακή Ενότητα Πειραιώς",
      "name:en": "Regional Unit of Piraeus",
      "name:ru": "периферийная единица Пирей",
      "boundary": "administrative",
      "way_area": "0.0105822",
      "wikidata": "Q1784863",
      "wikipedia": "el:Περιφερειακή Ενότητα Πειραιώς",
      "population": "448997",
      "admin_level": "6"
    }
  },
  {
    "osm_id": -2612423,
    "boundary": "administrative",
    "admin_level": 6,
    "parents": "-957716,-4477553,-192307",
    "name": "Regional Unit of West Athens",
    "local_name": "Περιφερειακή Ενότητα Δυτικού Τομέα Αθηνών",
    "name_en": "Regional Unit of West Athens",
    "all_tags": {
      "ref": "47",
      "name": "Περιφερειακή Ενότητα Δυτικού Τομέα Αθηνών",
      "name:ca": "Unitat perifèrica d'Atenes Occidental",
      "name:de": "Regionalbezirk Athen-West",
      "name:el": "Περιφερειακή Ενότητα Δυτικού Τομέα Αθηνών",
      "name:en": "Regional Unit of West Athens",
      "name:ru": "периферийная единица Западные Афины",
      "boundary": "administrative",
      "way_area": "0.00776884",
      "wikidata": "Q755173",
      "wikipedia": "el:Περιφερειακή Ενότητα Δυτικού Τομέα Αθηνών",
      "population": "489675",
      "short_name": "Π.Ε. Δυτικού Τομέα Αθηνών",
      "admin_level": "6"
    }
  },
  {
    "osm_id": -956713,
    "boundary": "administrative",
    "admin_level": 6,
    "parents": "-956701,-4458374,-192307",
    "name": "Kastoria Regional Unit",
    "local_name": "Περιφερειακή Ενότητα Καστοριάς",
    "name_en": "Kastoria Regional Unit",
    "all_tags": {
      "ref": "16",
      "name": "Περιφερειακή Ενότητα Καστοριάς",
      "name:ca": "Unitat perifèrica de Kastorià",
      "name:de": "Regionalbezirk Kastoria",
      "name:el": "Περιφερειακή Ενότητα Καστοριάς",
      "name:en": "Kastoria Regional Unit",
      "name:mk": "Костурски округ",
      "name:ru": "периферийная единица Кастория",
      "website": "http://www.kastoria.gr/",
      "boundary": "administrative",
      "int_name": "Periferiaki Enotita Kastorias",
      "old_name": "Νομός Καστοριάς",
      "way_area": "0.183081",
      "wikidata": "Q1080115",
      "wikipedia": "el:Νομός Καστοριάς",
      "population": "50322",
      "admin_level": "6"
    }
  },
  {
    "osm_id": 32123476,
    "boundary": "administrative",
    "admin_level": 6,
    "parents": "-957716,-4477553,-192307",
    "name": "Φλεβοπούλα",
    "local_name": "Φλεβοπούλα",
    "name_en": null,
    "all_tags": {
      "area": "yes",
      "name": "Φλεβοπούλα",
      "place": "islet",
      "name:el": "Φλεβοπούλα",
      "boundary": "administrative",
      "way_area": "2.28819e-06",
      "admin_level": "6",
      "converted_by": "mikes"
    }
  },
  {
    "osm_id": -959115,
    "boundary": "administrative",
    "admin_level": 6,
    "parents": "-910919,-4495892,-192307",
    "name": "Elis Regional Unit",
    "local_name": "Περιφερειακή Ενότητα Ηλείας",
    "name_en": "Elis Regional Unit",
    "all_tags": {
      "name": "Περιφερειακή Ενότητα Ηλείας",
      "name:ca": "Unitat perifèrica d'Èlide",
      "name:de": "Regionalbezirk Elis",
      "name:el": "Περιφερειακή Ενότητα Ηλείας",
      "name:en": "Elis Regional Unit",
      "name:fr": "Élide",
      "name:mk": "Илија",
      "name:ru": "периферийная единица Элида",
      "boundary": "administrative",
      "way_area": "0.526387",
      "wikidata": "Q1063649",
      "admin_level": "6",
      "official_name:fr": "District régional d’Élide",
      "official_name:mk": "Илија Округ"
    }
  },
  {
    "osm_id": -4495892,
    "boundary": "administrative",
    "admin_level": 4,
    "parents": "-192307",
    "name": "Peloponnese, Western Greece and the Ionian",
    "local_name": "Αποκεντρωμένη Διοίκηση Πελοποννήσου, Δυτικής Ελλάδας και Ιονίου",
    "name_en": "Peloponnese, Western Greece and the Ionian",
    "all_tags": {
      "name": "Αποκεντρωμένη Διοίκηση Πελοποννήσου, Δυτικής Ελλάδας και Ιονίου",
      "name:bg": "Пелопонес, Западна Гърция и Йонийски острови",
      "name:ca": "Peloponès, Grècia Occidental i Illes Jòniques",
      "name:de": "Peloponnes, Westgriechenland und Ionische Inseln",
      "name:el": "Αποκεντρωμένη Διοίκηση Πελοποννήσου, Δυτικής Ελλάδας και Ιονίου",
      "name:en": "Peloponnese, Western Greece and the Ionian",
      "name:fr": "Péloponnèse, Grèce occidentale et Îles Ioniennes",
      "name:mk": "Пелопонез, Западна Грција и Јонските Острови",
      "name:nl": "Peloponnesos, West-Griekenland en Ionische Eilanden",
      "name:pl": "Peloponez, Grecja Zachodnia i Wyspy Jońskie",
      "name:ru": "Пелопоннес, Западная Греция и Ионические острова",
      "name:tr": "Mora, Batı Yunanistan ve İyonya",
      "boundary": "administrative",
      "way_area": "6.08267",
      "wikidata": "Q11815506",
      "wikipedia": "el:Αποκεντρωμένη Διοίκηση Πελοποννήσου, Δυτικής Ελλάδας και Ιονίου",
      "population": "1465554",
      "admin_level": "4",
      "alt_name:ca": "Administració descentralitzada del Peloponès, Grècia Occidental i Illes Jòniques",
      "official_name": "Αποκεντρωμένη Διοίκηση Πελοποννήσου, Δυτικής Ελλάδας και Ιονίου",
      "contact:website": "http://apd-depin.gov.gr/",
      "official_name:bg": "Децентрализирано администриране Пелопонес, Западна Гърция и Йонийски острови",
      "official_name:el": "Αποκεντρωμένη Διοίκηση Πελοποννήσου, Δυτικής Ελλάδας και Ιονίου",
      "official_name:fr": "Diocèse décentralisé de Péloponnèse, Grèce occidentale et Îles Ioniennes",
      "official_name:mk": "Децентрализирана администрација Пелопонез, Западна Грција и Јонските Острови",
      "official_name:pl": "Administracja Peloponez, Grecja Zachodnia i Wyspy Jońskie",
      "official_name:tr": "Mora, Batı Yunanistan ve İyonya Merkezi Olmayan Idaresi"
    }
  },
  {
    "osm_id": -558499,
    "boundary": "administrative",
    "admin_level": 6,
    "parents": "-554424,-4458374,-192307",
    "name": "Thesprotia Regional Unit",
    "local_name": "Περιφερειακή Ενότητα Θεσπρωτίας",
    "name_en": "Thesprotia Regional Unit",
    "all_tags": {
      "ref": "20",
      "name": "Περιφερειακή Ενότητα Θεσπρωτίας",
      "name:ca": "Unitat perifèrica de Tespròcia",
      "name:de": "Regionalbezirk Thesprotia",
      "name:el": "Περιφερειακή Ενότητα Θεσπρωτίας",
      "name:en": "Thesprotia Regional Unit",
      "name:ru": "периферийная единица Теспротия",
      "website": "http://www.thesprotia.gr",
      "boundary": "administrative",
      "old_name": "Νομός Θεσπρωτίας",
      "way_area": "0.196886",
      "wikidata": "Q207552",
      "wikipedia": "el:Νομός Θεσπρωτίας",
      "population": "43587",
      "short_name": "Π.Ε. Θεσπρωτίας",
      "admin_level": "6"
    }
  },
  {
    "osm_id": -554720,
    "boundary": "administrative",
    "admin_level": 6,
    "parents": "-282436,-4496068,-192307",
    "name": "Chania Regional Unit",
    "local_name": "Περιφερειακή Ενότητα Χανίων",
    "name_en": "Chania Regional Unit",
    "all_tags": {
      "name": "Περιφερειακή Ενότητα Χανίων",
      "name:ar": "مقاطعة خانية",
      "name:ca": "Unitat perifèrica de Khanià",
      "name:de": "Regionalbezirk Chania",
      "name:el": "Περιφερειακή Ενότητα Χανίων",
      "name:en": "Chania Regional Unit",
      "name:ru": "периферийная единица Ханья",
      "boundary": "administrative",
      "way_area": "0.56346",
      "wikidata": "Q210487",
      "admin_level": "6"
    }
  },
  {
    "osm_id": -554656,
    "boundary": "administrative",
    "admin_level": 6,
    "parents": "-282436,-4496068,-192307",
    "name": "Lasithi Regional Unit",
    "local_name": "Περιφερειακή Ενότητα Λασιθίου",
    "name_en": "Lasithi Regional Unit",
    "all_tags": {
      "name": "Περιφερειακή Ενότητα Λασιθίου",
      "name:ca": "Unitat perifèrica de Lassithi",
      "name:de": "Regionalbezirk Lasithi",
      "name:el": "Περιφερειακή Ενότητα Λασιθίου",
      "name:en": "Lasithi Regional Unit",
      "name:ru": "периферийная единица Ласити",
      "boundary": "administrative",
      "int_name": "Lasithi",
      "way_area": "0.492411",
      "wikidata": "Q210450",
      "wikipedia": "el:Νομός Λασιθίου",
      "admin_level": "6"
    }
  },
  {
    "osm_id": -1846634,
    "boundary": "administrative",
    "admin_level": 6,
    "parents": "-958517,-4496067,-192307",
    "name": "Chios Regional Unit",
    "local_name": "Περιφερειακή Ενότητα Χίου",
    "name_en": "Chios Regional Unit",
    "all_tags": {
      "name": "Περιφερειακή Ενότητα Χίου",
      "name:ca": "Unitat perifèrica de Quios",
      "name:de": "Regionalbezirk Chios",
      "name:en": "Chios Regional Unit",
      "name:ru": "периферийная единица Хиос",
      "boundary": "administrative",
      "way_area": "0.343195",
      "wikidata": "Q16332718",
      "admin_level": "6"
    }
  },
  {
    "osm_id": -5305784,
    "boundary": "administrative",
    "admin_level": 6,
    "parents": "-958517,-4496067,-192307",
    "name": "Lemnos Regional Unit",
    "local_name": "Περιφερειακή Ενότητα Λήμνου",
    "name_en": "Lemnos Regional Unit",
    "all_tags": {
      "name": "Περιφερειακή Ενότητα Λήμνου",
      "name:ca": "Unitat perifèrica de Lemnos",
      "name:de": "Regionalbezirk Limnos",
      "name:el": "Περιφερειακή Ενότητα Λήμνου",
      "name:en": "Lemnos Regional Unit",
      "name:ru": "периферийная единица Лемнос",
      "boundary": "administrative",
      "way_area": "0.254296",
      "wikidata": "Q655612",
      "population": "17262",
      "admin_level": "6"
    }
  },
  {
    "osm_id": -959149,
    "boundary": "administrative",
    "admin_level": 6,
    "parents": "-957717,-4495892,-192307",
    "name": "Messenia Regional Unit",
    "local_name": "Περιφερειακή Ενότητα Μεσσηνίας",
    "name_en": "Messenia Regional Unit",
    "all_tags": {
      "name": "Περιφερειακή Ενότητα Μεσσηνίας",
      "name:ca": "Unitat perifèrica de Messènia",
      "name:de": "Regionalbezirk Messenien",
      "name:el": "Περιφερειακή Ενότητα Μεσσηνίας",
      "name:en": "Messenia Regional Unit",
      "name:fr": "Messénie",
      "name:it": "Messenia",
      "name:mk": "Месенија",
      "name:nl": "Messenië",
      "name:ru": "периферийная единица Мессения",
      "boundary": "administrative",
      "way_area": "0.726056",
      "wikidata": "Q200315",
      "admin_level": "6",
      "official_name:fr": "District régional de Messénie",
      "official_name:mk": "Месенија Округ"
    }
  },
  {
    "osm_id": -5207349,
    "boundary": "administrative",
    "admin_level": 6,
    "parents": "-937937,-5208399,-192307",
    "name": "Thasos Regional Unit",
    "local_name": "Περιφερειακή Ενότητα Θάσου",
    "name_en": "Thasos Regional Unit",
    "all_tags": {
      "name": "Περιφερειακή Ενότητα Θάσου",
      "name:ca": "Unitat perifèrica de Tassos",
      "name:en": "Thasos Regional Unit",
      "name:mk": "Тасоски округ",
      "name:ru": "периферийная единица Тасос",
      "boundary": "administrative",
      "way_area": "0.133867",
      "wikidata": "Q11723847",
      "admin_level": "6"
    }
  },
  {
    "osm_id": -4477559,
    "boundary": "administrative",
    "admin_level": 6,
    "parents": "-957716,-4477553,-192307",
    "name": "Regional Unit of West Attica",
    "local_name": "Περιφερειακή Ενότητα Δυτικής Αττικής",
    "name_en": "Regional Unit of West Attica",
    "all_tags": {
      "ref": "50",
      "name": "Περιφερειακή Ενότητα Δυτικής Αττικής",
      "name:ca": "Unitat perifèrica d’Àtica Occidental",
      "name:de": "Regionalbezirk Westattika",
      "name:el": "Περιφερειακή Ενότητα Δυτικής Αττικής",
      "name:en": "Regional Unit of West Attica",
      "name:nl": "West-Attica",
      "name:ru": "периферийная единица Западная Аттика",
      "boundary": "administrative",
      "way_area": "0.125766",
      "wikidata": "Q211878",
      "wikipedia": "el:Νομαρχία Δυτικής Αττικής",
      "population": "160927",
      "short_name": "Π.Ε. Δυτικής Αττικής",
      "admin_level": "6"
    }
  },
  {
    "osm_id": -2612469,
    "boundary": "administrative",
    "admin_level": 6,
    "parents": "-957716,-4477553,-192307",
    "name": "Regional Unit of South Athens",
    "local_name": "Περιφερειακή Ενότητα Νοτίου Τομέα Αθηνών",
    "name_en": "Regional Unit of South Athens",
    "all_tags": {
      "ref": "48",
      "name": "Περιφερειακή Ενότητα Νοτίου Τομέα Αθηνών",
      "name:ca": "Unitat perifèrica d'Atenes Meridional",
      "name:de": "Regionalbezirk Athen-Süd",
      "name:el": "Περιφερειακή Ενότητα Νοτίου Τομέα Αθηνών",
      "name:en": "Regional Unit of South Athens",
      "name:ru": "периферийная единица Южные Афины",
      "boundary": "administrative",
      "way_area": "0.015058",
      "wikidata": "Q755168",
      "wikipedia": "el:Περιφερειακή Ενότητα Νοτίου Τομέα Αθηνών",
      "population": "529826",
      "admin_level": "6"
    }
  },
  {
    "osm_id": -4496068,
    "boundary": "administrative",
    "admin_level": 4,
    "parents": "-192307",
    "name": "Region of Crete",
    "local_name": "Αποκεντρωμένη Διοίκηση Κρήτης",
    "name_en": "Region of Crete",
    "all_tags": {
      "name": "Αποκεντρωμένη Διοίκηση Κρήτης",
      "name:ar": "إقريطش",
      "name:bg": "Крит",
      "name:ca": "Creta",
      "name:de": "Region Kreta",
      "name:el": "Αποκεντρωμένη Διοίκηση Κρήτης",
      "name:en": "Region of Crete",
      "name:fr": "Région Crète",
      "name:mk": "Крит",
      "name:nl": "Kreta",
      "name:pl": "Kreta",
      "name:ru": "Крит",
      "name:tr": "Girit",
      "boundary": "administrative",
      "way_area": "1.74406",
      "wikidata": "Q11748141",
      "wikipedia": "el:Αποκεντρωμένη Διοίκηση Κρήτης",
      "population": "623065",
      "admin_level": "4",
      "alt_name:ar": "كريت",
      "alt_name:ca": "Administració descentralitzada de Creta",
      "official_name": "Αποκεντρωμένη Διοίκηση Κρήτης",
      "contact:website": "http://www.apdkritis.gov.gr/",
      "official_name:ar": "الإدارة اللامركزية إقريطش",
      "official_name:bg": "Децентрализирано администриране Крит",
      "official_name:ca": "Administració descentralitzada de Creta",
      "official_name:de": "Dezentralisierte Verwaltung Kreta",
      "official_name:el": "Αποκεντρωμένη Διοίκηση Κρήτης",
      "official_name:en": "Decentralized Administration of Crete",
      "official_name:fr": "Diocèse décentralisé de Crète",
      "official_name:mk": "Децентрализирана администрација Крит",
      "official_name:pl": "Administracja Kreta",
      "official_name:ru": "Децентрализованная администрация Крита",
      "official_name:tr": "Girit Merkezi Olmayan Idaresi"
    }
  },
  {
    "osm_id": -937958,
    "boundary": "administrative",
    "admin_level": 5,
    "parents": "-5208399,-192307",
    "name": "Central Macedonia",
    "local_name": "Περιφέρεια Κεντρικής Μακεδονίας",
    "name_en": "Central Macedonia",
    "all_tags": {
      "name": "Περιφέρεια Κεντρικής Μακεδονίας",
      "name:bg": "Централна Македония",
      "name:ca": "Perifèria de Macedònia Central",
      "name:de": "Zentralmakedonien",
      "name:el": "Περιφέρεια Κεντρικής Μακεδονίας",
      "name:en": "Central Macedonia",
      "name:fr": "Macédoine-Centrale",
      "name:hu": "Közép-Makedónia",
      "name:mk": "Централна Македонија",
      "name:nl": "Centraal-Macedonië",
      "name:pl": "Region Macedonia Środkowa",
      "name:ru": "периферия Центральная Македония",
      "name:sq": "Maqedonia Qendrore",
      "name:tr": "Orta Makedonya",
      "name:zh": "中马其顿",
      "boundary": "administrative",
      "ref:nuts": "EL52",
      "way_area": "2.46406",
      "wikidata": "Q17152",
      "ISO3166-2": "GR-B",
      "wikipedia": "el:Περιφέρεια Κεντρικής Μακεδονίας",
      "population": "1882108",
      "ref:nuts:2": "EL52",
      "admin_level": "5",
      "official_name:en": "Region of Central Macedonia"
    }
  },
  {
    "osm_id": -554401,
    "boundary": "administrative",
    "admin_level": 6,
    "parents": "-958236,-4495677,-192307",
    "name": "Larisa Regional Unit",
    "local_name": "Περιφερειακή Ενότητα Λάρισας",
    "name_en": "Larisa Regional Unit",
    "all_tags": {
      "name": "Περιφερειακή Ενότητα Λάρισας",
      "name:ca": "Unitat perifèrica de Làrissa",
      "name:de": "Regionalbezirk Larisa",
      "name:el": "Περιφερειακή Ενότητα Λάρισας",
      "name:en": "Larisa Regional Unit",
      "name:mk": "Лариски округ",
      "name:ru": "периферийная единица Лариса",
      "boundary": "administrative",
      "way_area": "0.613638",
      "wikidata": "Q11723835",
      "admin_level": "6"
    }
  },
  {
    "osm_id": -4458374,
    "boundary": "administrative",
    "admin_level": 4,
    "parents": "-192307",
    "name": "Epirus and Western Macedonia",
    "local_name": "Αποκεντρωμένη Διοίκηση Ηπείρου - Δυτικής Μακεδονίας",
    "name_en": "Epirus and Western Macedonia",
    "all_tags": {
      "name": "Αποκεντρωμένη Διοίκηση Ηπείρου - Δυτικής Μακεδονίας",
      "name:bg": "Епир и Западна Македония",
      "name:ca": "Epir - Macedònia Occidental",
      "name:de": "Epirus - Westmakedonien",
      "name:el": "Αποκεντρωμένη Διοίκηση Ηπείρου - Δυτικής Μακεδονίας",
      "name:en": "Epirus and Western Macedonia",
      "name:fi": "Epeiros - Länsi-Makedonia",
      "name:fr": "Épire-Macédoine occidentale",
      "name:mk": "Епир и Западна Македонија",
      "name:nl": "Epirus - West-Macedonië",
      "name:pl": "Epir-Macedonia Zachodnia",
      "name:ru": "Эпир и Западная Македония",
      "name:tr": "Epir ve Batı Makedonya",
      "website": "http://www.apdhp-dm.gov.gr/portal/index.php",
      "boundary": "administrative",
      "way_area": "2.11112",
      "wikidata": "Q9254348",
      "wikipedia": "el:Αποκεντρωμένη Διοίκηση Ηπείρου - Δυτικής Μακεδονίας",
      "population": "620545",
      "admin_level": "4",
      "alt_name:ca": "Administració descentralitzada d’Epir - Macedònia Occidental",
      "official_name": "Αποκεντρωμένη Διοίκηση Ηπείρου - Δυτικής Μακεδονίας",
      "official_name:bg": "Децентрализирано администриране Епир и Западна Македония",
      "official_name:el": "Αποκεντρωμένη Διοίκηση Ηπείρου - Δυτικής Μακεδονίας",
      "official_name:fr": "Diocèse décentralisé d'Épire-Macédoine occidentale",
      "official_name:mk": "Децентрализирана администрација Епир и Западна Македонија",
      "official_name:pl": "Administracja Epir-Macedonia Zachodnia",
      "official_name:tr": "Epir ve Batı Makedonya Merkezi Olmayan Idaresi"
    }
  },
  {
    "osm_id": -5323564,
    "boundary": "administrative",
    "admin_level": 6,
    "parents": "-1851752,-4496067,-192307",
    "name": "Kea-Kythnos Regional Unit",
    "local_name": "Περιφερειακή Ενότητα Κέας - Κύθνου",
    "name_en": "Kea-Kythnos Regional Unit",
    "all_tags": {
      "name": "Περιφερειακή Ενότητα Κέας - Κύθνου",
      "name:ca": "Unitat perifèrica de Kea - Kithnos",
      "name:de": "Regionalbezirk Kea-Kythnos",
      "name:el": "Περιφερειακή Ενότητα Κέας - Κύθνου",
      "name:en": "Kea-Kythnos Regional Unit",
      "name:ru": "периферийная единица Кея-Кифнос",
      "boundary": "administrative",
      "way_area": "0.188247",
      "wikidata": "Q1242823",
      "admin_level": "6"
    }
  },
  {
    "osm_id": -5324074,
    "boundary": "administrative",
    "admin_level": 6,
    "parents": "-1851752,-4496067,-192307",
    "name": "Mykonos Regional Unit",
    "local_name": "Περιφερειακή Ενότητα Μυκόνου",
    "name_en": "Mykonos Regional Unit",
    "all_tags": {
      "name": "Περιφερειακή Ενότητα Μυκόνου",
      "name:ca": "Unitat perifèrica de Míkonos",
      "name:de": "Regionalbezirk Mykonos",
      "name:en": "Mykonos Regional Unit",
      "name:ru": "периферийная единица Миконос",
      "boundary": "administrative",
      "way_area": "0.108863",
      "wikidata": "Q11723841",
      "admin_level": "6"
    }
  },
  {
    "osm_id": -568383,
    "boundary": "administrative",
    "admin_level": 6,
    "parents": "-937958,-5208399,-192307",
    "name": "Chalkidiki Regional Unit",
    "local_name": "Περιφερειακή Ενότητα Χαλκιδικής",
    "name_en": "Chalkidiki Regional Unit",
    "all_tags": {
      "name": "Περιφερειακή Ενότητα Χαλκιδικής",
      "name:ca": "Unitat perifèrica de Calcídica",
      "name:de": "Regionalbezirk Chalkidiki",
      "name:en": "Chalkidiki Regional Unit",
      "name:mk": "Халкидички округ",
      "name:ru": "периферийная единица Халкидики",
      "boundary": "administrative",
      "way_area": "0.643713",
      "wikidata": "Q844543",
      "wikipedia": "el:Νομός Χαλκιδικής",
      "admin_level": "6"
    }
  },
  {
    "osm_id": -939213,
    "boundary": "administrative",
    "admin_level": 6,
    "parents": "-937937,-5208399,-192307",
    "name": "Xanthi Regional Unit",
    "local_name": "Περιφερειακή Ενότητα Ξάνθης",
    "name_en": "Xanthi Regional Unit",
    "all_tags": {
      "name": "Περιφερειακή Ενότητα Ξάνθης",
      "name:ca": "Unitat perifèrica de Xanthi",
      "name:de": "Regionalbezirk Xanthi",
      "name:en": "Xanthi Regional Unit",
      "name:mk": "Скечански округ",
      "name:ru": "периферийная единица Ксанти",
      "boundary": "administrative",
      "way_area": "0.221019",
      "wikidata": "Q208303",
      "wikipedia": "el:Νομός Ξάνθης",
      "population": "105530",
      "admin_level": "6"
    }
  },
  {
    "osm_id": -5323643,
    "boundary": "administrative",
    "admin_level": 6,
    "parents": "-1851752,-4496067,-192307",
    "name": "Paros Regional Unit",
    "local_name": "Περιφερειακή Ενότητα Πάρου",
    "name_en": "Paros Regional Unit",
    "all_tags": {
      "name": "Περιφερειακή Ενότητα Πάρου",
      "name:ca": "Unitat perifèrica de Paros",
      "name:de": "Regionalbezirk Paros",
      "name:el": "Περιφερειακή Ενότητα Πάρου",
      "name:en": "Paros Regional Unit",
      "name:ru": "периферийная единица Парос",
      "boundary": "administrative",
      "way_area": "0.145057",
      "wikidata": "Q669210",
      "admin_level": "6"
    }
  },
  {
    "osm_id": -5324235,
    "boundary": "administrative",
    "admin_level": 6,
    "parents": "-1851752,-4496067,-192307",
    "name": "Kos Regional Unit",
    "local_name": "Περιφερειακή Ενότητα Κω",
    "name_en": "Kos Regional Unit",
    "all_tags": {
      "name": "Περιφερειακή Ενότητα Κω",
      "name:ca": "Unitat perifèrica de Kos",
      "name:de": "Regionalbezirk Kos",
      "name:el": "Περιφερειακή Ενότητα Κω",
      "name:en": "Kos Regional Unit",
      "name:ru": "периферийная единица Кос",
      "boundary": "administrative",
      "way_area": "0.197722",
      "wikidata": "Q1242904",
      "admin_level": "6"
    }
  },
  {
    "osm_id": -563225,
    "boundary": "administrative",
    "admin_level": 6,
    "parents": "-937958,-5208399,-192307",
    "name": "Imathia Regional Unit",
    "local_name": "Περιφερειακή Ενότητα Ημαθίας",
    "name_en": "Imathia Regional Unit",
    "all_tags": {
      "name": "Περιφερειακή Ενότητα Ημαθίας",
      "name:ca": "Unitat perifèrica d'Imathia",
      "name:de": "Regionalbezirk Imathia",
      "name:el": "Περιφερειακή Ενότητα Ημαθίας",
      "name:en": "Imathia Regional Unit",
      "name:mk": "Иматиски округ",
      "name:ru": "периферийная единица Иматия",
      "boundary": "administrative",
      "way_area": "0.182178",
      "wikidata": "Q207840",
      "wikipedia": "el:Νομός Ημαθίας",
      "admin_level": "6"
    }
  },
  {
    "osm_id": -5207290,
    "boundary": "administrative",
    "admin_level": 6,
    "parents": "-958236,-4495677,-192307",
    "name": "Sporades Regional Unit",
    "local_name": "Περιφερειακή Ενότητα Σποράδων",
    "name_en": "Sporades Regional Unit",
    "all_tags": {
      "name": "Περιφερειακή Ενότητα Σποράδων",
      "name:ca": "Unitat perifèrica de les Espòrades",
      "name:de": "Regionalbezirk Sporaden",
      "name:el": "Περιφερειακή Ενότητα Σποράδων",
      "name:en": "Sporades Regional Unit",
      "name:ru": "периферийная единица Спорады",
      "boundary": "administrative",
      "way_area": "0.326389",
      "wikidata": "Q1598248",
      "admin_level": "6"
    }
  },
  {
    "osm_id": -90550,
    "boundary": "administrative",
    "admin_level": 6,
    "parents": "-554424,-4458374,-192307",
    "name": "Preveza Regional Unit",
    "local_name": "Περιφερειακή Ενότητα Πρέβεζας",
    "name_en": "Preveza Regional Unit",
    "all_tags": {
      "ref": "21",
      "name": "Περιφερειακή Ενότητα Πρέβεζας",
      "name:ca": "Unitat perifèrica de Préveza",
      "name:de": "Regionalbezirk Preveza",
      "name:el": "Περιφερειακή Ενότητα Πρέβεζας",
      "name:en": "Preveza Regional Unit",
      "name:ru": "периферийная единица Превеза",
      "website": "http://www.preveza.gr/",
      "boundary": "administrative",
      "old_name": "Νομός Πρέβεζας",
      "way_area": "0.200111",
      "wikidata": "Q7780449",
      "wikipedia": "el:Νομός Πρέβεζας",
      "population": "57491",
      "admin_level": "6"
    }
  },
  {
    "osm_id": -5305896,
    "boundary": "administrative",
    "admin_level": 6,
    "parents": "-958517,-4496067,-192307",
    "name": "Ikaria Regional Unit",
    "local_name": "Περιφερειακή Ενότητα Ικαρίας",
    "name_en": "Ikaria Regional Unit",
    "all_tags": {
      "name": "Περιφερειακή Ενότητα Ικαρίας",
      "name:ca": "Unitat perifèrica d'Icària",
      "name:de": "Regionalbezirk Ikaria",
      "name:el": "Περιφερειακή Ενότητα Ικαρίας",
      "name:en": "Ikaria Regional Unit",
      "name:ru": "периферийная единица Икария",
      "boundary": "administrative",
      "way_area": "0.187376",
      "wikidata": "Q1239974",
      "admin_level": "6"
    }
  },
  {
    "osm_id": -2604796,
    "boundary": "administrative",
    "admin_level": 6,
    "parents": "-957716,-4477553,-192307",
    "name": "Regional Unit of Central Athens",
    "local_name": "Περιφερειακή Ενότητα Κεντρικού Τομέα Αθηνών",
    "name_en": "Regional Unit of Central Athens",
    "all_tags": {
      "ref": "45",
      "name": "Περιφερειακή Ενότητα Κεντρικού Τομέα Αθηνών",
      "name:ca": "Unitat perifèrica d'Atenes Central",
      "name:de": "Regionalbezirk Athen-Zentrum",
      "name:el": "Περιφερειακή Ενότητα Κεντρικού Τομέα Αθηνών",
      "name:en": "Regional Unit of Central Athens",
      "name:ru": "периферийная единица Центральные Афины",
      "boundary": "administrative",
      "way_area": "0.00881777",
      "wikidata": "Q755177",
      "wikipedia": "el:Περιφερειακή Ενότητα Κεντρικού Τομέα Αθηνών",
      "population": "1029520",
      "short_name": "Π.Ε. Κεντρικού Τομέα Αθηνών",
      "admin_level": "6"
    }
  },
  {
    "osm_id": -4495677,
    "boundary": "administrative",
    "admin_level": 4,
    "parents": "-192307",
    "name": "Thessaly and Central Greece",
    "local_name": "Αποκεντρωμένη Διοίκηση Θεσσαλίας - Στερεάς Ελλάδος",
    "name_en": "Thessaly and Central Greece",
    "all_tags": {
      "name": "Αποκεντρωμένη Διοίκηση Θεσσαλίας - Στερεάς Ελλάδος",
      "name:bg": "Тесалия и Централна Гърция",
      "name:ca": "Tessàlia - Grècia Central",
      "name:de": "Thessalien - Mittelgriechenland",
      "name:el": "Αποκεντρωμένη Διοίκηση Θεσσαλίας - Στερεάς Ελλάδος",
      "name:en": "Thessaly and Central Greece",
      "name:fr": "Thessalie-Grèce centrale",
      "name:mk": "Тесалија и Централна Грција",
      "name:nl": "Thessalië - Centraal-Griekenland",
      "name:pl": "Tesalia-Grecja Środkowa",
      "name:ru": "Фессалия и Центральная Греция",
      "name:tr": "Teselya ve Orta Yunanistan",
      "boundary": "administrative",
      "way_area": "4.28331",
      "wikidata": "Q11836920",
      "wikipedia": "el:Αποκεντρωμένη Διοίκηση Θεσσαλίας - Στερεάς Ελλάδας",
      "population": "1280152",
      "admin_level": "4",
      "alt_name:ca": "Administració descentralitzada de Tessàlia - Grècia Central",
      "official_name": "Αποκεντρωμένη Διοίκηση Θεσσαλίας - Στερεάς Ελλάδας",
      "contact:website": "http://www.apdthest.gov.gr",
      "official_name:bg": "Децентрализирано администриране Тесалия и Централна Гърция",
      "official_name:el": "Αποκεντρωμένη Διοίκηση Θεσσαλίας - Στερεάς Ελλάδας",
      "official_name:fr": "Diocèse décentralisé de Thessalie-Grèce centrale",
      "official_name:mk": "Децентрализирана администрација Тесалија и Централна Грција",
      "official_name:pl": "Administracja Tesalia-Grecja Środkowa",
      "official_name:tr": "Teselya ve Orta Yunanistan Merkezi Olmayan Idaresi"
    }
  },
  {
    "osm_id": -937937,
    "boundary": "administrative",
    "admin_level": 5,
    "parents": "-5208399,-192307",
    "name": "Eastern Macedonia and Thrace",
    "local_name": "Περιφέρεια Ανατολικής Μακεδονίας και Θράκης",
    "name_en": "Eastern Macedonia and Thrace",
    "all_tags": {
      "name": "Περιφέρεια Ανατολικής Μακεδονίας και Θράκης",
      "name:ca": "Perifèria de Macedònia Oriental i Tràcia",
      "name:de": "Region Ostmakedonien und Thrakien",
      "name:el": "Περιφέρεια Ανατολικής Μακεδονίας και Θράκης",
      "name:en": "Eastern Macedonia and Thrace",
      "name:fr": "Macédoine-Orientale-et-Thrace",
      "name:hu": "Kelet-Makedónia és Trákia",
      "name:lt": "Rytų Makedonijos ir Trakijos periferija",
      "name:mk": "Источна Македонија и Тракија",
      "name:nl": "Oost-Macedonië en Thracië",
      "name:pl": "Region Macedonia Wschodnia i Tracja",
      "name:ru": "периферия Восточная Македония и Фракия",
      "boundary": "administrative",
      "ref:nuts": "EL51",
      "way_area": "1.89631",
      "wikidata": "Q171314",
      "ISO3166-2": "GR-A",
      "wikipedia": "el:Περιφέρεια Ανατολικής Μακεδονίας και Θράκης",
      "population": "608182",
      "ref:nuts:2": "EL51",
      "admin_level": "5",
      "official_name:en": "Region of Eastern Macedonia and Thrace"
    }
  },
  {
    "osm_id": -939217,
    "boundary": "administrative",
    "admin_level": 6,
    "parents": "-937937,-5208399,-192307",
    "name": "Evros Regional Unit",
    "local_name": "Περιφερειακή Ενότητα Έβρου",
    "name_en": "Evros Regional Unit",
    "all_tags": {
      "name": "Περιφερειακή Ενότητα Έβρου",
      "name:ca": "Unitat perifèrica d'Evros",
      "name:de": "Regionalbezirk Evros",
      "name:en": "Evros Regional Unit",
      "name:fr": "Nome de l'Évros",
      "name:mk": "Марички округ",
      "name:ru": "периферийная единица Эврос",
      "name:tr": "Evros İli",
      "boundary": "administrative",
      "way_area": "0.583342",
      "wikidata": "Q206186",
      "wikipedia": "el:Νομός Έβρου",
      "population": "150580",
      "admin_level": "6"
    }
  },
  {
    "osm_id": -937847,
    "boundary": "administrative",
    "admin_level": 6,
    "parents": "-937958,-5208399,-192307",
    "name": "Serres Regional Unit",
    "local_name": "Περιφερειακή Ενότητα Σερρών",
    "name_en": "Serres Regional Unit",
    "all_tags": {
      "name": "Περιφερειακή Ενότητα Σερρών",
      "name:ca": "Unitat perifèrica de Serres",
      "name:de": "Regionalbezirk Serres",
      "name:el": "Περιφερειακή Ενότητα Σερρών",
      "name:en": "Serres Regional Unit",
      "name:mk": "Серски округ",
      "name:ru": "периферийная единица Серре",
      "boundary": "administrative",
      "way_area": "0.430743",
      "wikidata": "Q211319",
      "population": "203093",
      "admin_level": "6"
    }
  },
  {
    "osm_id": -554407,
    "boundary": "administrative",
    "admin_level": 6,
    "parents": "-958236,-4495677,-192307",
    "name": "Regional Unit of Magnesia",
    "local_name": "Περιφερειακή Ενότητα Μαγνησίας",
    "name_en": "Regional Unit of Magnesia",
    "all_tags": {
      "name": "Περιφερειακή Ενότητα Μαγνησίας",
      "name:ca": "Unitat perifèrica de Magnèsia",
      "name:de": "Regionalbezirk Magnisia",
      "name:el": "Περιφερειακή Ενότητα Μαγνησίας",
      "name:en": "Regional Unit of Magnesia",
      "name:ru": "периферийная единица Магнисия",
      "boundary": "administrative",
      "way_area": "0.392378",
      "wikidata": "Q1884468",
      "admin_level": "6"
    }
  }
]
