[
  {
    "osm_id": -226741,
    "boundary": "administrative",
    "admin_level": 6,
    "parents": "-214885",
    "name": "Šibenik-Knin County",
    "local_name": "Šibensko-kninska županija",
    "name_en": "Šibenik-Knin County",
    "all_tags": {
      "name": "Šibensko-kninska županija",
      "name:de": "Gespanschaft Šibenik-Knin",
      "name:en": "Šibenik-Knin County",
      "name:fr": "Comitat de Šibenik-Knin",
      "name:hu": "Šibenik-Knin megye",
      "name:it": "Regione di Sebenico e Tenin",
      "name:lt": "Šibeniko–Knino apskritis",
      "name:ru": "Шибенско-Книнская жупания",
      "boundary": "administrative",
      "ref:nuts": "HR034",
      "way_area": "0.648807",
      "wikidata": "Q58194",
      "ISO3166-2": "HR-15",
      "wikipedia": "hr:Šibensko-kninska županija",
      "ref:nuts:3": "HR034",
      "admin_level": "6"
    }
  },
  {
    "osm_id": -222646,
    "boundary": "administrative",
    "admin_level": 6,
    "parents": "-214885",
    "name": "Osijek-Baranja County",
    "local_name": "Osječko-baranjska županija",
    "name_en": "Osijek-Baranja County",
    "all_tags": {
      "name": "Osječko-baranjska županija",
      "name:de": "Gespanschaft Osijek-Baranja",
      "name:en": "Osijek-Baranja County",
      "name:fr": "Comitat d'Osijek-Baranja",
      "name:hr": "Osječko-baranjska županija",
      "name:hu": "Eszék-Baranya megye",
      "name:it": "Regione di Osijek e della Baranja",
      "name:lt": "Osijeko–Baranijos apskritis",
      "name:ru": "Осиецко-Бараньская жупания",
      "name:sr": "Осјечко-барањска жупанија",
      "boundary": "administrative",
      "ref:nuts": "HR025",
      "way_area": "0.477912",
      "wikidata": "Q58159",
      "ISO3166-2": "HR-14",
      "wikipedia": "hr:Osječko-baranjska županija",
      "population": "305032",
      "ref:nuts:3": "HR025",
      "admin_level": "6",
      "name:sr-Latn": "Osječko-baranjska županija"
    }
  },
  {
    "osm_id": -226223,
    "boundary": "administrative",
    "admin_level": 6,
    "parents": "-214885",
    "name": "Krapina-Zagorje County",
    "local_name": "Krapinsko-zagorska županija",
    "name_en": "Krapina-Zagorje County",
    "all_tags": {
      "name": "Krapinsko-zagorska županija",
      "name:de": "Gespanschaft Krapina-Zagorje",
      "name:en": "Krapina-Zagorje County",
      "name:fr": "Comitat de Krapina-Zagorje",
      "name:hu": "Krapina-Zagorje megye",
      "name:lt": "Krapinos–Zagorjės apskritis",
      "name:ru": "Крапинско-Загорская жупания",
      "boundary": "administrative",
      "ref:nuts": "HR064",
      "way_area": "0.14288",
      "wikidata": "Q57056",
      "ISO3166-2": "HR-02",
      "wikipedia": "hr:Krapinsko-zagorska županija",
      "ref:nuts:3": "HR064",
      "admin_level": "6"
    }
  },
  {
    "osm_id": -226465,
    "boundary": "administrative",
    "admin_level": 6,
    "parents": "-214885",
    "name": "Lika-Senj County",
    "local_name": "Ličko-senjska županija",
    "name_en": "Lika-Senj County",
    "all_tags": {
      "name": "Ličko-senjska županija",
      "name:de": "Gespanschaft Lika-Senj",
      "name:en": "Lika-Senj County",
      "name:fr": "Comitat de Lika-Senj",
      "name:hr": "Ličko-senjska županija",
      "name:hu": "Lika-Zengg megye",
      "name:it": "Regione della Lika e di Segna",
      "name:lt": "Likos–Senio apskritis",
      "name:ru": "Лицко-Сеньская жупания",
      "name:sr": "Личко-сењска жупанија",
      "boundary": "administrative",
      "ref:nuts": "HR032",
      "way_area": "0.67734",
      "wikidata": "Q58081",
      "ISO3166-2": "HR-09",
      "wikipedia": "hr:Ličko-senjska županija",
      "population": "50927",
      "ref:nuts:3": "HR032",
      "admin_level": "6"
    }
  },
  {
    "osm_id": -226351,
    "boundary": "administrative",
    "admin_level": 6,
    "parents": "-214885",
    "name": "Istria County",
    "local_name": "Istarska županija",
    "name_en": "Istria County",
    "all_tags": {
      "name": "Istarska županija",
      "name:ca": "Comtat d'Ístria",
      "name:de": "Gespanschaft Istrien",
      "name:en": "Istria County",
      "name:fr": "Comitat d'Istrie",
      "name:hu": "Isztria megye",
      "name:it": "Regione istriana",
      "name:lt": "Istrijos apskritis",
      "name:ru": "Истрийская жупания",
      "boundary": "administrative",
      "loc_name": "Istra",
      "ref:nuts": "HR036",
      "way_area": "0.733285",
      "wikidata": "Q58268",
      "ISO3166-2": "HR-18",
      "wikipedia": "en:Istria County",
      "ref:nuts:3": "HR036",
      "admin_level": "6"
    }
  },
  {
    "osm_id": -226271,
    "boundary": "administrative",
    "admin_level": 6,
    "parents": "-214885",
    "name": "Karlovac County",
    "local_name": "Karlovačka županija",
    "name_en": "Karlovac County",
    "all_tags": {
      "name": "Karlovačka županija",
      "name:de": "Gespanschaft Karlstadt",
      "name:en": "Karlovac County",
      "name:fr": "Comitat de Karlovac",
      "name:hu": "Károlyváros megye",
      "name:it": "Regione di Karlovac",
      "name:lt": "Karlovaco apskritis",
      "name:ru": "Карловацкая жупания",
      "boundary": "administrative",
      "ref:nuts": "HR027",
      "way_area": "0.415709",
      "wikidata": "Q57071",
      "ISO3166-2": "HR-04",
      "wikipedia": "hr:Karlovačka županija",
      "ref:nuts:3": "HR027",
      "admin_level": "6"
    }
  },
  {
    "osm_id": -226241,
    "boundary": "administrative",
    "admin_level": 6,
    "parents": "-214885",
    "name": "Zagreb County",
    "local_name": "Zagrebačka županija",
    "name_en": "Zagreb County",
    "all_tags": {
      "name": "Zagrebačka županija",
      "name:de": "Gespanschaft Zagreb",
      "name:en": "Zagreb County",
      "name:es": "Condado de Zagreb",
      "name:fi": "Zagrebin piirikunta",
      "name:fr": "Comitat de Zagreb",
      "name:hu": "Zágráb megye",
      "name:it": "Regione di Zagabria",
      "name:lt": "Zagrebo apskritis",
      "name:pt": "Condado de Zagreb",
      "name:ru": "Загребская жупания",
      "boundary": "administrative",
      "ref:nuts": "HR065",
      "way_area": "0.354165",
      "wikidata": "Q27038",
      "ISO3166-2": "HR-01",
      "wikipedia": "hr:Zagrebačka županija",
      "ref:nuts:3": "HR065",
      "admin_level": "6"
    }
  },
  {
    "osm_id": -226210,
    "boundary": "administrative",
    "admin_level": 6,
    "parents": "-214885",
    "name": "Varaždin County",
    "local_name": "Varaždinska županija",
    "name_en": "Varaždin County",
    "all_tags": {
      "name": "Varaždinska županija",
      "name:de": "Gespanschaft Warasdin",
      "name:en": "Varaždin County",
      "name:fr": "Comitat de Varaždin",
      "name:hu": "Varasd megye",
      "name:it": "Regione di Varaždin",
      "name:lt": "Varaždino apskritis",
      "name:ru": "Вараждинская жупания",
      "website": "http://www.varazdinska-zupanija.hr/",
      "boundary": "administrative",
      "ref:nuts": "HR062",
      "way_area": "0.146961",
      "wikidata": "Q57967",
      "ISO3166-2": "HR-05",
      "wikipedia": "hr:Varaždinska županija",
      "ref:nuts:3": "HR062",
      "admin_level": "6"
    }
  },
  {
    "osm_id": -226209,
    "boundary": "administrative",
    "admin_level": 6,
    "parents": "-214885",
    "name": "Koprivnica-Križevci County",
    "local_name": "Koprivničko-križevačka županija",
    "name_en": "Koprivnica-Križevci County",
    "all_tags": {
      "name": "Koprivničko-križevačka županija",
      "name:de": "Gespanschaft Kopreinitz-Kreutz",
      "name:en": "Koprivnica-Križevci County",
      "name:fr": "Comitat de Koprivnica-Križevci",
      "name:hu": "Kapronca-Kőrös megye",
      "name:lt": "Koprivnicų–Križevcų apskritis",
      "name:ru": "Копривницко-Крижевацкая жупания",
      "boundary": "administrative",
      "ref:nuts": "HR063",
      "way_area": "0.203285",
      "wikidata": "Q58026",
      "ISO3166-2": "HR-06",
      "wikipedia": "hr:Koprivničko-križevačka županija",
      "ref:nuts:3": "HR063",
      "admin_level": "6"
    }
  },
  {
    "osm_id": -224183,
    "boundary": "administrative",
    "admin_level": 6,
    "parents": "-214885",
    "name": "Međimurje County",
    "local_name": "Međimurska županija",
    "name_en": "Međimurje County",
    "all_tags": {
      "name": "Međimurska županija",
      "name:de": "Gespanschaft Murinsel",
      "name:en": "Međimurje County",
      "name:fr": "Comitat de Međimurje",
      "name:hu": "Muraköz megye",
      "name:it": "Regione del Međimurje",
      "name:lt": "Medžimurjės apskritis",
      "name:ru": "Меджимурская жупания",
      "website": "http://www.medjimurska-zupanija.hr/",
      "boundary": "administrative",
      "ref:nuts": "HR061",
      "way_area": "0.0845556",
      "wikidata": "Q58330",
      "ISO3166-2": "HR-20",
      "wikipedia": "hr:Međimurska županija",
      "ref:nuts:3": "HR061",
      "admin_level": "6"
    }
  },
  {
    "osm_id": -222870,
    "boundary": "administrative",
    "admin_level": 6,
    "parents": "-214885",
    "name": "Požega-Slavonia County",
    "local_name": "Požeško-slavonska županija",
    "name_en": "Požega-Slavonia County",
    "all_tags": {
      "name": "Požeško-slavonska županija",
      "name:de": "Gespanschaft Poschegg-Slawonien",
      "name:en": "Požega-Slavonia County",
      "name:fr": "Comitat de Požega-Slavonie",
      "name:hu": "Pozsega-Szlavónia megye",
      "name:it": "Regione di Požega e della Slavonia",
      "name:lt": "Požegos–Slavonijos apskritis",
      "name:ru": "Пожежско-Славонская жупания",
      "boundary": "administrative",
      "ref:nuts": "HR023",
      "way_area": "0.20989",
      "wikidata": "Q58111",
      "ISO3166-2": "HR-11",
      "wikipedia": "hr:Požeško-slavonska županija",
      "ref:nuts:3": "HR023",
      "admin_level": "6",
      "is_in:country": "Croatia"
    }
  },
  {
    "osm_id": -222861,
    "boundary": "administrative",
    "admin_level": 6,
    "parents": "-214885",
    "name": "Brod-Posavina County",
    "local_name": "Brodsko-posavska županija",
    "name_en": "Brod-Posavina County",
    "all_tags": {
      "name": "Brodsko-posavska županija",
      "name:bs": "Brodsko-posavska županija",
      "name:de": "Gespanschaft Brod-Posavina",
      "name:en": "Brod-Posavina County",
      "name:fr": "Comitat de Brod-Posavina",
      "name:hu": "Bród-Szávamente megye",
      "name:it": "Regione di Brod e della Posavina",
      "name:lt": "Brodo–Posavinos apskritis",
      "name:ru": "Бродско-Посавская жупания",
      "boundary": "administrative",
      "ref:nuts": "HR024",
      "way_area": "0.233225",
      "wikidata": "Q58129",
      "ISO3166-2": "HR-12",
      "wikipedia": "hr:Brodsko-posavska županija",
      "ref:nuts:3": "HR024",
      "admin_level": "6"
    }
  },
  {
    "osm_id": -224165,
    "boundary": "administrative",
    "admin_level": 6,
    "parents": "-214885",
    "name": "Bjelovar-Bilogora County",
    "local_name": "Bjelovarsko-bilogorska županija",
    "name_en": "Bjelovar-Bilogora County",
    "all_tags": {
      "name": "Bjelovarsko-bilogorska županija",
      "name:en": "Bjelovar-Bilogora County",
      "name:fr": "Comitat de Bjelovar-Bilogora",
      "name:hu": "Belovár-Bilogora megye",
      "name:it": "Regione di Bjelovar e della Bilogora",
      "name:lt": "Bjelovaro–Bilogoros apskritis",
      "name:ru": "Беловарско-Билогорская жупания",
      "boundary": "administrative",
      "ref:nuts": "HR021",
      "way_area": "0.304214",
      "wikidata": "Q58060",
      "ISO3166-2": "HR-07",
      "wikipedia": "hr:Bjelovarsko-bilogorska županija",
      "ref:nuts:3": "HR021",
      "admin_level": "6"
    }
  },
  {
    "osm_id": -222869,
    "boundary": "administrative",
    "admin_level": 6,
    "parents": "-214885",
    "name": "Virovitica-Podravina County",
    "local_name": "Virovitičko-podravska županija",
    "name_en": "Virovitica-Podravina County",
    "all_tags": {
      "name": "Virovitičko-podravska županija",
      "name:de": "Gespanschaft Wirowititz-Podravina",
      "name:en": "Virovitica-Podravina County",
      "name:fr": "Comitat de Virovitica-Podravina",
      "name:hu": "Verőce-Drávamente megye",
      "name:it": "Regione di Virovitica e della Podravina",
      "name:lt": "Viroviticos–Podravinos apskritis",
      "name:ru": "Вировитицко-Подравская жупания",
      "boundary": "administrative",
      "ref:nuts": "HR022",
      "way_area": "0.23411",
      "wikidata": "Q58092",
      "ISO3166-2": "HR-10",
      "wikipedia": "hr:Virovitičko-podravska županija",
      "ref:nuts:3": "HR022",
      "admin_level": "6"
    }
  },
  {
    "osm_id": -224139,
    "boundary": "administrative",
    "admin_level": 6,
    "parents": "-214885",
    "name": "Sisak-Moslavina County",
    "local_name": "Sisačko-moslavačka županija",
    "name_en": "Sisak-Moslavina County",
    "all_tags": {
      "name": "Sisačko-moslavačka županija",
      "name:de": "Gespanschaft Sisak-Moslavina",
      "name:en": "Sisak-Moslavina County",
      "name:fr": "Comitat de Sisak-Moslavina",
      "name:hu": "Sziszek-Monoszló megye",
      "name:it": "Regione di Sisak e della Moslavina",
      "name:lt": "Sisako–Moslavinos apskritis",
      "name:ru": "Сисацко-Мославинская жупания",
      "boundary": "administrative",
      "ref:nuts": "HR028",
      "way_area": "0.512946",
      "wikidata": "Q57060",
      "ISO3166-2": "HR-03",
      "wikipedia": "hr:Sisačko-moslavačka županija",
      "ref:nuts:3": "HR028",
      "admin_level": "6"
    }
  },
  {
    "osm_id": -226750,
    "boundary": "administrative",
    "admin_level": 6,
    "parents": "-214885",
    "name": "Dubrovnik-Neretva County",
    "local_name": "Dubrovačko-neretvanska županija",
    "name_en": "Dubrovnik-Neretva County",
    "all_tags": {
      "name": "Dubrovačko-neretvanska županija",
      "name:ca": "Comtat de Dubrovnik-Neretva",
      "name:de": "Gespanschaft Dubrovnik-Neretva",
      "name:en": "Dubrovnik-Neretva County",
      "name:fr": "Comitat de Dubrovnik-Neretva",
      "name:hu": "Dubrovnik-Neretva megye",
      "name:it": "Regione raguseo-narentana",
      "name:lt": "Dubrovnikų–Neretvos apskritis",
      "name:ru": "Дубровницко-Неретванская жупания",
      "boundary": "administrative",
      "ref:nuts": "HR037",
      "way_area": "0.958909",
      "wikidata": "Q58289",
      "ISO3166-2": "HR-19",
      "wikipedia": "en:Dubrovnik-Neretva County",
      "ref:nuts:3": "HR037",
      "admin_level": "6"
    }
  },
  {
    "osm_id": -226224,
    "boundary": "administrative",
    "admin_level": 6,
    "parents": "-214885",
    "name": "City of Zagreb",
    "local_name": "Grad Zagreb",
    "name_en": "City of Zagreb",
    "all_tags": {
      "name": "Grad Zagreb",
      "name:de": "Stadt Zagreb",
      "name:en": "City of Zagreb",
      "name:fr": "Ville de Zagreb",
      "name:hu": "Zágráb város",
      "name:it": "Città di Zagabria",
      "name:lt": "Zagrebo miestas",
      "name:ru": "Город Загреб",
      "boundary": "administrative",
      "ref:nuts": "HR05;HR050",
      "way_area": "0.0742203",
      "wikidata": "Q1435",
      "ISO3166-2": "HR-21",
      "wikipedia": "hr:Zagreb",
      "population": "807254",
      "ref:nuts:2": "HR05",
      "ref:nuts:3": "HR050",
      "admin_level": "6",
      "population:date": "2019"
    }
  },
  {
    "osm_id": -226749,
    "boundary": "administrative",
    "admin_level": 6,
    "parents": "-214885",
    "name": "Split-Dalmatia County",
    "local_name": "Splitsko-dalmatinska županija",
    "name_en": "Split-Dalmatia County",
    "all_tags": {
      "name": "Splitsko-dalmatinska županija",
      "name:ca": "Comtat de Split-Dalmàcia",
      "name:de": "Gespanschaft Split-Dalmatien",
      "name:en": "Split-Dalmatia County",
      "name:fr": "Comitat de Split-Dalmatie",
      "name:hu": "Split-Dalmácia megye",
      "name:it": "Regione spalatino-dalmata",
      "name:lt": "Splito–Dalmatijos apskritis",
      "name:ru": "Сплитско-Далматинская жупания",
      "boundary": "administrative",
      "ref:nuts": "HR035",
      "way_area": "1.56062",
      "wikidata": "Q58253",
      "ISO3166-2": "HR-17",
      "wikipedia": "en:Split-Dalmatia County",
      "ref:nuts:3": "HR035",
      "admin_level": "6"
    }
  },
  {
    "osm_id": -226452,
    "boundary": "administrative",
    "admin_level": 6,
    "parents": "-214885",
    "name": "Primorje-Gorski Kotar County",
    "local_name": "Primorsko-goranska županija",
    "name_en": "Primorje-Gorski Kotar County",
    "all_tags": {
      "name": "Primorsko-goranska županija",
      "name:de": "Gespanschaft Küstenland-Bergland",
      "name:en": "Primorje-Gorski Kotar County",
      "name:fr": "Comitat de Primorje-Gorski Kotar",
      "name:hu": "Tengermellék-Hegyvidék megye",
      "name:it": "Regione litoraneo-montana",
      "name:lt": "Primorjės–Kalnų Kotaro apskritis",
      "name:ru": "Приморско-Горанская жупания",
      "boundary": "administrative",
      "ref:nuts": "HR031",
      "way_area": "0.89061",
      "wikidata": "Q58071",
      "ISO3166-2": "HR-08",
      "wikipedia": "hr:Primorsko-goranska županija",
      "ref:nuts:3": "HR031",
      "admin_level": "6"
    }
  },
  {
    "osm_id": -222649,
    "boundary": "administrative",
    "admin_level": 6,
    "parents": "-214885",
    "name": "Vukovar-Srijem County",
    "local_name": "Vukovarsko-srijemska županija",
    "name_en": "Vukovar-Srijem County",
    "all_tags": {
      "name": "Vukovarsko-srijemska županija",
      "name:ca": "Comtat de Vukovar-Srijem",
      "name:de": "Gespanschaft Vukovar-Syrmien",
      "name:en": "Vukovar-Srijem County",
      "name:fr": "Comitat de Vukovar-Syrmie",
      "name:hr": "Vukovarsko-srijemska županija",
      "name:hu": "Vukovár-Szerém megye",
      "name:it": "Regione di Vukovar e della Sirmia",
      "name:lt": "Vukovaro–Srijemo apskritis",
      "name:ru": "Вуковарско-Сремская жупания",
      "name:sr": "Вуковарско-сремска жупанија",
      "boundary": "administrative",
      "ref:nuts": "HR026",
      "way_area": "0.280142",
      "wikidata": "Q58225",
      "ISO3166-2": "HR-16",
      "wikipedia": "hr:Vukovarsko-srijemska županija",
      "ref:nuts:3": "HR026",
      "admin_level": "6",
      "name:sr-Latn": "Vukovarsko-sremska županija"
    }
  },
  {
    "osm_id": -226726,
    "boundary": "administrative",
    "admin_level": 6,
    "parents": "-214885",
    "name": "Zadar County",
    "local_name": "Zadarska županija",
    "name_en": "Zadar County",
    "all_tags": {
      "name": "Zadarska županija",
      "name:de": "Gespanschaft Zadar",
      "name:en": "Zadar County",
      "name:fr": "Comitat de Zadar",
      "name:hu": "Zára megye",
      "name:it": "Regione zaratina",
      "name:lt": "Zadaro apskritis",
      "name:ru": "Задарская жупания",
      "boundary": "administrative",
      "ref:nuts": "HR033",
      "way_area": "0.840054",
      "wikidata": "Q58146",
      "ISO3166-2": "HR-13",
      "wikipedia": "hr:Zadarska županija",
      "ref:nuts:3": "HR033",
      "admin_level": "6"
    }
  }
]
