[
  {
    "osm_id": -392238,
    "boundary": "administrative",
    "admin_level": 4,
    "parents": "-307829",
    "name": "Artibonite Department",
    "local_name": "Département de l'Artibonite",
    "name_en": "Artibonite Department",
    "all_tags": {
      "name": "Département de l'Artibonite",
      "name:en": "Artibonite Department",
      "name:ht": "Latibonit",
      "name:ru": "Артибонит",
      "name:uk": "Артібоніт",
      "name:zh": "阿蒂博尼特省",
      "boundary": "administrative",
      "ref:IHSI": "05",
      "way_area": "0.41795",
      "wikidata": "Q844024",
      "ISO3166-2": "HT-AR",
      "wikipedia": "fr:Artibonite (département d'Haïti)",
      "admin_level": "4",
      "border_type": "department"
    }
  },
  {
    "osm_id": -394518,
    "boundary": "administrative",
    "admin_level": 5,
    "parents": "-2744350,-307829",
    "name": "Arrondissement des Cayes",
    "local_name": "Arrondissement des Cayes",
    "name_en": null,
    "all_tags": {
      "name": "Arrondissement des Cayes",
      "boundary": "administrative",
      "ref:IHSI": "071",
      "way_area": "0.0738194",
      "wikidata": "Q267547",
      "admin_level": "5"
    }
  },
  {
    "osm_id": -2744350,
    "boundary": "administrative",
    "admin_level": 4,
    "parents": "-307829",
    "name": "Sud Department",
    "local_name": "Département du Sud",
    "name_en": "Sud Department",
    "all_tags": {
      "name": "Département du Sud",
      "name:en": "Sud Department",
      "name:ht": "Sid",
      "boundary": "administrative",
      "ref:IHSI": "07",
      "way_area": "0.228994",
      "wikidata": "Q936704",
      "ISO3166-2": "HT-SD",
      "wikipedia": "fr:Sud (département d'Haïti)",
      "admin_level": "4",
      "border_type": "department"
    }
  },
  {
    "osm_id": -393396,
    "boundary": "administrative",
    "admin_level": 5,
    "parents": "-391700,-307829",
    "name": "Arrondissement d'Anse d'Hainault",
    "local_name": "Arrondissement d'Anse d'Hainault",
    "name_en": null,
    "all_tags": {
      "name": "Arrondissement d'Anse d'Hainault",
      "is_in": "Grand'Anse",
      "boundary": "administrative",
      "way_area": "0.0280486",
      "wikidata": "Q2499823",
      "admin_level": "5"
    }
  },
  {
    "osm_id": -393435,
    "boundary": "administrative",
    "admin_level": 5,
    "parents": "-391700,-307829",
    "name": "Arrondissement de Corail",
    "local_name": "Arrondissement de Corail",
    "name_en": null,
    "all_tags": {
      "name": "Arrondissement de Corail",
      "boundary": "administrative",
      "way_area": "0.0669726",
      "wikidata": "Q2233954",
      "admin_level": "5"
    }
  },
  {
    "osm_id": -407263,
    "boundary": "administrative",
    "admin_level": 5,
    "parents": "-391834,-307829",
    "name": "Arrondissement de Baradères",
    "local_name": "Arrondissement de Baradères",
    "name_en": null,
    "all_tags": {
      "name": "Arrondissement de Baradères",
      "boundary": "administrative",
      "way_area": "0.0199276",
      "wikidata": "Q967260",
      "admin_level": "5"
    }
  },
  {
    "osm_id": -394517,
    "boundary": "administrative",
    "admin_level": 5,
    "parents": "-2744350,-307829",
    "name": "Arrondissement d’Aquin",
    "local_name": "Arrondissement d’Aquin",
    "name_en": null,
    "all_tags": {
      "name": "Arrondissement d’Aquin",
      "boundary": "administrative",
      "way_area": "0.0908956",
      "wikidata": "Q2130122",
      "admin_level": "5"
    }
  },
  {
    "osm_id": -393324,
    "boundary": "administrative",
    "admin_level": 5,
    "parents": "-391834,-307829",
    "name": "Arrondissement de l’Anse-à-Veau",
    "local_name": "Arrondissement de l’Anse-à-Veau",
    "name_en": null,
    "all_tags": {
      "name": "Arrondissement de l’Anse-à-Veau",
      "boundary": "administrative",
      "way_area": "0.0500473",
      "wikidata": "Q2536941",
      "admin_level": "5"
    }
  },
  {
    "osm_id": -393320,
    "boundary": "administrative",
    "admin_level": 5,
    "parents": "-391834,-307829",
    "name": "Arrondissement de Miragoâne",
    "local_name": "Arrondissement de Miragoâne",
    "name_en": null,
    "all_tags": {
      "name": "Arrondissement de Miragoâne",
      "boundary": "administrative",
      "way_area": "0.0343097",
      "wikidata": "Q2711200",
      "admin_level": "5"
    }
  },
  {
    "osm_id": -393374,
    "boundary": "administrative",
    "admin_level": 5,
    "parents": "-391963,-307829",
    "name": "Arrondissement Môle-Saint-Nicolas",
    "local_name": "Arrondissement Môle-Saint-Nicolas",
    "name_en": null,
    "all_tags": {
      "name": "Arrondissement Môle-Saint-Nicolas",
      "boundary": "administrative",
      "way_area": "0.09551",
      "wikidata": "Q516732",
      "admin_level": "5"
    }
  },
  {
    "osm_id": -394504,
    "boundary": "administrative",
    "admin_level": 5,
    "parents": "-391953,-307829",
    "name": "Arrondissement de Bainet",
    "local_name": "Arrondissement de Bainet",
    "name_en": null,
    "all_tags": {
      "name": "Arrondissement de Bainet",
      "boundary": "administrative",
      "way_area": "0.041231",
      "wikidata": "Q2711284",
      "admin_level": "5"
    }
  },
  {
    "osm_id": -391953,
    "boundary": "administrative",
    "admin_level": 4,
    "parents": "-307829",
    "name": "Département du Sud-Est",
    "local_name": "Département du Sud-Est",
    "name_en": null,
    "all_tags": {
      "name": "Département du Sud-Est",
      "name:ht": "Depatman Sidès",
      "boundary": "administrative",
      "ref:IHSI": "02",
      "way_area": "0.175147",
      "wikidata": "Q936717",
      "ISO3166-2": "HT-SE",
      "admin_level": "4"
    }
  },
  {
    "osm_id": -394505,
    "boundary": "administrative",
    "admin_level": 5,
    "parents": "-391953,-307829",
    "name": "Arrondissement Belle-Anse",
    "local_name": "Arrondissement Belle-Anse",
    "name_en": null,
    "all_tags": {
      "name": "Arrondissement Belle-Anse",
      "boundary": "administrative",
      "way_area": "0.0658577",
      "wikidata": "Q2593029",
      "admin_level": "5",
      "border_type": "a"
    }
  },
  {
    "osm_id": -6055556,
    "boundary": "census",
    "admin_level": 6,
    "parents": "-386871,-307829",
    "name": "Communauté de Municipalités de la Région des Palmes",
    "local_name": "Communauté de Municipalités de la Région des Palmes",
    "name_en": null,
    "all_tags": {
      "name": "Communauté de Municipalités de la Région des Palmes",
      "boundary": "census",
      "way_area": "0.095232",
      "short_name": "CMRP",
      "admin_level": "6"
    }
  },
  {
    "osm_id": -387650,
    "boundary": "administrative",
    "admin_level": 5,
    "parents": "-386871,-307829",
    "name": "Arrondissement de Léogâne",
    "local_name": "Arrondissement de Léogâne",
    "name_en": null,
    "all_tags": {
      "name": "Arrondissement de Léogâne",
      "name:fr": "Arrondissement de Léogâne",
      "name:ht": "Leyogàn",
      "boundary": "administrative",
      "way_area": "0.0876966",
      "wikidata": "Q509810",
      "admin_level": "5",
      "border_type": "arrondissement"
    }
  },
  {
    "osm_id": -387093,
    "boundary": "administrative",
    "admin_level": 5,
    "parents": "-386871,-307829",
    "name": "Arrondissement de La Gonâve",
    "local_name": "Arrondissement de La Gonâve",
    "name_en": null,
    "all_tags": {
      "name": "Arrondissement de La Gonâve",
      "name:es": "Isla de la Gonâve",
      "boundary": "administrative",
      "way_area": "0.0587347",
      "wikidata": "Q268282",
      "admin_level": "5",
      "border_type": "arrondissement"
    }
  },
  {
    "osm_id": -387690,
    "boundary": "administrative",
    "admin_level": 5,
    "parents": "-386871,-307829",
    "name": "Arrondissement de l’Arcahaie",
    "local_name": "Arrondissement de l’Arcahaie",
    "name_en": null,
    "all_tags": {
      "name": "Arrondissement de l’Arcahaie",
      "boundary": "administrative",
      "way_area": "0.0527194",
      "wikidata": "Q1887237",
      "admin_level": "5"
    }
  },
  {
    "osm_id": -387318,
    "boundary": "administrative",
    "admin_level": 5,
    "parents": "-386871,-307829",
    "name": "Port-au-Prince",
    "local_name": "Arrondissement de Port-au-Prince",
    "name_en": "Port-au-Prince",
    "all_tags": {
      "name": "Arrondissement de Port-au-Prince",
      "name:af": "Port-au-Prince",
      "name:am": "ፖርቶፕሪንስ",
      "name:ar": "بورت أو برانس",
      "name:ay": "Port-au-Prince",
      "name:az": "Port-o-Prins",
      "name:be": "Порт-о-Прэнс",
      "name:bg": "Порт о Пренс",
      "name:bn": "পোর্ট-অ-প্রিন্স",
      "name:bo": "པོ་རོ་ཊི་ཨའུ་པི་རིན་སི།",
      "name:br": "Port-au-Prince",
      "name:bs": "Port-au-Prince",
      "name:ca": "Port-au-Prince",
      "name:cs": "Port-au-Prince",
      "name:cy": "Port-au-Prince",
      "name:da": "Port-au-Prince",
      "name:de": "Port-au-Prince",
      "name:el": "Πορτ-ο-Πρενς",
      "name:en": "Port-au-Prince",
      "name:eo": "Portoprinco",
      "name:es": "Puerto Príncipe",
      "name:et": "Port-au-Prince",
      "name:eu": "Port-au-Prince",
      "name:fa": "پورتو پرنس",
      "name:fi": "Port-au-Prince",
      "name:fy": "Port-au-Prince",
      "name:ga": "Port-au-Prince",
      "name:gd": "Port-au-Prince",
      "name:gl": "Porto Príncipe",
      "name:he": "פורט-או-פרנס",
      "name:hi": "पोर्ट-ऑ-प्रिंस",
      "name:hr": "Port-au-Prince",
      "name:ht": "Pòtoprens (komin)",
      "name:hu": "Port-au-Prince",
      "name:hy": "Պորտ-օ-Պրենս",
      "name:id": "Port-au-Prince",
      "name:io": "Port-au-Prince",
      "name:is": "Port-au-Prince",
      "name:it": "Port-au-Prince",
      "name:ja": "ポルトープランス",
      "name:ka": "პორტ-ო-პრენსი",
      "name:ko": "포르토프랭스",
      "name:la": "Portus Principis",
      "name:lb": "Port-au-Prince",
      "name:ln": "Port-au-Prince",
      "name:lt": "Port o Prensas",
      "name:lv": "Portoprensa",
      "name:mg": "Port-au-Prince",
      "name:mk": "Порт о Пренс",
      "name:mr": "पोर्ट-औ-प्रिन्स",
      "name:ms": "Port-au-Prince",
      "name:nl": "Port-au-Prince",
      "name:nn": "Port-au-Prince",
      "name:no": "Port-au-Prince",
      "name:oc": "Port-au-Prince",
      "name:os": "Порт-о-Пренс",
      "name:pl": "Port-au-Prince",
      "name:pt": "Porto Príncipe",
      "name:qu": "Port au Prince",
      "name:ro": "Port-au-Prince",
      "name:ru": "Порт-о-Пренс",
      "name:sc": "Port-au-Prince",
      "name:sk": "Port-au-Prince",
      "name:sl": "Port-au-Prince",
      "name:sq": "Port-au-Prince",
      "name:sr": "Порт о Пренс",
      "name:sv": "Port-au-Prince",
      "name:sw": "Port-au-Prince",
      "name:ta": "போர்ட்-ஓ-பிரின்ஸ்",
      "name:tg": "Порт-о-Пренс",
      "name:th": "ปอร์โตแปรงซ์",
      "name:tl": "Port-au-Prince",
      "name:tr": "Port-au-Prince",
      "name:uk": "Порт-о-Пренс",
      "name:ur": "پورٹ او پرنس",
      "name:vi": "Port-au-Prince",
      "name:vo": "Port-au-Prince",
      "name:yo": "Port-au-Prince",
      "name:zh": "太子港",
      "boundary": "administrative",
      "ref:IHSI": "011",
      "way_area": "0.0621752",
      "wikidata": "Q34261",
      "wikipedia": "fr:Port-au-Prince",
      "admin_level": "5",
      "name:be-tarask": "Порт-о-Прэнс"
    }
  },
  {
    "osm_id": -393329,
    "boundary": "administrative",
    "admin_level": 5,
    "parents": "-386871,-307829",
    "name": "Arrondissement de Croix-des-Bouquets",
    "local_name": "Arrondissement de Croix-des-Bouquets",
    "name_en": null,
    "all_tags": {
      "name": "Arrondissement de Croix-des-Bouquets",
      "boundary": "administrative",
      "way_area": "0.165751",
      "wikidata": "Q890732",
      "admin_level": "5"
    }
  },
  {
    "osm_id": -392360,
    "boundary": "administrative",
    "admin_level": 5,
    "parents": "-392238,-307829",
    "name": "Arrondissement Gros Morne",
    "local_name": "Arrondissement Gros Morne",
    "name_en": null,
    "all_tags": {
      "name": "Arrondissement Gros Morne",
      "boundary": "administrative",
      "ref:IHSI": "052",
      "way_area": "0.0871455",
      "wikidata": "Q2281490",
      "admin_level": "5"
    }
  },
  {
    "osm_id": -392359,
    "boundary": "administrative",
    "admin_level": 5,
    "parents": "-392238,-307829",
    "name": "Arrondissement des Gonaïves",
    "local_name": "Arrondissement des Gonaïves",
    "name_en": null,
    "all_tags": {
      "name": "Arrondissement des Gonaïves",
      "boundary": "administrative",
      "ref:IHSI": "051",
      "way_area": "0.0822034",
      "wikidata": "Q2332261",
      "admin_level": "5"
    }
  },
  {
    "osm_id": -392213,
    "boundary": "administrative",
    "admin_level": 4,
    "parents": "-307829",
    "name": "Centre Department",
    "local_name": "Département du Centre",
    "name_en": "Centre Department",
    "all_tags": {
      "name": "Département du Centre",
      "name:en": "Centre Department",
      "name:ht": "Depatman Sant",
      "boundary": "administrative",
      "ref:IHSI": "06",
      "way_area": "0.297221",
      "wikidata": "Q844528",
      "ISO3166-2": "HT-CE",
      "wikipedia": "fr:Centre (département d'Haïti)",
      "admin_level": "4"
    }
  },
  {
    "osm_id": -393486,
    "boundary": "administrative",
    "admin_level": 5,
    "parents": "-392213,-307829",
    "name": "Arrondissement de Hinche",
    "local_name": "Arrondissement de Hinche",
    "name_en": null,
    "all_tags": {
      "name": "Arrondissement de Hinche",
      "boundary": "administrative",
      "ref:IHSI": "061",
      "way_area": "0.119864",
      "wikidata": "Q2206238",
      "admin_level": "5"
    }
  },
  {
    "osm_id": -393483,
    "boundary": "administrative",
    "admin_level": 5,
    "parents": "-392213,-307829",
    "name": "Arrondissement Cerca La Source",
    "local_name": "Arrondissement Cerca La Source",
    "name_en": null,
    "all_tags": {
      "name": "Arrondissement Cerca La Source",
      "boundary": "administrative",
      "way_area": "0.0516799",
      "wikidata": "Q2010000",
      "admin_level": "5"
    }
  },
  {
    "osm_id": -392363,
    "boundary": "administrative",
    "admin_level": 5,
    "parents": "-392238,-307829",
    "name": "Arrondissement de Marmelade",
    "local_name": "Arrondissement de Marmelade",
    "name_en": null,
    "all_tags": {
      "name": "Arrondissement de Marmelade",
      "boundary": "administrative",
      "way_area": "0.0614681",
      "wikidata": "Q2723830",
      "admin_level": "5"
    }
  },
  {
    "osm_id": -392028,
    "boundary": "administrative",
    "admin_level": 4,
    "parents": "-307829",
    "name": "Département du Nord",
    "local_name": "Département du Nord",
    "name_en": null,
    "all_tags": {
      "name": "Département du Nord",
      "name:ht": "Depatman Nòdwès",
      "boundary": "administrative",
      "ref:IHSI": "03",
      "way_area": "0.181411",
      "wikidata": "Q943932",
      "ISO3166-2": "HT-ND",
      "wikipedia": "fr:Nord (département d'Haïti)",
      "admin_level": "4",
      "border_type": "department"
    }
  },
  {
    "osm_id": -394463,
    "boundary": "administrative",
    "admin_level": 5,
    "parents": "-392028,-307829",
    "name": "Arrondissement d'Acul-du-Nord",
    "local_name": "Arrondissement d'Acul-du-Nord",
    "name_en": null,
    "all_tags": {
      "name": "Arrondissement d'Acul-du-Nord",
      "boundary": "administrative",
      "ref:IHSI": "032",
      "way_area": "0.0308839",
      "wikidata": "Q2430211",
      "wikipedia": "fr:Arrondissement d'Acul-du-Nord",
      "admin_level": "5"
    }
  },
  {
    "osm_id": -394460,
    "boundary": "administrative",
    "admin_level": 5,
    "parents": "-392189,-307829",
    "name": "Arrondissement Vallières",
    "local_name": "Arrondissement Vallières",
    "name_en": null,
    "all_tags": {
      "name": "Arrondissement Vallières",
      "boundary": "administrative",
      "way_area": "0.0354529",
      "wikidata": "Q2032812",
      "admin_level": "5"
    }
  },
  {
    "osm_id": -392189,
    "boundary": "administrative",
    "admin_level": 4,
    "parents": "-307829",
    "name": "Nord-Est Department",
    "local_name": "Département du Nord-Est",
    "name_en": "Nord-Est Department",
    "all_tags": {
      "name": "Département du Nord-Est",
      "name:en": "Nord-Est Department",
      "name:ht": "Depatman Nòdès",
      "boundary": "administrative",
      "ref:IHSI": "04",
      "way_area": "0.140079",
      "wikidata": "Q928694",
      "ISO3166-2": "HT-NE",
      "wikipedia": "fr:Nord-Est (département d'Haïti)",
      "admin_level": "4"
    }
  },
  {
    "osm_id": -394459,
    "boundary": "administrative",
    "admin_level": 5,
    "parents": "-392189,-307829",
    "name": "Arrondissement Trou-Du-Nord",
    "local_name": "Arrondissement Trou-Du-Nord",
    "name_en": null,
    "all_tags": {
      "name": "Arrondissement Trou-Du-Nord",
      "boundary": "administrative",
      "way_area": "0.0432836",
      "wikidata": "Q2711206",
      "admin_level": "5"
    }
  },
  {
    "osm_id": -394452,
    "boundary": "administrative",
    "admin_level": 5,
    "parents": "-392189,-307829",
    "name": "Arrondissement de Fort-Liberté",
    "local_name": "Arrondissement de Fort-Liberté",
    "name_en": null,
    "all_tags": {
      "name": "Arrondissement de Fort-Liberté",
      "boundary": "administrative",
      "way_area": "0.029867",
      "wikidata": "Q1905987",
      "admin_level": "5"
    }
  },
  {
    "osm_id": -393379,
    "boundary": "administrative",
    "admin_level": 5,
    "parents": "-391963,-307829",
    "name": "Arrondissement Port-de-Paix",
    "local_name": "Arrondissement Port-de-Paix",
    "name_en": null,
    "all_tags": {
      "name": "Arrondissement Port-de-Paix",
      "boundary": "administrative",
      "way_area": "0.0695319",
      "wikidata": "Q1883102",
      "admin_level": "5",
      "border_type": "arrondissement"
    }
  },
  {
    "osm_id": -394465,
    "boundary": "administrative",
    "admin_level": 5,
    "parents": "-392028,-307829",
    "name": "Arrondissement Borgne",
    "local_name": "Arrondissement Borgne",
    "name_en": null,
    "all_tags": {
      "name": "Arrondissement Borgne",
      "boundary": "administrative",
      "way_area": "0.0265222",
      "wikidata": "Q2710935",
      "admin_level": "5",
      "border_type": "arrondissement"
    }
  },
  {
    "osm_id": -394467,
    "boundary": "administrative",
    "admin_level": 5,
    "parents": "-392028,-307829",
    "name": "Arrondissement de Cap-Haïtien",
    "local_name": "Arrondissement de Cap-Haïtien",
    "name_en": null,
    "all_tags": {
      "name": "Arrondissement de Cap-Haïtien",
      "boundary": "administrative",
      "ref:IHSI": "031",
      "way_area": "0.0212137",
      "wikidata": "Q1110939",
      "wikipedia": "fr:Arrondissement de Cap-Haïtien",
      "admin_level": "5"
    }
  },
  {
    "osm_id": -393492,
    "boundary": "administrative",
    "admin_level": 5,
    "parents": "-392213,-307829",
    "name": "Arrondissement de Mirebalais",
    "local_name": "Arrondissement de Mirebalais",
    "name_en": null,
    "all_tags": {
      "name": "Arrondissement de Mirebalais",
      "boundary": "administrative",
      "way_area": "0.0731427",
      "wikidata": "Q2635422",
      "admin_level": "5"
    }
  },
  {
    "osm_id": -394516,
    "boundary": "administrative",
    "admin_level": 5,
    "parents": "-391953,-307829",
    "name": "Arrondissement de Jacmel",
    "local_name": "Arrondissement de Jacmel",
    "name_en": null,
    "all_tags": {
      "name": "Arrondissement de Jacmel",
      "boundary": "administrative",
      "way_area": "0.0680583",
      "wikidata": "Q2710845",
      "admin_level": "5"
    }
  },
  {
    "osm_id": -394494,
    "boundary": "administrative",
    "admin_level": 5,
    "parents": "-392028,-307829",
    "name": "Arrondissement Plaisance",
    "local_name": "Arrondissement Plaisance",
    "name_en": null,
    "all_tags": {
      "name": "Arrondissement Plaisance",
      "boundary": "administrative",
      "way_area": "0.0221793",
      "wikidata": "Q2711262",
      "admin_level": "5",
      "border_type": "arrondissement"
    }
  },
  {
    "osm_id": -394488,
    "boundary": "administrative",
    "admin_level": 5,
    "parents": "-392028,-307829",
    "name": "Arrondissement Grande-Rivière-Du-Nord",
    "local_name": "Arrondissement Grande-Rivière-Du-Nord",
    "name_en": null,
    "all_tags": {
      "name": "Arrondissement Grande-Rivière-Du-Nord",
      "boundary": "administrative",
      "way_area": "0.0176992",
      "wikidata": "Q2481388",
      "admin_level": "5"
    }
  },
  {
    "osm_id": -393381,
    "boundary": "administrative",
    "admin_level": 5,
    "parents": "-391963,-307829",
    "name": "Arrondissement Saint-Louis du Nord",
    "local_name": "Arrondissement Saint-Louis du Nord",
    "name_en": null,
    "all_tags": {
      "name": "Arrondissement Saint-Louis du Nord",
      "boundary": "administrative",
      "way_area": "0.015901",
      "wikidata": "Q949328",
      "admin_level": "5"
    }
  },
  {
    "osm_id": -394522,
    "boundary": "administrative",
    "admin_level": 5,
    "parents": "-2744350,-307829",
    "name": "Arrondissement Port-Salut",
    "local_name": "Arrondissement Port-Salut",
    "name_en": null,
    "all_tags": {
      "name": "Arrondissement Port-Salut",
      "boundary": "administrative",
      "way_area": "0.0155785",
      "wikidata": "Q2710699",
      "admin_level": "5"
    }
  },
  {
    "osm_id": -394521,
    "boundary": "administrative",
    "admin_level": 5,
    "parents": "-2744350,-307829",
    "name": "Arrondissement des Côteaux",
    "local_name": "Arrondissement des Côteaux",
    "name_en": null,
    "all_tags": {
      "name": "Arrondissement des Côteaux",
      "boundary": "administrative",
      "way_area": "0.015437",
      "wikidata": "Q2711270",
      "admin_level": "5"
    }
  },
  {
    "osm_id": -391834,
    "boundary": "administrative",
    "admin_level": 4,
    "parents": "-307829",
    "name": "Département des Nippes",
    "local_name": "Département des Nippes",
    "name_en": null,
    "all_tags": {
      "name": "Département des Nippes",
      "name:ht": "Depatman Nip",
      "boundary": "administrative",
      "ref:IHSI": "10",
      "way_area": "0.104298",
      "wikidata": "Q125232",
      "ISO3166-2": "HT-NI",
      "admin_level": "4",
      "border_type": "depatment"
    }
  },
  {
    "osm_id": -391963,
    "boundary": "administrative",
    "admin_level": 4,
    "parents": "-307829",
    "name": "Nord-Ouest Department",
    "local_name": "Département du Nord-Ouest",
    "name_en": "Nord-Ouest Department",
    "all_tags": {
      "name": "Département du Nord-Ouest",
      "name:en": "Nord-Ouest Department",
      "name:ht": "Depatman Nòdwès",
      "boundary": "administrative",
      "ref:IHSI": "09",
      "way_area": "0.180943",
      "wikidata": "Q608361",
      "ISO3166-2": "HT-NO",
      "wikipedia": "fr:Nord-Ouest (département d'Haïti)",
      "admin_level": "4"
    }
  },
  {
    "osm_id": -393437,
    "boundary": "administrative",
    "admin_level": 5,
    "parents": "-391700,-307829",
    "name": "Arrondissement de Jérémie",
    "local_name": "Arrondissement de Jérémie",
    "name_en": null,
    "all_tags": {
      "name": "Arrondissement de Jérémie",
      "boundary": "administrative",
      "way_area": "0.0694563",
      "wikidata": "Q2710687",
      "admin_level": "5"
    }
  },
  {
    "osm_id": -392364,
    "boundary": "administrative",
    "admin_level": 5,
    "parents": "-392238,-307829",
    "name": "Arrondissement de Saint-Marc",
    "local_name": "Arrondissement de Saint-Marc",
    "name_en": null,
    "all_tags": {
      "name": "Arrondissement de Saint-Marc",
      "boundary": "administrative",
      "way_area": "0.0902584",
      "wikidata": "Q2344134",
      "admin_level": "5",
      "border_type": "arrondissement"
    }
  },
  {
    "osm_id": -395432,
    "boundary": "administrative",
    "admin_level": 5,
    "parents": "-392028,-307829",
    "name": "Arrondissement Saint-Raphaël",
    "local_name": "Arrondissement Saint-Raphaël",
    "name_en": null,
    "all_tags": {
      "name": "Arrondissement Saint-Raphaël",
      "boundary": "administrative",
      "way_area": "0.0480826",
      "wikidata": "Q2013569",
      "admin_level": "5"
    }
  },
  {
    "osm_id": -394456,
    "boundary": "administrative",
    "admin_level": 5,
    "parents": "-392189,-307829",
    "name": "Arrondissement Ouanaminthe",
    "local_name": "Arrondissement Ouanaminthe",
    "name_en": null,
    "all_tags": {
      "name": "Arrondissement Ouanaminthe",
      "boundary": "administrative",
      "way_area": "0.0314721",
      "wikidata": "Q2364573",
      "admin_level": "5"
    }
  },
  {
    "osm_id": -393488,
    "boundary": "administrative",
    "admin_level": 5,
    "parents": "-392213,-307829",
    "name": "Arrondissement Lascahobas",
    "local_name": "Arrondissement Lascahobas",
    "name_en": null,
    "all_tags": {
      "name": "Arrondissement Lascahobas",
      "boundary": "administrative",
      "way_area": "0.0525348",
      "wikidata": "Q2196184",
      "admin_level": "5"
    }
  },
  {
    "osm_id": -394493,
    "boundary": "administrative",
    "admin_level": 5,
    "parents": "-392028,-307829",
    "name": "Arrondissement Limbé",
    "local_name": "Arrondissement Limbé",
    "name_en": null,
    "all_tags": {
      "name": "Arrondissement Limbé",
      "boundary": "administrative",
      "ref:IHSI": "036",
      "way_area": "0.0148302",
      "wikidata": "Q1926813",
      "admin_level": "5",
      "border_type": "arrondissement"
    }
  },
  {
    "osm_id": -394519,
    "boundary": "administrative",
    "admin_level": 5,
    "parents": "-2744350,-307829",
    "name": "Arrondissement des Chardonnières",
    "local_name": "Arrondissement des Chardonnières",
    "name_en": null,
    "all_tags": {
      "name": "Arrondissement des Chardonnières",
      "capital": "5",
      "boundary": "administrative",
      "way_area": "0.0329468",
      "wikidata": "Q919314",
      "admin_level": "5"
    }
  },
  {
    "osm_id": -392354,
    "boundary": "administrative",
    "admin_level": 5,
    "parents": "-392238,-307829",
    "name": "Arrondissement de Dessalines",
    "local_name": "Arrondissement de Dessalines",
    "name_en": null,
    "all_tags": {
      "name": "Arrondissement de Dessalines",
      "boundary": "administrative",
      "way_area": "0.0968745",
      "wikidata": "Q2538562",
      "admin_level": "5"
    }
  },
  {
    "osm_id": -391700,
    "boundary": "administrative",
    "admin_level": 4,
    "parents": "-307829",
    "name": "Département de la Grande-Anse",
    "local_name": "Département de la Grande-Anse",
    "name_en": null,
    "all_tags": {
      "name": "Département de la Grande-Anse",
      "name:ht": "Depatman Grandans",
      "boundary": "administrative",
      "ref:IHSI": "08",
      "way_area": "0.164477",
      "wikidata": "Q913231",
      "ISO3166-2": "HT-GA",
      "admin_level": "4"
    }
  },
  {
    "osm_id": -386871,
    "boundary": "administrative",
    "admin_level": 4,
    "parents": "-307829",
    "name": "Département de l'Ouest",
    "local_name": "Département de l'Ouest",
    "name_en": null,
    "all_tags": {
      "name": "Département de l'Ouest",
      "name:ar": "الإدارة الغربية",
      "name:es": "Departamento Oeste",
      "name:fa": "شهرستان غربی",
      "name:ht": "Depatman Lwès",
      "name:ur": "مغربی محکمہ",
      "boundary": "administrative",
      "ref:IHSI": "01",
      "way_area": "0.427089",
      "wikidata": "Q1434621",
      "ISO3166-2": "HT-OU",
      "wikipedia": "es:Departamento Oeste (Haití)",
      "admin_level": "4",
      "border_type": "department"
    }
  }
]
