[
  {
    "osm_id": -22278,
    "boundary": "administrative",
    "admin_level": 6,
    "parents": "-22783,-22787,-21335",
    "name": "Veszprém",
    "local_name": "Veszprém megye",
    "name_en": "Veszprém",
    "all_tags": {
      "name": "Veszprém megye",
      "place": "county",
      "name:de": "Komitat Wesprim",
      "name:en": "Veszprém",
      "name:hr": "Vesprimaska županija",
      "name:ru": "медье Веспрем",
      "boundary": "administrative",
      "place:hu": "megye",
      "ref:nuts": "HU213",
      "way_area": "0.529052",
      "wikidata": "Q188890",
      "ISO3166-2": "HU-VE",
      "wikipedia": "hu:Veszprém megye",
      "ref:nuts:3": "HU213",
      "admin_level": "6"
    }
  },
  {
    "osm_id": -22266,
    "boundary": "administrative",
    "admin_level": 6,
    "parents": "-22719,-22793,-21335",
    "name": "Békés",
    "local_name": "Békés megye",
    "name_en": "Békés",
    "all_tags": {
      "name": "Békés megye",
      "place": "county",
      "name:de": "Komitat Békés",
      "name:en": "Békés",
      "name:hr": "Bekeška županija",
      "name:ro": "județul Bichiș",
      "name:ru": "медье Бекеш",
      "boundary": "administrative",
      "place:hu": "megye",
      "ref:nuts": "HU332",
      "way_area": "0.662636",
      "wikidata": "Q191616",
      "ISO3166-2": "HU-BE",
      "wikipedia": "hu:Békés megye",
      "ref:nuts:3": "HU332",
      "admin_level": "6"
    }
  },
  {
    "osm_id": -22255,
    "boundary": "administrative",
    "admin_level": 6,
    "parents": "-22783,-22787,-21335",
    "name": "Fejér",
    "local_name": "Fejér megye",
    "name_en": "Fejér",
    "all_tags": {
      "name": "Fejér megye",
      "place": "county",
      "name:de": "Komitat Fejér",
      "name:en": "Fejér",
      "name:hr": "Bila županija",
      "name:ru": "медье Фейер",
      "boundary": "administrative",
      "place:hu": "megye",
      "ref:nuts": "HU211",
      "way_area": "0.516641",
      "wikidata": "Q187693",
      "ISO3166-2": "HU-FE",
      "wikipedia": "hu:Fejér megye",
      "ref:nuts:3": "HU211",
      "admin_level": "6"
    }
  },
  {
    "osm_id": -22719,
    "boundary": "administrative",
    "admin_level": 5,
    "parents": "-22793,-21335",
    "name": "Southern Great Plain",
    "local_name": "Dél-Alföld",
    "name_en": "Southern Great Plain",
    "all_tags": {
      "name": "Dél-Alföld",
      "place": "region",
      "name:de": "Südliche Große Tiefebene",
      "name:en": "Southern Great Plain",
      "name:hr": "Južni Alföld",
      "name:hu": "Dél-Alföld",
      "name:nl": "Zuidelijke Hongaarse Laagvlakte",
      "name:pl": "Południowa Wielka Nizina",
      "name:ro": "Sudul Marii Câmpii",
      "name:ru": "Южный Альфёльд",
      "name:sr": "Велика јужна равница",
      "boundary": "administrative",
      "place:hu": "régió",
      "ref:nuts": "HU33",
      "way_area": "2.15208",
      "wikidata": "Q630305",
      "wikipedia": "hu:Dél-Alföld",
      "ref:nuts:2": "HU33",
      "admin_level": "5",
      "name:sr-Latn": "Velika južna ravnica",
      "is_in:country": "Hungary",
      "is_in:continent": "Europe",
      "is_in:country_code": "HU"
    }
  },
  {
    "osm_id": -22723,
    "boundary": "administrative",
    "admin_level": 5,
    "parents": "-22786,-21335",
    "name": "Central Hungary",
    "local_name": "Közép-Magyarország",
    "name_en": "Central Hungary",
    "all_tags": {
      "name": "Közép-Magyarország",
      "name:de": "Mittelungarn",
      "name:en": "Central Hungary",
      "name:hr": "Središnja Mađarska",
      "name:it": "Ungheria Centrale",
      "name:lt": "Centrinė Vengrija",
      "name:nl": "Centraal-Hongarije",
      "name:ro": "Ungaria Centrală",
      "name:ru": "Центральная Венгрия",
      "boundary": "administrative",
      "way_area": "0.82422",
      "wikidata": "Q852742",
      "wikipedia": "hu:Közép-Magyarország",
      "admin_level": "5"
    }
  },
  {
    "osm_id": -22234,
    "boundary": "administrative",
    "admin_level": 6,
    "parents": "-22785,-22787,-21335",
    "name": "Baranya",
    "local_name": "Baranya megye",
    "name_en": "Baranya",
    "all_tags": {
      "name": "Baranya megye",
      "place": "county",
      "name:de": "Komitat Baranya",
      "name:en": "Baranya",
      "name:hr": "Baranjska županija",
      "name:ru": "медье Баранья",
      "boundary": "administrative",
      "place:hu": "megye",
      "ref:nuts": "HU231",
      "way_area": "0.514725",
      "wikidata": "Q186195",
      "ISO3166-2": "HU-BA",
      "wikipedia": "hu:Baranya megye",
      "ref:nuts:3": "HU231",
      "admin_level": "6"
    }
  },
  {
    "osm_id": -22785,
    "boundary": "administrative",
    "admin_level": 5,
    "parents": "-22787,-21335",
    "name": "Southern Transdanubia",
    "local_name": "Dél-Dunántúl",
    "name_en": "Southern Transdanubia",
    "all_tags": {
      "name": "Dél-Dunántúl",
      "place": "region",
      "name:cs": "Jižní Zadunají",
      "name:de": "Südtransdanubien",
      "name:en": "Southern Transdanubia",
      "name:hr": "Južno Podunavlje",
      "name:nl": "Zuid-Transdanubië",
      "name:pl": "Południowy Kraj Zadunajski",
      "name:ro": "Transdanubia de Sud",
      "name:ru": "Южно-Задунайский край",
      "boundary": "administrative",
      "place:hu": "régió",
      "ref:nuts": "HU23",
      "way_area": "1.65879",
      "wikidata": "Q781747",
      "wikipedia": "hu:Dél-Dunántúl",
      "ref:nuts:2": "HU23",
      "admin_level": "5",
      "is_in:country": "Hungary",
      "is_in:continent": "Europe",
      "is_in:country_code": "HU"
    }
  },
  {
    "osm_id": -22225,
    "boundary": "administrative",
    "admin_level": 6,
    "parents": "-22785,-22787,-21335",
    "name": "Somogy",
    "local_name": "Somogy megye",
    "name_en": "Somogy",
    "all_tags": {
      "name": "Somogy megye",
      "place": "county",
      "name:de": "Komitat Schomodei",
      "name:en": "Somogy",
      "name:hr": "Šomođska županija",
      "name:ru": "медье Шомодь",
      "boundary": "administrative",
      "place:hu": "megye",
      "ref:nuts": "HU232",
      "way_area": "0.71019",
      "wikidata": "Q190522",
      "ISO3166-2": "HU-SO",
      "wikipedia": "hu:Somogy megye",
      "ref:nuts:3": "HU232",
      "admin_level": "6"
    }
  },
  {
    "osm_id": -22787,
    "boundary": "administrative",
    "admin_level": 4,
    "parents": "-21335",
    "name": "Transdanubia",
    "local_name": "Dunántúl",
    "name_en": "Transdanubia",
    "all_tags": {
      "name": "Dunántúl",
      "place": "region",
      "name:cs": "Zadunají",
      "name:de": "Transdanubien",
      "name:en": "Transdanubia",
      "name:es": "Transdanubia",
      "name:fr": "Transdanubie",
      "name:hr": "Podunavlje",
      "name:it": "Transdanubio",
      "name:nl": "Transdanubië",
      "name:ro": "Transdanubia",
      "name:ru": "Задунайский край",
      "boundary": "administrative",
      "place:hu": "régió",
      "ref:nuts": "HU2",
      "way_area": "4.32035",
      "wikidata": "Q840562",
      "wikipedia": "hu:Dunántúl",
      "ref:nuts:1": "HU2",
      "admin_level": "4",
      "is_in:country": "Hungary",
      "is_in:continent": "Europe",
      "is_in:country_code": "HU"
    }
  },
  {
    "osm_id": -22784,
    "boundary": "administrative",
    "admin_level": 5,
    "parents": "-22787,-21335",
    "name": "Western Transdanubia",
    "local_name": "Nyugat-Dunántúl",
    "name_en": "Western Transdanubia",
    "all_tags": {
      "name": "Nyugat-Dunántúl",
      "place": "region",
      "name:cs": "Západní Zadunají",
      "name:de": "Westtransdanubien",
      "name:en": "Western Transdanubia",
      "name:hr": "Zapadno Podunavlje",
      "name:it": "Transdanubio Occidentale",
      "name:nl": "West-Transdanubië",
      "name:pl": "Zachodni Kraj Zadunajski",
      "name:ro": "Transdanubia de Vest",
      "name:ru": "Западно-Задунайский край",
      "boundary": "administrative",
      "place:hu": "régió",
      "ref:nuts": "HU22",
      "way_area": "1.345",
      "wikidata": "Q852716",
      "wikipedia": "hu:Nyugat-Dunántúl",
      "ref:nuts:2": "HU22",
      "admin_level": "5",
      "is_in:country": "Hungary",
      "is_in:continent": "Europe",
      "is_in:country_code": "HU"
    }
  },
  {
    "osm_id": -11214195,
    "boundary": "religious_administration",
    "admin_level": 6,
    "parents": "-22787,-21335",
    "name": "Veszprémi Evangélikus Egyházmegye",
    "local_name": "Veszprémi Evangélikus Egyházmegye",
    "name_en": null,
    "all_tags": {
      "name": "Veszprémi Evangélikus Egyházmegye",
      "boundary": "religious_administration",
      "religion": "christian",
      "way_area": "0.495587",
      "admin_level": "6",
      "denomination": "lutheran"
    }
  },
  {
    "osm_id": -22783,
    "boundary": "administrative",
    "admin_level": 5,
    "parents": "-22787,-21335",
    "name": "Central Transdanubia",
    "local_name": "Közép-Dunántúl",
    "name_en": "Central Transdanubia",
    "all_tags": {
      "name": "Közép-Dunántúl",
      "place": "region",
      "name:cs": "Střední Zadunají",
      "name:de": "Mitteltransdanubien",
      "name:en": "Central Transdanubia",
      "name:hr": "Središnje Podunavlje",
      "name:it": "Transdanubio Centrale",
      "name:nl": "Centraal-Transdanubië",
      "name:pl": "Środkowy Kraj Zadunajski",
      "name:ro": "Transdanubia Centrală",
      "name:ru": "Центрально-Задунайский край",
      "boundary": "administrative",
      "place:hu": "régió",
      "ref:nuts": "HU21",
      "way_area": "1.31657",
      "wikidata": "Q962153",
      "wikipedia": "hu:Közép-Dunántúl",
      "ref:nuts:2": "HU21",
      "admin_level": "5",
      "is_in:country": "Hungary",
      "is_in:continent": "Europe",
      "is_in:country_code": "HU"
    }
  },
  {
    "osm_id": -22239,
    "boundary": "administrative",
    "admin_level": 6,
    "parents": "-22785,-22787,-21335",
    "name": "Tolna",
    "local_name": "Tolna megye",
    "name_en": "Tolna",
    "all_tags": {
      "name": "Tolna megye",
      "place": "county",
      "name:de": "Komitat Tolnau",
      "name:en": "Tolna",
      "name:hr": "Tolnanska županija",
      "name:ru": "медье Тольна",
      "boundary": "administrative",
      "place:hu": "megye",
      "ref:nuts": "HU233",
      "way_area": "0.43387",
      "wikidata": "Q191625",
      "ISO3166-2": "HU-TO",
      "wikipedia": "hu:Tolna megye",
      "ref:nuts:3": "HU233",
      "admin_level": "6"
    }
  },
  {
    "osm_id": -22252,
    "boundary": "administrative",
    "admin_level": 6,
    "parents": "-22783,-22787,-21335",
    "name": "Komárom-Esztergom",
    "local_name": "Komárom-Esztergom megye",
    "name_en": "Komárom-Esztergom",
    "all_tags": {
      "name": "Komárom-Esztergom megye",
      "place": "county",
      "name:de": "Komitat Komorn-Gran",
      "name:en": "Komárom-Esztergom",
      "name:hr": "Komoransko-ostrogonska županija",
      "name:ru": "медье Комаром-Эстергом",
      "boundary": "administrative",
      "place:hu": "megye",
      "ref:nuts": "HU212",
      "way_area": "0.270875",
      "wikidata": "Q190018",
      "ISO3166-2": "HU-KE",
      "wikipedia": "hu:Komárom-Esztergom megye",
      "ref:nuts:3": "HU212",
      "admin_level": "6"
    }
  },
  {
    "osm_id": -22265,
    "boundary": "administrative",
    "admin_level": 6,
    "parents": "-22719,-22793,-21335",
    "name": "Csongrád-Csanád County",
    "local_name": "Csongrád-Csanád megye",
    "name_en": "Csongrád-Csanád County",
    "all_tags": {
      "name": "Csongrád-Csanád megye",
      "place": "county",
      "name:de": "Komitat Tschongrad-Tschanad",
      "name:en": "Csongrád-Csanád County",
      "name:hr": "Čongradska-Čanadska županija",
      "name:ro": "județul Csongrád-Cenad",
      "name:ru": "медье Чонград-Чанад",
      "name:sr": "Жупанија Чонград-Чанад",
      "boundary": "administrative",
      "old_name": "Csongrád megye",
      "place:hu": "megye",
      "ref:nuts": "HU333",
      "way_area": "0.498901",
      "wikidata": "Q193031",
      "ISO3166-2": "HU-CS",
      "wikipedia": "hu:Csongrád-Csanád megye",
      "ref:nuts:3": "HU333",
      "admin_level": "6",
      "name:sr-Latn": "Županija Čongrad-Čanad"
    }
  },
  {
    "osm_id": -22273,
    "boundary": "administrative",
    "admin_level": 6,
    "parents": "-22711,-22793,-21335",
    "name": "Heves",
    "local_name": "Heves megye",
    "name_en": "Heves",
    "all_tags": {
      "name": "Heves megye",
      "place": "county",
      "name:de": "Komitat Heves",
      "name:en": "Heves",
      "name:ru": "медье Хевеш",
      "boundary": "administrative",
      "place:hu": "megye",
      "ref:nuts": "HU312",
      "way_area": "0.436462",
      "wikidata": "Q191604",
      "ISO3166-2": "HU-HE",
      "wikipedia": "hu:Heves megye",
      "ref:nuts:3": "HU312",
      "admin_level": "6"
    }
  },
  {
    "osm_id": -22267,
    "boundary": "administrative",
    "admin_level": 6,
    "parents": "-22715,-22793,-21335",
    "name": "Hajdú-Bihar",
    "local_name": "Hajdú-Bihar megye",
    "name_en": "Hajdú-Bihar",
    "all_tags": {
      "name": "Hajdú-Bihar megye",
      "place": "county",
      "name:de": "Komitat Hajdú-Bihar",
      "name:en": "Hajdú-Bihar",
      "name:hr": "Hajdu-biharska županija",
      "name:ro": "județul Bihor",
      "name:ru": "медье Хайду-Бихар",
      "boundary": "administrative",
      "place:hu": "megye",
      "ref:nuts": "HU321",
      "way_area": "0.740937",
      "wikidata": "Q185368",
      "ISO3166-2": "HU-HB",
      "wikipedia": "hu:Hajdú-Bihar megye",
      "ref:nuts:3": "HU321",
      "admin_level": "6"
    }
  },
  {
    "osm_id": -22715,
    "boundary": "administrative",
    "admin_level": 5,
    "parents": "-22793,-21335",
    "name": "Great Plain and North",
    "local_name": "Észak-Alföld",
    "name_en": "Great Plain and North",
    "all_tags": {
      "name": "Észak-Alföld",
      "name:de": "Nördliche Große Tiefebene",
      "name:en": "Great Plain and North",
      "name:fr": "Grande plaine et nord",
      "name:hr": "Sjeverni Alföld",
      "name:nl": "Noordelijke Hongaarse Laagvlakte",
      "name:pl": "Północna Wielka Nizina",
      "name:ro": "Marea Câmpie și Nordul",
      "name:ru": "Северный Альфёльд",
      "name:sr": "Велике равнице и северна Мађарска",
      "name:uk": "Північний Великий Альфельд",
      "boundary": "administrative",
      "ref:nuts": "HU32",
      "way_area": "2.1193",
      "wikidata": "Q905227",
      "wikipedia": "hu:Észak-Alföld",
      "ref:nuts:2": "HU32",
      "admin_level": "5",
      "is_in:country": "Hungary",
      "is_in:continent": "Europe",
      "is_in:country_code": "HU"
    }
  },
  {
    "osm_id": -22274,
    "boundary": "administrative",
    "admin_level": 6,
    "parents": "-22711,-22793,-21335",
    "name": "Nógrád",
    "local_name": "Nógrád megye",
    "name_en": "Nógrád",
    "all_tags": {
      "name": "Nógrád megye",
      "place": "county",
      "name:de": "Komitat Neuburg",
      "name:en": "Nógrád",
      "name:ru": "медье Ноград",
      "boundary": "administrative",
      "place:hu": "megye",
      "ref:nuts": "HU313",
      "way_area": "0.306423",
      "wikidata": "Q194273",
      "ISO3166-2": "HU-NO",
      "wikipedia": "hu:Nógrád megye",
      "ref:nuts:3": "HU313",
      "admin_level": "6"
    }
  },
  {
    "osm_id": -22711,
    "boundary": "administrative",
    "admin_level": 5,
    "parents": "-22793,-21335",
    "name": "Northern Hungary",
    "local_name": "Észak-Magyarország",
    "name_en": "Northern Hungary",
    "all_tags": {
      "name": "Észak-Magyarország",
      "place": "region",
      "name:de": "Nordungarn",
      "name:en": "Northern Hungary",
      "name:nl": "Noord-Hongarije",
      "name:pl": "Północne Węgry",
      "name:ro": "Ungaria de Nord",
      "name:ru": "Северная Венгрия",
      "boundary": "administrative",
      "place:hu": "régió",
      "ref:nuts": "HU31",
      "way_area": "1.61916",
      "wikidata": "Q732210",
      "wikipedia": "hu:Észak-Magyarország",
      "ref:nuts:2": "HU31",
      "admin_level": "5",
      "is_in:country": "Hungary",
      "is_in:continent": "Europe",
      "is_in:country_code": "HU"
    }
  },
  {
    "osm_id": -22268,
    "boundary": "administrative",
    "admin_level": 6,
    "parents": "-22715,-22793,-21335",
    "name": "Szabolcs-Szatmár-Bereg",
    "local_name": "Szabolcs-Szatmár-Bereg megye",
    "name_en": "Szabolcs-Szatmár-Bereg",
    "all_tags": {
      "name": "Szabolcs-Szatmár-Bereg megye",
      "place": "county",
      "name:de": "Komitat Saboltsch-Sathmar-Berg",
      "name:en": "Szabolcs-Szatmár-Bereg",
      "name:hu": "Szabolcs-Szatmár-Bereg megye",
      "name:ru": "медье Саболч - Сатмар - Берег",
      "name:uk": "медьє Саболч-Сатмар-Береґ",
      "boundary": "administrative",
      "place:hu": "megye",
      "ref:nuts": "HU323",
      "way_area": "0.715126",
      "wikidata": "Q190518",
      "ISO3166-2": "HU-SZ",
      "wikipedia": "hu:Szabolcs-Szatmár-Bereg megye",
      "ref:nuts:3": "HU323",
      "admin_level": "6"
    }
  },
  {
    "osm_id": -22260,
    "boundary": "administrative",
    "admin_level": 6,
    "parents": "-22719,-22793,-21335",
    "name": "Bács-Kiskun",
    "local_name": "Bács-Kiskun megye",
    "name_en": "Bács-Kiskun",
    "all_tags": {
      "name": "Bács-Kiskun megye",
      "place": "county",
      "name:de": "Komitat Bács-Kiskun",
      "name:en": "Bács-Kiskun",
      "name:hr": "Bačko-kiškunska županija",
      "name:hu": "Bács-Kiskun megye",
      "name:ru": "медье Бач-Кишкун",
      "name:sr": "Жупанија Бач-Кишкун",
      "boundary": "administrative",
      "place:hu": "megye",
      "ref:nuts": "HU331",
      "way_area": "0.990543",
      "wikidata": "Q181018",
      "ISO3166-2": "HU-BK",
      "wikipedia": "hu:Bács-Kiskun megye",
      "ref:nuts:3": "HU331",
      "admin_level": "6",
      "name:sr-Latn": "Županija Bač-Kiškun"
    }
  },
  {
    "osm_id": -22271,
    "boundary": "administrative",
    "admin_level": 6,
    "parents": "-22711,-22793,-21335",
    "name": "Borsod-Abaúj-Zemplén",
    "local_name": "Borsod-Abaúj-Zemplén megye",
    "name_en": "Borsod-Abaúj-Zemplén",
    "all_tags": {
      "name": "Borsod-Abaúj-Zemplén megye",
      "place": "county",
      "name:de": "Komitat Borsod-Abaúj-Zemplén",
      "name:en": "Borsod-Abaúj-Zemplén",
      "name:ru": "медье Боршод-Абауй-Земплен",
      "boundary": "administrative",
      "place:hu": "megye",
      "ref:nuts": "HU311",
      "way_area": "0.876277",
      "wikidata": "Q188895",
      "ISO3166-2": "HU-BZ",
      "wikipedia": "hu:Borsod-Abaúj-Zemplén megye",
      "ref:nuts:3": "HU311",
      "admin_level": "6"
    }
  },
  {
    "osm_id": -22793,
    "boundary": "administrative",
    "admin_level": 4,
    "parents": "-21335",
    "name": "Great Plain and North",
    "local_name": "Alföld és Észak",
    "name_en": "Great Plain and North",
    "all_tags": {
      "name": "Alföld és Észak",
      "place": "region",
      "name:de": "Nördliche Große Tiefebene",
      "name:en": "Great Plain and North",
      "name:fr": "Grande plaine et nord",
      "name:hr": "Sjeverni Alföld",
      "name:hu": "Alföld és Észak",
      "name:nl": "Hongaarse Laagvlakte en Noord",
      "name:ro": "Marea Câmpie și Nordul",
      "name:ru": "Северный Альфёльд",
      "name:sr": "Велике равнице и северна Мађарска",
      "name:uk": "Північний Великий Альфельд",
      "boundary": "administrative",
      "place:hu": "régió",
      "ref:nuts": "HU3",
      "way_area": "5.89054",
      "wikidata": "Q645860",
      "wikipedia": "hu:Alföld és Észak",
      "ref:nuts:1": "HU3",
      "admin_level": "4",
      "is_in:country": "Hungary",
      "is_in:continent": "Europe",
      "is_in:country_code": "HU"
    }
  },
  {
    "osm_id": -37244,
    "boundary": "administrative",
    "admin_level": 6,
    "parents": "-22723,-22786,-21335",
    "name": "Budapest",
    "local_name": "Budapest",
    "name_en": "Budapest",
    "all_tags": {
      "name": "Budapest",
      "place": "region",
      "name:de": "Budapest",
      "name:en": "Budapest",
      "name:hr": "Budimpešta",
      "name:lt": "Budapeštas",
      "name:nl": "Boedapest",
      "name:pl": "Budapeszt",
      "name:ro": "Budapesta",
      "name:ru": "Будапешт",
      "boundary": "administrative",
      "way_area": "0.062783",
      "wikidata": "Q1781",
      "ISO3166-2": "HU-BU",
      "wikipedia": "hu:Budapest",
      "ref:nuts:2": "HU11",
      "ref:nuts:3": "HU110",
      "admin_level": "6"
    }
  },
  {
    "osm_id": -22249,
    "boundary": "administrative",
    "admin_level": 6,
    "parents": "-22784,-22787,-21335",
    "name": "Győr-Moson-Sopron",
    "local_name": "Győr-Moson-Sopron megye",
    "name_en": "Győr-Moson-Sopron",
    "all_tags": {
      "name": "Győr-Moson-Sopron megye",
      "place": "county",
      "name:de": "Komitat Győr-Moson-Sopron",
      "name:en": "Győr-Moson-Sopron",
      "name:hr": "Đursko-mošonjsko-šopronska županija",
      "name:ru": "медье Дьёр-Мошон-Шопрон",
      "boundary": "administrative",
      "place:hu": "megye",
      "ref:nuts": "HU221",
      "way_area": "0.503662",
      "wikidata": "Q187753",
      "ISO3166-2": "HU-GS",
      "wikipedia": "hu:Győr-Moson-Sopron megye",
      "ref:nuts:3": "HU221",
      "admin_level": "6"
    }
  },
  {
    "osm_id": -26935,
    "boundary": "administrative",
    "admin_level": 6,
    "parents": "-22715,-22793,-21335",
    "name": "Jász-Nagykun-Szolnok",
    "local_name": "Jász-Nagykun-Szolnok megye",
    "name_en": "Jász-Nagykun-Szolnok",
    "all_tags": {
      "name": "Jász-Nagykun-Szolnok megye",
      "place": "county",
      "name:de": "Komitat Jaß-Großkumanien-Sollnock",
      "name:en": "Jász-Nagykun-Szolnok",
      "name:ru": "медье Яс-Надькун-Сольнок",
      "boundary": "administrative",
      "place:hu": "megye",
      "ref:nuts": "HU322",
      "way_area": "0.663234",
      "wikidata": "Q189655",
      "ISO3166-2": "HU-JN",
      "wikipedia": "hu:Jász-Nagykun-Szolnok megye",
      "ref:nuts:3": "HU322",
      "admin_level": "6"
    }
  },
  {
    "osm_id": -22259,
    "boundary": "administrative",
    "admin_level": 6,
    "parents": "-22723,-22786,-21335",
    "name": "Pest",
    "local_name": "Pest megye",
    "name_en": "Pest",
    "all_tags": {
      "name": "Pest megye",
      "place": "county",
      "name:de": "Komitat Pest",
      "name:en": "Pest",
      "name:hr": "Peštanska županija",
      "name:ru": "медье Пешт",
      "boundary": "administrative",
      "place:hu": "megye",
      "ref:nuts": "HU120",
      "way_area": "0.761437",
      "wikidata": "Q188612",
      "ISO3166-2": "HU-PE",
      "wikipedia": "hu:Pest megye",
      "ref:nuts:2": "HU12",
      "ref:nuts:3": "HU120",
      "admin_level": "6"
    }
  },
  {
    "osm_id": -22238,
    "boundary": "administrative",
    "admin_level": 6,
    "parents": "-22784,-22787,-21335",
    "name": "Zala",
    "local_name": "Zala megye",
    "name_en": "Zala",
    "all_tags": {
      "name": "Zala megye",
      "place": "county",
      "name:de": "Komitat Zala",
      "name:en": "Zala",
      "name:hr": "Zalska županija",
      "name:ru": "медье Зала",
      "boundary": "administrative",
      "place:hu": "megye",
      "ref:nuts": "HU223",
      "way_area": "0.4453",
      "wikidata": "Q185374",
      "ISO3166-2": "HU-ZA",
      "wikipedia": "hu:Zala megye",
      "ref:nuts:3": "HU223",
      "admin_level": "6"
    }
  },
  {
    "osm_id": -22786,
    "boundary": "administrative",
    "admin_level": 4,
    "parents": "-21335",
    "name": "Central Hungary",
    "local_name": "Közép-Magyarország",
    "name_en": "Central Hungary",
    "all_tags": {
      "name": "Közép-Magyarország",
      "place": "region",
      "name:ar": "مركز المجر",
      "name:de": "Mittelungarn",
      "name:en": "Central Hungary",
      "name:es": "Hungría Central",
      "name:fr": "Hongrie centrale",
      "name:hr": "Središnja Mađarska",
      "name:it": "Ungheria Centrale",
      "name:lt": "Centrinė Vengrija",
      "name:nl": "Centraal-Hongarije",
      "name:pl": "Środkowe Węgry",
      "name:ro": "Ungaria Centrală",
      "name:ru": "Центральная Венгрия",
      "boundary": "administrative",
      "place:hu": "régió",
      "ref:nuts": "HU1",
      "way_area": "0.82422",
      "wikidata": "Q852742",
      "wikipedia": "hu:Közép-Magyarország",
      "ref:nuts:1": "HU1",
      "admin_level": "4",
      "is_in:country": "Hungary",
      "is_in:continent": "Europe",
      "is_in:country_code": "HU"
    }
  },
  {
    "osm_id": -22250,
    "boundary": "administrative",
    "admin_level": 6,
    "parents": "-22784,-22787,-21335",
    "name": "Vas",
    "local_name": "Vas megye",
    "name_en": "Vas",
    "all_tags": {
      "name": "Vas megye",
      "place": "county",
      "name:de": "Komitat Vas",
      "name:en": "Vas",
      "name:hr": "Željezna županija",
      "name:ru": "медье Ваш",
      "boundary": "administrative",
      "place:hu": "megye",
      "ref:nuts": "HU222",
      "way_area": "0.396038",
      "wikidata": "Q187677",
      "ISO3166-2": "HU-VA",
      "wikipedia": "hu:Vas megye",
      "ref:nuts:3": "HU222",
      "admin_level": "6",
      "old_name:de": "Komitat Eisenburg"
    }
  }
]
