[
  {
    "osm_id": -12197869,
    "boundary": "administrative",
    "admin_level": 5,
    "parents": "-1384720,-1473946",
    "name": "Jerusalem Subdistrict",
    "local_name": "נפת ירושלים",
    "name_en": "Jerusalem Subdistrict",
    "all_tags": {
      "name": "נפת ירושלים",
      "name:ar": "قضاء أورشليم القدس",
      "name:en": "Jerusalem Subdistrict",
      "name:he": "נפת ירושלים",
      "boundary": "administrative",
      "way_area": "0.0621195",
      "wikidata": "Q5283449",
      "admin_level": "5"
    }
  },
  {
    "osm_id": -12197868,
    "boundary": "administrative",
    "admin_level": 5,
    "parents": "-1400916,-1473946",
    "name": "Tel Aviv Subdistrict",
    "local_name": "נפת תל אביב",
    "name_en": "Tel Aviv Subdistrict",
    "all_tags": {
      "name": "נפת תל אביב",
      "name:ar": "قضاء تل أبيب",
      "name:en": "Tel Aviv Subdistrict",
      "name:he": "נפת תל אביב",
      "boundary": "administrative",
      "way_area": "0.0173111",
      "admin_level": "5"
    }
  },
  {
    "osm_id": -11587694,
    "boundary": "administrative",
    "admin_level": 5,
    "parents": "-1400928,-1473946",
    "name": "haSharon Subdistrict",
    "local_name": "נפת השרון",
    "name_en": "haSharon Subdistrict",
    "all_tags": {
      "name": "נפת השרון",
      "name:de": "Unterbezirk haScharon",
      "name:en": "haSharon Subdistrict",
      "name:he": "נפת השרון",
      "boundary": "administrative",
      "way_area": "0.034296",
      "wikidata": "Q5422629",
      "wikipedia": "he:נפת השרון",
      "admin_level": "5"
    }
  },
  {
    "osm_id": -11587672,
    "boundary": "administrative",
    "admin_level": 5,
    "parents": "-1400928,-1473946",
    "name": "Petah Tikva Subdistrict",
    "local_name": "נפת פתח תקווה",
    "name_en": "Petah Tikva Subdistrict",
    "all_tags": {
      "name": "נפת פתח תקווה",
      "name:de": "Unterbezirk Petach Tikwa",
      "name:en": "Petah Tikva Subdistrict",
      "name:he": "נפת פתח תקווה",
      "boundary": "administrative",
      "way_area": "0.0258457",
      "wikidata": "Q5422648",
      "wikipedia": "he:נפת פתח תקווה",
      "admin_level": "5"
    }
  },
  {
    "osm_id": -11587600,
    "boundary": "administrative",
    "admin_level": 5,
    "parents": "-1400928,-1473946",
    "name": "Ramla Subdistrict",
    "local_name": "נפת רמלה",
    "name_en": "Ramla Subdistrict",
    "all_tags": {
      "name": "נפת רמלה",
      "name:de": "Unterbezirk Ramla",
      "name:en": "Ramla Subdistrict",
      "name:he": "נפת רמלה",
      "boundary": "administrative",
      "way_area": "0.0339359",
      "wikidata": "Q5419070",
      "wikipedia": "he:נפת רמלה",
      "admin_level": "5"
    }
  },
  {
    "osm_id": -11587514,
    "boundary": "administrative",
    "admin_level": 5,
    "parents": "-1400928,-1473946",
    "name": "Rehovot Subdistrict",
    "local_name": "נפת רחובות",
    "name_en": "Rehovot Subdistrict",
    "all_tags": {
      "name": "נפת רחובות",
      "name:de": "Unterbezirk Rechowot",
      "name:en": "Rehovot Subdistrict",
      "name:he": "נפת רחובות",
      "boundary": "administrative",
      "way_area": "0.0311739",
      "wikidata": "Q46992983",
      "wikipedia": "he:נפת רחובות",
      "admin_level": "5"
    }
  },
  {
    "osm_id": -11586982,
    "boundary": "administrative",
    "admin_level": 5,
    "parents": "-1375620,-1473946",
    "name": "Jezreel Subdistrict",
    "local_name": "נפת יזרעאל",
    "name_en": "Jezreel Subdistrict",
    "all_tags": {
      "name": "נפת יזרעאל",
      "name:de": "Unterbezirk Jesreel",
      "name:en": "Jezreel Subdistrict",
      "name:he": "נפת יזרעאל",
      "boundary": "administrative",
      "way_area": "0.118655",
      "wikidata": "Q128843",
      "wikipedia": "he:נפת יזרעאל",
      "admin_level": "5"
    }
  },
  {
    "osm_id": -11586940,
    "boundary": "administrative",
    "admin_level": 5,
    "parents": "-1375620,-1473946",
    "name": "Acre Subdistrict",
    "local_name": "נפת עכו",
    "name_en": "Acre Subdistrict",
    "all_tags": {
      "name": "נפת עכו",
      "name:de": "Unterbezirk Akko",
      "name:en": "Acre Subdistrict",
      "name:he": "נפת עכו",
      "boundary": "administrative",
      "way_area": "0.09313",
      "wikidata": "Q5423103",
      "wikipedia": "he:נפת עכו",
      "admin_level": "5"
    }
  },
  {
    "osm_id": -11586908,
    "boundary": "administrative",
    "admin_level": 5,
    "parents": "-1375620,-1473946",
    "name": "Safed Subdistrict",
    "local_name": "נפת צפת",
    "name_en": "Safed Subdistrict",
    "all_tags": {
      "name": "נפת צפת",
      "name:de": "Unterbezirk Safed",
      "name:en": "Safed Subdistrict",
      "name:he": "נפת צפת",
      "boundary": "administrative",
      "way_area": "0.0636858",
      "wikidata": "Q5423089",
      "wikipedia": "he:נפת צפת",
      "admin_level": "5"
    }
  },
  {
    "osm_id": -11586472,
    "boundary": "administrative",
    "admin_level": 5,
    "parents": "-1375620,-1473946",
    "name": "Kinneret Subdistrict",
    "local_name": "נפת כנרת",
    "name_en": "Kinneret Subdistrict",
    "all_tags": {
      "name": "נפת כנרת",
      "name:de": "Unterbezirk Kinneret",
      "name:en": "Kinneret Subdistrict",
      "name:he": "נפת כנרת",
      "boundary": "administrative",
      "way_area": "0.0611619",
      "wikidata": "Q65073769",
      "wikipedia": "he:נפת כנרת",
      "admin_level": "5"
    }
  },
  {
    "osm_id": -11585174,
    "boundary": "administrative",
    "admin_level": 5,
    "parents": "-1375620,-1473946",
    "name": "Golan Heights Subdistrict",
    "local_name": "נפת רמת הגולן",
    "name_en": "Golan Heights Subdistrict",
    "all_tags": {
      "name": "נפת רמת הגולן",
      "name:de": "Unterbezirk Golanhöhen",
      "name:en": "Golan Heights Subdistrict",
      "name:he": "נפת רמת הגולן",
      "boundary": "administrative",
      "way_area": "0.111606",
      "wikidata": "Q5423040",
      "wikipedia": "he:נפת רמת הגולן",
      "admin_level": "5"
    }
  },
  {
    "osm_id": -11584745,
    "boundary": "administrative",
    "admin_level": 5,
    "parents": "-1400966,-1473946",
    "name": "Hadera Subdistrict",
    "local_name": "נפת חדרה",
    "name_en": "Hadera Subdistrict",
    "all_tags": {
      "name": "נפת חדרה",
      "name:de": "Unterbezirk Hadera",
      "name:en": "Hadera Subdistrict",
      "name:he": "נפת חדרה",
      "boundary": "administrative",
      "way_area": "0.0564302",
      "wikidata": "Q5423414",
      "wikipedia": "he:נפת חדרה",
      "admin_level": "5"
    }
  },
  {
    "osm_id": -11584519,
    "boundary": "administrative",
    "admin_level": 5,
    "parents": "-1400966,-1473946",
    "name": "Haifa Subdistrict",
    "local_name": "נפת חיפה",
    "name_en": "Haifa Subdistrict",
    "all_tags": {
      "name": "נפת חיפה",
      "name:de": "Unterbezirk Haifa",
      "name:en": "Haifa Subdistrict",
      "name:he": "נפת חיפה",
      "boundary": "administrative",
      "way_area": "0.0302117",
      "wikidata": "Q5423411",
      "wikipedia": "he:נפת חיפה",
      "admin_level": "5"
    }
  },
  {
    "osm_id": -11584353,
    "boundary": "administrative",
    "admin_level": 5,
    "parents": "-1473952,-1473946",
    "name": "Ashkelon Subdistrict",
    "local_name": "נפת אשקלון",
    "name_en": "Ashkelon Subdistrict",
    "all_tags": {
      "name": "נפת אשקלון",
      "name:de": "Unterbezirk Aschkelon",
      "name:en": "Ashkelon Subdistrict",
      "name:fr": "sous-district d'Ashkelon",
      "name:he": "נפת אשקלון",
      "boundary": "administrative",
      "way_area": "0.12285",
      "wikidata": "Q5423623",
      "wikipedia": "he:נפת אשקלון",
      "admin_level": "5"
    }
  },
  {
    "osm_id": -11584306,
    "boundary": "administrative",
    "admin_level": 5,
    "parents": "-1473952,-1473946",
    "name": "Beersheba Subdistrict",
    "local_name": "נפת באר שבע",
    "name_en": "Beersheba Subdistrict",
    "all_tags": {
      "name": "נפת באר שבע",
      "name:de": "Unterbezirk Be'er Scheva",
      "name:en": "Beersheba Subdistrict",
      "name:fr": "sous-district de Beer-Sheva",
      "name:he": "נפת באר שבע",
      "boundary": "administrative",
      "way_area": "1.24199",
      "wikidata": "Q5423629",
      "wikipedia": "he:נפת באר שבע",
      "admin_level": "5"
    }
  },
  {
    "osm_id": -1473952,
    "boundary": "administrative",
    "admin_level": 4,
    "parents": "-1473946",
    "name": "South District",
    "local_name": "מחוז הדרום",
    "name_en": "South District",
    "all_tags": {
      "name": "מחוז הדרום",
      "name:ar": "منطقة الجنوب",
      "name:cs": "Jižní distrikt",
      "name:de": "Südbezirk",
      "name:el": "Νότια Περιοχή",
      "name:en": "South District",
      "name:es": "Distrito Meridional",
      "name:fi": "Eteläinen hallintoalue",
      "name:fr": "District sud",
      "name:he": "מחוז הדרום",
      "name:hr": "Južna regija",
      "name:hu": "Déli körzet",
      "name:it": "Distretto Sud",
      "name:pl": "Dystrykt Południowy",
      "name:pt": "Distrito Sul",
      "name:ro": "Districtul de Sud",
      "name:ru": "Южный округ",
      "name:uk": "Південний округ",
      "boundary": "administrative",
      "way_area": "1.36485",
      "wikidata": "Q188781",
      "ISO3166-2": "IL-D",
      "admin_level": "4",
      "alt_name:ar": "لواء الجنوب",
      "complete:relation": "yes"
    }
  },
  {
    "osm_id": -1400966,
    "boundary": "administrative",
    "admin_level": 4,
    "parents": "-1473946",
    "name": "Haifa District",
    "local_name": "מחוז חיפה",
    "name_en": "Haifa District",
    "all_tags": {
      "name": "מחוז חיפה",
      "name:ar": "منطقة حيفا",
      "name:cs": "Haifský distrikt",
      "name:de": "Bezirk Haifa",
      "name:en": "Haifa District",
      "name:es": "Distrito de Haifa",
      "name:fi": "Haifan hallintoalue",
      "name:fr": "District de Haïfa",
      "name:he": "מחוז חיפה",
      "name:hu": "Haifai körzet",
      "name:it": "Distretto di Haifa",
      "name:pt": "Distrito de Haifa",
      "name:ro": "Districtul Haifa",
      "name:ru": "Хайфский округ",
      "boundary": "administrative",
      "way_area": "0.0866418",
      "wikidata": "Q185845",
      "ISO3166-2": "IL-HA",
      "admin_level": "4",
      "complete:relation": "yes"
    }
  },
  {
    "osm_id": -1400928,
    "boundary": "administrative",
    "admin_level": 4,
    "parents": "-1473946",
    "name": "Center District",
    "local_name": "מחוז המרכז",
    "name_en": "Center District",
    "all_tags": {
      "name": "מחוז המרכז",
      "name:ar": "المنطقة الوسطى",
      "name:cs": "Centrální distrikt",
      "name:de": "Zentralbezirk",
      "name:en": "Center District",
      "name:es": "Distrito Central",
      "name:fi": "Keski-Israelin hallintoalue",
      "name:fr": "District centre",
      "name:he": "מחוז המרכז",
      "name:hu": "Központi körzet",
      "name:it": "Distretto Centrale",
      "name:pl": "Dystrykt Centralny",
      "name:pt": "Distrito Central",
      "name:ro": "Districtul Central",
      "name:ru": "Центральный округ",
      "boundary": "administrative",
      "way_area": "0.125251",
      "wikidata": "Q188785",
      "ISO3166-2": "IL-M",
      "admin_level": "4",
      "complete:relation": "yes"
    }
  },
  {
    "osm_id": -1400916,
    "boundary": "administrative",
    "admin_level": 4,
    "parents": "-1473946",
    "name": "Tel Aviv District",
    "local_name": "מחוז תל אביב",
    "name_en": "Tel Aviv District",
    "all_tags": {
      "name": "מחוז תל אביב",
      "name:ar": "منطقة تل أبيب",
      "name:cs": "Telavivský distrikt",
      "name:de": "Bezirk Tel Aviv",
      "name:el": "Περιφέρεια Τελ Αβίβ",
      "name:en": "Tel Aviv District",
      "name:es": "Distrito de Tel Aviv",
      "name:fa": "استان تل ابیب",
      "name:fi": "Tel Avivin hallintoalue",
      "name:fr": "District de Tel Aviv",
      "name:he": "מחוז תל אביב",
      "name:hu": "Tel-Avivi körzet",
      "name:it": "Distretto di Tel Aviv",
      "name:pl": "Dystrykt Tel Awiwu",
      "name:pt": "Distrito de Tel Aviv",
      "name:ro": "Districtul Tel Aviv",
      "name:ru": "Тель-Авивский округ",
      "name:ur": "ضلع تل ابیب",
      "boundary": "administrative",
      "name:pnb": "تل ابیب ضلع",
      "way_area": "0.0173111",
      "wikidata": "Q192811",
      "ISO3166-2": "IL-TA",
      "admin_level": "4",
      "complete:relation": "yes"
    }
  },
  {
    "osm_id": -1384720,
    "boundary": "administrative",
    "admin_level": 4,
    "parents": "-1473946",
    "name": "Jerusalem District",
    "local_name": "מחוז ירושלים",
    "name_en": "Jerusalem District",
    "all_tags": {
      "name": "מחוז ירושלים",
      "name:ar": "منطقة القدس",
      "name:cs": "Jeruzalémský distrikt",
      "name:de": "Bezirk Jerusalem",
      "name:en": "Jerusalem District",
      "name:es": "Distrito de Jerusalén",
      "name:fi": "Jerusalemin hallintoalue",
      "name:fr": "District de Jérusalem",
      "name:he": "מחוז ירושלים",
      "name:hu": "Jeruzsálemi körzet",
      "name:it": "Distretto di Gerusalemme",
      "name:pt": "Distrito de Jerusalém",
      "name:ro": "Districtul Ierusalim",
      "name:ru": "Иерусалимский округ",
      "boundary": "administrative",
      "int_name": "Jerusalem District",
      "way_area": "0.0621195",
      "wikidata": "Q192232",
      "ISO3166-2": "IL-JM",
      "admin_level": "4"
    }
  },
  {
    "osm_id": -1375620,
    "boundary": "administrative",
    "admin_level": 4,
    "parents": "-1473946",
    "name": "North District",
    "local_name": "מחוז הצפון",
    "name_en": "North District",
    "all_tags": {
      "name": "מחוז הצפון",
      "name:ar": "المنطقة الشمالية",
      "name:cs": "Severní distrikt",
      "name:de": "Nordbezirk",
      "name:en": "North District",
      "name:es": "Distrito Norte",
      "name:fi": "Pohjoinen hallintoalue",
      "name:fr": "District nord",
      "name:he": "מחוז הצפון",
      "name:hu": "Északi körzet",
      "name:it": "Distretto Nord",
      "name:lt": "Šiaurės apskritis",
      "name:pl": "Dystrykt Północny",
      "name:pt": "Distrito Norte",
      "name:ro": "Districtul de Nord",
      "name:ru": "Северный округ",
      "boundary": "administrative",
      "name:en1": "Mahoz HaZafon",
      "way_area": "0.448238",
      "wikidata": "Q189942",
      "ISO3166-2": "IL-Z",
      "admin_level": "4",
      "complete:relation": "yes"
    }
  }
]
