[
  {
    "osm_id": -11759435,
    "boundary": "administrative",
    "admin_level": 6,
    "parents": "-4001011,-299133",
    "name": "Múlaþing",
    "local_name": "Múlaþing",
    "name_en": null,
    "all_tags": {
      "name": "Múlaþing",
      "boundary": "administrative",
      "way_area": "1.77737",
      "wikidata": "Q96776922",
      "wikipedia": "ru:Мулатинг",
      "admin_level": "6"
    }
  },
  {
    "osm_id": -9177051,
    "boundary": "administrative",
    "admin_level": 6,
    "parents": "-4002410,-299133",
    "name": "Bláskógabyggð",
    "local_name": "Bláskógabyggð",
    "name_en": null,
    "all_tags": {
      "name": "Bláskógabyggð",
      "boundary": "administrative",
      "way_area": "0.500727",
      "wikidata": "Q886944",
      "wikipedia": "is:Bláskógabyggð",
      "admin_level": "6"
    }
  },
  {
    "osm_id": -9176913,
    "boundary": "administrative",
    "admin_level": 6,
    "parents": "-4002410,-299133",
    "name": "Grímsnes- og Grafningshreppur",
    "local_name": "Grímsnes- og Grafningshreppur",
    "name_en": null,
    "all_tags": {
      "name": "Grímsnes- og Grafningshreppur",
      "boundary": "administrative",
      "way_area": "0.159602",
      "wikidata": "Q1551596",
      "wikipedia": "is:Grímsnes- og Grafningshreppur",
      "admin_level": "6"
    }
  },
  {
    "osm_id": -8826397,
    "boundary": "administrative",
    "admin_level": 6,
    "parents": "-4001119,-299133",
    "name": "Borgarbyggð",
    "local_name": "Borgarbyggð",
    "name_en": null,
    "all_tags": {
      "name": "Borgarbyggð",
      "boundary": "administrative",
      "way_area": "0.82488",
      "wikidata": "Q893528",
      "wikipedia": "is:Borgarbyggð",
      "admin_level": "6"
    }
  },
  {
    "osm_id": -8826192,
    "boundary": "administrative",
    "admin_level": 6,
    "parents": "-4001119,-299133",
    "name": "Skorradalshreppur",
    "local_name": "Skorradalshreppur",
    "name_en": null,
    "all_tags": {
      "name": "Skorradalshreppur",
      "boundary": "administrative",
      "way_area": "0.0401522",
      "wikidata": "Q1314540",
      "wikipedia": "is:Skorradalshreppur",
      "admin_level": "6"
    }
  },
  {
    "osm_id": -8823263,
    "boundary": "administrative",
    "admin_level": 6,
    "parents": "-4001119,-299133",
    "name": "Hvalfjarðarsveit",
    "local_name": "Hvalfjarðarsveit",
    "name_en": null,
    "all_tags": {
      "name": "Hvalfjarðarsveit",
      "boundary": "administrative",
      "way_area": "0.0892901",
      "wikidata": "Q278600",
      "wikipedia": "is:Hvalfjarðarsveit",
      "admin_level": "6"
    }
  },
  {
    "osm_id": -8817618,
    "boundary": "administrative",
    "admin_level": 6,
    "parents": "-4002410,-299133",
    "name": "Hrunamannahreppur",
    "local_name": "Hrunamannahreppur",
    "name_en": null,
    "all_tags": {
      "name": "Hrunamannahreppur",
      "boundary": "administrative",
      "way_area": "0.244271",
      "wikidata": "Q1300938",
      "wikipedia": "is:Hrunamannahreppur",
      "admin_level": "6"
    }
  },
  {
    "osm_id": -8813115,
    "boundary": "administrative",
    "admin_level": 6,
    "parents": "-4002410,-299133",
    "name": "Skeiða- og Gnúpverjahreppur",
    "local_name": "Skeiða- og Gnúpverjahreppur",
    "name_en": null,
    "all_tags": {
      "name": "Skeiða- og Gnúpverjahreppur",
      "boundary": "administrative",
      "way_area": "0.363554",
      "wikidata": "Q1310512",
      "wikipedia": "is:Skeiða- og Gnúpverjahreppur",
      "admin_level": "6"
    }
  },
  {
    "osm_id": -8811609,
    "boundary": "administrative",
    "admin_level": 6,
    "parents": "-4002410,-299133",
    "name": "Sveitarfélagið Árborg",
    "local_name": "Sveitarfélagið Árborg",
    "name_en": null,
    "all_tags": {
      "name": "Sveitarfélagið Árborg",
      "alt_name": "Árborg",
      "boundary": "administrative",
      "way_area": "0.0273293",
      "wikidata": "Q252205",
      "wikipedia": "is:Sveitarfélagið Árborg",
      "admin_level": "6"
    }
  },
  {
    "osm_id": -8810762,
    "boundary": "administrative",
    "admin_level": 6,
    "parents": "-4001119,-299133",
    "name": "Akraneskaupstaður",
    "local_name": "Akraneskaupstaður",
    "name_en": null,
    "all_tags": {
      "name": "Akraneskaupstaður",
      "alt_name": "Akranes",
      "boundary": "administrative",
      "way_area": "0.00160787",
      "wikidata": "Q107398",
      "wikipedia": "is:Akranes",
      "admin_level": "6"
    }
  },
  {
    "osm_id": -8810681,
    "boundary": "administrative",
    "admin_level": 6,
    "parents": "-4002410,-299133",
    "name": "Flóahreppur",
    "local_name": "Flóahreppur",
    "name_en": null,
    "all_tags": {
      "name": "Flóahreppur",
      "boundary": "administrative",
      "way_area": "0.0525741",
      "wikidata": "Q962730",
      "wikipedia": "is:Flóahreppur",
      "admin_level": "6"
    }
  },
  {
    "osm_id": -8809518,
    "boundary": "administrative",
    "admin_level": 6,
    "parents": "-4002410,-299133",
    "name": "Ásahreppur",
    "local_name": "Ásahreppur",
    "name_en": null,
    "all_tags": {
      "name": "Ásahreppur",
      "boundary": "administrative",
      "way_area": "0.510142",
      "wikidata": "Q252482",
      "wikipedia": "is:Ásahreppur",
      "admin_level": "6"
    }
  },
  {
    "osm_id": -8808785,
    "boundary": "administrative",
    "admin_level": 6,
    "parents": "-4002410,-299133",
    "name": "Rangárþing ytra",
    "local_name": "Rangárþing ytra",
    "name_en": null,
    "all_tags": {
      "name": "Rangárþing ytra",
      "boundary": "administrative",
      "way_area": "0.578848",
      "wikidata": "Q540016",
      "wikipedia": "is:Rangárþing ytra",
      "admin_level": "6"
    }
  },
  {
    "osm_id": -8803280,
    "boundary": "administrative",
    "admin_level": 6,
    "parents": "-4002410,-299133",
    "name": "Rangárþing eystra",
    "local_name": "Rangárþing eystra",
    "name_en": null,
    "all_tags": {
      "name": "Rangárþing eystra",
      "boundary": "administrative",
      "way_area": "0.290244",
      "wikidata": "Q669991",
      "wikipedia": "is:Rangárþing eystra",
      "admin_level": "6"
    }
  },
  {
    "osm_id": -8485922,
    "boundary": "administrative",
    "admin_level": 6,
    "parents": "-3881596,-299133",
    "name": "Kjósarhreppur",
    "local_name": "Kjósarhreppur",
    "name_en": null,
    "all_tags": {
      "name": "Kjósarhreppur",
      "boundary": "administrative",
      "way_area": "0.0511658",
      "wikidata": "Q1744094",
      "wikipedia": "is:Kjósarhreppur",
      "admin_level": "6"
    }
  },
  {
    "osm_id": -8485632,
    "boundary": "administrative",
    "admin_level": 6,
    "parents": "-4002410,-299133",
    "name": "Hveragerðisbær",
    "local_name": "Hveragerðisbær",
    "name_en": null,
    "all_tags": {
      "name": "Hveragerðisbær",
      "alt_name": "Hveragerði",
      "boundary": "administrative",
      "way_area": "0.00165495",
      "wikidata": "Q1025701",
      "wikipedia": "is:Hveragerðisbær",
      "admin_level": "6"
    }
  },
  {
    "osm_id": -8485628,
    "boundary": "administrative",
    "admin_level": 6,
    "parents": "-4002388,-299133",
    "name": "Grindavíkurbær",
    "local_name": "Grindavíkurbær",
    "name_en": null,
    "all_tags": {
      "name": "Grindavíkurbær",
      "alt_name": "Grindavík",
      "boundary": "administrative",
      "way_area": "0.0781921",
      "wikidata": "Q2796543",
      "wikipedia": "is:Grindavík",
      "admin_level": "6"
    }
  },
  {
    "osm_id": -8485229,
    "boundary": "administrative",
    "admin_level": 6,
    "parents": "-4002388,-299133",
    "name": "Sveitarfélagið Vogar",
    "local_name": "Sveitarfélagið Vogar",
    "name_en": null,
    "all_tags": {
      "name": "Sveitarfélagið Vogar",
      "alt_name": "Vogar",
      "boundary": "administrative",
      "way_area": "0.0291599",
      "wikidata": "Q3482077",
      "wikipedia": "is:Sveitarfélagið Vogar",
      "admin_level": "6"
    }
  },
  {
    "osm_id": -8467956,
    "boundary": "administrative",
    "admin_level": 6,
    "parents": "-4002388,-299133",
    "name": "Suðurnesjabær",
    "local_name": "Suðurnesjabær",
    "name_en": null,
    "all_tags": {
      "name": "Suðurnesjabær",
      "alt_name": "Sameinað sveitarfélag Sandgerðisbæjar og Sveitarfélagsins Garðs",
      "boundary": "administrative",
      "way_area": "0.0149742",
      "wikidata": "Q60297275",
      "wikipedia": "is:Suðurnesjabær",
      "alt_name_1": "Sandgerðisbær",
      "alt_name_2": "Garður",
      "admin_level": "6"
    }
  },
  {
    "osm_id": -8467955,
    "boundary": "administrative",
    "admin_level": 6,
    "parents": "-4002388,-299133",
    "name": "Reykjanesbær",
    "local_name": "Reykjanesbær",
    "name_en": null,
    "all_tags": {
      "name": "Reykjanesbær",
      "boundary": "administrative",
      "way_area": "0.0264948",
      "wikidata": "Q652130",
      "wikipedia": "is:Reykjanesbær",
      "admin_level": "6"
    }
  },
  {
    "osm_id": -8405089,
    "boundary": "administrative",
    "admin_level": 6,
    "parents": "-4001119,-299133",
    "name": "Stykkishólmsbær",
    "local_name": "Stykkishólmsbær",
    "name_en": null,
    "all_tags": {
      "name": "Stykkishólmsbær",
      "alt_name": "Stykkishólmur",
      "boundary": "administrative",
      "way_area": "0.00121343",
      "wikipedia": "is:Stykkishólmur",
      "admin_level": "6"
    }
  },
  {
    "osm_id": -4010506,
    "boundary": "administrative",
    "admin_level": 6,
    "parents": "-4001076,-299133",
    "name": "Blönduósbær",
    "local_name": "Blönduósbær",
    "name_en": null,
    "all_tags": {
      "ref": "5604",
      "name": "Blönduósbær",
      "alt_name": "Blönduós",
      "boundary": "administrative",
      "way_area": "0.032366",
      "wikidata": "Q887147",
      "wikipedia": "is:Blönduós",
      "admin_level": "6"
    }
  },
  {
    "osm_id": -4002410,
    "boundary": "administrative",
    "admin_level": 5,
    "parents": "-299133",
    "name": "Southern Region",
    "local_name": "Suðurland",
    "name_en": "Southern Region",
    "all_tags": {
      "name": "Suðurland",
      "name:en": "Southern Region",
      "name:is": "Suðurland",
      "name:lt": "Sudurlandas",
      "boundary": "administrative",
      "way_area": "3.93021",
      "wikidata": "Q204796",
      "ISO3166-2": "IS-8",
      "wikipedia": "is:Suðurland",
      "admin_level": "5"
    }
  },
  {
    "osm_id": -4002388,
    "boundary": "administrative",
    "admin_level": 5,
    "parents": "-299133",
    "name": "Southern Peninsula",
    "local_name": "Suðurnes",
    "name_en": "Southern Peninsula",
    "all_tags": {
      "name": "Suðurnes",
      "name:en": "Southern Peninsula",
      "name:fr": "Péninsule du Sud",
      "boundary": "administrative",
      "loc_name": "Reykjanes",
      "way_area": "0.148829",
      "wikidata": "Q212768",
      "ISO3166-2": "IS-2",
      "wikipedia": "is:Suðurnes",
      "admin_level": "5"
    }
  },
  {
    "osm_id": -4001119,
    "boundary": "administrative",
    "admin_level": 5,
    "parents": "-299133",
    "name": "Western Region",
    "local_name": "Vesturland",
    "name_en": "Western Region",
    "all_tags": {
      "name": "Vesturland",
      "name:en": "Western Region",
      "name:is": "Vesturland",
      "boundary": "administrative",
      "way_area": "1.70683",
      "wikidata": "Q221791",
      "ISO3166-2": "IS-3",
      "wikipedia": "is:Vesturland",
      "admin_level": "5"
    }
  },
  {
    "osm_id": -4001093,
    "boundary": "administrative",
    "admin_level": 5,
    "parents": "-299133",
    "name": "Westfjords",
    "local_name": "Vestfirðir",
    "name_en": "Westfjords",
    "all_tags": {
      "name": "Vestfirðir",
      "name:en": "Westfjords",
      "boundary": "administrative",
      "way_area": "1.70836",
      "wikidata": "Q727267",
      "ISO3166-2": "IS-4",
      "wikipedia": "is:Vestfirðir",
      "admin_level": "5"
    }
  },
  {
    "osm_id": -4001076,
    "boundary": "administrative",
    "admin_level": 5,
    "parents": "-299133",
    "name": "Northwestern Region",
    "local_name": "Norðurland vestra",
    "name_en": "Northwestern Region",
    "all_tags": {
      "name": "Norðurland vestra",
      "name:en": "Northwestern Region",
      "boundary": "administrative",
      "way_area": "2.47694",
      "wikidata": "Q210866",
      "ISO3166-2": "IS-5",
      "wikipedia": "is:Norðurland vestra",
      "admin_level": "5"
    }
  },
  {
    "osm_id": -4001055,
    "boundary": "administrative",
    "admin_level": 5,
    "parents": "-299133",
    "name": "Northeastern Region",
    "local_name": "Norðurland eystra",
    "name_en": "Northeastern Region",
    "all_tags": {
      "name": "Norðurland eystra",
      "name:en": "Northeastern Region",
      "boundary": "administrative",
      "way_area": "4.15034",
      "wikidata": "Q241551",
      "ISO3166-2": "IS-6",
      "wikipedia": "is:Norðurland eystra",
      "admin_level": "5"
    }
  },
  {
    "osm_id": -4001011,
    "boundary": "administrative",
    "admin_level": 5,
    "parents": "-299133",
    "name": "Eastern Region",
    "local_name": "Austurland",
    "name_en": "Eastern Region",
    "all_tags": {
      "name": "Austurland",
      "name:en": "Eastern Region",
      "name:is": "Austurland",
      "name:lt": "Austurlandas",
      "boundary": "administrative",
      "way_area": "3.27474",
      "wikidata": "Q220663",
      "ISO3166-2": "IS-7",
      "wikipedia": "is:Austurland",
      "admin_level": "5"
    }
  },
  {
    "osm_id": -3881596,
    "boundary": "administrative",
    "admin_level": 5,
    "parents": "-299133",
    "name": "Capital Region",
    "local_name": "Höfuðborgarsvæðið",
    "name_en": "Capital Region",
    "all_tags": {
      "name": "Höfuðborgarsvæðið",
      "name:en": "Capital Region",
      "name:is": "Höfuðborgarsvæðið",
      "alt_name": "Höfuðborgarsvæði",
      "boundary": "administrative",
      "way_area": "0.192094",
      "wikidata": "Q203304",
      "ISO3166-2": "IS-1",
      "wikipedia": "is:Höfuðborgarsvæðið",
      "admin_level": "5"
    }
  },
  {
    "osm_id": -3822960,
    "boundary": "administrative",
    "admin_level": 6,
    "parents": "-4002410,-299133",
    "name": "Sveitarfélagið Ölfus",
    "local_name": "Sveitarfélagið Ölfus",
    "name_en": null,
    "all_tags": {
      "name": "Sveitarfélagið Ölfus",
      "alt_name": "Ölfus",
      "boundary": "administrative",
      "way_area": "0.135345",
      "wikidata": "Q297010",
      "wikipedia": "is:Sveitarfélagið Ölfus",
      "admin_level": "6"
    }
  },
  {
    "osm_id": -2849241,
    "boundary": "political",
    "admin_level": 4,
    "parents": "-299133",
    "name": "Reykjavíkurkjördæmi suður",
    "local_name": "Reykjavíkurkjördæmi suður",
    "name_en": null,
    "all_tags": {
      "name": "Reykjavíkurkjördæmi suður",
      "boundary": "political",
      "way_area": "0.0116374",
      "wikidata": "Q2037988",
      "wikipedia": "is:Reykjavíkurkjördæmi suður",
      "admin_level": "4"
    }
  },
  {
    "osm_id": -2849240,
    "boundary": "political",
    "admin_level": 4,
    "parents": "-299133",
    "name": "Reykjavíkurkjördæmi norður",
    "local_name": "Reykjavíkurkjördæmi norður",
    "name_en": null,
    "all_tags": {
      "name": "Reykjavíkurkjördæmi norður",
      "boundary": "political",
      "way_area": "0.00631926",
      "wikidata": "Q1526538",
      "wikipedia": "is:Reykjavíkurkjördæmi norður",
      "admin_level": "4"
    }
  },
  {
    "osm_id": -2582273,
    "boundary": "administrative",
    "admin_level": 6,
    "parents": "-3881596,-299133",
    "name": "Hafnarfjordur",
    "local_name": "Hafnarfjarðarkaupstaður",
    "name_en": "Hafnarfjordur",
    "all_tags": {
      "name": "Hafnarfjarðarkaupstaður",
      "is_in": "Iceland",
      "place": "town",
      "name:en": "Hafnarfjordur",
      "name:lt": "Habnarfjorduras",
      "name:ru": "Хабнарфьордур",
      "alt_name": "Hafnarfjörður",
      "boundary": "administrative",
      "way_area": "0.0324596",
      "wikidata": "Q103725",
      "wikipedia": "is:Hafnarfjörður",
      "admin_level": "6"
    }
  },
  {
    "osm_id": -2580606,
    "boundary": "administrative",
    "admin_level": 6,
    "parents": "-299133",
    "name": "Seltjarnarnesbær",
    "local_name": "Seltjarnarnesbær",
    "name_en": null,
    "all_tags": {
      "name": "Seltjarnarnesbær",
      "place": "town",
      "name:lt": "Seltjarnarnesas",
      "name:ru": "Селтьярнарнес",
      "alt_name": "Seltjarnarnes",
      "boundary": "administrative",
      "old_name": "Seltjarnarneskaupstaður",
      "way_area": "0.000393956",
      "wikidata": "Q214057",
      "wikipedia": "is:Seltjarnarnesbær",
      "admin_level": "6"
    }
  },
  {
    "osm_id": -2580605,
    "boundary": "administrative",
    "admin_level": 6,
    "parents": "-3881596,-299133",
    "name": "Reykjavik",
    "local_name": "Reykjavíkurborg",
    "name_en": "Reykjavik",
    "all_tags": {
      "name": "Reykjavíkurborg",
      "is_in": "Iceland",
      "place": "city",
      "capital": "yes",
      "name:af": "Reykjavik",
      "name:am": "ሬይኪያቪክ",
      "name:ar": "ريكيافيك",
      "name:az": "Reykyavik",
      "name:be": "Рэйк'явік",
      "name:bg": "Рейкявик",
      "name:bn": "রেইকিয়াভিক",
      "name:bo": "རེཀ་ཇ་བིཀ།",
      "name:ce": "Рейкьявик",
      "name:cs": "Reykjavík",
      "name:cv": "Рейкьявик",
      "name:da": "Reykjavik",
      "name:el": "Ρέυκιαβικ",
      "name:en": "Reykjavik",
      "name:eo": "Rejkjaviko",
      "name:es": "Reikiavik",
      "name:eu": "Reykjavik",
      "name:fa": "ریکیاویک",
      "name:fr": "Reykjavik",
      "name:ga": "Réicivíc",
      "name:gl": "Reiquiavik - Reykjavík",
      "name:he": "רייקיויק",
      "name:hi": "रेक्जाविक",
      "name:hr": "Rejkjavik",
      "name:ht": "Rèkyavik",
      "name:hu": "Reykjavík",
      "name:hy": "Ռեյկյավիկ",
      "name:is": "Reykjavíkurborg",
      "name:ja": "レイキャヴィーク",
      "name:ka": "რეიკიავიკი",
      "name:kk": "Рейкиявик",
      "name:ko": "레이캬비크",
      "name:ku": "Reykjavik",
      "name:kv": "Рейкьявик",
      "name:la": "Reykiavica",
      "name:lt": "Reikjavikas",
      "name:lv": "Reikjavīka",
      "name:mi": "Reykjavik",
      "name:mk": "Рејкјавик",
      "name:ml": "റെയിക്യാവിക്",
      "name:mr": "रेक्याविक",
      "name:mt": "Reykjavik",
      "name:nl": "Reykjavik",
      "name:os": "Рейкьявик",
      "name:ru": "Рейкьявик",
      "name:sg": "Reykjavik",
      "name:sh": "Rejkjavik",
      "name:sk": "Reykjavík",
      "name:sr": "Рејкјавик",
      "name:sv": "Reykjavik",
      "name:ta": "ரெய்க்யவிக்",
      "name:te": "రేకవిక్",
      "name:tg": "Рейкявик",
      "name:th": "เรคยาวิก",
      "name:tl": "Reykjavik",
      "name:tr": "Reykjavik",
      "name:tt": "Рейкьявик",
      "name:ug": "رېيكياۋىك",
      "name:uk": "Рейк'явік",
      "name:ur": "ریکیاوک",
      "name:wo": "Reykjawik",
      "name:yi": "רעקיאוויק",
      "name:zh": "雷克雅維克",
      "alt_name": "Reykjavík",
      "boundary": "administrative",
      "name:ang": "Rēcwīc",
      "name:ckb": "ڕێکیاڤیک",
      "name:frr": "Reykjavik",
      "name:kab": "Reykyabik",
      "name:lad": "Reikiavik",
      "name:lmo": "Reykjavik",
      "name:mhr": "Рейкьявик",
      "name:nah": "Reikiavik",
      "name:pnb": "ریکجاوک",
      "name:sah": "Рейкьявик",
      "name:tet": "Reikiavike",
      "name:tpi": "Reykjavik",
      "name:udm": "Рейкьявик",
      "name:vec": "Reykjavik",
      "name:vep": "Reikjavik",
      "name:yue": "雷克雅未克",
      "way_area": "0.0451167",
      "wikidata": "Q1764",
      "wikipedia": "is:Reykjavík",
      "admin_level": "6",
      "is_in:ocean": "Atlantic",
      "name:nds-nl": "Reykjavik",
      "name:bat-smg": "Rėikjavėks",
      "name:roa-rup": "Reikiavic",
      "is_in:country": "Iceland",
      "name:be-tarask": "Рэйк’явік"
    }
  },
  {
    "osm_id": -2580604,
    "boundary": "administrative",
    "admin_level": 6,
    "parents": "-3881596,-299133",
    "name": "Mosfellsbær",
    "local_name": "Mosfellsbær",
    "name_en": null,
    "all_tags": {
      "name": "Mosfellsbær",
      "is_in": "Iceland",
      "place": "town",
      "name:ru": "Мосфедльсбайр",
      "boundary": "administrative",
      "way_area": "0.0343879",
      "wikidata": "Q829859",
      "wikipedia": "is:Mosfellsbær",
      "admin_level": "6"
    }
  },
  {
    "osm_id": -2580603,
    "boundary": "administrative",
    "admin_level": 6,
    "parents": "-3881596,-299133",
    "name": "Kopavogur",
    "local_name": "Kópavogsbær",
    "name_en": "Kopavogur",
    "all_tags": {
      "name": "Kópavogsbær",
      "is_in": "Iceland",
      "place": "town",
      "name:en": "Kopavogur",
      "name:lt": "Koupavoguras",
      "name:ru": "Коупавогюр",
      "alt_name": "Kópavogur",
      "boundary": "administrative",
      "way_area": "0.0202163",
      "wikidata": "Q163852",
      "wikipedia": "is:Kópavogur",
      "admin_level": "6"
    }
  },
  {
    "osm_id": -2556726,
    "boundary": "administrative",
    "admin_level": 6,
    "parents": "-3881596,-299133",
    "name": "Garðabær",
    "local_name": "Garðabær",
    "name_en": null,
    "all_tags": {
      "name": "Garðabær",
      "is_in": "Iceland",
      "place": "town",
      "name:lt": "Gardabairas",
      "name:ru": "Гардабайр",
      "alt_name": "Garðabæ",
      "boundary": "administrative",
      "old_name": "Garðahreppur",
      "way_area": "0.00835923",
      "wikidata": "Q186142",
      "wikipedia": "is:Garðabær",
      "admin_level": "6"
    }
  },
  {
    "osm_id": -56208,
    "boundary": "administrative",
    "admin_level": 6,
    "parents": "-4002410,-299133",
    "name": "Skaftárhreppur",
    "local_name": "Skaftárhreppur",
    "name_en": null,
    "all_tags": {
      "name": "Skaftárhreppur",
      "boundary": "administrative",
      "way_area": "0.944948",
      "wikidata": "Q2066213",
      "wikipedia": "is:Skaftárhreppur",
      "admin_level": "6"
    }
  },
  {
    "osm_id": -56206,
    "boundary": "administrative",
    "admin_level": 6,
    "parents": "-4002410,-299133",
    "name": "Mýrdalshreppur",
    "local_name": "Mýrdalshreppur",
    "name_en": null,
    "all_tags": {
      "name": "Mýrdalshreppur",
      "boundary": "administrative",
      "way_area": "0.116039",
      "wikidata": "Q1486343",
      "wikipedia": "is:Mýrdalshreppur",
      "admin_level": "6"
    }
  },
  {
    "osm_id": -56200,
    "boundary": "administrative",
    "admin_level": 6,
    "parents": "-4001119,-299133",
    "name": "Eyja- og Miklaholtshreppur",
    "local_name": "Eyja- og Miklaholtshreppur",
    "name_en": null,
    "all_tags": {
      "name": "Eyja- og Miklaholtshreppur",
      "boundary": "administrative",
      "way_area": "0.0740492",
      "wikidata": "Q1385816",
      "wikipedia": "is:Eyja- og Miklaholtshreppur",
      "admin_level": "6"
    }
  },
  {
    "osm_id": -56199,
    "boundary": "administrative",
    "admin_level": 6,
    "parents": "-4001119,-299133",
    "name": "Helgafellssveit",
    "local_name": "Helgafellssveit",
    "name_en": null,
    "all_tags": {
      "name": "Helgafellssveit",
      "boundary": "administrative",
      "way_area": "0.049235",
      "wikidata": "Q1602357",
      "wikipedia": "is:Helgafellssveit",
      "admin_level": "6"
    }
  },
  {
    "osm_id": -56198,
    "boundary": "administrative",
    "admin_level": 6,
    "parents": "-4001119,-299133",
    "name": "Grundarfjarðarbær",
    "local_name": "Grundarfjarðarbær",
    "name_en": null,
    "all_tags": {
      "name": "Grundarfjarðarbær",
      "alt_name": "Grundarfjörður",
      "boundary": "administrative",
      "way_area": "0.032837",
      "wikipedia": "is:Grundarfjörður",
      "admin_level": "6"
    }
  },
  {
    "osm_id": -56197,
    "boundary": "administrative",
    "admin_level": 6,
    "parents": "-4001119,-299133",
    "name": "Snæfellsbær",
    "local_name": "Snæfellsbær",
    "name_en": null,
    "all_tags": {
      "name": "Snæfellsbær",
      "boundary": "administrative",
      "way_area": "0.122499",
      "wikidata": "Q2296228",
      "wikipedia": "is:Snæfellsbær",
      "admin_level": "6"
    }
  },
  {
    "osm_id": -56196,
    "boundary": "administrative",
    "admin_level": 6,
    "parents": "-4001119,-299133",
    "name": "Dalabyggð",
    "local_name": "Dalabyggð",
    "name_en": null,
    "all_tags": {
      "name": "Dalabyggð",
      "boundary": "administrative",
      "way_area": "0.468727",
      "wikidata": "Q1157787",
      "wikipedia": "is:Dalabyggð",
      "admin_level": "6"
    }
  },
  {
    "osm_id": -56191,
    "boundary": "administrative",
    "admin_level": 6,
    "parents": "-4001093,-299133",
    "name": "Strandabyggð",
    "local_name": "Strandabyggð",
    "name_en": null,
    "all_tags": {
      "name": "Strandabyggð",
      "boundary": "administrative",
      "way_area": "0.356501",
      "wikidata": "Q979864",
      "wikipedia": "is:Strandabyggð",
      "admin_level": "6"
    }
  },
  {
    "osm_id": -56190,
    "boundary": "administrative",
    "admin_level": 6,
    "parents": "-4001093,-299133",
    "name": "Kaldrananeshreppur",
    "local_name": "Kaldrananeshreppur",
    "name_en": null,
    "all_tags": {
      "name": "Kaldrananeshreppur",
      "boundary": "administrative",
      "way_area": "0.085439",
      "wikidata": "Q1722126",
      "wikipedia": "is:Kaldrananeshreppur",
      "admin_level": "6"
    }
  },
  {
    "osm_id": -56189,
    "boundary": "administrative",
    "admin_level": 6,
    "parents": "-4001093,-299133",
    "name": "Árneshreppur",
    "local_name": "Árneshreppur",
    "name_en": null,
    "all_tags": {
      "name": "Árneshreppur",
      "boundary": "administrative",
      "way_area": "0.141507",
      "wikidata": "Q252238",
      "wikipedia": "is:Árneshreppur",
      "admin_level": "6"
    }
  },
  {
    "osm_id": -56188,
    "boundary": "administrative",
    "admin_level": 6,
    "parents": "-4001093,-299133",
    "name": "Reykhólahreppur",
    "local_name": "Reykhólahreppur",
    "name_en": null,
    "all_tags": {
      "name": "Reykhólahreppur",
      "alt_name": "Reykhólar",
      "boundary": "administrative",
      "way_area": "0.193767",
      "wikidata": "Q1727215",
      "wikipedia": "is:Reykhólahreppur",
      "admin_level": "6"
    }
  },
  {
    "osm_id": -56184,
    "boundary": "administrative",
    "admin_level": 6,
    "parents": "-4001093,-299133",
    "name": "Súðavíkurhreppur",
    "local_name": "Súðavíkurhreppur",
    "name_en": null,
    "all_tags": {
      "name": "Súðavíkurhreppur",
      "alt_name": "Súðavík",
      "boundary": "administrative",
      "way_area": "0.150516",
      "wikidata": "Q60860400",
      "wikipedia": "ru:Судавикюрхреппюр",
      "admin_level": "6"
    }
  },
  {
    "osm_id": -56183,
    "boundary": "administrative",
    "admin_level": 6,
    "parents": "-4001093,-299133",
    "name": "Vesturbyggð",
    "local_name": "Vesturbyggð",
    "name_en": null,
    "all_tags": {
      "name": "Vesturbyggð",
      "boundary": "administrative",
      "way_area": "0.262009",
      "wikidata": "Q2305655",
      "wikipedia": "is:Vesturbyggð",
      "admin_level": "6"
    }
  },
  {
    "osm_id": -56181,
    "boundary": "administrative",
    "admin_level": 6,
    "parents": "-4001093,-299133",
    "name": "Ísafjarðarbær",
    "local_name": "Ísafjarðarbær",
    "name_en": null,
    "all_tags": {
      "name": "Ísafjarðarbær",
      "alt_name": "Ísafjörður",
      "boundary": "administrative",
      "way_area": "0.460005",
      "wikidata": "Q291780",
      "wikipedia": "is:Ísafjarðarbær",
      "admin_level": "6"
    }
  },
  {
    "osm_id": -56180,
    "boundary": "administrative",
    "admin_level": 6,
    "parents": "-4001093,-299133",
    "name": "Bolungarvíkurkaupstaður",
    "local_name": "Bolungarvíkurkaupstaður",
    "name_en": null,
    "all_tags": {
      "name": "Bolungarvíkurkaupstaður",
      "alt_name": "Bolungarvík",
      "boundary": "administrative",
      "way_area": "0.0216247",
      "wikidata": "Q891664",
      "wikipedia": "is:Bolungarvík",
      "admin_level": "6"
    }
  },
  {
    "osm_id": -56173,
    "boundary": "administrative",
    "admin_level": 6,
    "parents": "-4001093,-299133",
    "name": "Tálknafjarðarhreppur",
    "local_name": "Tálknafjarðarhreppur",
    "name_en": null,
    "all_tags": {
      "name": "Tálknafjarðarhreppur",
      "alt_name": "Tálknafjörður",
      "boundary": "administrative",
      "way_area": "0.0365559",
      "wikidata": "Q1798705",
      "wikipedia": "is:Tálknafjörður",
      "admin_level": "6"
    }
  },
  {
    "osm_id": -56165,
    "boundary": "administrative",
    "admin_level": 6,
    "parents": "-4001055,-299133",
    "name": "Þingeyjarsveit",
    "local_name": "Þingeyjarsveit",
    "name_en": null,
    "all_tags": {
      "name": "Þingeyjarsveit",
      "boundary": "administrative",
      "way_area": "1.10071",
      "wikidata": "Q335325",
      "wikipedia": "is:Þingeyjarsveit",
      "admin_level": "6"
    }
  },
  {
    "osm_id": -56160,
    "boundary": "administrative",
    "admin_level": 6,
    "parents": "-4001055,-299133",
    "name": "Norðurþing",
    "local_name": "Norðurþing",
    "name_en": null,
    "all_tags": {
      "ref": "6100",
      "name": "Norðurþing",
      "boundary": "administrative",
      "way_area": "0.75259",
      "wikidata": "Q1533546",
      "wikipedia": "is:Norðurþing",
      "admin_level": "6"
    }
  },
  {
    "osm_id": -56158,
    "boundary": "administrative",
    "admin_level": 6,
    "parents": "-4001055,-299133",
    "name": "Skútustaðahreppur",
    "local_name": "Skútustaðahreppur",
    "name_en": null,
    "all_tags": {
      "name": "Skútustaðahreppur",
      "boundary": "administrative",
      "way_area": "0.930456",
      "wikidata": "Q2140997",
      "wikipedia": "is:Skútustaðahreppur",
      "admin_level": "6"
    }
  },
  {
    "osm_id": -56153,
    "boundary": "administrative",
    "admin_level": 6,
    "parents": "-4001055,-299133",
    "name": "Tjörneshreppur",
    "local_name": "Tjörneshreppur",
    "name_en": null,
    "all_tags": {
      "name": "Tjörneshreppur",
      "boundary": "administrative",
      "way_area": "0.0402671",
      "wikidata": "Q628888",
      "wikipedia": "is:Tjörneshreppur",
      "admin_level": "6"
    }
  },
  {
    "osm_id": -56152,
    "boundary": "administrative",
    "admin_level": 6,
    "parents": "-4001055,-299133",
    "name": "Svalbarðshreppur",
    "local_name": "Svalbarðshreppur",
    "name_en": null,
    "all_tags": {
      "name": "Svalbarðshreppur",
      "boundary": "administrative",
      "way_area": "0.22548",
      "wikidata": "Q965922",
      "wikipedia": "is:Svalbarðshreppur",
      "admin_level": "6"
    }
  },
  {
    "osm_id": -56147,
    "boundary": "administrative",
    "admin_level": 6,
    "parents": "-4001011,-299133",
    "name": "Vopnafjarðarhreppur",
    "local_name": "Vopnafjarðarhreppur",
    "name_en": null,
    "all_tags": {
      "name": "Vopnafjarðarhreppur",
      "alt_name": "Vopnafjörður",
      "boundary": "administrative",
      "way_area": "0.3832",
      "wikidata": "Q3182530",
      "wikipedia": "is:Vopnafjarðarhreppur",
      "admin_level": "6"
    }
  },
  {
    "osm_id": -56146,
    "boundary": "administrative",
    "admin_level": 6,
    "parents": "-4001055,-299133",
    "name": "Langanesbyggð",
    "local_name": "Langanesbyggð",
    "name_en": null,
    "all_tags": {
      "name": "Langanesbyggð",
      "boundary": "administrative",
      "way_area": "0.273092",
      "wikidata": "Q1713264",
      "wikipedia": "is:Langanesbyggð",
      "admin_level": "6"
    }
  },
  {
    "osm_id": -56135,
    "boundary": "administrative",
    "admin_level": 6,
    "parents": "-4001011,-299133",
    "name": "Fjarðabyggð",
    "local_name": "Fjarðabyggð",
    "name_en": null,
    "all_tags": {
      "name": "Fjarðabyggð",
      "boundary": "administrative",
      "way_area": "0.288994",
      "wikidata": "Q1146805",
      "wikipedia": "is:Fjarðabyggð",
      "admin_level": "6"
    }
  },
  {
    "osm_id": -56120,
    "boundary": "administrative",
    "admin_level": 6,
    "parents": "-4001011,-299133",
    "name": "Fljótsdalshreppur",
    "local_name": "Fljótsdalshreppur",
    "name_en": null,
    "all_tags": {
      "name": "Fljótsdalshreppur",
      "boundary": "administrative",
      "way_area": "0.212786",
      "wikidata": "Q1429028",
      "wikipedia": "is:Fljótsdalshreppur",
      "admin_level": "6"
    }
  },
  {
    "osm_id": -56115,
    "boundary": "administrative",
    "admin_level": 6,
    "parents": "-4001076,-299133",
    "name": "Húnaþing vestra",
    "local_name": "Húnaþing vestra",
    "name_en": null,
    "all_tags": {
      "ref": "5508",
      "name": "Húnaþing vestra",
      "boundary": "administrative",
      "way_area": "0.588574",
      "wikidata": "Q1652058",
      "wikipedia": "is:Húnaþing vestra",
      "admin_level": "6"
    }
  },
  {
    "osm_id": -56112,
    "boundary": "administrative",
    "admin_level": 6,
    "parents": "-4001076,-299133",
    "name": "Húnavatnshreppur",
    "local_name": "Húnavatnshreppur",
    "name_en": null,
    "all_tags": {
      "ref": "5612",
      "name": "Húnavatnshreppur",
      "boundary": "administrative",
      "way_area": "0.75943",
      "wikidata": "Q958216",
      "wikipedia": "is:Húnavatnshreppur",
      "admin_level": "6"
    }
  },
  {
    "osm_id": -56106,
    "boundary": "administrative",
    "admin_level": 6,
    "parents": "-4001076,-299133",
    "name": "Skagabyggð",
    "local_name": "Skagabyggð",
    "name_en": null,
    "all_tags": {
      "ref": "5611",
      "name": "Skagabyggð",
      "boundary": "administrative",
      "way_area": "0.0920493",
      "wikidata": "Q591081",
      "wikipedia": "is:Skagabyggð",
      "admin_level": "6"
    }
  },
  {
    "osm_id": -56105,
    "boundary": "administrative",
    "admin_level": 6,
    "parents": "-4001076,-299133",
    "name": "Sveitarfélagið Skagaströnd",
    "local_name": "Sveitarfélagið Skagaströnd",
    "name_en": null,
    "all_tags": {
      "ref": "5609",
      "name": "Sveitarfélagið Skagaströnd",
      "alt_name": "Skagaströnd",
      "boundary": "administrative",
      "old_name": "Höfðahreppur",
      "way_area": "0.0104602",
      "wikipedia": "is:Skagaströnd",
      "admin_level": "6"
    }
  },
  {
    "osm_id": -56103,
    "boundary": "administrative",
    "admin_level": 6,
    "parents": "-4001076,-299133",
    "name": "Sveitarfélagið Skagafjörður",
    "local_name": "Sveitarfélagið Skagafjörður",
    "name_en": null,
    "all_tags": {
      "ref": "5200",
      "name": "Sveitarfélagið Skagafjörður",
      "alt_name": "Skagafjörður",
      "boundary": "administrative",
      "way_area": "0.753453",
      "wikidata": "Q1549436",
      "wikipedia": "is:Sveitarfélagið Skagafjörður",
      "admin_level": "6"
    }
  },
  {
    "osm_id": -56098,
    "boundary": "administrative",
    "admin_level": 6,
    "parents": "-4001076,-299133",
    "name": "Akrahreppur",
    "local_name": "Akrahreppur",
    "name_en": null,
    "all_tags": {
      "ref": "5706",
      "name": "Akrahreppur",
      "boundary": "administrative",
      "way_area": "0.240219",
      "wikidata": "Q420730",
      "wikipedia": "is:Akrahreppur",
      "admin_level": "6"
    }
  },
  {
    "osm_id": -56092,
    "boundary": "administrative",
    "admin_level": 6,
    "parents": "-4001055,-299133",
    "name": "Eyjafjarðarsveit",
    "local_name": "Eyjafjarðarsveit",
    "name_en": null,
    "all_tags": {
      "ref": "6513",
      "name": "Eyjafjarðarsveit",
      "boundary": "administrative",
      "way_area": "0.341571",
      "wikidata": "Q510141",
      "wikipedia": "is:Eyjafjarðarsveit",
      "admin_level": "6"
    }
  },
  {
    "osm_id": -56091,
    "boundary": "administrative",
    "admin_level": 6,
    "parents": "-4001055,-299133",
    "name": "Grýtubakkahreppur",
    "local_name": "Grýtubakkahreppur",
    "name_en": null,
    "all_tags": {
      "name": "Grýtubakkahreppur",
      "boundary": "administrative",
      "way_area": "0.0852653",
      "wikidata": "Q337924",
      "wikipedia": "is:Grýtubakkahreppur",
      "admin_level": "6"
    }
  },
  {
    "osm_id": -56090,
    "boundary": "administrative",
    "admin_level": 6,
    "parents": "-4001055,-299133",
    "name": "Svalbarðsstrandarhreppur",
    "local_name": "Svalbarðsstrandarhreppur",
    "name_en": null,
    "all_tags": {
      "name": "Svalbarðsstrandarhreppur",
      "boundary": "administrative",
      "way_area": "0.0107016",
      "wikidata": "Q1225664",
      "wikipedia": "is:Svalbarðsstrandarhreppur",
      "admin_level": "6"
    }
  },
  {
    "osm_id": -56086,
    "boundary": "administrative",
    "admin_level": 6,
    "parents": "-4001055,-299133",
    "name": "Akureyrarbær",
    "local_name": "Akureyrarbær",
    "name_en": null,
    "all_tags": {
      "ref": "6000",
      "name": "Akureyrarbær",
      "alt_name": "Akureyri",
      "boundary": "administrative",
      "way_area": "0.0267128",
      "wikidata": "Q29042",
      "wikipedia": "is:Akureyri",
      "population": "18103",
      "admin_level": "6"
    }
  },
  {
    "osm_id": -56084,
    "boundary": "administrative",
    "admin_level": 6,
    "parents": "-4001055,-299133",
    "name": "Hörgársveit",
    "local_name": "Hörgársveit",
    "name_en": null,
    "all_tags": {
      "ref": "6515",
      "name": "Hörgársveit",
      "boundary": "administrative",
      "way_area": "0.17413",
      "wikidata": "Q1432846",
      "wikipedia": "is:Hörgársveit",
      "admin_level": "6"
    }
  },
  {
    "osm_id": -55969,
    "boundary": "administrative",
    "admin_level": 6,
    "parents": "-4001055,-299133",
    "name": "Dalvíkurbyggð",
    "local_name": "Dalvíkurbyggð",
    "name_en": null,
    "all_tags": {
      "ref": "6400",
      "name": "Dalvíkurbyggð",
      "alt_name": "Dalvík",
      "boundary": "administrative",
      "way_area": "0.117378",
      "wikidata": "Q1158104",
      "wikipedia": "is:Dalvíkurbyggð",
      "admin_level": "6"
    }
  },
  {
    "osm_id": -55967,
    "boundary": "administrative",
    "admin_level": 6,
    "parents": "-4001055,-299133",
    "name": "Fjallabyggð",
    "local_name": "Fjallabyggð",
    "name_en": null,
    "all_tags": {
      "ref": "6250",
      "name": "Fjallabyggð",
      "boundary": "administrative",
      "way_area": "0.0719916",
      "wikidata": "Q729833",
      "wikipedia": "is:Fjallabyggð",
      "admin_level": "6"
    }
  },
  {
    "osm_id": -55966,
    "boundary": "administrative",
    "admin_level": 6,
    "parents": "-4001011,-299133",
    "name": "Sveitarfélagið Hornafjörður",
    "local_name": "Sveitarfélagið Hornafjörður",
    "name_en": null,
    "all_tags": {
      "name": "Sveitarfélagið Hornafjörður",
      "alt_name": "Hornafjörður",
      "boundary": "administrative",
      "way_area": "0.612401",
      "wikidata": "Q933458",
      "wikipedia": "is:Sveitarfélagið Hornafjörður",
      "admin_level": "6"
    }
  }
]
