[
  {
    "osm_id": -44217,
    "boundary": "administrative",
    "admin_level": 6,
    "parents": "-43648,-365331",
    "name": "Padova",
    "local_name": "Padova",
    "name_en": null,
    "all_tags": {
      "name": "Padova",
      "name:ar": "بادوفا",
      "name:ca": "Província de Pàdua",
      "name:el": "Πάδοβα",
      "name:fa": "پادووا",
      "name:ru": "Падуя",
      "name:ur": "پادووا",
      "boundary": "administrative",
      "ref:nuts": "ITH36",
      "way_area": "0.246037",
      "wikidata": "Q16226",
      "ISO3166-2": "IT-PD",
      "ref:ISTAT": "028",
      "wikipedia": "it:Provincia di Padova",
      "ref:nuts:3": "ITH36",
      "short_name": "PD",
      "admin_level": "6",
      "official_name": "Provincia di Padova"
    }
  },
  {
    "osm_id": -44874,
    "boundary": "administrative",
    "admin_level": 4,
    "parents": "-365331",
    "name": "Piemont",
    "local_name": "Piemonte",
    "name_en": "Piemont",
    "all_tags": {
      "name": "Piemonte",
      "name:br": "Piemont",
      "name:ca": "Piemont",
      "name:cs": "Piemont",
      "name:de": "Piemont",
      "name:en": "Piemont",
      "name:es": "Piamonte",
      "name:fi": "Piemonte",
      "name:fr": "Piémont",
      "name:hu": "Piemont",
      "name:it": "Piemonte",
      "name:ja": "ピエモンテ州",
      "name:nl": "Piëmont",
      "name:pl": "Piemont",
      "name:ru": "Пьемонт",
      "name:sc": "Piemonte",
      "name:sl": "Piemont",
      "boundary": "administrative",
      "name:scn": "Piemunti",
      "ref:nuts": "ITC1",
      "way_area": "2.90159",
      "wikidata": "Q1216",
      "ISO3166-2": "IT-21",
      "ref:ISTAT": "01",
      "wikipedia": "it:Piemonte",
      "ref:nuts:2": "ITC1",
      "short_name": "PIE",
      "admin_level": "4"
    }
  },
  {
    "osm_id": -42106,
    "boundary": "administrative",
    "admin_level": 6,
    "parents": "-42004,-365331",
    "name": "Perugia",
    "local_name": "Perugia",
    "name_en": null,
    "all_tags": {
      "name": "Perugia",
      "name:ca": "Província de Perusa",
      "name:it": "Perugia",
      "name:ru": "Перуджа",
      "boundary": "administrative",
      "ref:nuts": "ITI21",
      "way_area": "0.69951",
      "wikidata": "Q16240",
      "ISO3166-2": "IT-PG",
      "ref:ISTAT": "054",
      "wikipedia": "it:Provincia di Perugia",
      "population": "643311",
      "ref:nuts:3": "ITI21",
      "short_name": "PG",
      "admin_level": "6",
      "official_name": "Provincia di Perugia",
      "population:date": "01-01-2021"
    }
  },
  {
    "osm_id": -41256,
    "boundary": "administrative",
    "admin_level": 4,
    "parents": "-365331",
    "name": "Molise",
    "local_name": "Molise",
    "name_en": "Molise",
    "all_tags": {
      "name": "Molise",
      "name:ca": "Molise",
      "name:cs": "Molise",
      "name:en": "Molise",
      "name:fr": "Molise",
      "name:hu": "Molise",
      "name:it": "Molise",
      "name:ja": "モリーゼ州",
      "name:nl": "Molise",
      "name:pl": "Molise",
      "name:ru": "Молизе",
      "name:sc": "Molise",
      "name:sl": "Molise",
      "boundary": "administrative",
      "name:scn": "Mulisi",
      "ref:nuts": "ITF2",
      "way_area": "0.479925",
      "wikidata": "Q1443",
      "ISO3166-2": "IT-67",
      "ref:ISTAT": "14",
      "wikipedia": "it:Molise",
      "ref:nuts:2": "ITF2",
      "short_name": "MOL",
      "admin_level": "4"
    }
  },
  {
    "osm_id": -39979,
    "boundary": "administrative",
    "admin_level": 6,
    "parents": "-7361997,-365331",
    "name": "Nuoro",
    "local_name": "Nuoro",
    "name_en": null,
    "all_tags": {
      "name": "Nuoro",
      "name:ca": "Província de Nuoro",
      "name:fr": "Nuoro",
      "name:it": "Nuoro",
      "name:ru": "Нуоро",
      "name:sc": "Nùgoro",
      "boundary": "administrative",
      "ref:nuts": "ITG2E",
      "way_area": "0.42297",
      "wikidata": "Q16220",
      "ISO3166-2": "IT-NU",
      "ref:ISTAT": "091",
      "wikipedia": "it:Provincia di Nuoro",
      "ref:nuts:3": "ITG2E",
      "short_name": "NU",
      "admin_level": "6",
      "official_name": "Provincia di Nuoro",
      "official_name:it": "Provincia di Nuoro",
      "official_name:sc": "Provìntzia de Nùgoro"
    }
  },
  {
    "osm_id": -42856,
    "boundary": "administrative",
    "admin_level": 6,
    "parents": "-42611,-365331",
    "name": "Bologna",
    "local_name": "Bologna",
    "name_en": null,
    "all_tags": {
      "name": "Bologna",
      "name:ca": "Bolonya",
      "name:ja": "ボローニャ",
      "name:pl": "Bolonia",
      "name:ru": "Болонья",
      "boundary": "administrative",
      "old_name": "Provincia di Bologna",
      "ref:nuts": "ITH55",
      "way_area": "0.419029",
      "wikidata": "Q18288145",
      "ISO3166-2": "IT-BO",
      "ref:ISTAT": "037",
      "wikipedia": "it:Città metropolitana di Bologna",
      "ref:nuts:3": "ITH55",
      "short_name": "BO",
      "admin_level": "6",
      "official_name": "Città Metropolitana di Bologna",
      "official_name:de": "Metropolitanstadt Bologna"
    }
  },
  {
    "osm_id": -43199,
    "boundary": "administrative",
    "admin_level": 6,
    "parents": "-44874,-365331",
    "name": "Alessandria",
    "local_name": "Alessandria",
    "name_en": null,
    "all_tags": {
      "name": "Alessandria",
      "name:ca": "Província d'Alessandria",
      "name:fr": "Alexandrie",
      "name:pt": "Alexandria",
      "name:ru": "Алессандрия",
      "name:zh": "亚历山德里亚",
      "boundary": "administrative",
      "name:pms": "Lissandria",
      "ref:nuts": "ITC18",
      "way_area": "0.40516",
      "wikidata": "Q15097",
      "ISO3166-2": "IT-AL",
      "ref:ISTAT": "006",
      "wikipedia": "it:Provincia di Alessandria",
      "ref:nuts:3": "ITC18",
      "short_name": "AL",
      "admin_level": "6",
      "official_name": "Provincia di Alessandria"
    }
  },
  {
    "osm_id": -46708,
    "boundary": "administrative",
    "admin_level": 6,
    "parents": "-44879,-365331",
    "name": "Sondrio",
    "local_name": "Sondrio",
    "name_en": null,
    "all_tags": {
      "ref": "SO",
      "name": "Sondrio",
      "boundary": "administrative",
      "ref:nuts": "ITC44",
      "way_area": "0.373445",
      "wikidata": "Q16282",
      "ISO3166-2": "IT-SO",
      "ref:ISTAT": "014",
      "wikipedia": "it:Provincia di Sondrio",
      "population": "178946",
      "ref:nuts:3": "ITC44",
      "admin_level": "6",
      "official_name": "Provincia di Sondrio",
      "population:date": "2021"
    }
  },
  {
    "osm_id": -39374,
    "boundary": "administrative",
    "admin_level": 6,
    "parents": "-39152,-365331",
    "name": "Messina",
    "local_name": "Messina",
    "name_en": null,
    "all_tags": {
      "name": "Messina",
      "name:an": "Mecina",
      "name:ar": "مسينة",
      "name:be": "Месіна",
      "name:ca": "Messina",
      "name:el": "Μεσσήνη",
      "name:es": "Mesina",
      "name:fr": "Messine",
      "name:he": "מסינה",
      "name:it": "Messina",
      "name:ja": "メッシーナ",
      "name:la": "Messana",
      "name:lt": "Mesina",
      "name:pl": "Mesyna",
      "name:ru": "Мессина",
      "name:uk": "Мессіна",
      "name:zh": "墨西拿",
      "boundary": "administrative",
      "name:scn": "Missina",
      "ref:nuts": "ITG13",
      "way_area": "0.333066",
      "wikidata": "Q20991250",
      "ISO3166-2": "IT-ME",
      "ref:ISTAT": "083",
      "wikipedia": "it:Città metropolitana di Messina",
      "population": "609223",
      "ref:nuts:3": "ITG13",
      "short_name": "ME",
      "admin_level": "6",
      "old_name:el": "Ζάγκλη",
      "official_name": "Città Metropolitana di Messina"
    }
  },
  {
    "osm_id": -39151,
    "boundary": "administrative",
    "admin_level": 6,
    "parents": "-39152,-365331",
    "name": "Agrigento",
    "local_name": "Agrigento",
    "name_en": null,
    "all_tags": {
      "name": "Agrigento",
      "name:ar": "جرجنت",
      "name:de": "Agrigent",
      "name:el": "Αγκριτζέντο",
      "name:fr": "Agrigente",
      "name:he": "אגריג'נטו",
      "name:it": "Agrigento",
      "name:lt": "Agridžentas",
      "name:ru": "Агридженто",
      "name:uk": "Агрідженто",
      "name:zh": "阿格里真托",
      "boundary": "administrative",
      "name:scn": "Girgenti",
      "old_name": "Girgenti",
      "ref:nuts": "ITG14",
      "way_area": "0.30975",
      "wikidata": "Q26160406",
      "ISO3166-2": "IT-AG",
      "ref:ISTAT": "084",
      "wikipedia": "it:Libero consorzio comunale di Agrigento",
      "population": "419847",
      "ref:nuts:3": "ITG14",
      "short_name": "AG",
      "admin_level": "6",
      "alt_name:ar": "كركنت;أغريجنتو",
      "official_name": "Libero Consorzio Comunale di Agrigento"
    }
  },
  {
    "osm_id": -41542,
    "boundary": "administrative",
    "admin_level": 6,
    "parents": "-53937,-365331",
    "name": "Chieti",
    "local_name": "Chieti",
    "name_en": null,
    "all_tags": {
      "name": "Chieti",
      "name:ru": "Кьети",
      "boundary": "administrative",
      "ref:nuts": "ITF14",
      "way_area": "0.281035",
      "wikidata": "Q16160",
      "ISO3166-2": "IT-CH",
      "ref:ISTAT": "069",
      "wikipedia": "it:Provincia di Chieti",
      "ref:nuts:3": "ITF14",
      "short_name": "CH",
      "admin_level": "6",
      "official_name": "Provincia di Chieti"
    }
  },
  {
    "osm_id": -43798,
    "boundary": "administrative",
    "admin_level": 6,
    "parents": "-44879,-365331",
    "name": "Mantua",
    "local_name": "Mantova",
    "name_en": "Mantua",
    "all_tags": {
      "name": "Mantova",
      "name:ar": "مانتوفا",
      "name:ca": "Província de Màntua",
      "name:de": "Mantua",
      "name:en": "Mantua",
      "name:es": "Mantua",
      "name:fr": "Mantoue",
      "name:it": "Mantova",
      "name:la": "Mantua",
      "name:nl": "Mantua",
      "name:pl": "Mantua",
      "name:ru": "Мантуя",
      "name:zh": "曼托瓦",
      "boundary": "administrative",
      "name:vec": "Màntoa",
      "ref:nuts": "ITC4B",
      "way_area": "0.267614",
      "wikidata": "Q16204",
      "ISO3166-2": "IT-MN",
      "ref:ISTAT": "020",
      "wikipedia": "it:Provincia di Mantova",
      "population": "410231",
      "ref:nuts:3": "ITC4B",
      "short_name": "MN",
      "admin_level": "6",
      "official_name": "Provincia di Mantova"
    }
  },
  {
    "osm_id": -179293,
    "boundary": "administrative",
    "admin_level": 6,
    "parents": "-179296,-365331",
    "name": "Pordenone",
    "local_name": "Pordenone",
    "name_en": null,
    "all_tags": {
      "name": "Pordenone",
      "name:it": "Pordenone",
      "name:sl": "Pordenon",
      "boundary": "administrative",
      "name:fur": "Pordenon",
      "ref:nuts": "ITH41",
      "way_area": "0.264433",
      "wikidata": "Q106917364",
      "ISO3166-2": "IT-PN",
      "ref:ISTAT": "093",
      "wikipedia": "it:Ente di decentramento regionale di Pordenone",
      "ref:nuts:3": "ITH41",
      "short_name": "PN",
      "admin_level": "6",
      "official_name": "Ente di decentramento regionale di Pordenone"
    }
  },
  {
    "osm_id": -46089,
    "boundary": "administrative",
    "admin_level": 6,
    "parents": "-44874,-365331",
    "name": "Verbano-Cusio-Ossola",
    "local_name": "Verbano-Cusio-Ossola",
    "name_en": null,
    "all_tags": {
      "name": "Verbano-Cusio-Ossola",
      "name:ru": "Вербано-Кузьо-Оссола",
      "boundary": "administrative",
      "ref:nuts": "ITC14",
      "way_area": "0.263179",
      "wikidata": "Q16312",
      "ISO3166-2": "IT-VB",
      "ref:ISTAT": "103",
      "wikipedia": "it:Provincia del Verbano-Cusio-Ossola",
      "ref:nuts:3": "ITC14",
      "short_name": "VB",
      "admin_level": "6",
      "official_name": "Provincia del Verbano-Cusio-Ossola"
    }
  },
  {
    "osm_id": -53059,
    "boundary": "administrative",
    "admin_level": 6,
    "parents": "-53060,-365331",
    "name": "Ancona",
    "local_name": "Ancona",
    "name_en": null,
    "all_tags": {
      "name": "Ancona",
      "name:it": "Ancona",
      "name:lt": "Ankona",
      "name:ru": "Анкона",
      "boundary": "administrative",
      "ref:nuts": "ITI32",
      "way_area": "0.218122",
      "wikidata": "Q16114",
      "ISO3166-2": "IT-AN",
      "ref:ISTAT": "042",
      "wikipedia": "it:Provincia di Ancona",
      "ref:nuts:3": "ITI32",
      "short_name": "AN",
      "admin_level": "6",
      "official_name": "Provincia di Ancona"
    }
  },
  {
    "osm_id": -43332,
    "boundary": "administrative",
    "admin_level": 6,
    "parents": "-42611,-365331",
    "name": "Piacenza",
    "local_name": "Piacenza",
    "name_en": null,
    "all_tags": {
      "name": "Piacenza",
      "name:ca": "Província de Piacenza",
      "name:ru": "Пьяченца",
      "boundary": "administrative",
      "ref:nuts": "ITH51",
      "way_area": "0.294489",
      "wikidata": "Q16243",
      "ISO3166-2": "IT-PC",
      "ref:ISTAT": "033",
      "wikipedia": "it:Provincia di Piacenza",
      "ref:nuts:3": "ITH51",
      "short_name": "PC",
      "admin_level": "6",
      "official_name": "Provincia di Piacenza"
    }
  },
  {
    "osm_id": -39216,
    "boundary": "administrative",
    "admin_level": 6,
    "parents": "-39152,-365331",
    "name": "Enna",
    "local_name": "Enna",
    "name_en": null,
    "all_tags": {
      "name": "Enna",
      "name:ru": "Энна",
      "name:zh": "恩纳",
      "boundary": "administrative",
      "name:scn": "Castrugiuvanni",
      "old_name": "Castrogiovanni",
      "ref:nuts": "ITG16",
      "way_area": "0.261403",
      "wikidata": "Q26160408",
      "ISO3166-2": "IT-EN",
      "ref:ISTAT": "086",
      "wikipedia": "it:Libero consorzio comunale di Enna",
      "population": "158183",
      "ref:nuts:3": "ITG16",
      "short_name": "EN",
      "admin_level": "6",
      "official_name": "Libero Consorzio Comunale di Enna"
    }
  },
  {
    "osm_id": -40423,
    "boundary": "administrative",
    "admin_level": 6,
    "parents": "-40095,-365331",
    "name": "Taranto",
    "local_name": "Taranto",
    "name_en": null,
    "all_tags": {
      "name": "Taranto",
      "name:ar": "تارانتو",
      "name:ca": "Província de Tàrent",
      "name:fa": "تارانتو",
      "name:nl": "Tarente",
      "name:ru": "Таранто",
      "name:ur": "تارانتو",
      "boundary": "administrative",
      "ref:nuts": "ITF43",
      "way_area": "0.259583",
      "wikidata": "Q16283",
      "ISO3166-2": "IT-TA",
      "ref:ISTAT": "073",
      "wikipedia": "it:Provincia di Taranto",
      "ref:nuts:3": "ITF43",
      "short_name": "TA",
      "admin_level": "6",
      "official_name": "Provincia di Taranto",
      "official_name:ar": "مقاطعة تارانتو"
    }
  },
  {
    "osm_id": -39155,
    "boundary": "administrative",
    "admin_level": 6,
    "parents": "-39152,-365331",
    "name": "Siracusa",
    "local_name": "Siracusa",
    "name_en": null,
    "all_tags": {
      "name": "Siracusa",
      "name:ar": "سرقوسة",
      "name:cs": "Syrakusy",
      "name:de": "Syrakus",
      "name:el": "Συρακούσες",
      "name:fi": "Syrakusa",
      "name:fr": "Syracuse",
      "name:it": "Siracusa",
      "name:la": "Syracusae",
      "name:lt": "Sirakūzai",
      "name:pl": "Syrakuzy",
      "name:ru": "Сиракуза",
      "name:sk": "Syrakúzy",
      "name:sv": "Syrakusa",
      "name:uk": "Сіракуза",
      "name:zh": "叙拉古",
      "boundary": "administrative",
      "name:scn": "Sarausa",
      "ref:nuts": "ITG19",
      "way_area": "0.213768",
      "wikidata": "Q25510290",
      "ISO3166-2": "IT-SR",
      "ref:ISTAT": "089",
      "wikipedia": "it:Libero consorzio comunale di Siracusa",
      "population": "386451",
      "ref:nuts:3": "ITG19",
      "short_name": "SR",
      "admin_level": "6",
      "alt_name:ar": "سيراقوسة;سيراكوز",
      "official_name": "Libero Consorzio Comunale di Siracusa"
    }
  },
  {
    "osm_id": -8433740,
    "boundary": "protected_area",
    "admin_level": 5,
    "parents": "-44879,-365331",
    "name": "Parco San Lorenzo",
    "local_name": "Parco San Lorenzo",
    "name_en": null,
    "all_tags": {
      "name": "Parco San Lorenzo",
      "boundary": "protected_area",
      "way_area": "5.97181e-05",
      "admin_level": "5"
    }
  },
  {
    "osm_id": -12998776,
    "boundary": "administrative",
    "admin_level": 6,
    "parents": "-7361997,-365331",
    "name": "Sulcis Iglesiente",
    "local_name": "Sulcis Iglesiente",
    "name_en": null,
    "all_tags": {
      "name": "Sulcis Iglesiente",
      "boundary": "administrative",
      "way_area": "0.156501",
      "wikidata": "Q106997093",
      "wikipedia": "it:Provincia del Sulcis Iglesiente",
      "admin_level": "6",
      "official_name": "Provincia del Sulcis Iglesiente"
    }
  },
  {
    "osm_id": -41778,
    "boundary": "administrative",
    "admin_level": 6,
    "parents": "-53937,-365331",
    "name": "Pescara",
    "local_name": "Pescara",
    "name_en": null,
    "all_tags": {
      "name": "Pescara",
      "name:ru": "Пескара",
      "boundary": "administrative",
      "ref:nuts": "ITF13",
      "way_area": "0.133801",
      "wikidata": "Q16242",
      "ISO3166-2": "IT-PE",
      "ref:ISTAT": "068",
      "wikipedia": "it:Provincia di Pescara",
      "ref:nuts:3": "ITF13",
      "short_name": "PE",
      "admin_level": "6",
      "official_name": "Provincia di Pescara"
    }
  },
  {
    "osm_id": 99869345,
    "boundary": "administrative",
    "admin_level": 4,
    "parents": "-365331",
    "name": "Isola di Sant'Andrea",
    "local_name": "Isola di Sant'Andrea",
    "name_en": null,
    "all_tags": {
      "area": "yes",
      "name": "Isola di Sant'Andrea",
      "place": "islet",
      "boundary": "administrative",
      "way_area": "5.25645e-05",
      "wikidata": "Q3803074",
      "city:left": "Gallipoli",
      "wikipedia": "it:Isola di Sant'Andrea (Gallipoli)",
      "admin_level": "4",
      "region:left": "Puglia",
      "protect_class": "97",
      "province:left": "Lecce"
    }
  },
  {
    "osm_id": -44882,
    "boundary": "administrative",
    "admin_level": 6,
    "parents": "-44879,-365331",
    "name": "Brescia",
    "local_name": "Brescia",
    "name_en": null,
    "all_tags": {
      "name": "Brescia",
      "name:it": "Brescia",
      "name:ru": "Брешиа",
      "name:zh": "布雷西亚",
      "boundary": "administrative",
      "ref:nuts": "ITC47",
      "way_area": "0.55288",
      "wikidata": "Q16144",
      "ISO3166-2": "IT-BS",
      "ref:ISTAT": "017",
      "wikipedia": "it:Provincia di Brescia",
      "ref:nuts:3": "ITC47",
      "short_name": "BS",
      "admin_level": "6",
      "old_name:de": "Welsch-Brixen----",
      "official_name": "Provincia di Brescia"
    }
  },
  {
    "osm_id": 10271929,
    "boundary": "administrative",
    "admin_level": 4,
    "parents": "-365331",
    "name": "Isola del Caparrone",
    "local_name": "Isola del Caparrone",
    "name_en": null,
    "all_tags": {
      "area": "yes",
      "name": "Isola del Caparrone",
      "place": "islet",
      "boundary": "administrative",
      "way_area": "1.01193e-06",
      "city:left": "Porto Cesareo",
      "admin_level": "4",
      "region:left": "Puglia",
      "province:left": "Lecce"
    }
  },
  {
    "osm_id": -276369,
    "boundary": "administrative",
    "admin_level": 6,
    "parents": "-7361997,-365331",
    "name": "Cagliari",
    "local_name": "Cagliari",
    "name_en": null,
    "all_tags": {
      "name": "Cagliari",
      "name:ca": "Província de Càller",
      "name:el": "Κάλιαρι",
      "name:es": "Cagliari",
      "name:fr": "Cagliari",
      "name:it": "Cagliari",
      "name:ru": "Кальяри",
      "name:sc": "Casteddu",
      "boundary": "administrative",
      "ref:nuts": "ITG2F",
      "way_area": "0.491907",
      "wikidata": "Q3622022",
      "ISO3166-2": "IT-CA",
      "ref:ISTAT": "092",
      "wikipedia": "it:Città metropolitana di Cagliari",
      "ref:nuts:3": "ITG2F",
      "short_name": "CA",
      "admin_level": "6",
      "official_name": "Città Metropolitana di Cagliari",
      "official_name:it": "Città Metropolitana di Cagliari",
      "official_name:sc": "Provìncia de Casteddu"
    }
  },
  {
    "osm_id": -40021,
    "boundary": "administrative",
    "admin_level": 6,
    "parents": "-7361997,-365331",
    "name": "Aristanis/Oristano",
    "local_name": "Aristanis/Oristano",
    "name_en": null,
    "all_tags": {
      "name": "Aristanis/Oristano",
      "name:ca": "Província d'Oristany",
      "name:el": "Οριστάνο",
      "name:fr": "Oristano",
      "name:it": "Oristano",
      "name:ru": "Ористано",
      "name:sc": "Aristanis",
      "boundary": "administrative",
      "ref:nuts": "ITG2G",
      "way_area": "0.315584",
      "wikidata": "Q16225",
      "ISO3166-2": "IT-OR",
      "ref:ISTAT": "095",
      "wikipedia": "it:Provincia di Oristano",
      "ref:nuts:3": "ITG2G",
      "short_name": "OR",
      "admin_level": "6",
      "official_name:it": "Provincia di Oristano",
      "official_name:sc": "Provìntzia de Aristanis"
    }
  },
  {
    "osm_id": -12998778,
    "boundary": "administrative",
    "admin_level": 6,
    "parents": "-7361997,-365331",
    "name": "Ogliastra",
    "local_name": "Ogliastra",
    "name_en": null,
    "all_tags": {
      "name": "Ogliastra",
      "boundary": "administrative",
      "way_area": "0.179861",
      "wikidata": "Q16223",
      "wikipedia": "it:Provincia dell'Ogliastra",
      "short_name": "OG",
      "admin_level": "6",
      "official_name": "Provincia dell'Ogliastra"
    }
  },
  {
    "osm_id": -275098,
    "boundary": "administrative",
    "admin_level": 6,
    "parents": "-7361997,-365331",
    "name": "Sassari",
    "local_name": "Sassari",
    "name_en": null,
    "all_tags": {
      "name": "Sassari",
      "name:ar": "ساساري",
      "name:co": "Sassari",
      "name:el": "Σάσσαρι",
      "name:fa": "ساساری",
      "name:fr": "Sassari",
      "name:hu": "Szardínia",
      "name:it": "Sassari",
      "name:ru": "Сассари",
      "name:ur": "ساساری",
      "boundary": "administrative",
      "name:sdc": "Sassari",
      "ref:nuts": "ITG2D",
      "way_area": "0.456347",
      "wikidata": "Q106997185",
      "ISO3166-2": "IT-SS",
      "ref:ISTAT": "090",
      "wikipedia": "it:Città metropolitana di Sassari",
      "ref:nuts:3": "ITG2D",
      "short_name": "SS",
      "admin_level": "6",
      "official_name": "Città metrppolitana di Sassari"
    }
  },
  {
    "osm_id": -42628,
    "boundary": "administrative",
    "admin_level": 6,
    "parents": "-301482,-365331",
    "name": "Imperia",
    "local_name": "Imperia",
    "name_en": null,
    "all_tags": {
      "name": "Imperia",
      "name:fr": "Imperia",
      "name:it": "Imperia",
      "name:ru": "Империя",
      "boundary": "administrative",
      "ref:nuts": "ITC31",
      "way_area": "0.129734",
      "wikidata": "Q16186",
      "ISO3166-2": "IT-IM",
      "ref:ISTAT": "008",
      "wikipedia": "it:Provincia di Imperia",
      "ref:nuts:3": "ITC31",
      "short_name": "IM",
      "admin_level": "6",
      "official_name": "Provincia di Imperia"
    }
  },
  {
    "osm_id": -42845,
    "boundary": "administrative",
    "admin_level": 6,
    "parents": "-44874,-365331",
    "name": "Cuneo",
    "local_name": "Cuneo",
    "name_en": null,
    "all_tags": {
      "name": "Cuneo",
      "name:ar": "كونيو",
      "name:fa": "کونیو",
      "name:fr": "Coni",
      "name:ks": "کونیو",
      "name:oc": "Coni",
      "name:ru": "Кунео",
      "name:ur": "کونیو",
      "boundary": "administrative",
      "name:azb": "کونیو",
      "name:pnb": "کیونیو",
      "ref:nuts": "ITC16",
      "way_area": "0.780198",
      "wikidata": "Q15091",
      "ISO3166-2": "IT-CN",
      "ref:ISTAT": "004",
      "wikipedia": "it:Provincia di Cuneo",
      "ref:nuts:3": "ITC16",
      "short_name": "CN",
      "admin_level": "6",
      "official_name": "Provincia di Cuneo",
      "official_name:ar": "مقاطعة كونيو",
      "official_name:fa": "استان کونیو",
      "official_name:ur": "صوبہ کونیو",
      "official_name:azb": "کونیو اوستانی",
      "official_name:pnb": "ضلع کیونیو"
    }
  },
  {
    "osm_id": -43267,
    "boundary": "administrative",
    "admin_level": 6,
    "parents": "-44874,-365331",
    "name": "Asti",
    "local_name": "Asti",
    "name_en": null,
    "all_tags": {
      "name": "Asti",
      "name:ru": "Асти",
      "boundary": "administrative",
      "ref:nuts": "ITC17",
      "way_area": "0.172109",
      "wikidata": "Q15099",
      "ISO3166-2": "IT-AT",
      "ref:ISTAT": "005",
      "wikipedia": "it:Provincia di Asti",
      "ref:nuts:3": "ITC17",
      "short_name": "AT",
      "admin_level": "6",
      "official_name": "Provincia di Asti"
    }
  },
  {
    "osm_id": -42147,
    "boundary": "administrative",
    "admin_level": 6,
    "parents": "-41977,-365331",
    "name": "Livorno",
    "local_name": "Livorno",
    "name_en": null,
    "all_tags": {
      "name": "Livorno",
      "name:ru": "Ливорно",
      "boundary": "administrative",
      "ref:nuts": "ITI16",
      "way_area": "0.134495",
      "wikidata": "Q16200",
      "ISO3166-2": "IT-LI",
      "ref:ISTAT": "049",
      "wikipedia": "it:Provincia di Livorno",
      "ref:nuts:3": "ITI16",
      "short_name": "LI",
      "admin_level": "6",
      "official_name": "Provincia di Livorno"
    }
  },
  {
    "osm_id": -301482,
    "boundary": "administrative",
    "admin_level": 4,
    "parents": "-365331",
    "name": "Liguria",
    "local_name": "Liguria",
    "name_en": "Liguria",
    "all_tags": {
      "name": "Liguria",
      "name:ca": "Ligúria",
      "name:cs": "Ligurie",
      "name:de": "Ligurien",
      "name:en": "Liguria",
      "name:eo": "Ligurio",
      "name:fi": "Liguria",
      "name:fr": "Ligurie",
      "name:hu": "Liguria",
      "name:it": "Liguria",
      "name:ja": "リグーリア州",
      "name:nl": "Ligurië",
      "name:pl": "Liguria",
      "name:pt": "Ligúria",
      "name:ru": "Лигурия",
      "name:sc": "Ligùria",
      "name:sk": "Ligúria",
      "name:sl": "Ligurija",
      "name:sv": "Ligurien",
      "boundary": "administrative",
      "ref:nuts": "ITC3",
      "way_area": "0.611113",
      "wikidata": "Q1256",
      "ISO3166-2": "IT-42",
      "ref:ISTAT": "07",
      "wikipedia": "it:Liguria",
      "ref:nuts:2": "ITC3",
      "short_name": "LIG",
      "admin_level": "4"
    }
  },
  {
    "osm_id": -49131,
    "boundary": "administrative",
    "admin_level": 6,
    "parents": "-301482,-365331",
    "name": "La Spezia",
    "local_name": "La Spezia",
    "name_en": null,
    "all_tags": {
      "name": "La Spezia",
      "name:fr": "La Spezia",
      "name:ru": "Специя",
      "name:zh": "拉斯佩齐亚",
      "boundary": "administrative",
      "name:lij": "Spèza",
      "ref:nuts": "ITC34",
      "way_area": "0.0994625",
      "wikidata": "Q16188",
      "ISO3166-2": "IT-SP",
      "ref:ISTAT": "011",
      "wikipedia": "it:Provincia della Spezia",
      "ref:nuts:3": "ITC34",
      "short_name": "SP",
      "admin_level": "6",
      "ref:catasto": "E463",
      "official_name": "Provincia della Spezia"
    }
  },
  {
    "osm_id": -42619,
    "boundary": "administrative",
    "admin_level": 6,
    "parents": "-41977,-365331",
    "name": "Prato",
    "local_name": "Prato",
    "name_en": null,
    "all_tags": {
      "name": "Prato",
      "name:ru": "Прато",
      "boundary": "administrative",
      "ref:nuts": "ITI15",
      "way_area": "0.0410085",
      "wikidata": "Q16250",
      "ISO3166-2": "IT-PO",
      "ref:ISTAT": "100",
      "wikipedia": "it:Provincia di Prato",
      "ref:nuts:3": "ITI15",
      "short_name": "PO",
      "admin_level": "6",
      "official_name": "Provincia di Prato"
    }
  },
  {
    "osm_id": -42637,
    "boundary": "administrative",
    "admin_level": 6,
    "parents": "-41977,-365331",
    "name": "Pistoia",
    "local_name": "Pistoia",
    "name_en": null,
    "all_tags": {
      "name": "Pistoia",
      "name:ru": "Пистоя",
      "boundary": "administrative",
      "ref:nuts": "ITI13",
      "way_area": "0.108199",
      "wikidata": "Q16245",
      "ISO3166-2": "IT-PT",
      "ref:ISTAT": "047",
      "wikipedia": "it:Provincia di Pistoia",
      "ref:nuts:3": "ITI13",
      "short_name": "PT",
      "admin_level": "6",
      "official_name": "Provincia di Pistoia"
    }
  },
  {
    "osm_id": -42965,
    "boundary": "administrative",
    "admin_level": 6,
    "parents": "-42611,-365331",
    "name": "Reggio nell'Emilia",
    "local_name": "Reggio nell'Emilia",
    "name_en": null,
    "all_tags": {
      "name": "Reggio nell'Emilia",
      "name:ca": "Província de Reggio de l'Emília",
      "name:ru": "Реджо-нель-Эмилия",
      "alt_name": "Reggio Emilia",
      "boundary": "administrative",
      "ref:nuts": "ITH53",
      "way_area": "0.259701",
      "wikidata": "Q16254",
      "ISO3166-2": "IT-RE",
      "ref:ISTAT": "035",
      "wikipedia": "it:Provincia di Reggio nell'Emilia",
      "ref:nuts:3": "ITH53",
      "short_name": "RE",
      "admin_level": "6",
      "official_name": "Provincia di Reggio nell'Emilia"
    }
  },
  {
    "osm_id": -43080,
    "boundary": "administrative",
    "admin_level": 6,
    "parents": "-42611,-365331",
    "name": "Parma",
    "local_name": "Parma",
    "name_en": null,
    "all_tags": {
      "name": "Parma",
      "name:ru": "Парма",
      "boundary": "administrative",
      "ref:nuts": "ITH5",
      "way_area": "0.391887",
      "wikidata": "Q16228",
      "ISO3166-2": "IT-PR",
      "ref:ISTAT": "034",
      "wikipedia": "it:Provincia di Parma",
      "ref:nuts:3": "ITH52",
      "short_name": "PR",
      "admin_level": "6",
      "official_name": "Provincia di Parma"
    }
  },
  {
    "osm_id": -42884,
    "boundary": "administrative",
    "admin_level": 6,
    "parents": "-42611,-365331",
    "name": "Modena",
    "local_name": "Modena",
    "name_en": null,
    "all_tags": {
      "name": "Modena",
      "name:ca": "Província de Mòdena",
      "name:ru": "Модена",
      "boundary": "administrative",
      "name:egl": "Pruvèinsa ed Mòdna",
      "ref:nuts": "ITH54",
      "way_area": "0.304408",
      "wikidata": "Q16209",
      "ISO3166-2": "IT-MO",
      "ref:ISTAT": "036",
      "wikipedia": "it:Provincia di Modena",
      "ref:nuts:3": "ITH54",
      "short_name": "MO",
      "admin_level": "6",
      "official_name": "Provincia di Modena"
    }
  },
  {
    "osm_id": -44862,
    "boundary": "administrative",
    "admin_level": 6,
    "parents": "-1783980,-365331",
    "name": "Reggio di Calabria",
    "local_name": "Reggio di Calabria",
    "name_en": null,
    "all_tags": {
      "name": "Reggio di Calabria",
      "name:ca": "Reggio de Calàbria",
      "name:ru": "Реджо-ди-Калабрия",
      "alt_name": "Reggio Calabria",
      "boundary": "administrative",
      "ref:nuts": "ITF65",
      "way_area": "0.327491",
      "wikidata": "Q3678586",
      "ISO3166-2": "IT-RC",
      "ref:ISTAT": "080",
      "wikipedia": "it:Città metropolitana di Reggio Calabria",
      "ref:nuts:3": "ITF65",
      "short_name": "RC",
      "admin_level": "6",
      "official_name": "Città Metropolitana di Reggio di Calabria"
    }
  },
  {
    "osm_id": -44866,
    "boundary": "administrative",
    "admin_level": 6,
    "parents": "-1783980,-365331",
    "name": "Vibo Valentia",
    "local_name": "Vibo Valentia",
    "name_en": null,
    "all_tags": {
      "name": "Vibo Valentia",
      "name:ru": "Вибо-Валентия",
      "boundary": "administrative",
      "ref:nuts": "ITF64",
      "way_area": "0.117883",
      "wikidata": "Q16315",
      "ISO3166-2": "IT-VV",
      "ref:ISTAT": "102",
      "wikipedia": "it:Provincia di Vibo Valentia",
      "ref:nuts:3": "ITF64",
      "short_name": "VV",
      "admin_level": "6",
      "official_name": "Provincia di Vibo Valentia"
    }
  },
  {
    "osm_id": -39748,
    "boundary": "administrative",
    "admin_level": 6,
    "parents": "-1783980,-365331",
    "name": "Crotone",
    "local_name": "Crotone",
    "name_en": null,
    "all_tags": {
      "name": "Crotone",
      "name:ar": "كروتونه",
      "name:fa": "کروتون",
      "name:lt": "Krotonė",
      "name:ru": "Кротоне",
      "name:ur": "کروتونے",
      "boundary": "administrative",
      "ref:nuts": "ITF62",
      "way_area": "0.179026",
      "wikidata": "Q16165",
      "ISO3166-2": "IT-KR",
      "ref:ISTAT": "101",
      "wikipedia": "it:Provincia di Crotone",
      "ref:nuts:3": "ITF62",
      "short_name": "KR",
      "admin_level": "6",
      "alt_name:ar": "كروتوني",
      "official_name": "Provincia di Crotone",
      "official_name:ar": "مقاطعة كروتونه",
      "official_name:fa": "استان کروتون",
      "official_name:ur": "صوبہ کروتونے"
    }
  },
  {
    "osm_id": -41313,
    "boundary": "administrative",
    "admin_level": 6,
    "parents": "-40784,-365331",
    "name": "Roma Capitale",
    "local_name": "Roma Capitale",
    "name_en": null,
    "all_tags": {
      "name": "Roma Capitale",
      "name:ar": "روما العاصمة",
      "boundary": "administrative",
      "old_name": "Roma",
      "ref:nuts": "ITI43",
      "way_area": "0.582808",
      "wikidata": "Q18288160",
      "ISO3166-2": "IT-RM",
      "ref:ISTAT": "058",
      "wikipedia": "it:Città metropolitana di Roma Capitale",
      "ref:nuts:3": "ITI43",
      "short_name": "RM",
      "admin_level": "6",
      "old_name:ar": "روما",
      "old_name:de": "Rom",
      "old_name:en": "Rome",
      "old_name:es": "Roma",
      "old_name:fr": "Rome",
      "old_name:ru": "Рим",
      "old_name:sl": "Rim",
      "old_name:sv": "Rom",
      "old_name:vi": "La Mã",
      "official_name": "Città Metropolitana di Roma Capitale",
      "official_name:ar": "مدينة الحضرية روما العاصمة",
      "old_official_name": "Provincia di Roma"
    }
  },
  {
    "osm_id": -40784,
    "boundary": "administrative",
    "admin_level": 4,
    "parents": "-365331",
    "name": "Lazio",
    "local_name": "Lazio",
    "name_en": "Lazio",
    "all_tags": {
      "name": "Lazio",
      "name:ar": "لاتسيو",
      "name:br": "Latiom",
      "name:ca": "Laci",
      "name:cs": "Lazio",
      "name:de": "Latium",
      "name:en": "Lazio",
      "name:es": "Lacio",
      "name:fa": "لاتزیو",
      "name:fr": "Latium",
      "name:hu": "Lazio",
      "name:it": "Lazio",
      "name:ja": "ラツィオ州",
      "name:nl": "Lazio",
      "name:pl": "Lacjum",
      "name:ru": "Лацио",
      "name:sc": "Làtziu",
      "name:sl": "Lacij",
      "name:ur": "لاتزیو",
      "name:zh": "拉齐奥大区",
      "boundary": "administrative",
      "name:scn": "Lazziu",
      "ref:nuts": "ITI4",
      "way_area": "1.86939",
      "wikidata": "Q1282",
      "ISO3166-2": "IT-62",
      "ref:ISTAT": "12",
      "wikipedia": "it:Lazio",
      "ref:nuts:2": "ITI4",
      "short_name": "LAZ",
      "admin_level": "4",
      "wikimedia_commons": "Category:Lazio"
    }
  },
  {
    "osm_id": -167044,
    "boundary": "administrative",
    "admin_level": 6,
    "parents": "-53937,-365331",
    "name": "L'Aquila",
    "local_name": "L'Aquila",
    "name_en": null,
    "all_tags": {
      "name": "L'Aquila",
      "name:el": "Λ' Άκουιλα",
      "name:ru": "Л'Акуила",
      "boundary": "administrative",
      "ref:nuts": "ITF11",
      "way_area": "0.548766",
      "wikidata": "Q16189",
      "ISO3166-2": "IT-AQ",
      "ref:ISTAT": "066",
      "wikipedia": "it:Provincia dell'Aquila",
      "ref:nuts:3": "ITF11",
      "short_name": "AQ",
      "admin_level": "6",
      "official_name": "Provincia dell'Aquila"
    }
  },
  {
    "osm_id": -40217,
    "boundary": "administrative",
    "admin_level": 6,
    "parents": "-40218,-365331",
    "name": "Salerno",
    "local_name": "Salerno",
    "name_en": null,
    "all_tags": {
      "name": "Salerno",
      "name:ca": "Província de Salern",
      "name:ru": "Салерно",
      "boundary": "administrative",
      "ref:nuts": "ITF35",
      "way_area": "0.522662",
      "wikidata": "Q16271",
      "ISO3166-2": "IT-SA",
      "ref:ISTAT": "065",
      "wikipedia": "it:Provincia di Salerno",
      "ref:nuts:3": "ITF35",
      "short_name": "SA",
      "admin_level": "6",
      "official_name": "Provincia di Salerno"
    }
  },
  {
    "osm_id": -40218,
    "boundary": "administrative",
    "admin_level": 4,
    "parents": "-365331",
    "name": "Campania",
    "local_name": "Campania",
    "name_en": "Campania",
    "all_tags": {
      "name": "Campania",
      "name:ca": "Campània",
      "name:cs": "Kampánie",
      "name:de": "Kampanien",
      "name:en": "Campania",
      "name:fr": "Campanie",
      "name:hu": "Campania",
      "name:it": "Campania",
      "name:ja": "カンパニア州",
      "name:nl": "Campania",
      "name:pl": "Kampania",
      "name:ru": "Кампания",
      "name:sc": "Campània",
      "name:sk": "Kampánia",
      "name:sl": "Kampanija",
      "boundary": "administrative",
      "ref:nuts": "ITF3",
      "way_area": "1.45301",
      "wikidata": "Q1438",
      "ISO3166-2": "IT-72",
      "ref:ISTAT": "15",
      "wikipedia": "it:Campania",
      "ref:nuts:2": "ITF3",
      "short_name": "CAM",
      "admin_level": "4"
    }
  },
  {
    "osm_id": -39788,
    "boundary": "administrative",
    "admin_level": 6,
    "parents": "-1783980,-365331",
    "name": "Cosenza",
    "local_name": "Cosenza",
    "name_en": null,
    "all_tags": {
      "name": "Cosenza",
      "name:ar": "كشنتة",
      "name:fa": "کزنتزا",
      "name:ru": "Козенца",
      "name:ur": "کوزینتسا",
      "boundary": "administrative",
      "ref:nuts": "ITF61",
      "way_area": "0.697621",
      "wikidata": "Q16162",
      "ISO3166-2": "IT-CS",
      "ref:ISTAT": "078",
      "wikipedia": "it:Provincia di Cosenza",
      "ref:nuts:3": "ITF61",
      "short_name": "CS",
      "admin_level": "6",
      "alt_name:ar": "كوزنسا;كوسنزا",
      "official_name": "Provincia di Cosenza",
      "official_name:ar": "مقاطعة كشنتة"
    }
  },
  {
    "osm_id": -40136,
    "boundary": "administrative",
    "admin_level": 6,
    "parents": "-40137,-365331",
    "name": "Potenza",
    "local_name": "Potenza",
    "name_en": null,
    "all_tags": {
      "name": "Potenza",
      "name:ca": "Província de Potenza",
      "name:ru": "Потенца",
      "boundary": "administrative",
      "ref:nuts": "ITF51",
      "way_area": "0.696448",
      "wikidata": "Q16249",
      "ISO3166-2": "IT-PZ",
      "ref:ISTAT": "076",
      "wikipedia": "it:Provincia di Potenza",
      "ref:nuts:3": "ITF51",
      "short_name": "PZ",
      "admin_level": "6",
      "official_name": "Provincia di Potenza"
    }
  },
  {
    "osm_id": -40137,
    "boundary": "administrative",
    "admin_level": 4,
    "parents": "-365331",
    "name": "Basilicata",
    "local_name": "Basilicata",
    "name_en": "Basilicata",
    "all_tags": {
      "name": "Basilicata",
      "name:ca": "Basilicata",
      "name:cs": "Basilicata",
      "name:de": "Basilikata",
      "name:en": "Basilicata",
      "name:eo": "Basilikato",
      "name:fr": "Basilicate",
      "name:it": "Basilicata",
      "name:ja": "バジリカータ州",
      "name:nl": "Basilicata",
      "name:pl": "Basilicata",
      "name:ru": "Базиликата",
      "name:sc": "Basilicata",
      "name:sl": "Bazilikata",
      "boundary": "administrative",
      "name:fur": "Lucanie",
      "ref:nuts": "ITF5",
      "way_area": "1.06212",
      "wikidata": "Q1452",
      "ISO3166-2": "IT-77",
      "ref:ISTAT": "17",
      "wikipedia": "it:Basilicata",
      "ref:nuts:2": "ITF5",
      "short_name": "BAS",
      "admin_level": "4"
    }
  },
  {
    "osm_id": -40715,
    "boundary": "administrative",
    "admin_level": 6,
    "parents": "-40218,-365331",
    "name": "Avellino",
    "local_name": "Avellino",
    "name_en": null,
    "all_tags": {
      "name": "Avellino",
      "name:ru": "Авеллино",
      "boundary": "administrative",
      "ref:nuts": "ITF34",
      "way_area": "0.298523",
      "wikidata": "Q16120",
      "ISO3166-2": "IT-AV",
      "ref:ISTAT": "064",
      "wikipedia": "it:Provincia di Avellino",
      "ref:nuts:3": "ITF34",
      "short_name": "AV",
      "admin_level": "6",
      "official_name": "Provincia di Avellino"
    }
  },
  {
    "osm_id": -41277,
    "boundary": "administrative",
    "admin_level": 6,
    "parents": "-41256,-365331",
    "name": "Isernia",
    "local_name": "Isernia",
    "name_en": null,
    "all_tags": {
      "name": "Isernia",
      "name:ru": "Изерния",
      "boundary": "administrative",
      "ref:nuts": "ITF21",
      "way_area": "0.165025",
      "wikidata": "Q16187",
      "ISO3166-2": "IT-IS",
      "ref:ISTAT": "094",
      "wikipedia": "it:Provincia di Isernia",
      "ref:nuts:3": "ITF21",
      "short_name": "IS",
      "admin_level": "6",
      "official_name": "Provincia di Isernia"
    }
  },
  {
    "osm_id": -41255,
    "boundary": "administrative",
    "admin_level": 6,
    "parents": "-41256,-365331",
    "name": "Campobasso",
    "local_name": "Campobasso",
    "name_en": null,
    "all_tags": {
      "name": "Campobasso",
      "name:ca": "Província de Campobasso",
      "name:ru": "Кампобассо",
      "boundary": "administrative",
      "ref:nuts": "ITF22",
      "way_area": "0.3149",
      "wikidata": "Q16151",
      "ISO3166-2": "IT-CB",
      "ref:ISTAT": "070",
      "wikipedia": "it:Provincia di Campobasso",
      "ref:nuts:3": "ITF22",
      "short_name": "CB",
      "admin_level": "6",
      "official_name": "Provincia di Campobasso"
    }
  },
  {
    "osm_id": -40095,
    "boundary": "administrative",
    "admin_level": 4,
    "parents": "-365331",
    "name": "Apulia",
    "local_name": "Puglia",
    "name_en": "Apulia",
    "all_tags": {
      "name": "Puglia",
      "name:ar": "بوليا",
      "name:br": "Puglia",
      "name:ca": "Pulla",
      "name:cs": "Apulie",
      "name:de": "Apulien",
      "name:en": "Apulia",
      "name:eo": "Apulio",
      "name:es": "Apulia",
      "name:fa": "پولیا",
      "name:fi": "Apulia",
      "name:fr": "Pouilles",
      "name:hu": "Apulia",
      "name:it": "Puglia",
      "name:ja": "プッリャ州",
      "name:la": "Apulia",
      "name:nl": "Apulië",
      "name:pl": "Apulia",
      "name:pt": "Apúlia",
      "name:ru": "Апулия",
      "name:sc": "Pùglia",
      "name:sk": "Apúlia",
      "name:sl": "Apulija",
      "name:ur": "پولیا",
      "boundary": "administrative",
      "name:scn": "Pugghia",
      "ref:nuts": "ITF4",
      "way_area": "2.07004",
      "wikidata": "Q1447",
      "ISO3166-2": "IT-75",
      "ref:ISTAT": "16",
      "wikipedia": "it:Puglia",
      "ref:nuts:2": "ITF4",
      "short_name": "PUG",
      "admin_level": "4"
    }
  },
  {
    "osm_id": -40707,
    "boundary": "administrative",
    "admin_level": 6,
    "parents": "-40095,-365331",
    "name": "Bari",
    "local_name": "Bari",
    "name_en": null,
    "all_tags": {
      "name": "Bari",
      "name:ar": "باري",
      "name:fa": "باری",
      "name:ks": "باری",
      "name:ru": "Бари",
      "name:ur": "باری",
      "boundary": "administrative",
      "ref:nuts": "ITF47",
      "way_area": "0.40837",
      "wikidata": "Q18241854",
      "ISO3166-2": "IT-BA",
      "ref:ISTAT": "072",
      "wikipedia": "it:Città metropolitana di Bari",
      "ref:nuts:3": "ITF47",
      "short_name": "BA",
      "admin_level": "6",
      "official_name": "Città Metropolitana di Bari"
    }
  },
  {
    "osm_id": -2203582,
    "boundary": "administrative",
    "admin_level": 6,
    "parents": "-40095,-365331",
    "name": "Barletta-Andria-Trani",
    "local_name": "Barletta-Andria-Trani",
    "name_en": null,
    "all_tags": {
      "name": "Barletta-Andria-Trani",
      "name:ar": "بارليتا أندريا تراني",
      "name:ru": "Барлетта-Андрия-Трани",
      "boundary": "administrative",
      "ref:nuts": "ITF48",
      "way_area": "0.163499",
      "wikidata": "Q16124",
      "ISO3166-2": "IT-BT",
      "ref:ISTAT": "110",
      "wikipedia": "it:Provincia di Barletta-Andria-Trani",
      "ref:nuts:3": "ITF48",
      "short_name": "BT",
      "admin_level": "6",
      "official_name": "Provincia di Barletta-Andria-Trani",
      "official_name:ar": "مقاطعة بارليتا أندريا تراني"
    }
  },
  {
    "osm_id": -41817,
    "boundary": "administrative",
    "admin_level": 6,
    "parents": "-40784,-365331",
    "name": "Viterbo",
    "local_name": "Viterbo",
    "name_en": null,
    "all_tags": {
      "name": "Viterbo",
      "name:fr": "Viterbe",
      "name:ru": "Витербо",
      "boundary": "administrative",
      "ref:nuts": "ITI41",
      "way_area": "0.394607",
      "wikidata": "Q16318",
      "ISO3166-2": "IT-VT",
      "ref:ISTAT": "056",
      "wikipedia": "it:Provincia di Viterbo",
      "ref:nuts:3": "ITI41",
      "short_name": "VT",
      "admin_level": "6",
      "official_name": "Provincia di Viterbo"
    }
  },
  {
    "osm_id": -42003,
    "boundary": "administrative",
    "admin_level": 6,
    "parents": "-42004,-365331",
    "name": "Terni",
    "local_name": "Terni",
    "name_en": null,
    "all_tags": {
      "name": "Terni",
      "name:ru": "Терни",
      "boundary": "administrative",
      "ref:nuts": "ITI22",
      "way_area": "0.233369",
      "wikidata": "Q16286",
      "ISO3166-2": "IT-TR",
      "ref:ISTAT": "055",
      "wikipedia": "it:Provincia di Terni",
      "ref:nuts:3": "ITI22",
      "short_name": "TR",
      "admin_level": "6",
      "official_name": "Provincia di Terni"
    }
  },
  {
    "osm_id": -42141,
    "boundary": "administrative",
    "admin_level": 6,
    "parents": "-53060,-365331",
    "name": "Ascoli Piceno",
    "local_name": "Ascoli Piceno",
    "name_en": null,
    "all_tags": {
      "name": "Ascoli Piceno",
      "name:ca": "Província d'Ascoli Piceno",
      "name:it": "Ascoli Piceno",
      "name:ru": "Асколи-Пичено",
      "boundary": "administrative",
      "ref:nuts": "ITI34",
      "way_area": "0.135",
      "wikidata": "Q16117",
      "ISO3166-2": "IT-AP",
      "ref:ISTAT": "044",
      "wikipedia": "it:Provincia di Ascoli Piceno",
      "ref:nuts:3": "ITI34",
      "short_name": "AP",
      "admin_level": "6",
      "official_name": "Provincia di Ascoli Piceno"
    }
  },
  {
    "osm_id": -42024,
    "boundary": "administrative",
    "admin_level": 6,
    "parents": "-53937,-365331",
    "name": "Teramo",
    "local_name": "Teramo",
    "name_en": null,
    "all_tags": {
      "name": "Teramo",
      "name:ca": "Província de Teramo",
      "name:it": "Teramo",
      "name:ru": "Терамо",
      "boundary": "administrative",
      "ref:nuts": "ITF12",
      "way_area": "0.213262",
      "wikidata": "Q16284",
      "ISO3166-2": "IT-TE",
      "ref:ISTAT": "067",
      "wikipedia": "it:Provincia di Teramo",
      "ref:nuts:3": "ITF12",
      "short_name": "TE",
      "admin_level": "6",
      "official_name": "Provincia di Teramo"
    }
  },
  {
    "osm_id": -42212,
    "boundary": "administrative",
    "admin_level": 6,
    "parents": "-53060,-365331",
    "name": "Macerata",
    "local_name": "Macerata",
    "name_en": null,
    "all_tags": {
      "name": "Macerata",
      "name:it": "Macerata",
      "name:ru": "Мачерата",
      "boundary": "administrative",
      "ref:nuts": "ITI33",
      "way_area": "0.307087",
      "wikidata": "Q16203",
      "ISO3166-2": "IT-MC",
      "ref:ISTAT": "043",
      "wikipedia": "it:Provincia di Macerata",
      "ref:nuts:3": "ITI33",
      "short_name": "MC",
      "admin_level": "6",
      "official_name": "Provincia di Macerata"
    }
  },
  {
    "osm_id": -907991,
    "boundary": "administrative",
    "admin_level": 6,
    "parents": "-53060,-365331",
    "name": "Fermo",
    "local_name": "Fermo",
    "name_en": null,
    "all_tags": {
      "name": "Fermo",
      "name:it": "Fermo",
      "name:ru": "Фермо",
      "boundary": "administrative",
      "ref:nuts": "ITI35",
      "way_area": "0.095148",
      "wikidata": "Q16167",
      "ISO3166-2": "IT-FM",
      "ref:ISTAT": "109",
      "wikipedia": "it:Provincia di Fermo",
      "ref:nuts:3": "ITI35",
      "short_name": "FM",
      "admin_level": "6",
      "official_name": "Provincia di Fermo"
    }
  },
  {
    "osm_id": -42661,
    "boundary": "administrative",
    "admin_level": 6,
    "parents": "-42611,-365331",
    "name": "Rimini",
    "local_name": "Rimini",
    "name_en": null,
    "all_tags": {
      "name": "Rimini",
      "name:ca": "Província de Rímini",
      "name:lt": "Riminio provincija",
      "name:ru": "Римини",
      "boundary": "administrative",
      "ref:nuts": "ITH59",
      "way_area": "0.103242",
      "wikidata": "Q16268",
      "ISO3166-2": "IT-RN",
      "ref:ISTAT": "099",
      "wikipedia": "it:Provincia di Rimini",
      "ref:nuts:3": "ITH59",
      "short_name": "RN",
      "admin_level": "6",
      "official_name": "Provincia di Rimini"
    }
  },
  {
    "osm_id": -43292,
    "boundary": "administrative",
    "admin_level": 6,
    "parents": "-42611,-365331",
    "name": "Ferrara",
    "local_name": "Ferrara",
    "name_en": null,
    "all_tags": {
      "name": "Ferrara",
      "name:ru": "Феррара",
      "boundary": "administrative",
      "name:egl": "Fràra",
      "ref:nuts": "ITH56",
      "way_area": "0.298881",
      "wikidata": "Q16168",
      "ISO3166-2": "IT-FE",
      "ref:ISTAT": "038",
      "wikipedia": "it:Provincia di Ferrara",
      "ref:nuts:3": "ITH56",
      "short_name": "FE",
      "admin_level": "6",
      "official_name": "Provincia di Ferrara"
    }
  },
  {
    "osm_id": -42889,
    "boundary": "administrative",
    "admin_level": 6,
    "parents": "-42611,-365331",
    "name": "Ravenna",
    "local_name": "Ravenna",
    "name_en": null,
    "all_tags": {
      "name": "Ravenna",
      "name:ca": "Província de Ravenna",
      "name:it": "Ravenna",
      "name:oc": "Província de Ravena",
      "name:pl": "Rawenna",
      "name:ru": "Равенна",
      "boundary": "administrative",
      "ref:nuts": "ITH57",
      "way_area": "0.209846",
      "wikidata": "Q16252",
      "ISO3166-2": "IT-RA",
      "ref:ISTAT": "039",
      "wikipedia": "it:Provincia di Ravenna",
      "ref:nuts:3": "ITH57",
      "short_name": "RA",
      "admin_level": "6",
      "official_name": "Provincia di Ravenna"
    }
  },
  {
    "osm_id": -43647,
    "boundary": "administrative",
    "admin_level": 6,
    "parents": "-43648,-365331",
    "name": "Rovigo",
    "local_name": "Rovigo",
    "name_en": null,
    "all_tags": {
      "name": "Rovigo",
      "name:it": "Rovigo",
      "name:lt": "Rovigo provincija",
      "name:ru": "Ровиго",
      "boundary": "administrative",
      "name:fur": "Ruvi",
      "ref:nuts": "ITH37",
      "way_area": "0.208262",
      "wikidata": "Q16270",
      "ISO3166-2": "IT-RO",
      "ref:ISTAT": "029",
      "wikipedia": "it:Provincia di Rovigo",
      "ref:nuts:3": "ITH37",
      "short_name": "RO",
      "admin_level": "6",
      "official_name": "Provincia di Rovigo"
    }
  },
  {
    "osm_id": -40094,
    "boundary": "administrative",
    "admin_level": 6,
    "parents": "-40095,-365331",
    "name": "Lecce",
    "local_name": "Lecce",
    "name_en": null,
    "all_tags": {
      "name": "Lecce",
      "name:ar": "لتشه",
      "name:fa": "لچه",
      "name:ru": "Лечче",
      "name:ur": "لیچہ",
      "boundary": "administrative",
      "ref:nuts": "ITF45",
      "way_area": "0.291999",
      "wikidata": "Q16197",
      "ISO3166-2": "IT-LE",
      "ref:ISTAT": "075",
      "wikipedia": "it:Provincia di Lecce",
      "ref:nuts:3": "ITF45",
      "short_name": "LE",
      "admin_level": "6",
      "alt_name:ar": "ليتشي",
      "official_name": "Provincia di Lecce",
      "official_name:ar": "مقاطعة لتشه"
    }
  },
  {
    "osm_id": -40485,
    "boundary": "administrative",
    "admin_level": 6,
    "parents": "-40095,-365331",
    "name": "Brindisi",
    "local_name": "Brindisi",
    "name_en": null,
    "all_tags": {
      "name": "Brindisi",
      "name:ar": "أبرنطس",
      "name:fa": "بریندیزی",
      "name:ru": "Бриндизи",
      "name:ur": "بریندیزی",
      "boundary": "administrative",
      "ref:nuts": "ITF44",
      "way_area": "0.195474",
      "wikidata": "Q16148",
      "ISO3166-2": "IT-BR",
      "ref:ISTAT": "074",
      "wikipedia": "it:Provincia di Brindisi",
      "ref:nuts:3": "ITF44",
      "short_name": "BR",
      "admin_level": "6",
      "alt_name:ar": "أبرندس;برينديزي",
      "official_name": "Provincia di Brindisi",
      "official_name:ar": "مقاطعة أبرنطس"
    }
  },
  {
    "osm_id": -8433757,
    "boundary": "protected_area",
    "admin_level": 5,
    "parents": "-44879,-365331",
    "name": "Parco Primo Maggio",
    "local_name": "Parco Primo Maggio",
    "name_en": null,
    "all_tags": {
      "name": "Parco Primo Maggio",
      "alt_name": "Parco I Maggio",
      "boundary": "protected_area",
      "way_area": "4.00848e-06",
      "admin_level": "5"
    }
  },
  {
    "osm_id": 10271945,
    "boundary": "administrative",
    "admin_level": 4,
    "parents": "-365331",
    "name": "Isola della Scogliera",
    "local_name": "Isola della Scogliera",
    "name_en": null,
    "all_tags": {
      "area": "yes",
      "name": "Isola della Scogliera",
      "place": "islet",
      "boundary": "administrative",
      "way_area": "1.88825e-06",
      "city:left": "Porto Cesareo",
      "admin_level": "4",
      "region:left": "Puglia",
      "province:left": "Lecce"
    }
  },
  {
    "osm_id": 27970423,
    "boundary": "administrative",
    "admin_level": 4,
    "parents": "-365331",
    "name": "Isola della Chianca",
    "local_name": "Isola della Chianca",
    "name_en": null,
    "all_tags": {
      "area": "yes",
      "name": "Isola della Chianca",
      "place": "islet",
      "boundary": "administrative",
      "way_area": "1.12593e-06",
      "city:left": "Vieste",
      "admin_level": "4",
      "region:left": "Puglia",
      "province:left": "Foggia"
    }
  },
  {
    "osm_id": 99871616,
    "boundary": "administrative",
    "admin_level": 4,
    "parents": "-365331",
    "name": "Isola del Campo",
    "local_name": "Isola del Campo",
    "name_en": null,
    "all_tags": {
      "area": "yes",
      "name": "Isola del Campo",
      "place": "islet",
      "boundary": "administrative",
      "way_area": "9.58829e-07",
      "city:left": "Gallipoli",
      "admin_level": "4",
      "region:left": "Puglia",
      "converted_by": "mikes",
      "province:left": "Lecce"
    }
  },
  {
    "osm_id": -41977,
    "boundary": "administrative",
    "admin_level": 4,
    "parents": "-365331",
    "name": "Tuscany",
    "local_name": "Toscana",
    "name_en": "Tuscany",
    "all_tags": {
      "name": "Toscana",
      "name:cs": "Toskánsko",
      "name:de": "Toskana",
      "name:en": "Tuscany",
      "name:eo": "Toskanio",
      "name:es": "Toscana",
      "name:fi": "Toscana",
      "name:fr": "Toscane",
      "name:hu": "Toszkána",
      "name:it": "Toscana",
      "name:ja": "トスカーナ州",
      "name:la": "Tuscia",
      "name:nl": "Toscane",
      "name:pl": "Toskania",
      "name:ru": "Тоскана",
      "name:sc": "Toscana",
      "name:sk": "Toskánsko",
      "name:sl": "Toskana",
      "name:sv": "Toscana",
      "boundary": "administrative",
      "name:fur": "Toscane",
      "name:scn": "Tuscana",
      "ref:nuts": "ITI1",
      "way_area": "2.55656",
      "wikidata": "Q1273",
      "ISO3166-2": "IT-52",
      "ref:ISTAT": "09",
      "wikipedia": "it:Toscana",
      "ref:nuts:2": "ITI1",
      "short_name": "TOS",
      "admin_level": "4"
    }
  },
  {
    "osm_id": -42611,
    "boundary": "administrative",
    "admin_level": 4,
    "parents": "-365331",
    "name": "Emilia-Romagna",
    "local_name": "Emilia-Romagna",
    "name_en": "Emilia-Romagna",
    "all_tags": {
      "name": "Emilia-Romagna",
      "name:ca": "Emília-Romanya",
      "name:cs": "Emilia-Romagna",
      "name:en": "Emilia-Romagna",
      "name:es": "Emilia-Romaña",
      "name:fi": "Emilia-Romagna",
      "name:fr": "Émilie-Romagne",
      "name:hu": "Emilia-Romagna",
      "name:it": "Emilia-Romagna",
      "name:ja": "エミリア＝ロマーニャ州",
      "name:lt": "Emilija-Romanija",
      "name:nl": "Emilia-Romagna",
      "name:pl": "Emilia-Romania",
      "name:ru": "Эмилия-Романья",
      "name:sc": "Emìlia-Romagna",
      "name:sl": "Emilija - Romanja",
      "boundary": "administrative",
      "name:egl": "Emélia-Rumàgna",
      "name:scn": "Emilia-Rumagna",
      "ref:nuts": "ITH5",
      "way_area": "2.54847",
      "wikidata": "Q1263",
      "ISO3166-2": "IT-45",
      "ref:ISTAT": "08",
      "wikipedia": "it:Emilia-Romagna",
      "ref:nuts:2": "ITH5",
      "short_name": "EMR",
      "admin_level": "4"
    }
  },
  {
    "osm_id": -1783980,
    "boundary": "administrative",
    "admin_level": 4,
    "parents": "-365331",
    "name": "Calabria",
    "local_name": "Calabria",
    "name_en": "Calabria",
    "all_tags": {
      "name": "Calabria",
      "name:ar": "قلورية",
      "name:ca": "Calàbria",
      "name:cs": "Kalábrie",
      "name:de": "Kalabrien",
      "name:en": "Calabria",
      "name:eo": "Kalabrio",
      "name:fa": "کالابریا",
      "name:fr": "Calabre",
      "name:hu": "Calabria",
      "name:it": "Calabria",
      "name:ja": "カラブリア州",
      "name:lt": "Kalabrija",
      "name:nl": "Calabrië",
      "name:pl": "Kalabria",
      "name:pt": "Calábria",
      "name:ru": "Калабрия",
      "name:sc": "Calàbria",
      "name:sk": "Kalábria",
      "name:sl": "Kalabrija",
      "name:ur": "کلابریا",
      "boundary": "administrative",
      "name:fur": "Calabrie",
      "name:scn": "Calabbrî",
      "ref:nuts": "ITF6",
      "way_area": "1.57046",
      "wikidata": "Q1458",
      "ISO3166-2": "IT-78",
      "ref:ISTAT": "18",
      "wikipedia": "it:Calabria",
      "ref:nuts:2": "ITF6",
      "short_name": "CAL",
      "admin_level": "4",
      "alt_name:ar": "كالابريا",
      "name:zh-Hans": "卡拉布里亚大区",
      "name:zh-Hant": "卡拉布里亞大區"
    }
  },
  {
    "osm_id": -53937,
    "boundary": "administrative",
    "admin_level": 4,
    "parents": "-365331",
    "name": "Abruzzo",
    "local_name": "Abruzzo",
    "name_en": "Abruzzo",
    "all_tags": {
      "name": "Abruzzo",
      "name:ca": "Abruços",
      "name:cs": "Abruzzo",
      "name:de": "Abruzzen",
      "name:en": "Abruzzo",
      "name:es": "Abruzos",
      "name:fr": "Abruzzes",
      "name:hu": "Abruzzo",
      "name:it": "Abruzzo",
      "name:ja": "アブルッツォ州",
      "name:nl": "Abruzzen",
      "name:pl": "Abruzja",
      "name:ru": "Абруццо",
      "name:sc": "Abrutzu",
      "name:sl": "Abruci",
      "boundary": "administrative",
      "name:scn": "Abbruzzi",
      "ref:nuts": "ITF1",
      "way_area": "1.17686",
      "wikidata": "Q1284",
      "ISO3166-2": "IT-65",
      "ref:ISTAT": "13",
      "wikipedia": "it:Abruzzo",
      "ref:nuts:2": "ITF1",
      "short_name": "ABR",
      "admin_level": "4"
    }
  },
  {
    "osm_id": -41093,
    "boundary": "administrative",
    "admin_level": 6,
    "parents": "-40095,-365331",
    "name": "Foggia",
    "local_name": "Foggia",
    "name_en": null,
    "all_tags": {
      "name": "Foggia",
      "name:ar": "فوجا",
      "name:ca": "Província de Foggia",
      "name:it": "Foggia",
      "name:lt": "Fodžos provincija",
      "name:ru": "Фоджа",
      "boundary": "administrative",
      "ref:nuts": "ITF46",
      "way_area": "0.751109",
      "wikidata": "Q15129",
      "ISO3166-2": "IT-FG",
      "ref:ISTAT": "071",
      "wikipedia": "it:Provincia di Foggia",
      "ref:nuts:3": "ITF46",
      "short_name": "FG",
      "admin_level": "6",
      "official_name": "Provincia di Foggia",
      "official_name:ar": "مقاطعة فوجا"
    }
  },
  {
    "osm_id": -45756,
    "boundary": "administrative",
    "admin_level": 6,
    "parents": "-45757,-365331",
    "name": "Provincia di Trento",
    "local_name": "Provincia di Trento",
    "name_en": null,
    "all_tags": {
      "name": "Provincia di Trento",
      "name:ca": "Província de Trento",
      "name:de": "Autonome Provinz Trient",
      "name:hu": "Trento autonóm megye",
      "name:it": "Provincia di Trento",
      "name:ru": "Тренто",
      "alt_name": "Trentino",
      "boundary": "administrative",
      "name:cim": "Provintz Tria",
      "name:mhn": "Provinz Trea't",
      "ref:nuts": "ITH2;ITH20",
      "way_area": "0.722541",
      "wikidata": "Q16289",
      "ISO3166-2": "IT-TN",
      "ref:ISTAT": "022",
      "wikipedia": "it:Provincia autonoma di Trento",
      "ref:nuts:2": "ITH2",
      "ref:nuts:3": "ITH20",
      "short_name": "TN",
      "admin_level": "6",
      "official_name": "Provincia Autonoma di Trento",
      "official_name:de": "Autonome Provinz Trient",
      "official_name:cim": "Autònome Provintz Tria",
      "official_name:lld": "Provinzia Autonoma de Trent",
      "official_name:mhn": "Autonome Provinz Trea't"
    }
  },
  {
    "osm_id": -41976,
    "boundary": "administrative",
    "admin_level": 6,
    "parents": "-41977,-365331",
    "name": "Grosseto",
    "local_name": "Grosseto",
    "name_en": null,
    "all_tags": {
      "name": "Grosseto",
      "name:ru": "Гроссето",
      "boundary": "administrative",
      "ref:nuts": "ITI1A",
      "way_area": "0.495495",
      "wikidata": "Q16185",
      "ISO3166-2": "IT-GR",
      "ref:ISTAT": "053",
      "wikipedia": "it:Provincia di Grosseto",
      "ref:nuts:3": "ITI1A",
      "short_name": "GR",
      "admin_level": "6",
      "official_name": "Provincia di Grosseto"
    }
  },
  {
    "osm_id": -42172,
    "boundary": "administrative",
    "admin_level": 6,
    "parents": "-41977,-365331",
    "name": "Siena",
    "local_name": "Siena",
    "name_en": null,
    "all_tags": {
      "name": "Siena",
      "name:ru": "Сиена",
      "boundary": "administrative",
      "ref:nuts": "ITI19",
      "way_area": "0.423056",
      "wikidata": "Q16275",
      "ISO3166-2": "IT-SI",
      "ref:ISTAT": "052",
      "wikipedia": "it:Provincia di Siena",
      "ref:nuts:3": "ITI19",
      "short_name": "SI",
      "admin_level": "6",
      "official_name": "Provincia di Siena"
    }
  },
  {
    "osm_id": -42472,
    "boundary": "administrative",
    "admin_level": 6,
    "parents": "-41977,-365331",
    "name": "Metropolitan City of Florence",
    "local_name": "Firenze",
    "name_en": "Metropolitan City of Florence",
    "all_tags": {
      "name": "Firenze",
      "name:ca": "Ciutat metropolità de Florència",
      "name:en": "Metropolitan City of Florence",
      "name:es": "Ciudad Metropolitana de Florencia",
      "name:gl": "Cidade metropolitana de Florencia",
      "name:it": "Città metropolitana di Firenze",
      "name:ru": "Флоренция",
      "boundary": "administrative",
      "ref:nuts": "ITI14",
      "way_area": "0.393024",
      "wikidata": "Q18288148",
      "ISO3166-2": "IT-FI",
      "ref:ISTAT": "048",
      "wikipedia": "it:Città metropolitana di Firenze",
      "ref:nuts:3": "ITI14",
      "short_name": "FI",
      "admin_level": "6",
      "alt_name:gl": "Cidade metropolitana de Florenza",
      "official_name": "Città Metropolitana di Firenze"
    }
  },
  {
    "osm_id": -44880,
    "boundary": "administrative",
    "admin_level": 6,
    "parents": "-44874,-365331",
    "name": "Torino",
    "local_name": "Torino",
    "name_en": null,
    "all_tags": {
      "name": "Torino",
      "name:ca": "Torí",
      "name:es": "Turín",
      "name:fr": "Turin",
      "name:gl": "Turín",
      "name:nl": "Turijn",
      "name:ru": "Турин",
      "boundary": "administrative",
      "loc_name": "Provincia di Torino",
      "ref:nuts": "ITC11",
      "way_area": "0.781125",
      "wikidata": "Q18288162",
      "ISO3166-2": "IT-TO",
      "ref:ISTAT": "001",
      "wikipedia": "it:Città metropolitana di Torino",
      "ref:nuts:3": "ITC11",
      "short_name": "TO",
      "admin_level": "6",
      "official_name": "Città Metropolitana di Torino"
    }
  },
  {
    "osm_id": -44913,
    "boundary": "administrative",
    "admin_level": 6,
    "parents": "-44874,-365331",
    "name": "Biella",
    "local_name": "Biella",
    "name_en": null,
    "all_tags": {
      "name": "Biella",
      "name:fr": "Bielle",
      "name:it": "Biella",
      "boundary": "administrative",
      "ref:nuts": "ITC13",
      "way_area": "0.105349",
      "wikidata": "Q15094",
      "ISO3166-2": "IT-BI",
      "ref:ISTAT": "096",
      "wikipedia": "it:Provincia di Biella",
      "ref:nuts:3": "ITC13",
      "short_name": "BI",
      "admin_level": "6",
      "official_name": "Provincia di Biella"
    }
  },
  {
    "osm_id": -1552705,
    "boundary": "administrative",
    "admin_level": 6,
    "parents": "-44874,-365331",
    "name": "Vercelli",
    "local_name": "Vercelli",
    "name_en": null,
    "all_tags": {
      "name": "Vercelli",
      "name:fr": "Verceil",
      "name:it": "Vercelli",
      "name:ru": "Верчелли",
      "boundary": "administrative",
      "ref:nuts": "ITC12",
      "way_area": "0.239944",
      "wikidata": "Q15096",
      "ISO3166-2": "IT-VC",
      "ref:ISTAT": "002",
      "wikipedia": "it:Provincia di Vercelli",
      "ref:nuts:3": "ITC12",
      "short_name": "VC",
      "admin_level": "6",
      "official_name": "Provincia di Vercelli"
    }
  },
  {
    "osm_id": -45155,
    "boundary": "administrative",
    "admin_level": 4,
    "parents": "-365331",
    "name": "Aosta Valley",
    "local_name": "Valle d'Aosta / Vallée d'Aoste",
    "name_en": "Aosta Valley",
    "all_tags": {
      "name": "Valle d'Aosta / Vallée d'Aoste",
      "name:ar": "وادي أوستا",
      "name:br": "Traoñien Aosta",
      "name:ca": "Vall d'Aosta",
      "name:cs": "Údolí Aosty",
      "name:de": "Aostatal",
      "name:en": "Aosta Valley",
      "name:es": "Valle de Aosta",
      "name:fa": "واله دائوستا",
      "name:fi": "Aostanlaakso",
      "name:fr": "Vallée d'Aoste",
      "name:hu": "Valle d'Aosta",
      "name:it": "Valle d'Aosta",
      "name:ja": "ヴァッレ・ダオスタ州",
      "name:ks": "وادی آوستہ",
      "name:nl": "Valle d'Aosta",
      "name:pl": "Dolina Aosty",
      "name:ru": "Валле-д’Аоста",
      "name:sc": "Badde de Aosta",
      "name:sl": "Dolina Aoste",
      "name:ur": "وادی آوستہ",
      "boundary": "administrative",
      "name:azb": "واله دائوستا",
      "name:mzn": "واله دائوستا",
      "name:pnb": "وادی آوستہ",
      "name:scn": "Vaḍḍi d'Aosta",
      "ref:nuts": "ITC2;ITC20",
      "way_area": "0.376938",
      "wikidata": "Q1222",
      "ISO3166-2": "IT-23",
      "ref:ISTAT": "02",
      "wikipedia": "it:Valle d'Aosta",
      "population": "123360",
      "ref:nuts:2": "ITC2",
      "ref:nuts:3": "ITC20",
      "short_name": "VDA",
      "admin_level": "4",
      "population:date": "2021-08-31",
      "official_name:fr": "Région autonome Vallée d'Aoste",
      "official_name:it": "Regione Autonoma Valle d'Aosta"
    }
  },
  {
    "osm_id": -43483,
    "boundary": "administrative",
    "admin_level": 6,
    "parents": "-44879,-365331",
    "name": "Pavia",
    "local_name": "Pavia",
    "name_en": null,
    "all_tags": {
      "name": "Pavia",
      "name:es": "Pavía",
      "name:fr": "Pavie",
      "name:he": "פאביה",
      "name:it": "Pavia",
      "name:pl": "Pawia",
      "name:ru": "Павия",
      "name:zh": "帕維亞",
      "boundary": "administrative",
      "name:ast": "Pavía",
      "ref:nuts": "ITC48",
      "way_area": "0.339834",
      "wikidata": "Q16231",
      "ISO3166-2": "IT-PV",
      "ref:ISTAT": "018",
      "wikipedia": "it:Provincia di Pavia",
      "population": "539821",
      "ref:nuts:3": "ITC48",
      "short_name": "PV",
      "admin_level": "6",
      "official_name": "Provincia di Pavia"
    }
  },
  {
    "osm_id": -1552704,
    "boundary": "administrative",
    "admin_level": 6,
    "parents": "-44874,-365331",
    "name": "Novara",
    "local_name": "Novara",
    "name_en": null,
    "all_tags": {
      "name": "Novara",
      "name:el": "Νοβάρα",
      "name:fr": "Novare",
      "name:it": "Novara",
      "name:ru": "Новара",
      "name:zh": "諾瓦拉",
      "boundary": "administrative",
      "name:lmo": "Nuara",
      "ref:nuts": "ITC15",
      "way_area": "0.154524",
      "wikidata": "Q16216",
      "ISO3166-2": "IT-NO",
      "ref:ISTAT": "003",
      "wikipedia": "it:Provincia di Novara",
      "ref:nuts:3": "ITC15",
      "short_name": "NO",
      "admin_level": "6",
      "official_name": "Provincia di Novara"
    }
  },
  {
    "osm_id": -44881,
    "boundary": "administrative",
    "admin_level": 6,
    "parents": "-44879,-365331",
    "name": "Milan",
    "local_name": "Milano",
    "name_en": "Milan",
    "all_tags": {
      "ref": "MI",
      "name": "Milano",
      "name:ar": "ميلانو",
      "name:ca": "Milà",
      "name:cs": "Milán",
      "name:de": "Mailand",
      "name:en": "Milan",
      "name:es": "Milán",
      "name:fa": "میلان",
      "name:fi": "Milano",
      "name:fr": "Milan",
      "name:gl": "Milán",
      "name:he": "מילנו",
      "name:hu": "Milánó",
      "name:it": "Milano",
      "name:la": "Mediolanum",
      "name:lb": "Mailand",
      "name:lt": "Milanas",
      "name:nl": "Milaan",
      "name:pl": "Mediolan",
      "name:pt": "Milão",
      "name:ru": "Милан",
      "name:sk": "Miláno",
      "name:sl": "Milan",
      "name:za": "Milaan",
      "boundary": "administrative",
      "loc_name": "Milán",
      "name:fur": "Milan",
      "name:lmo": "Milan",
      "ref:nuts": "ITC4C",
      "way_area": "0.181409",
      "wikidata": "Q18288155",
      "ISO3166-2": "IT-MI",
      "ref:ISTAT": "015",
      "wikipedia": "it:Città metropolitana di Milano",
      "population": "3246661",
      "ref:nuts:3": "ITC4C",
      "start_date": "2015-01-01",
      "admin_level": "6",
      "alt_name:gl": "Milano",
      "official_name": "Città metropolitana di Milano",
      "population:date": "2021-31-01",
      "official_name:en": "Metropolitan City of Milan",
      "official_name:lmo": "Cittaa metropolitana de Milan",
      "old_official_name": "Provincia di Milano",
      "old_official_name:lmo": "Provincia de Milan"
    }
  },
  {
    "osm_id": -44181,
    "boundary": "administrative",
    "admin_level": 6,
    "parents": "-44879,-365331",
    "name": "Lodi",
    "local_name": "Lodi",
    "name_en": null,
    "all_tags": {
      "name": "Lodi",
      "name:fr": "Lodi",
      "name:ru": "Лоди",
      "name:zh": "洛迪",
      "boundary": "administrative",
      "ref:nuts": "ITC49",
      "way_area": "0.0897027",
      "wikidata": "Q16201",
      "ISO3166-2": "IT-LO",
      "ref:ISTAT": "098",
      "wikipedia": "it:Provincia di Lodi",
      "population": "224864",
      "ref:nuts:3": "ITC49",
      "short_name": "LO",
      "admin_level": "6",
      "official_name": "Provincia di Lodi"
    }
  },
  {
    "osm_id": -251419,
    "boundary": "administrative",
    "admin_level": 6,
    "parents": "-44879,-365331",
    "name": "Monza and Brianza",
    "local_name": "Monza e della Brianza",
    "name_en": "Monza and Brianza",
    "all_tags": {
      "ref": "MB",
      "name": "Monza e della Brianza",
      "name:en": "Monza and Brianza",
      "name:fr": "Monza-et-la-Brianza",
      "boundary": "administrative",
      "ref:nuts": "ITC4D",
      "way_area": "0.0467799",
      "wikidata": "Q16210",
      "ISO3166-2": "IT-MB",
      "ref:ISTAT": "108",
      "wikipedia": "it:Provincia di Monza e della Brianza",
      "population": "838367",
      "ref:nuts:3": "ITC4D",
      "short_name": "Monza; Brianza",
      "admin_level": "6",
      "official_name": "Provincia di Monza e della Brianza",
      "short_official_name": "Provincia di Monza; Provincia della Brianza"
    }
  },
  {
    "osm_id": -44107,
    "boundary": "administrative",
    "admin_level": 6,
    "parents": "-43648,-365331",
    "name": "Verona",
    "local_name": "Verona",
    "name_en": null,
    "all_tags": {
      "name": "Verona",
      "name:ar": "فيرونا",
      "name:fa": "ورونا",
      "name:it": "Verona",
      "name:pl": "Werona",
      "name:ru": "Верона",
      "name:ur": "ویرونا",
      "boundary": "administrative",
      "ref:nuts": "ITH31",
      "way_area": "0.356065",
      "wikidata": "Q16314",
      "ISO3166-2": "IT-VR",
      "ref:ISTAT": "023",
      "wikipedia": "it:Provincia di Verona",
      "ref:nuts:3": "ITH31",
      "short_name": "VR",
      "admin_level": "6",
      "official_name": "Provincia di Verona"
    }
  },
  {
    "osm_id": -44996,
    "boundary": "administrative",
    "admin_level": 6,
    "parents": "-44879,-365331",
    "name": "Bergamo",
    "local_name": "Bergamo",
    "name_en": null,
    "all_tags": {
      "name": "Bergamo",
      "name:ca": "Província de Bèrgam",
      "name:es": "Bérgamo",
      "name:fr": "Bergame",
      "name:it": "Bergamo",
      "name:pt": "Bérgamo",
      "name:ru": "Бергамо",
      "name:zh": "贝尔加莫",
      "boundary": "administrative",
      "name:lmo": "Berghem",
      "ref:nuts": "ITC46",
      "way_area": "0.319488",
      "wikidata": "Q16137",
      "ISO3166-2": "IT-BG",
      "ref:ISTAT": "016",
      "wikipedia": "it:Provincia di Bergamo",
      "ref:nuts:3": "ITC46",
      "short_name": "BG",
      "admin_level": "6",
      "old_name:de": "Welsch-Bergen",
      "official_name": "Provincia di Bergamo"
    }
  },
  {
    "osm_id": -46429,
    "boundary": "administrative",
    "admin_level": 6,
    "parents": "-43648,-365331",
    "name": "Belluno",
    "local_name": "Belluno",
    "name_en": null,
    "all_tags": {
      "name": "Belluno",
      "name:ru": "Беллуно",
      "boundary": "administrative",
      "ref:nuts": "ITH33",
      "way_area": "0.421539",
      "wikidata": "Q16126",
      "ISO3166-2": "IT-BL",
      "ref:ISTAT": "025",
      "wikipedia": "it:Provincia di Belluno",
      "ref:nuts:3": "ITH33",
      "short_name": "BL",
      "admin_level": "6",
      "official_name": "Provincia di Belluno"
    }
  },
  {
    "osm_id": -47046,
    "boundary": "administrative",
    "admin_level": 6,
    "parents": "-45757,-365331",
    "name": "South Tyrol",
    "local_name": "Bolzano - Bozen",
    "name_en": "South Tyrol",
    "all_tags": {
      "name": "Bolzano - Bozen",
      "name:ca": "Tirol del Sud",
      "name:de": "Bozen",
      "name:en": "South Tyrol",
      "name:fr": "Haut-Adige",
      "name:hu": "Bolzano/Bozen autonóm megye",
      "name:it": "Bolzano",
      "name:ru": "Больцано - Боцен",
      "name:sl": "Zgornje Poadižje",
      "alt_name": "Alto Adige - Südtirol",
      "boundary": "administrative",
      "ref:nuts": "ITH1;ITH10",
      "way_area": "0.870154",
      "wikidata": "Q15124",
      "ISO3166-2": "IT-BZ",
      "ref:ISTAT": "021",
      "wikipedia": "it:Provincia autonoma di Bolzano",
      "ref:nuts:2": "ITH1",
      "ref:nuts:3": "ITH10",
      "short_name": "BZ",
      "admin_level": "6",
      "alt_name:de": "Südtirol",
      "alt_name:it": "Alto Adige",
      "alt_name:sl": "Južna Tirolska",
      "old_name:cs": "Jižní Tyrolsko",
      "alt_name:lld": "Südtirol",
      "official_name": "Provincia Autonoma di Bolzano - Autonome Provinz Bozen",
      "default_language": "de",
      "official_name:cs": "Autonomní provincie Bolzano",
      "official_name:de": "Autonome Provinz Bozen",
      "official_name:it": "Provincia Autonoma di Bolzano",
      "official_name:lld": "Provinzia Autonoma de Balsan/Bulsan"
    }
  },
  {
    "osm_id": 10271946,
    "boundary": "administrative",
    "admin_level": 4,
    "parents": "-365331",
    "name": "Isola della Malva",
    "local_name": "Isola della Malva",
    "name_en": null,
    "all_tags": {
      "area": "yes",
      "name": "Isola della Malva",
      "place": "islet",
      "boundary": "administrative",
      "way_area": "6.26487e-06",
      "city:left": "Porto Cesareo",
      "admin_level": "4",
      "region:left": "Puglia",
      "province:left": "Lecce"
    }
  },
  {
    "osm_id": 27970127,
    "boundary": "administrative",
    "admin_level": 4,
    "parents": "-365331",
    "name": "Isola di Campi",
    "local_name": "Isola di Campi",
    "name_en": null,
    "all_tags": {
      "area": "yes",
      "name": "Isola di Campi",
      "place": "islet",
      "boundary": "administrative",
      "way_area": "1.70322e-06",
      "city:left": "Vieste",
      "admin_level": "4",
      "region:left": "Puglia",
      "province:left": "Foggia"
    }
  },
  {
    "osm_id": -40783,
    "boundary": "administrative",
    "admin_level": 6,
    "parents": "-40784,-365331",
    "name": "Latina",
    "local_name": "Latina",
    "name_en": null,
    "all_tags": {
      "name": "Latina",
      "name:ca": "Província de Latina",
      "name:ru": "Латина",
      "boundary": "administrative",
      "ref:nuts": "ITI44",
      "way_area": "0.242613",
      "wikidata": "Q16196",
      "ISO3166-2": "IT-LT",
      "ref:ISTAT": "059",
      "wikipedia": "it:Provincia di Latina",
      "ref:nuts:3": "ITI44",
      "short_name": "LT",
      "admin_level": "6",
      "official_name": "Provincia di Latina"
    }
  },
  {
    "osm_id": -7361997,
    "boundary": "administrative",
    "admin_level": 4,
    "parents": "-365331",
    "name": "Sardinia",
    "local_name": "Sardigna/Sardegna",
    "name_en": "Sardinia",
    "all_tags": {
      "name": "Sardigna/Sardegna",
      "name:ar": "سردانية",
      "name:ca": "Sardenya",
      "name:cs": "Sardinie",
      "name:de": "Sardinien",
      "name:el": "Σαρδηνία",
      "name:en": "Sardinia",
      "name:eo": "Sardio",
      "name:es": "Cerdeña",
      "name:eu": "Sardinia",
      "name:fa": "ساردینیا",
      "name:fi": "Sardinia",
      "name:fr": "Sardaigne",
      "name:hu": "Szardínia",
      "name:it": "Sardegna",
      "name:ja": "サルデーニャ州",
      "name:kn": "ಸಾರ್ಡಿನ್ಯ",
      "name:ku": "Sardînya",
      "name:la": "Sardinia",
      "name:mi": "Hārinia",
      "name:nl": "Sardinië",
      "name:pl": "Sardynia",
      "name:pt": "Sardenha",
      "name:ro": "Sardinia",
      "name:ru": "Сардиния",
      "name:sc": "Sardigna",
      "name:sk": "Sardínia",
      "name:sl": "Sardinija",
      "name:ur": "ساردینیا",
      "name:zh": "撒丁岛",
      "boundary": "administrative",
      "name:fur": "Sardegne",
      "name:hsb": "Sardinska",
      "name:scn": "Sardigna",
      "ref:nuts": "ITG2",
      "way_area": "2.54622",
      "wikidata": "Q1462",
      "ISO3166-2": "IT-88",
      "ref:ISTAT": "20",
      "wikipedia": "it:Sardegna",
      "ref:nuts:2": "ITG2",
      "short_name": "SAR",
      "admin_level": "4",
      "alt_name:ar": "سردينية;سردينيا;ساردينيا"
    }
  },
  {
    "osm_id": -42760,
    "boundary": "administrative",
    "admin_level": 6,
    "parents": "-301482,-365331",
    "name": "Savona",
    "local_name": "Savona",
    "name_en": null,
    "all_tags": {
      "name": "Savona",
      "name:fr": "Savone",
      "name:ru": "Савона",
      "name:zh": "萨沃纳",
      "boundary": "administrative",
      "ref:nuts": "ITC32",
      "way_area": "0.174339",
      "wikidata": "Q16274",
      "ISO3166-2": "IT-SV",
      "ref:ISTAT": "009",
      "wikipedia": "it:Provincia di Savona",
      "ref:nuts:3": "ITC32",
      "short_name": "SV",
      "admin_level": "6",
      "official_name": "Provincia di Savona"
    }
  },
  {
    "osm_id": -39178,
    "boundary": "administrative",
    "admin_level": 6,
    "parents": "-39152,-365331",
    "name": "Caltanissetta",
    "local_name": "Caltanissetta",
    "name_en": null,
    "all_tags": {
      "name": "Caltanissetta",
      "name:ar": "قلعة النساء",
      "name:el": "Καλτανισέττα",
      "name:ru": "Кальтаниссетта",
      "name:zh": "卡爾塔尼塞塔",
      "boundary": "administrative",
      "name:scn": "Nissa",
      "ref:nuts": "ITG15",
      "way_area": "0.216563",
      "wikidata": "Q26160410",
      "ISO3166-2": "IT-CL",
      "ref:ISTAT": "085",
      "wikipedia": "it:Libero consorzio comunale di Caltanissetta",
      "population": "252803",
      "ref:nuts:3": "ITG15",
      "short_name": "CL",
      "admin_level": "6",
      "alt_name:ar": "كالتانيسيتا",
      "alt_name:scn": "Cartanissetta",
      "official_name": "Libero Consorzio Comunale di Caltanissetta"
    }
  },
  {
    "osm_id": -39181,
    "boundary": "administrative",
    "admin_level": 6,
    "parents": "-39152,-365331",
    "name": "Catania",
    "local_name": "Catania",
    "name_en": null,
    "all_tags": {
      "name": "Catania",
      "name:ar": "قطانية",
      "name:be": "Катанія",
      "name:ca": "Catània",
      "name:el": "Κατάνια",
      "name:es": "Catania",
      "name:fi": "Catania",
      "name:fr": "Catane",
      "name:he": "קטניה",
      "name:it": "Catania",
      "name:la": "Catina",
      "name:pl": "Katania",
      "name:pt": "Catânia",
      "name:ru": "Катания",
      "name:uk": "Катанія",
      "name:zh": "卡塔尼亞",
      "boundary": "administrative",
      "ref:nuts": "ITG17",
      "way_area": "0.362096",
      "wikidata": "Q20991246",
      "ISO3166-2": "IT-CT",
      "ref:ISTAT": "087",
      "wikipedia": "it:Città metropolitana di Catania",
      "population": "1066765",
      "ref:nuts:3": "ITG17",
      "short_name": "CT",
      "admin_level": "6",
      "alt_name:el": "Κατάνη",
      "official_name": "Città Metropolitana di Catania"
    }
  },
  {
    "osm_id": -40600,
    "boundary": "administrative",
    "admin_level": 6,
    "parents": "-40218,-365331",
    "name": "Napoli",
    "local_name": "Napoli",
    "name_en": null,
    "all_tags": {
      "name": "Napoli",
      "name:ca": "Nàpols",
      "name:de": "Metropolitanstadt Neapel",
      "name:es": "Nápoles",
      "name:hu": "Nápoly megye",
      "name:ru": "Наполи",
      "boundary": "administrative",
      "ref:nuts": "ITF33",
      "way_area": "0.125258",
      "wikidata": "Q18241891",
      "ISO3166-2": "IT-NA",
      "ref:ISTAT": "063",
      "wikipedia": "it:Città metropolitana di Napoli",
      "ref:nuts:3": "ITF33",
      "short_name": "NA",
      "admin_level": "6",
      "official_name": "Città Metropolitana di Napoli"
    }
  },
  {
    "osm_id": -40259,
    "boundary": "administrative",
    "admin_level": 6,
    "parents": "-40137,-365331",
    "name": "Matera",
    "local_name": "Matera",
    "name_en": null,
    "all_tags": {
      "name": "Matera",
      "name:ar": "ماتيرا",
      "name:fa": "ماترا",
      "name:ru": "Матера",
      "name:ur": "ماتیرا",
      "boundary": "administrative",
      "ref:nuts": "ITF52",
      "way_area": "0.365667",
      "wikidata": "Q16206",
      "ISO3166-2": "IT-MT",
      "ref:ISTAT": "077",
      "wikipedia": "it:Provincia di Matera",
      "ref:nuts:3": "ITF52",
      "short_name": "MT",
      "admin_level": "6",
      "official_name": "Provincia di Matera",
      "official_name:ar": "مقاطعة ماتيرا"
    }
  },
  {
    "osm_id": -179294,
    "boundary": "administrative",
    "admin_level": 6,
    "parents": "-179296,-365331",
    "name": "Gorizia",
    "local_name": "Gorizia",
    "name_en": null,
    "all_tags": {
      "name": "Gorizia",
      "name:it": "Gorizia",
      "name:sl": "Goriška",
      "boundary": "administrative",
      "ref:nuts": "ITH43",
      "way_area": "0.0549925",
      "wikidata": "Q106917383",
      "ISO3166-2": "IT-GO",
      "ref:ISTAT": "031",
      "wikipedia": "it:Ente di decentramento regionale di Gorizia",
      "ref:nuts:3": "ITH43",
      "short_name": "GO",
      "admin_level": "6",
      "official_name": "Ente di decentramento regionale di Gorizia"
    }
  },
  {
    "osm_id": -43893,
    "boundary": "administrative",
    "admin_level": 6,
    "parents": "-44879,-365331",
    "name": "Cremona",
    "local_name": "Cremona",
    "name_en": null,
    "all_tags": {
      "ref": "CR",
      "name": "Cremona",
      "boundary": "administrative",
      "ref:nuts": "ITC4A",
      "way_area": "0.203021",
      "wikidata": "Q16163",
      "ISO3166-2": "IT-CR",
      "ref:ISTAT": "019",
      "wikipedia": "it:Provincia di Cremona",
      "population": "350848",
      "ref:nuts:3": "ITC4A",
      "admin_level": "6",
      "postal_code": "26010-26049,26100",
      "official_name": "Provincia di Cremona",
      "population:date": "2021"
    }
  },
  {
    "osm_id": -42366,
    "boundary": "administrative",
    "admin_level": 6,
    "parents": "-41977,-365331",
    "name": "Arezzo",
    "local_name": "Arezzo",
    "name_en": null,
    "all_tags": {
      "name": "Arezzo",
      "name:ca": "Província d'Arezzo",
      "name:ru": "Ареццо",
      "boundary": "administrative",
      "ref:nuts": "ITI18",
      "way_area": "0.359731",
      "wikidata": "Q16115",
      "ISO3166-2": "IT-AR",
      "ref:ISTAT": "051",
      "wikipedia": "it:Provincia di Arezzo",
      "ref:nuts:3": "ITI18",
      "short_name": "AR",
      "admin_level": "6",
      "official_name": "Provincia di Arezzo"
    }
  },
  {
    "osm_id": -40973,
    "boundary": "administrative",
    "admin_level": 6,
    "parents": "-40218,-365331",
    "name": "Benevento",
    "local_name": "Benevento",
    "name_en": null,
    "all_tags": {
      "name": "Benevento",
      "name:ca": "Província de Benevent",
      "name:de": "Benevent",
      "name:it": "Benevento",
      "name:la": "Beneventum",
      "name:ru": "Беневенто",
      "boundary": "administrative",
      "ref:nuts": "ITF32",
      "way_area": "0.222372",
      "wikidata": "Q16134",
      "ISO3166-2": "IT-BN",
      "ref:ISTAT": "062",
      "wikipedia": "it:Provincia di Benevento",
      "ref:nuts:3": "ITF32",
      "short_name": "BN",
      "admin_level": "6",
      "official_name": "Provincia di Benevento"
    }
  },
  {
    "osm_id": -45614,
    "boundary": "administrative",
    "admin_level": 6,
    "parents": "-44879,-365331",
    "name": "Como",
    "local_name": "Como",
    "name_en": null,
    "all_tags": {
      "ref": "CO",
      "name": "Como",
      "name:fr": "Côme",
      "name:it": "Como",
      "boundary": "administrative",
      "loc_name": "Provincia de Comm",
      "ref:nuts": "ITC42",
      "way_area": "0.148584",
      "wikidata": "Q16161",
      "ISO3166-2": "IT-CO",
      "ref:ISTAT": "013",
      "wikipedia": "it:Provincia di Como",
      "population": "587101",
      "ref:nuts:3": "ITC42",
      "admin_level": "6",
      "official_name": "Provincia di Como"
    }
  },
  {
    "osm_id": -39637,
    "boundary": "administrative",
    "admin_level": 6,
    "parents": "-1783980,-365331",
    "name": "Catanzaro",
    "local_name": "Catanzaro",
    "name_en": null,
    "all_tags": {
      "name": "Catanzaro",
      "name:ar": "قطنصار",
      "name:fa": "قطنصار",
      "name:ru": "Катандзаро",
      "name:ur": "قطنصار",
      "boundary": "administrative",
      "ref:nuts": "ITF63",
      "way_area": "0.248437",
      "wikidata": "Q16159",
      "ISO3166-2": "IT-CZ",
      "ref:ISTAT": "079",
      "wikipedia": "it:Provincia di Catanzaro",
      "ref:nuts:3": "ITF63",
      "short_name": "CZ",
      "admin_level": "6",
      "alt_name:ar": "كتنزارو;كاتانزارو",
      "official_name": "Provincia di Catanzaro",
      "official_name:ar": "مقاطعة قطنصار"
    }
  },
  {
    "osm_id": -40940,
    "boundary": "administrative",
    "admin_level": 6,
    "parents": "-40218,-365331",
    "name": "Caserta",
    "local_name": "Caserta",
    "name_en": null,
    "all_tags": {
      "name": "Caserta",
      "name:ru": "Казерта",
      "boundary": "administrative",
      "ref:nuts": "ITF31",
      "way_area": "0.284199",
      "wikidata": "Q16153",
      "ISO3166-2": "IT-CE",
      "ref:ISTAT": "061",
      "wikipedia": "it:Provincia di Caserta",
      "ref:nuts:3": "ITF31",
      "short_name": "CE",
      "admin_level": "6",
      "official_name": "Provincia di Caserta"
    }
  },
  {
    "osm_id": -41223,
    "boundary": "administrative",
    "admin_level": 6,
    "parents": "-40784,-365331",
    "name": "Frosinone",
    "local_name": "Frosinone",
    "name_en": null,
    "all_tags": {
      "name": "Frosinone",
      "name:ru": "Фрозиноне",
      "boundary": "administrative",
      "ref:nuts": "ITI45",
      "way_area": "0.349801",
      "wikidata": "Q16181",
      "ISO3166-2": "IT-FR",
      "ref:ISTAT": "060",
      "wikipedia": "it:Provincia di Frosinone",
      "ref:nuts:3": "ITI45",
      "short_name": "FR",
      "admin_level": "6",
      "official_name": "Provincia di Frosinone"
    }
  },
  {
    "osm_id": -42609,
    "boundary": "administrative",
    "admin_level": 6,
    "parents": "-42611,-365331",
    "name": "Forlì-Cesena",
    "local_name": "Forlì-Cesena",
    "name_en": null,
    "all_tags": {
      "name": "Forlì-Cesena",
      "name:ca": "Província de Forlì-Cesena",
      "name:ru": "Форли-Чезена",
      "boundary": "administrative",
      "ref:nuts": "ITH58",
      "way_area": "0.266988",
      "wikidata": "Q16180",
      "ISO3166-2": "IT-FC",
      "ref:ISTAT": "040",
      "wikipedia": "it:Provincia di Forlì-Cesena",
      "ref:nuts:3": "ITH58",
      "short_name": "FC",
      "admin_level": "6",
      "official_name": "Provincia di Forlì-Cesena"
    }
  },
  {
    "osm_id": -49135,
    "boundary": "administrative",
    "admin_level": 6,
    "parents": "-301482,-365331",
    "name": "Genoa",
    "local_name": "Genova",
    "name_en": "Genoa",
    "all_tags": {
      "name": "Genova",
      "name:ar": "جنوة",
      "name:ca": "Gènova",
      "name:de": "Genua",
      "name:en": "Genoa",
      "name:es": "Génova",
      "name:fa": "جنوا",
      "name:fr": "Gênes",
      "name:gl": "Xénova",
      "name:nl": "Genua",
      "name:oc": "Gènoa",
      "name:pl": "Genua",
      "name:pt": "Génova",
      "name:ru": "Генуя",
      "name:sl": "Genova",
      "name:zh": "热那亚",
      "boundary": "administrative",
      "name:ast": "Xénova",
      "name:lij": "Zena",
      "ref:nuts": "ITC33",
      "way_area": "0.207579",
      "wikidata": "Q18288152",
      "ISO3166-2": "IT-GE",
      "ref:ISTAT": "010",
      "wikipedia": "it:Città metropolitana di Genova",
      "ref:nuts:3": "ITC33",
      "short_name": "GE",
      "admin_level": "6",
      "alt_name:gl": "Zena",
      "official_name": "Città Metropolitana di Genova"
    }
  },
  {
    "osm_id": -42782,
    "boundary": "administrative",
    "admin_level": 6,
    "parents": "-41977,-365331",
    "name": "Massa-Carrara",
    "local_name": "Massa-Carrara",
    "name_en": null,
    "all_tags": {
      "name": "Massa-Carrara",
      "name:de": "Massa-Carrara",
      "name:ru": "Масса-Каррара",
      "boundary": "administrative",
      "ref:nuts": "ITI11",
      "way_area": "0.130292",
      "wikidata": "Q16205",
      "ISO3166-2": "IT-MS",
      "ref:ISTAT": "045",
      "wikipedia": "it:Provincia di Massa-Carrara",
      "ref:nuts:3": "ITI11",
      "short_name": "MS",
      "admin_level": "6",
      "official_name": "Provincia di Massa-Carrara"
    }
  },
  {
    "osm_id": -45639,
    "boundary": "administrative",
    "admin_level": 6,
    "parents": "-44879,-365331",
    "name": "Lecco",
    "local_name": "Lecco",
    "name_en": null,
    "all_tags": {
      "ref": "LC",
      "name": "Lecco",
      "name:fr": "Lecco",
      "name:it": "Lecco",
      "boundary": "administrative",
      "name:lmo": "Lecch",
      "ref:nuts": "ITC43",
      "way_area": "0.0931124",
      "wikidata": "Q16199",
      "ISO3166-2": "IT-LC",
      "ref:ISTAT": "097",
      "wikipedia": "it:Provincia di Lecco",
      "ref:nuts:3": "ITC43",
      "admin_level": "6",
      "official_name": "Provincia di Lecco"
    }
  },
  {
    "osm_id": -44879,
    "boundary": "administrative",
    "admin_level": 4,
    "parents": "-365331",
    "name": "Lombardy",
    "local_name": "Lombardia",
    "name_en": "Lombardy",
    "all_tags": {
      "name": "Lombardia",
      "name:br": "Lombardia",
      "name:ca": "Llombardia",
      "name:cs": "Lombardie",
      "name:de": "Lombardei",
      "name:en": "Lombardy",
      "name:es": "Lombardía",
      "name:fi": "Lombardia",
      "name:fr": "Lombardie",
      "name:hu": "Lombardia",
      "name:it": "Lombardia",
      "name:ja": "ロンバルディア州",
      "name:nl": "Lombardije",
      "name:pl": "Lombardia",
      "name:ru": "Ломбардия",
      "name:sc": "Lombardia",
      "name:sk": "Lombardia",
      "name:sl": "Lombardija",
      "boundary": "administrative",
      "name:lmo": "Lombardia",
      "name:scn": "Lummardia",
      "ref:nuts": "ITC4",
      "way_area": "2.75473",
      "wikidata": "Q1210",
      "ISO3166-2": "IT-25",
      "ref:ISTAT": "03",
      "wikipedia": "it:Lombardia",
      "population": "9964993",
      "ref:nuts:2": "ITC4",
      "short_name": "LOM",
      "admin_level": "4",
      "average_ele": "279",
      "population:date": "2021-01-31"
    }
  },
  {
    "osm_id": -53060,
    "boundary": "administrative",
    "admin_level": 4,
    "parents": "-365331",
    "name": "Marche",
    "local_name": "Marche",
    "name_en": "Marche",
    "all_tags": {
      "name": "Marche",
      "name:ca": "Marques",
      "name:de": "Marken",
      "name:en": "Marche",
      "name:eo": "Markio",
      "name:es": "Marcas",
      "name:fr": "Marches",
      "name:hu": "Marche",
      "name:it": "Marche",
      "name:ja": "マルケ州",
      "name:lt": "Markė",
      "name:nl": "Marken",
      "name:pl": "Marche",
      "name:pt": "Marcas",
      "name:ru": "Марке",
      "name:sc": "Marcas",
      "name:sk": "Marky",
      "name:sl": "Marke",
      "boundary": "administrative",
      "name:scn": "Marchi",
      "ref:nuts": "ITI3",
      "way_area": "1.03531",
      "wikidata": "Q1279",
      "ISO3166-2": "IT-57",
      "ref:ISTAT": "11",
      "wikipedia": "it:Marche",
      "ref:nuts:2": "ITI3",
      "short_name": "MAR",
      "admin_level": "4"
    }
  },
  {
    "osm_id": -42614,
    "boundary": "administrative",
    "admin_level": 6,
    "parents": "-41977,-365331",
    "name": "Lucca",
    "local_name": "Lucca",
    "name_en": null,
    "all_tags": {
      "name": "Lucca",
      "name:ru": "Лукка",
      "boundary": "administrative",
      "ref:nuts": "ITI12",
      "way_area": "0.199145",
      "wikidata": "Q16202",
      "ISO3166-2": "IT-LU",
      "ref:ISTAT": "046",
      "wikipedia": "it:Provincia di Lucca",
      "ref:nuts:3": "ITI12",
      "short_name": "LU",
      "admin_level": "6",
      "official_name": "Provincia di Lucca"
    }
  },
  {
    "osm_id": -12998775,
    "boundary": "administrative",
    "admin_level": 6,
    "parents": "-7361997,-365331",
    "name": "Medio Campidano",
    "local_name": "Medio Campidano",
    "name_en": null,
    "all_tags": {
      "name": "Medio Campidano",
      "boundary": "administrative",
      "way_area": "0.159156",
      "wikidata": "Q16207",
      "wikipedia": "it:Provincia del Medio Campidano",
      "short_name": "VS",
      "admin_level": "6",
      "official_name": "Provincia del Medio Campidano"
    }
  },
  {
    "osm_id": -42338,
    "boundary": "administrative",
    "admin_level": 6,
    "parents": "-41977,-365331",
    "name": "Pisa",
    "local_name": "Pisa",
    "name_en": null,
    "all_tags": {
      "name": "Pisa",
      "name:fr": "Pise",
      "name:it": "Pisa",
      "name:ru": "Пиза",
      "boundary": "administrative",
      "ref:nuts": "ITI17",
      "way_area": "0.272113",
      "wikidata": "Q16244",
      "ISO3166-2": "IT-PI",
      "ref:ISTAT": "050",
      "wikipedia": "it:Provincia di Pisa",
      "ref:nuts:3": "ITI17",
      "short_name": "PI",
      "admin_level": "6",
      "official_name": "Provincia di Pisa"
    }
  },
  {
    "osm_id": -39295,
    "boundary": "administrative",
    "admin_level": 6,
    "parents": "-39152,-365331",
    "name": "Palermo",
    "local_name": "Palermo",
    "name_en": null,
    "all_tags": {
      "name": "Palermo",
      "name:ar": "بلرم",
      "name:ca": "Palerm",
      "name:de": "Palermo",
      "name:el": "Παλέρμο",
      "name:es": "Palermo",
      "name:fa": "پالرمو",
      "name:fi": "Palermo",
      "name:fr": "Palerme",
      "name:he": "פלרמו",
      "name:it": "Palermo",
      "name:kn": "ಪಲೇರ್ಮೋ",
      "name:la": "Panormus",
      "name:lt": "Palermas",
      "name:pl": "Palermo",
      "name:pt": "Palermo",
      "name:ru": "Палермо",
      "name:uk": "Палермо",
      "name:zh": "巴勒莫",
      "boundary": "administrative",
      "name:scn": "Palermu",
      "ref:nuts": "ITG12",
      "way_area": "0.511167",
      "wikidata": "Q20795016",
      "ISO3166-2": "IT-PA",
      "ref:ISTAT": "082",
      "wikipedia": "it:Città metropolitana di Palermo",
      "population": "1214291",
      "ref:nuts:3": "ITG12",
      "short_name": "PA",
      "admin_level": "6",
      "alt_name:ar": "بلرمة;باليرمو",
      "old_name:el": "Πάνορμος",
      "official_name": "Città Metropolitana di Palermo"
    }
  },
  {
    "osm_id": -42455,
    "boundary": "administrative",
    "admin_level": 6,
    "parents": "-53060,-365331",
    "name": "Pesaro e Urbino",
    "local_name": "Pesaro e Urbino",
    "name_en": null,
    "all_tags": {
      "name": "Pesaro e Urbino",
      "name:de": "Pesaro und Urbino",
      "name:it": "Pesaro e Urbino",
      "name:lt": "Pezaro ir Urbino provincija",
      "name:ru": "Пезаро-э-Урбино",
      "boundary": "administrative",
      "ref:nuts": "ITI31",
      "way_area": "0.279951",
      "wikidata": "Q16241",
      "ISO3166-2": "IT-PU",
      "ref:ISTAT": "041",
      "wikipedia": "it:Provincia di Pesaro e Urbino",
      "ref:nuts:3": "ITI31",
      "short_name": "PU",
      "admin_level": "6",
      "official_name": "Provincia di Pesaro e Urbino",
      "official_name:de": "Provinz Pesaro und Urbino"
    }
  },
  {
    "osm_id": -41781,
    "boundary": "administrative",
    "admin_level": 6,
    "parents": "-40784,-365331",
    "name": "Rieti",
    "local_name": "Rieti",
    "name_en": null,
    "all_tags": {
      "name": "Rieti",
      "name:ru": "Риети",
      "boundary": "administrative",
      "ref:nuts": "ITI42",
      "way_area": "0.299563",
      "wikidata": "Q16267",
      "ISO3166-2": "IT-RI",
      "ref:ISTAT": "057",
      "wikipedia": "it:Provincia di Rieti",
      "ref:nuts:3": "ITI42",
      "short_name": "RI",
      "admin_level": "6",
      "official_name": "Provincia di Rieti"
    }
  },
  {
    "osm_id": -179296,
    "boundary": "administrative",
    "admin_level": 4,
    "parents": "-365331",
    "name": "Friuli-Venezia Giulia",
    "local_name": "Friuli-Venezia Giulia",
    "name_en": "Friuli-Venezia Giulia",
    "all_tags": {
      "name": "Friuli-Venezia Giulia",
      "name:ca": "Friül - Venècia Júlia",
      "name:cs": "Furlansko-Julské Benátsko",
      "name:de": "Friaul-Julisch Venetien",
      "name:en": "Friuli-Venezia Giulia",
      "name:eo": "Friulo-Venecio Julia",
      "name:es": "Friuli-Venecia Julia",
      "name:fr": "Frioul-Vénétie julienne",
      "name:hu": "Friuli-Venezia Giulia",
      "name:ja": "フリウリ＝ヴェネツィア・ジュリア州",
      "name:nl": "Friuli-Venezia Giulia",
      "name:pl": "Friuli-Wenecja Julijska",
      "name:pt": "Friul-Veneza Júlia",
      "name:ro": "Friuli-Veneția Giulia",
      "name:ru": "Фриули-Венеция-Джулия",
      "name:sc": "Friuli-Venètzia Giùlia",
      "name:sk": "Furlansko-Júlske Benátky",
      "name:sl": "Furlanija - Julijska krajina",
      "boundary": "administrative",
      "name:fur": "Friûl Vignesie Julie",
      "ref:nuts": "ITH4",
      "way_area": "0.92264",
      "wikidata": "Q1250",
      "ISO3166-2": "IT-36",
      "ref:ISTAT": "06",
      "wikipedia": "it:Friuli-Venezia Giulia",
      "population": "1197392",
      "ref:nuts:2": "ITH4",
      "short_name": "FVG",
      "start_date": "1963",
      "admin_level": "4",
      "alt_name:cs": "Furlansko a Julské Benátsko",
      "official_name": "Regione autonoma Friuli-Venezia Giulia",
      "population:date": "2021-02-28"
    }
  },
  {
    "osm_id": -43648,
    "boundary": "administrative",
    "admin_level": 4,
    "parents": "-365331",
    "name": "Veneto",
    "local_name": "Veneto",
    "name_en": "Veneto",
    "all_tags": {
      "name": "Veneto",
      "name:ar": "فينيتو",
      "name:ca": "Vèneto",
      "name:cs": "Benátsko",
      "name:de": "Venetien",
      "name:en": "Veneto",
      "name:es": "Véneto",
      "name:fa": "ونتو",
      "name:fr": "Vénétie",
      "name:hu": "Veneto",
      "name:it": "Veneto",
      "name:ja": "ヴェネト州",
      "name:la": "Venetia",
      "name:lt": "Venetas",
      "name:nl": "Veneto",
      "name:pl": "Wenecja Euganejska",
      "name:pt": "Véneto",
      "name:ru": "Венето",
      "name:sc": "Vènetu",
      "name:sk": "Benátsko",
      "name:sl": "Veneto",
      "name:ur": "وینیتو",
      "boundary": "administrative",
      "name:bar": "Venezien",
      "name:fur": "Venit",
      "name:scn": "Venitu",
      "name:vec": "Venesia",
      "ref:nuts": "ITH3",
      "way_area": "2.11766",
      "wikidata": "Q1243",
      "ISO3166-2": "IT-34",
      "ref:ISTAT": "05",
      "wikipedia": "it:Veneto",
      "ref:nuts:2": "ITH3",
      "short_name": "VEN",
      "admin_level": "4"
    }
  },
  {
    "osm_id": -39152,
    "boundary": "administrative",
    "admin_level": 4,
    "parents": "-365331",
    "name": "Sicily",
    "local_name": "Sicilia",
    "name_en": "Sicily",
    "all_tags": {
      "name": "Sicilia",
      "name:ar": "صقلية",
      "name:ca": "Sicília",
      "name:cs": "Sicílie",
      "name:de": "Sizilien",
      "name:el": "Σικελία",
      "name:en": "Sicily",
      "name:es": "Sicilia",
      "name:eu": "Sizilia",
      "name:fi": "Sisilia",
      "name:fr": "Sicile",
      "name:hu": "Szicília",
      "name:is": "Sikiley",
      "name:it": "Sicilia",
      "name:ja": "シチリア",
      "name:kn": "ಸಿಸಿಲಿ",
      "name:ko": "시칠리아",
      "name:lt": "Sicilija",
      "name:mi": "Hihirī",
      "name:nl": "Sicilië",
      "name:pl": "Sycylia",
      "name:pt": "Sicília",
      "name:ru": "Сицилия",
      "name:sc": "Sitzìlia",
      "name:sk": "Sicília",
      "name:sl": "Sicilija",
      "name:sv": "Sicilien",
      "name:zh": "西西里岛",
      "boundary": "administrative",
      "name:fur": "Sicilie",
      "ref:nuts": "ITG1",
      "way_area": "2.62324",
      "wikidata": "Q1460",
      "ISO3166-2": "IT-82",
      "ref:ISTAT": "19",
      "wikipedia": "it:Sicilia",
      "ref:nuts:2": "ITG1",
      "short_name": "SIC",
      "admin_level": "4",
      "name:zh-Hans": "西西里岛",
      "name:zh-Hant": "西西里島",
      "official_name": "Regione Siciliana"
    }
  },
  {
    "osm_id": -42004,
    "boundary": "administrative",
    "admin_level": 4,
    "parents": "-365331",
    "name": "Umbria",
    "local_name": "Umbria",
    "name_en": "Umbria",
    "all_tags": {
      "name": "Umbria",
      "name:ca": "Úmbria",
      "name:cs": "Umbrie",
      "name:de": "Umbrien",
      "name:en": "Umbria",
      "name:eo": "Umbrio",
      "name:es": "Umbría",
      "name:fr": "Ombrie",
      "name:hu": "Umbria",
      "name:it": "Umbria",
      "name:ja": "ウンブリア州",
      "name:nl": "Umbrië",
      "name:pl": "Umbria",
      "name:pt": "Úmbria",
      "name:ru": "Умбрия",
      "name:sc": "Ùmbria",
      "name:sl": "Umbrija",
      "boundary": "administrative",
      "name:fur": "Umbrie",
      "ref:nuts": "ITI2",
      "way_area": "0.932879",
      "wikidata": "Q1280",
      "ISO3166-2": "IT-55",
      "ref:ISTAT": "10",
      "wikipedia": "it:Umbria",
      "population": "865013",
      "ref:nuts:2": "ITI2",
      "admin_level": "4",
      "population:date": "01-01-2021"
    }
  },
  {
    "osm_id": -179292,
    "boundary": "administrative",
    "admin_level": 6,
    "parents": "-179296,-365331",
    "name": "Trieste",
    "local_name": "Trieste",
    "name_en": "Trieste",
    "all_tags": {
      "ref": "TS",
      "name": "Trieste",
      "place": "county",
      "name:ca": "Trieste",
      "name:de": "Triest",
      "name:en": "Trieste",
      "name:it": "Trieste",
      "name:ru": "Триест",
      "name:sl": "Tržaška",
      "name:zh": "的里雅斯特省",
      "boundary": "administrative",
      "loc_name": "Triest",
      "ref:nuts": "ITH44",
      "way_area": "0.0244979",
      "wikidata": "Q106917336",
      "ISO3166-2": "IT-TS",
      "ref:ISTAT": "032",
      "wikipedia": "it:Ente di decentramento regionale di Trieste",
      "population": "230689",
      "ref:nuts:3": "ITH44",
      "start_date": "2019",
      "admin_level": "6",
      "postal_code": "34121-34151,34010-34011,34015-34016,34018",
      "wikipedia:sl": "Tržaška pokrajina",
      "official_name": "Ente di decentramento regionale di Trieste",
      "population:date": "2021"
    }
  },
  {
    "osm_id": -179295,
    "boundary": "administrative",
    "admin_level": 6,
    "parents": "-179296,-365331",
    "name": "Udine",
    "local_name": "Udine",
    "name_en": null,
    "all_tags": {
      "name": "Udine",
      "name:ca": "'Udine",
      "name:lt": "Udinės",
      "name:ru": "Удине",
      "name:sl": "Videmska",
      "boundary": "administrative",
      "name:fur": "Udin",
      "ref:nuts": "ITH42",
      "way_area": "0.578716",
      "wikidata": "Q106917294",
      "ISO3166-2": "IT-UD",
      "ref:ISTAT": "030",
      "wikipedia": "it:Ente di decentramento regionale di Udine",
      "ref:nuts:3": "ITH42",
      "short_name": "UD",
      "admin_level": "6",
      "official_name": "Ente di decentramento regionale di Udine"
    }
  },
  {
    "osm_id": -45300,
    "boundary": "administrative",
    "admin_level": 6,
    "parents": "-43648,-365331",
    "name": "Treviso",
    "local_name": "Treviso",
    "name_en": null,
    "all_tags": {
      "name": "Treviso",
      "name:ca": "Província de Treviso",
      "name:ru": "Тревизо",
      "boundary": "administrative",
      "name:fur": "Trevîs",
      "name:vec": "Trevixo",
      "ref:nuts": "ITH34",
      "way_area": "0.286717",
      "wikidata": "Q16292",
      "ISO3166-2": "IT-TV",
      "ref:ISTAT": "026",
      "wikipedia": "it:Provincia di Treviso",
      "ref:nuts:3": "ITH34",
      "short_name": "TV",
      "admin_level": "6",
      "official_name": "Provincia di Treviso"
    }
  },
  {
    "osm_id": -44230,
    "boundary": "administrative",
    "admin_level": 6,
    "parents": "-43648,-365331",
    "name": "Venezia",
    "local_name": "Venezia",
    "name_en": null,
    "all_tags": {
      "name": "Venezia",
      "name:ca": "Venècia",
      "name:es": "Venecia",
      "name:fr": "Venise",
      "name:ru": "Венеция",
      "name:sl": "Benetke",
      "boundary": "administrative",
      "name:fur": "Vignesie",
      "ref:nuts": "ITH35",
      "way_area": "0.28466",
      "wikidata": "Q3678587",
      "ISO3166-2": "IT-VE",
      "ref:ISTAT": "027",
      "wikipedia": "it:Città metropolitana di Venezia",
      "ref:nuts:3": "ITH35",
      "short_name": "VE",
      "admin_level": "6",
      "official_name": "Città Metropolitana di Venezia"
    }
  },
  {
    "osm_id": -44580,
    "boundary": "administrative",
    "admin_level": 6,
    "parents": "-43648,-365331",
    "name": "Vicenza",
    "local_name": "Vicenza",
    "name_en": null,
    "all_tags": {
      "name": "Vicenza",
      "name:ru": "Виченца",
      "boundary": "administrative",
      "name:fur": "Vicenze",
      "name:vec": "Vicensa",
      "ref:nuts": "ITH32",
      "way_area": "0.314384",
      "wikidata": "Q16316",
      "ISO3166-2": "IT-VI",
      "ref:ISTAT": "024",
      "wikipedia": "it:Provincia di Vicenza",
      "ref:nuts:3": "ITH32",
      "short_name": "VI",
      "admin_level": "6",
      "official_name": "Provincia di Vicenza"
    }
  },
  {
    "osm_id": -39166,
    "boundary": "administrative",
    "admin_level": 6,
    "parents": "-39152,-365331",
    "name": "Trapani",
    "local_name": "Trapani",
    "name_en": null,
    "all_tags": {
      "name": "Trapani",
      "name:an": "Tràpani",
      "name:ar": "تراباني",
      "name:bg": "Трапани",
      "name:el": "Δρέπανον",
      "name:fa": "تراپانی",
      "name:he": "טרפאני",
      "name:ja": "トラーパニ",
      "name:la": "Drepanum",
      "name:pt": "Trápani",
      "name:ru": "Трапани",
      "name:sr": "Трапани",
      "name:uk": "Трапані",
      "name:zh": "特拉帕尼",
      "boundary": "administrative",
      "name:pms": "Tràpani",
      "name:scn": "Tràpani",
      "ref:nuts": "ITG11",
      "way_area": "0.252148",
      "wikidata": "Q26160403",
      "ISO3166-2": "IT-TP",
      "ref:ISTAT": "081",
      "wikipedia": "it:Libero consorzio comunale di Trapani",
      "population": "418363",
      "ref:nuts:3": "ITG11",
      "short_name": "TP",
      "admin_level": "6",
      "name:roa-tara": "Trapane",
      "official_name": "Libero Consorzio Comunale di Trapani"
    }
  },
  {
    "osm_id": -12998777,
    "boundary": "administrative",
    "admin_level": 6,
    "parents": "-7361997,-365331",
    "name": "Nord-Est Sardegna",
    "local_name": "Nord-Est Sardegna",
    "name_en": null,
    "all_tags": {
      "name": "Nord-Est Sardegna",
      "boundary": "administrative",
      "way_area": "0.363898",
      "wikidata": "Q106996869",
      "wikipedia": "it:Provincia del Nord-Est Sardegna",
      "admin_level": "6",
      "official_name": "Provincia del Nord-Est Sardegna"
    }
  },
  {
    "osm_id": -39157,
    "boundary": "administrative",
    "admin_level": 6,
    "parents": "-39152,-365331",
    "name": "Ragusa",
    "local_name": "Ragusa",
    "name_en": null,
    "all_tags": {
      "name": "Ragusa",
      "name:ar": "رغوس",
      "name:el": "Ραγκούζα",
      "name:fr": "Raguse",
      "name:it": "Ragusa",
      "name:lt": "Ragūza",
      "name:ru": "Рагуза",
      "name:uk": "Рагуза",
      "name:zh": "拉古萨",
      "boundary": "administrative",
      "name:scn": "Raùsa",
      "ref:nuts": "ITG18",
      "way_area": "0.163285",
      "wikidata": "Q26160405",
      "ISO3166-2": "IT-RG",
      "ref:ISTAT": "088",
      "wikipedia": "it:Libero consorzio comunale di Ragusa",
      "population": "314950",
      "ref:nuts:3": "ITG18",
      "short_name": "RG",
      "admin_level": "6",
      "alt_name:ar": "رغوص;راغوزا;راجوسا",
      "official_name": "Libero Consorzio Comunale di Ragusa"
    }
  },
  {
    "osm_id": -45757,
    "boundary": "administrative",
    "admin_level": 4,
    "parents": "-365331",
    "name": "Trentino-Alto Adige/Südtirol",
    "local_name": "Trentino-Alto Adige/Südtirol",
    "name_en": "Trentino-Alto Adige/Südtirol",
    "all_tags": {
      "name": "Trentino-Alto Adige/Südtirol",
      "name:ca": "Trentino - Tirol del Sud",
      "name:cs": "Tridentsko-Horní Adiže",
      "name:de": "Trentino-Südtirol",
      "name:en": "Trentino-Alto Adige/Südtirol",
      "name:es": "Trentino-Alto Adigio",
      "name:fi": "Trentino-Etelä-Tiroli",
      "name:fr": "Trentin-Haut-Adige",
      "name:hu": "Trentino-Alto Adige / Dél-Tirol",
      "name:it": "Trentino-Alto Adige",
      "name:ja": "トレンティーノ＝アルト・アディジェ自治州/南ティロル自治州",
      "name:nl": "Trentino-Zuid-Tirol",
      "name:pl": "Trydent-Górna Adyga",
      "name:ru": "Трентино - Альто-Адидже",
      "name:sc": "Trentinu-Südtirol",
      "name:sk": "Tridentsko-Horná Adiža/Južné Tirolsko",
      "name:sl": "Trentinsko - Gornje Poadižje / Južna Tirolska",
      "boundary": "administrative",
      "name:lld": "Trentin-Südtirol",
      "name:mhn": "Trentino-Sudtirol",
      "name:scn": "Trintinu-Autu Adiggi",
      "way_area": "1.5927",
      "wikidata": "Q1237",
      "ISO3166-2": "IT-32",
      "ref:ISTAT": "04",
      "wikipedia": "it:Trentino-Alto Adige",
      "short_name": "TAA",
      "admin_level": "4",
      "official_name:de": "Autonome Region Trentino-Südtirol",
      "official_name:it": "Regione Autonoma Trentino-Alto Adige/Südtirol",
      "official_name:lld": "Region Autonoma Trentin-Südtirol",
      "official_name:mhn": "Autonome Region Trentino Sudtirol"
    }
  },
  {
    "osm_id": -45347,
    "boundary": "administrative",
    "admin_level": 6,
    "parents": "-44879,-365331",
    "name": "Varese",
    "local_name": "Varese",
    "name_en": null,
    "all_tags": {
      "ref": "VA",
      "name": "Varese",
      "name:bs": "Vareš",
      "name:fr": "Varèse",
      "name:it": "Varese",
      "boundary": "administrative",
      "name:lmo": "Provincia de Vares",
      "ref:nuts": "ITC41",
      "way_area": "0.138858",
      "wikidata": "Q16299",
      "ISO3166-2": "IT-VA",
      "ref:ISTAT": "012",
      "wikipedia": "it:Provincia di Varese",
      "ref:nuts:3": "ITC41",
      "admin_level": "6",
      "official_name": "Provincia di Varese"
    }
  }
]
