[
  {
    "osm_id": -8496351,
    "boundary": "administrative",
    "admin_level": 4,
    "parents": "-178009",
    "name": "City of Osh",
    "local_name": "Ош",
    "name_en": "City of Osh",
    "all_tags": {
      "name": "Ош",
      "place": "city",
      "name:de": "Osch",
      "name:en": "City of Osh",
      "name:fr": "Och",
      "name:ky": "Ош",
      "name:pl": "Osz",
      "name:ru": "Ош",
      "name:uz": "O'sh",
      "boundary": "administrative",
      "way_area": "0.0121704",
      "wikidata": "Q47282",
      "ISO3166-2": "KG-GO",
      "wikipedia": "en:Osh",
      "population": "270347",
      "admin_level": "4"
    }
  },
  {
    "osm_id": -8493930,
    "boundary": "administrative",
    "admin_level": 4,
    "parents": "-178009",
    "name": "Bishkek",
    "local_name": "Бишкек",
    "name_en": "Bishkek",
    "all_tags": {
      "name": "Бишкек",
      "place": "city",
      "name:ar": "بيشكك",
      "name:de": "Bischkek",
      "name:en": "Bishkek",
      "name:fa": "بیشکک",
      "name:ja": "ビシュケク",
      "name:ks": "بشکیک",
      "name:pl": "Biszkek",
      "name:ps": "بشکک",
      "name:ru": "Бишкек",
      "name:ug": "بىشكەك",
      "name:ur": "بشکیک",
      "name:zh": "比什凯克",
      "boundary": "administrative",
      "int_name": "Bishkek",
      "name:azb": "بیشکک",
      "name:lrc": "بیشکک",
      "name:mzn": "بيشکک",
      "name:ota": "بیشکک",
      "name:pnb": "بشکیک",
      "old_name": "Фрунзе",
      "way_area": "0.0178268",
      "wikidata": "Q9361",
      "ISO3166-2": "KG-GB",
      "wikipedia": "ky:Бишкек",
      "population": "1012500",
      "admin_level": "4",
      "old_name:ar": "فرونزه",
      "old_name:pl": "Frunze",
      "name:kk-Arab": "بىشكەك",
      "name:kab-Arab": "بيشكك"
    }
  },
  {
    "osm_id": -7727465,
    "boundary": "administrative",
    "admin_level": 6,
    "parents": "-178026,-178009",
    "name": "Tokmok",
    "local_name": "Токмок",
    "name_en": "Tokmok",
    "all_tags": {
      "name": "Токмок",
      "place": "town",
      "name:ar": "توكموك",
      "name:en": "Tokmok",
      "name:ja": "トクマク",
      "name:ky": "Токмок",
      "name:ru": "Токмок",
      "alt_name": "Токмак",
      "boundary": "administrative",
      "way_area": "0.00362847",
      "addr:region": "Чуйская область",
      "admin_level": "6",
      "alt_name:ru": "Токмак",
      "addr:country": "KG"
    }
  },
  {
    "osm_id": -7491199,
    "boundary": "administrative",
    "admin_level": 6,
    "parents": "-178020,-178009",
    "name": "Чон-Алайский район",
    "local_name": "Чон-Алайский район",
    "name_en": null,
    "all_tags": {
      "name": "Чон-Алайский район",
      "name:ky": "Чон-Алай району",
      "boundary": "administrative",
      "way_area": "0.511607",
      "wikidata": "Q2574818",
      "wikipedia": "ru:Чон-Алайский район",
      "admin_level": "6"
    }
  },
  {
    "osm_id": -4039638,
    "boundary": "administrative",
    "admin_level": 6,
    "parents": "-178019,-178009",
    "name": "Сулюкта",
    "local_name": "Сулюкта",
    "name_en": null,
    "all_tags": {
      "name": "Сулюкта",
      "boundary": "administrative",
      "way_area": "0.00203353",
      "admin_level": "6"
    }
  },
  {
    "osm_id": -4033859,
    "boundary": "administrative",
    "admin_level": 6,
    "parents": "-178019,-178009",
    "name": "Баткенский район",
    "local_name": "Баткенский район",
    "name_en": null,
    "all_tags": {
      "name": "Баткенский район",
      "name:ky": "Баткен району",
      "name:ru": "Баткенский район",
      "boundary": "administrative",
      "way_area": "0.629117",
      "wikidata": "Q2574808",
      "wikipedia": "ru:Баткенский район",
      "admin_level": "6"
    }
  },
  {
    "osm_id": -4033822,
    "boundary": "administrative",
    "admin_level": 6,
    "parents": "-178019,-178009",
    "name": "Лейлекский район",
    "local_name": "Лейлекский район",
    "name_en": null,
    "all_tags": {
      "name": "Лейлекский район",
      "name:ky": "Лейлек району",
      "name:ru": "Лейлекский район",
      "boundary": "administrative",
      "way_area": "0.508714",
      "wikidata": "Q2573246",
      "wikipedia": "ru:Лейлекский район",
      "admin_level": "6"
    }
  },
  {
    "osm_id": -4033820,
    "boundary": "administrative",
    "admin_level": 6,
    "parents": "-178019,-178009",
    "name": "Кадамжайский район",
    "local_name": "Кадамжайский район",
    "name_en": null,
    "all_tags": {
      "name": "Кадамжайский район",
      "name:ky": "Кадамжай району",
      "name:ru": "Кадамжайский район",
      "boundary": "administrative",
      "way_area": "0.659567",
      "wikidata": "Q2428223",
      "wikipedia": "ru:Кадамжайский район",
      "admin_level": "6"
    }
  },
  {
    "osm_id": -2444082,
    "boundary": "administrative",
    "admin_level": 6,
    "parents": "-178026,-178009",
    "name": "Ysyk-Ata District",
    "local_name": "Ысык-Атинский район",
    "name_en": "Ysyk-Ata District",
    "all_tags": {
      "name": "Ысык-Атинский район",
      "name:de": "Rajon Ysyk-Ata",
      "name:en": "Ysyk-Ata District",
      "name:ky": "Ысык-Ата району",
      "name:ru": "Ысык-Атинский район",
      "boundary": "administrative",
      "way_area": "0.212717",
      "wikidata": "Q878625",
      "wikipedia": "ru:Ысык-Атинский район",
      "admin_level": "6"
    }
  },
  {
    "osm_id": -2444081,
    "boundary": "administrative",
    "admin_level": 6,
    "parents": "-178026,-178009",
    "name": "Чуйский район",
    "local_name": "Чуйский район",
    "name_en": null,
    "all_tags": {
      "name": "Чуйский район",
      "name:ky": "Чүй району",
      "name:ru": "Чуйский район",
      "boundary": "administrative",
      "way_area": "0.171921",
      "wikidata": "Q879101",
      "wikipedia": "ru:Чуйский район",
      "admin_level": "6"
    }
  },
  {
    "osm_id": -2444079,
    "boundary": "administrative",
    "admin_level": 6,
    "parents": "-178026,-178009",
    "name": "Панфиловский район",
    "local_name": "Панфиловский район",
    "name_en": null,
    "all_tags": {
      "name": "Панфиловский район",
      "name:ky": "Панфилов району",
      "name:ru": "Панфиловский район",
      "boundary": "administrative",
      "way_area": "0.545144",
      "wikidata": "Q878846",
      "wikipedia": "ru:Панфиловский район (Киргизия)",
      "admin_level": "6"
    }
  },
  {
    "osm_id": -2444078,
    "boundary": "administrative",
    "admin_level": 6,
    "parents": "-178026,-178009",
    "name": "Московский район",
    "local_name": "Московский район",
    "name_en": null,
    "all_tags": {
      "name": "Московский район",
      "name:de": "Rajon Moskowski",
      "name:ky": "Москва району",
      "name:ru": "Московский район",
      "boundary": "administrative",
      "way_area": "0.168337",
      "wikidata": "Q879096",
      "wikipedia": "ru:Московский район (Киргизия)",
      "admin_level": "6"
    }
  },
  {
    "osm_id": -2444077,
    "boundary": "administrative",
    "admin_level": 6,
    "parents": "-178026,-178009",
    "name": "Кеминский район",
    "local_name": "Кеминский район",
    "name_en": null,
    "all_tags": {
      "name": "Кеминский район",
      "name:ky": "Кемин району",
      "name:ru": "Кеминский район",
      "boundary": "administrative",
      "way_area": "0.386655",
      "wikidata": "Q879225",
      "wikipedia": "ru:Кеминский район",
      "admin_level": "6"
    }
  },
  {
    "osm_id": -2444076,
    "boundary": "administrative",
    "admin_level": 6,
    "parents": "-178026,-178009",
    "name": "Жайылский район",
    "local_name": "Жайылский район",
    "name_en": null,
    "all_tags": {
      "name": "Жайылский район",
      "name:ky": "Жайыл району",
      "name:ru": "Жайылский район",
      "alt_name": "Жайыльский район",
      "boundary": "administrative",
      "old_name": "Калининский район",
      "way_area": "0.330324",
      "wikidata": "Q878861",
      "wikipedia": "ru:Жайыльский район",
      "admin_level": "6"
    }
  },
  {
    "osm_id": -2444075,
    "boundary": "administrative",
    "admin_level": 6,
    "parents": "-178026,-178009",
    "name": "Alamudun District",
    "local_name": "Аламудунский район",
    "name_en": "Alamudun District",
    "all_tags": {
      "name": "Аламудунский район",
      "name:de": "Rajon Alamüdün",
      "name:en": "Alamudun District",
      "name:ky": "Аламүдүн району",
      "name:ru": "Аламудунский район",
      "boundary": "administrative",
      "way_area": "0.155554",
      "wikidata": "Q670790",
      "wikipedia": "ru:Аламудунский район",
      "admin_level": "6"
    }
  },
  {
    "osm_id": -1251542,
    "boundary": "administrative",
    "admin_level": 4,
    "parents": "-178009",
    "name": "Naryn Region",
    "local_name": "Нарынская область",
    "name_en": "Naryn Region",
    "all_tags": {
      "name": "Нарынская область",
      "is_in": "Kyrgyzstan",
      "name:de": "Gebiet Naryn",
      "name:en": "Naryn Region",
      "name:es": "Provincia de Naryn",
      "name:fr": "Province de Naryn",
      "name:ja": "ナルイン",
      "name:ky": "Нарын областы",
      "name:lt": "Naryno sritis",
      "name:pl": "Obwód naryński",
      "name:ru": "Нарынская область",
      "boundary": "administrative",
      "way_area": "5.30919",
      "wikidata": "Q486375",
      "ISO3166-2": "KG-N",
      "wikipedia": "ru:Нарынская область",
      "admin_level": "4",
      "is_in:country": "Kyrgyzstan",
      "is_in:continent": "Asia",
      "is_in:country_code": "KG"
    }
  },
  {
    "osm_id": -178026,
    "boundary": "administrative",
    "admin_level": 4,
    "parents": "-178009",
    "name": "Chuy Region",
    "local_name": "Чуйская область",
    "name_en": "Chuy Region",
    "all_tags": {
      "name": "Чуйская область",
      "name:de": "Gebiet Tschüi",
      "name:en": "Chuy Region",
      "name:es": "Provincia de Chuy",
      "name:fr": "Province de Tchouï",
      "name:ja": "チュイ",
      "name:ky": "Чүй областы",
      "name:lt": "Ču sritis",
      "name:pl": "Obwód czujski",
      "name:ru": "Чуйская область",
      "boundary": "administrative",
      "way_area": "2.19741",
      "wikidata": "Q486370",
      "ISO3166-2": "KG-C",
      "wikipedia": "ru:Чуйская область",
      "admin_level": "4",
      "is_in:country": "Kyrgyzstan",
      "is_in:continent": "Asia",
      "is_in:country_code": "KG"
    }
  },
  {
    "osm_id": -178025,
    "boundary": "administrative",
    "admin_level": 4,
    "parents": "-178009",
    "name": "Issyk-Kul Region",
    "local_name": "Иссык-Кульская область",
    "name_en": "Issyk-Kul Region",
    "all_tags": {
      "name": "Иссык-Кульская область",
      "is_in": "Kyrgyzstan",
      "name:de": "Gebiet Yssykköl",
      "name:en": "Issyk-Kul Region",
      "name:es": "Provincia de Ysyk-Kol",
      "name:fr": "Province d'Yssykköl",
      "name:ja": "イシク・クル",
      "name:ky": "Ысык-Көл областы",
      "name:lt": "Isyk Kulio sritis",
      "name:pl": "Obwód issykkulski",
      "name:ru": "Иссык-Кульская область",
      "boundary": "administrative",
      "way_area": "4.58331",
      "wikidata": "Q487413",
      "ISO3166-2": "KG-Y",
      "wikipedia": "ru:Иссык-Кульская область",
      "admin_level": "4",
      "is_in:country": "Kyrgyzstan",
      "is_in:continent": "Asia",
      "is_in:country_code": "KG"
    }
  },
  {
    "osm_id": -178024,
    "boundary": "administrative",
    "admin_level": 4,
    "parents": "-178009",
    "name": "Jalal-Abad Region",
    "local_name": "Джалал-Абадская область",
    "name_en": "Jalal-Abad Region",
    "all_tags": {
      "name": "Джалал-Абадская область",
      "is_in": "Kyrgyzstan",
      "name:de": "Gebiet Dschalalabat",
      "name:en": "Jalal-Abad Region",
      "name:es": "Provincia de Jalal-Abad",
      "name:fr": "Province de Jalal-Abad",
      "name:ja": "ジャララバード",
      "name:ky": "Жалалабат областы",
      "name:pl": "Obwód dżalalabadzki",
      "name:ru": "Джалал-Абадская область",
      "boundary": "administrative",
      "way_area": "3.20548",
      "wikidata": "Q487640",
      "ISO3166-2": "KG-J",
      "wikipedia": "ru:Джалал-Абадская область",
      "admin_level": "4",
      "is_in:country": "Kyrgyzstan",
      "is_in:continent": "Asia",
      "is_in:country_code": "KG"
    }
  },
  {
    "osm_id": -178023,
    "boundary": "administrative",
    "admin_level": 4,
    "parents": "-178009",
    "name": "Talas Region",
    "local_name": "Таласская область",
    "name_en": "Talas Region",
    "all_tags": {
      "name": "Таласская область",
      "is_in": "Kyrgyzstan",
      "name:de": "Gebiet Talas",
      "name:en": "Talas Region",
      "name:es": "Provincia de Talas",
      "name:fr": "Province de Talas",
      "name:ja": "タラス",
      "name:ky": "Талас областы",
      "name:pl": "Obwód tałaski",
      "name:ru": "Таласская область",
      "boundary": "administrative",
      "way_area": "1.25226",
      "wikidata": "Q109838",
      "ISO3166-2": "KG-T",
      "wikipedia": "ru:Таласская область",
      "admin_level": "4",
      "is_in:country": "Kyrgyzstan",
      "is_in:continent": "Asia",
      "is_in:country_code": "KG"
    }
  },
  {
    "osm_id": -178020,
    "boundary": "administrative",
    "admin_level": 4,
    "parents": "-178009",
    "name": "Osh Region",
    "local_name": "Ошская область",
    "name_en": "Osh Region",
    "all_tags": {
      "name": "Ошская область",
      "is_in": "Kyrgyzstan",
      "name:de": "Gebiet Osch",
      "name:en": "Osh Region",
      "name:es": "Provincia de Osh",
      "name:fr": "Province d'Och",
      "name:ja": "オシ",
      "name:ky": "Ош областы",
      "name:lt": "Ošo sritis",
      "name:pl": "Obwód oszyński",
      "name:ru": "Ошская область",
      "boundary": "administrative",
      "way_area": "3.04301",
      "wikidata": "Q231987",
      "ISO3166-2": "KG-O",
      "wikipedia": "ru:Ошская область",
      "admin_level": "4",
      "is_in:country": "Kyrgyzstan",
      "is_in:continent": "Asia",
      "is_in:country_code": "KG"
    }
  },
  {
    "osm_id": -178019,
    "boundary": "administrative",
    "admin_level": 4,
    "parents": "-178009",
    "name": "Batken Region",
    "local_name": "Баткенская область",
    "name_en": "Batken Region",
    "all_tags": {
      "name": "Баткенская область",
      "name:de": "Gebiet Batken",
      "name:en": "Batken Region",
      "name:es": "Provincia de Batken",
      "name:fr": "Province de Batken",
      "name:ja": "バトケン",
      "name:ky": "Баткен областы",
      "name:lt": "Batkeno sritis",
      "name:pl": "Obwód batkeński",
      "name:ru": "Баткенская область",
      "boundary": "administrative",
      "way_area": "1.81497",
      "wikidata": "Q487631",
      "ISO3166-2": "KG-B",
      "wikipedia": "ru:Баткенская область",
      "admin_level": "4",
      "is_in:country": "Kyrgyzstan",
      "is_in:continent": "Asia",
      "is_in:country_code": "KG"
    }
  }
]
