[
  {
    "osm_id": -7229957,
    "boundary": "administrative",
    "admin_level": 4,
    "parents": "-571178",
    "name": "Gilbert Islands",
    "local_name": "Gilbert Islands",
    "name_en": null,
    "all_tags": {
      "name": "Gilbert Islands",
      "boundary": "administrative",
      "old_name": "Kingsmills",
      "timezone": "Pacific/Tarawa",
      "way_area": "5.89894",
      "wikidata": "Q271876",
      "ISO3166-2": "KI-G",
      "admin_level": "4"
    }
  },
  {
    "osm_id": -7229956,
    "boundary": "administrative",
    "admin_level": 4,
    "parents": "-571178",
    "name": "Line Islands",
    "local_name": "Line Islands",
    "name_en": null,
    "all_tags": {
      "name": "Line Islands",
      "name:cs": "Liniové ostrovy",
      "boundary": "administrative",
      "timezone": "Pacific/Kiritimati",
      "way_area": "1.61142",
      "wikidata": "Q234796",
      "ISO3166-2": "KI-L",
      "admin_level": "4"
    }
  },
  {
    "osm_id": -7229955,
    "boundary": "administrative",
    "admin_level": 4,
    "parents": "-571178",
    "name": "Phoenix Islands",
    "local_name": "Phoenix Islands",
    "name_en": "Phoenix Islands",
    "all_tags": {
      "name": "Phoenix Islands",
      "name:de": "Phoenixinseln",
      "name:en": "Phoenix Islands",
      "name:es": "Islas Fénix",
      "name:fr": "Îles Phœnix",
      "name:it": "Isole della Fenice",
      "name:pt": "Ilhas Fénix",
      "name:ro": "Insulele Phoenix",
      "boundary": "administrative",
      "timezone": "Pacific/Kanton",
      "way_area": "1.21746",
      "wikidata": "Q271674",
      "ISO3166-2": "KI-P",
      "admin_level": "4"
    }
  }
]
