[
  {
    "osm_id": -2955051,
    "boundary": "administrative",
    "admin_level": 4,
    "parents": "-535790",
    "name": "Grande Comore",
    "local_name": "Ngazidja القمر الكبرى",
    "name_en": "Grande Comore",
    "all_tags": {
      "name": "Ngazidja القمر الكبرى",
      "name:ar": "القمر الكبرى",
      "name:be": "Востраў Нгазіджа",
      "name:ca": "Grande Comore",
      "name:de": "Grande Comore",
      "name:el": "Μεγάλη Κομόρα",
      "name:en": "Grande Comore",
      "name:eo": "Granda Komoro",
      "name:es": "Gran Comora",
      "name:eu": "Komora Handia",
      "name:fr": "Grande Comore",
      "name:fy": "Grut Komoare",
      "name:gl": "Gran Comora",
      "name:hr": "Grande Comore",
      "name:id": "Komoro Besar",
      "name:it": "Grande Comore",
      "name:ja": "グランドコモロ島",
      "name:ko": "그랑드코모르 섬",
      "name:lt": "Grand Komoras",
      "name:nl": "Grande Comore",
      "name:no": "Grande Comore",
      "name:oc": "Granda Comòra",
      "name:pl": "Wielki Komor",
      "name:pt": "Grande Comore",
      "name:ru": "Нгазиджа",
      "name:sv": "Grande Comore",
      "name:sw": "Ngazija",
      "name:zh": "大科摩罗岛",
      "boundary": "administrative",
      "name:ast": "Gran Comora",
      "way_area": "0.084141",
      "wikidata": "Q244978",
      "ISO3166-2": "KM-G",
      "wikipedia": "ar:القمر الكبرى",
      "admin_level": "4"
    }
  },
  {
    "osm_id": -2955050,
    "boundary": "administrative",
    "admin_level": 4,
    "parents": "-535790",
    "name": "Anjouan",
    "local_name": "Nzwani أنجوان",
    "name_en": "Anjouan",
    "all_tags": {
      "name": "Nzwani أنجوان",
      "name:ar": "أنجوان",
      "name:be": "Востраў Анжуан",
      "name:br": "Anjouan",
      "name:ca": "Anjouan",
      "name:cs": "Nzwani",
      "name:de": "Anjouan",
      "name:el": "Ανζουάν",
      "name:en": "Anjouan",
      "name:eo": "Anjuano",
      "name:es": "Anjouan",
      "name:et": "Ndzwani",
      "name:eu": "Anjouan",
      "name:fi": "Anjouan",
      "name:fr": "Anjouan",
      "name:gl": "Anjouan",
      "name:hr": "Anjouan",
      "name:hu": "Anjouan",
      "name:id": "Anjouan",
      "name:it": "Anjouan",
      "name:ja": "アンジュアン島",
      "name:ko": "앙주앙 섬",
      "name:lt": "Anžuanas",
      "name:ms": "Anjouan",
      "name:nl": "Anjouan",
      "name:no": "Anjouan",
      "name:oc": "Anjouan",
      "name:pl": "Anjouan",
      "name:pt": "Anjouan",
      "name:ro": "Anjouan",
      "name:ru": "Анжуан",
      "name:sv": "Anjouan",
      "name:sw": "Anjouan",
      "name:tr": "Anjouan",
      "name:zh": "昂儒昂岛",
      "alt_name": "Ndzuwani",
      "boundary": "administrative",
      "old_name": "Johanna",
      "way_area": "0.0354745",
      "wikidata": "Q231324",
      "ISO3166-2": "KM-A",
      "wikipedia": "ar:أنجوان",
      "admin_level": "4",
      "alt_name:ar": "نزواني",
      "name:zh-Hant": "昂儒昂島"
    }
  },
  {
    "osm_id": -2955018,
    "boundary": "administrative",
    "admin_level": 4,
    "parents": "-535790",
    "name": "Moheli",
    "local_name": "موهيلي Mwali",
    "name_en": "Moheli",
    "all_tags": {
      "name": "موهيلي Mwali",
      "name:ar": "موهيلي",
      "name:be": "Востраў Мвалі",
      "name:br": "Mohéli",
      "name:ca": "Mohéli",
      "name:de": "Mohéli",
      "name:el": "Μοελί",
      "name:en": "Moheli",
      "name:eo": "Mohéli",
      "name:es": "Mohéli",
      "name:eu": "Moheli",
      "name:fr": "Mohéli",
      "name:gl": "Mohéli",
      "name:hr": "Mohéli",
      "name:id": "Mohéli",
      "name:it": "Mohéli",
      "name:ja": "モヘリ島",
      "name:ko": "모엘리 섬",
      "name:lt": "Mohelis",
      "name:nl": "Mohéli",
      "name:no": "Mohéli",
      "name:oc": "Mohéli",
      "name:pl": "Moheli",
      "name:pt": "Mohéli",
      "name:ro": "Mohéli",
      "name:ru": "Мвали",
      "name:sv": "Mohéli",
      "name:sw": "Moheli",
      "name:zh": "莫埃利島",
      "boundary": "administrative",
      "way_area": "0.0174489",
      "wikidata": "Q271797",
      "ISO3166-2": "KM-M",
      "wikipedia": "ar:موهيلي",
      "admin_level": "4",
      "alt_name:ar": "موالي"
    }
  }
]
