[
  {
    "osm_id": -10627378,
    "boundary": "administrative",
    "admin_level": 6,
    "parents": "-356419,-192734",
    "name": "Taedong County",
    "local_name": "대동군",
    "name_en": "Taedong County",
    "all_tags": {
      "name": "대동군",
      "name:en": "Taedong County",
      "name:ja": "大同郡",
      "name:ko": "대동군",
      "name:zh": "大同郡",
      "boundary": "administrative",
      "way_area": "0.0303502",
      "wikidata": "Q196271",
      "admin_level": "6",
      "name:ko-Hani": "大同郡"
    }
  },
  {
    "osm_id": -8484462,
    "boundary": "administrative",
    "admin_level": 6,
    "parents": "-356442,-192734",
    "name": "Jangphung County",
    "local_name": "장풍군",
    "name_en": "Jangphung County",
    "all_tags": {
      "name": "장풍군",
      "name:en": "Jangphung County",
      "name:ja": "長豊郡",
      "name:ko": "장풍군",
      "name:zh": "长丰郡",
      "boundary": "administrative",
      "way_area": "0.056548",
      "wikidata": "Q714495",
      "admin_level": "6",
      "name:ko-Hani": "長豐郡",
      "name:ko-Latn": "Jangphung-gun",
      "name:zh-Hant": "長豐郡"
    }
  },
  {
    "osm_id": -8429874,
    "boundary": "administrative",
    "admin_level": 6,
    "parents": "-356386,-192734",
    "name": "Pujon County",
    "local_name": "부전군",
    "name_en": "Pujon County",
    "all_tags": {
      "name": "부전군",
      "name:en": "Pujon County",
      "name:ja": "赴戦郡",
      "name:ko": "부전군",
      "name:zh": "赴戰郡",
      "boundary": "administrative",
      "way_area": "0.189078",
      "wikidata": "Q715520",
      "admin_level": "6",
      "name:ko-Hani": "赴戰郡",
      "name:ko-Latn": "Pujŏn-gun"
    }
  },
  {
    "osm_id": -8429873,
    "boundary": "administrative",
    "admin_level": 6,
    "parents": "-356379,-192734",
    "name": "Poch'ŏn-gun",
    "local_name": "보천군",
    "name_en": "Poch'ŏn-gun",
    "all_tags": {
      "name": "보천군",
      "name:en": "Poch'ŏn-gun",
      "name:ja": "普天郡",
      "name:ko": "보천군",
      "name:zh": "普天郡",
      "boundary": "administrative",
      "way_area": "0.0841491",
      "admin_level": "6",
      "name:ko-Hani": "普天郡"
    }
  },
  {
    "osm_id": -8429872,
    "boundary": "administrative",
    "admin_level": 6,
    "parents": "-356379,-192734",
    "name": "Paegam-gun",
    "local_name": "백암군",
    "name_en": "Paegam-gun",
    "all_tags": {
      "name": "백암군",
      "name:en": "Paegam-gun",
      "name:ja": "白岩郡",
      "name:ko": "백암군",
      "name:zh": "白岩郡",
      "boundary": "administrative",
      "way_area": "0.244163",
      "admin_level": "6",
      "name:ko-Hani": "白岩郡"
    }
  },
  {
    "osm_id": -8429871,
    "boundary": "administrative",
    "admin_level": 6,
    "parents": "-356379,-192734",
    "name": "Unhŭng-gun",
    "local_name": "운흥군",
    "name_en": "Unhŭng-gun",
    "all_tags": {
      "name": "운흥군",
      "name:en": "Unhŭng-gun",
      "name:ja": "雲興郡",
      "name:ko": "운흥군",
      "name:zh": "雲興郡",
      "boundary": "administrative",
      "way_area": "0.101749",
      "admin_level": "6",
      "name:ko-Hani": "雲興郡"
    }
  },
  {
    "osm_id": -8429870,
    "boundary": "administrative",
    "admin_level": 6,
    "parents": "-356379,-192734",
    "name": "Kapsan-gun",
    "local_name": "갑산군",
    "name_en": "Kapsan-gun",
    "all_tags": {
      "name": "갑산군",
      "name:en": "Kapsan-gun",
      "name:ja": "甲山郡",
      "name:ko": "갑산군",
      "name:zh": "甲山郡",
      "boundary": "administrative",
      "way_area": "0.124197",
      "wikidata": "Q27247700",
      "admin_level": "6",
      "name:ko-Hani": "甲山郡"
    }
  },
  {
    "osm_id": -8429869,
    "boundary": "administrative",
    "admin_level": 6,
    "parents": "-356379,-192734",
    "name": "P'ungsŏ-gun",
    "local_name": "풍서군",
    "name_en": "P'ungsŏ-gun",
    "all_tags": {
      "name": "풍서군",
      "name:en": "P'ungsŏ-gun",
      "name:ja": "豊西郡",
      "name:ko": "풍서군",
      "name:zh": "豐西郡",
      "boundary": "administrative",
      "way_area": "0.194574",
      "admin_level": "6",
      "name:ko-Hani": "豐西郡"
    }
  },
  {
    "osm_id": -8429868,
    "boundary": "administrative",
    "admin_level": 6,
    "parents": "-356379,-192734",
    "name": "Kimhyŏnggwŏn-gun",
    "local_name": "김형권군",
    "name_en": "Kimhyŏnggwŏn-gun",
    "all_tags": {
      "name": "김형권군",
      "name:en": "Kimhyŏnggwŏn-gun",
      "name:ja": "金亨権郡",
      "name:ko": "김형권군",
      "name:zh": "金亨權郡",
      "boundary": "administrative",
      "way_area": "0.135466",
      "wikidata": "Q196242",
      "admin_level": "6",
      "alt_name:ko": "풍산군",
      "name:ko-Hani": "金亨權郡"
    }
  },
  {
    "osm_id": -8429867,
    "boundary": "administrative",
    "admin_level": 6,
    "parents": "-356379,-192734",
    "name": "Samsu-gun",
    "local_name": "삼수군",
    "name_en": "Samsu-gun",
    "all_tags": {
      "name": "삼수군",
      "name:en": "Samsu-gun",
      "name:ja": "三水郡",
      "name:ko": "삼수군",
      "name:zh": "三水郡",
      "boundary": "administrative",
      "way_area": "0.0930284",
      "admin_level": "6",
      "name:ko-Hani": "三水郡"
    }
  },
  {
    "osm_id": -8429866,
    "boundary": "administrative",
    "admin_level": 6,
    "parents": "-356379,-192734",
    "name": "Kimjŏngsuk-gun",
    "local_name": "김정숙군",
    "name_en": "Kimjŏngsuk-gun",
    "all_tags": {
      "name": "김정숙군",
      "name:en": "Kimjŏngsuk-gun",
      "name:ja": "金正淑郡",
      "name:ko": "김정숙군",
      "name:zh": "金正淑郡",
      "boundary": "administrative",
      "way_area": "0.133328",
      "wikidata": "Q213179",
      "admin_level": "6",
      "alt_name:ko": "신파군",
      "name:ko-Hani": "金正淑郡"
    }
  },
  {
    "osm_id": -8429865,
    "boundary": "administrative",
    "admin_level": 6,
    "parents": "-356379,-192734",
    "name": "Kimhyŏngjik-gun",
    "local_name": "김형직군",
    "name_en": "Kimhyŏngjik-gun",
    "all_tags": {
      "name": "김형직군",
      "name:en": "Kimhyŏngjik-gun",
      "name:ja": "金亨稷郡",
      "name:ko": "김형직군",
      "name:zh": "金亨稷郡",
      "boundary": "administrative",
      "way_area": "0.157706",
      "wikidata": "Q27248050",
      "admin_level": "6",
      "alt_name:ko": "후창군",
      "name:ko-Hani": "金亨稷郡"
    }
  },
  {
    "osm_id": -8426166,
    "boundary": "administrative",
    "admin_level": 6,
    "parents": "-3781418,-192734",
    "name": "Kyŏngwŏn-gun",
    "local_name": "경원군",
    "name_en": "Kyŏngwŏn-gun",
    "all_tags": {
      "name": "경원군",
      "name:en": "Kyŏngwŏn-gun",
      "name:ja": "慶源郡",
      "name:ko": "경원군",
      "name:zh": "庆源郡",
      "boundary": "administrative",
      "way_area": "0.100256",
      "wikidata": "Q704826",
      "admin_level": "6",
      "name:ko-Hani": "慶源郡",
      "name:zh-Hant": "慶源郡"
    }
  },
  {
    "osm_id": -8426165,
    "boundary": "administrative",
    "admin_level": 6,
    "parents": "-3781418,-192734",
    "name": "Kyŏnghŭng-gun",
    "local_name": "경흥군",
    "name_en": "Kyŏnghŭng-gun",
    "all_tags": {
      "name": "경흥군",
      "name:en": "Kyŏnghŭng-gun",
      "name:ja": "慶興郡",
      "name:ko": "경흥군",
      "name:zh": "庆兴郡",
      "boundary": "administrative",
      "way_area": "0.0986399",
      "wikidata": "Q251951",
      "admin_level": "6",
      "name:ko-Hani": "慶興郡",
      "name:zh-Hant": "慶興郡"
    }
  },
  {
    "osm_id": -8426164,
    "boundary": "administrative",
    "admin_level": 6,
    "parents": "-3781418,-192734",
    "name": "Puryŏng-gun",
    "local_name": "부령군",
    "name_en": "Puryŏng-gun",
    "all_tags": {
      "name": "부령군",
      "name:en": "Puryŏng-gun",
      "name:ja": "富寧郡",
      "name:ko": "부령군",
      "name:zh": "富宁郡",
      "boundary": "administrative",
      "way_area": "0.0870276",
      "admin_level": "6",
      "name:ko-Hani": "富寧郡",
      "name:zh-Hant": "富寧郡"
    }
  },
  {
    "osm_id": -8426163,
    "boundary": "administrative",
    "admin_level": 6,
    "parents": "-3781418,-192734",
    "name": "Musan-gun",
    "local_name": "무산군",
    "name_en": "Musan-gun",
    "all_tags": {
      "name": "무산군",
      "name:en": "Musan-gun",
      "name:ja": "茂山郡",
      "name:ko": "무산군",
      "name:zh": "茂山郡",
      "boundary": "administrative",
      "way_area": "0.154228",
      "admin_level": "6",
      "name:ko-Hani": "茂山郡"
    }
  },
  {
    "osm_id": -8426162,
    "boundary": "administrative",
    "admin_level": 6,
    "parents": "-3781418,-192734",
    "name": "Yŏnsa-gun",
    "local_name": "연사군",
    "name_en": "Yŏnsa-gun",
    "all_tags": {
      "name": "연사군",
      "name:en": "Yŏnsa-gun",
      "name:ja": "延社郡",
      "name:ko": "연사군",
      "name:zh": "延社郡",
      "boundary": "administrative",
      "way_area": "0.132592",
      "admin_level": "6",
      "name:ko-Hani": "延社郡"
    }
  },
  {
    "osm_id": -8426161,
    "boundary": "administrative",
    "admin_level": 6,
    "parents": "-3781418,-192734",
    "name": "Kyŏngsŏng-gun",
    "local_name": "경성군",
    "name_en": "Kyŏngsŏng-gun",
    "all_tags": {
      "name": "경성군",
      "name:en": "Kyŏngsŏng-gun",
      "name:ja": "鏡城郡",
      "name:ko": "경성군",
      "name:zh": "镜城郡",
      "boundary": "administrative",
      "way_area": "0.149139",
      "wikidata": "Q27247836",
      "admin_level": "6",
      "name:ko-Hani": "鏡城郡",
      "name:zh-Hant": "鏡城郡"
    }
  },
  {
    "osm_id": -8426160,
    "boundary": "administrative",
    "admin_level": 6,
    "parents": "-3781418,-192734",
    "name": "Ŏrang-gun",
    "local_name": "어랑군",
    "name_en": "Ŏrang-gun",
    "all_tags": {
      "name": "어랑군",
      "name:en": "Ŏrang-gun",
      "name:ja": "漁郞郡",
      "name:ko": "어랑군",
      "name:zh": "渔郎郡",
      "boundary": "administrative",
      "way_area": "0.185391",
      "admin_level": "6",
      "name:ko-Hani": "漁郞郡",
      "name:zh-Hant": "漁郞郡"
    }
  },
  {
    "osm_id": -8426159,
    "boundary": "administrative",
    "admin_level": 6,
    "parents": "-3781418,-192734",
    "name": "Myŏnggan-gun",
    "local_name": "명간군",
    "name_en": "Myŏnggan-gun",
    "all_tags": {
      "name": "명간군",
      "name:en": "Myŏnggan-gun",
      "name:ja": "明澗郡",
      "name:ko": "명간군",
      "name:zh": "明涧郡",
      "boundary": "administrative",
      "way_area": "0.138063",
      "admin_level": "6",
      "name:ko-Hani": "明澗郡",
      "name:zh-Hant": "明澗郡"
    }
  },
  {
    "osm_id": -8426158,
    "boundary": "administrative",
    "admin_level": 6,
    "parents": "-3781418,-192734",
    "name": "Kilchu-kun",
    "local_name": "길주군",
    "name_en": "Kilchu-kun",
    "all_tags": {
      "name": "길주군",
      "name:en": "Kilchu-kun",
      "name:ja": "吉州郡",
      "name:ko": "길주군",
      "name:zh": "吉州郡",
      "boundary": "administrative",
      "way_area": "0.110641",
      "wikidata": "Q196062",
      "admin_level": "6",
      "name:ko-Hani": "吉州郡"
    }
  },
  {
    "osm_id": -8426157,
    "boundary": "administrative",
    "admin_level": 6,
    "parents": "-3781418,-192734",
    "name": "Myŏngchŏn-gun",
    "local_name": "명천군",
    "name_en": "Myŏngchŏn-gun",
    "all_tags": {
      "name": "명천군",
      "name:en": "Myŏngchŏn-gun",
      "name:ja": "明川郡",
      "name:ko": "명천군",
      "name:zh": "明川郡",
      "boundary": "administrative",
      "way_area": "0.0969395",
      "wikidata": "Q705454",
      "admin_level": "6",
      "name:ko-Hani": "明川郡"
    }
  },
  {
    "osm_id": -8426156,
    "boundary": "administrative",
    "admin_level": 6,
    "parents": "-3781418,-192734",
    "name": "Hwadae-gun",
    "local_name": "화대군",
    "name_en": "Hwadae-gun",
    "all_tags": {
      "name": "화대군",
      "name:en": "Hwadae-gun",
      "name:ja": "花台郡",
      "name:ko": "화대군",
      "name:zh": "花坮郡",
      "boundary": "administrative",
      "way_area": "0.103888",
      "wikidata": "Q706795",
      "admin_level": "6",
      "name:ko-Hani": "花臺郡"
    }
  },
  {
    "osm_id": -8420622,
    "boundary": "administrative",
    "admin_level": 6,
    "parents": "-3781418,-192734",
    "name": "Hoiryŏng",
    "local_name": "회령시",
    "name_en": "Hoiryŏng",
    "all_tags": {
      "name": "회령시",
      "name:en": "Hoiryŏng",
      "name:ja": "会寧市",
      "name:ko": "회령시",
      "name:ru": "Хверён",
      "name:zh": "会宁市",
      "boundary": "administrative",
      "way_area": "0.19109",
      "wikidata": "Q27248042",
      "admin_level": "6",
      "name:ko-Hani": "會寧市",
      "name:zh-Hant": "會寧市"
    }
  },
  {
    "osm_id": -8420621,
    "boundary": "administrative",
    "admin_level": 6,
    "parents": "-3781418,-192734",
    "name": "Onsŏng-gun",
    "local_name": "온성군",
    "name_en": "Onsŏng-gun",
    "all_tags": {
      "name": "온성군",
      "name:en": "Onsŏng-gun",
      "name:ja": "穏城郡",
      "name:ko": "온성군",
      "name:zh": "穩城郡",
      "boundary": "administrative",
      "way_area": "0.0794592",
      "wikidata": "Q705188",
      "admin_level": "6",
      "name:ko-Hani": "穩城郡"
    }
  },
  {
    "osm_id": -8414553,
    "boundary": "administrative",
    "admin_level": 6,
    "parents": "-356386,-192734",
    "name": "Yonggwang County",
    "local_name": "영광군",
    "name_en": "Yonggwang County",
    "all_tags": {
      "name": "영광군",
      "name:en": "Yonggwang County",
      "name:ja": "栄光郡",
      "name:ko": "영광군",
      "name:uk": "Йонґван",
      "name:zh": "榮光郡",
      "boundary": "administrative",
      "way_area": "0.0815655",
      "admin_level": "6",
      "alt_name:ko": "오로군",
      "name:ko-Hani": "榮光郡",
      "name:ko-Latn": "Yŏnggwang-gun"
    }
  },
  {
    "osm_id": -8414552,
    "boundary": "administrative",
    "admin_level": 6,
    "parents": "-356386,-192734",
    "name": "Sinhung County",
    "local_name": "신흥군",
    "name_en": "Sinhung County",
    "all_tags": {
      "name": "신흥군",
      "name:en": "Sinhung County",
      "name:ja": "新興郡",
      "name:ko": "신흥군",
      "name:zh": "新興郡",
      "boundary": "administrative",
      "way_area": "0.119671",
      "admin_level": "6",
      "name:ko-Hani": "新興郡",
      "name:ko-Latn": "Sinhŭng-gun"
    }
  },
  {
    "osm_id": -8414550,
    "boundary": "administrative",
    "admin_level": 6,
    "parents": "-356386,-192734",
    "name": "Changjin County",
    "local_name": "장진군",
    "name_en": "Changjin County",
    "all_tags": {
      "name": "장진군",
      "name:en": "Changjin County",
      "name:ja": "長津郡",
      "name:ko": "장진군",
      "name:zh": "長津郡",
      "boundary": "administrative",
      "way_area": "0.199856",
      "wikidata": "Q702960",
      "admin_level": "6",
      "name:ko-Hani": "長津郡",
      "name:ko-Latn": "Changjin-gun"
    }
  },
  {
    "osm_id": -8413387,
    "boundary": "administrative",
    "admin_level": 6,
    "parents": "-356386,-192734",
    "name": "Riwon COunty",
    "local_name": "리원군",
    "name_en": "Riwon COunty",
    "all_tags": {
      "name": "리원군",
      "name:en": "Riwon COunty",
      "name:ja": "利原郡",
      "name:ko": "리원군",
      "name:zh": "利原郡",
      "boundary": "administrative",
      "way_area": "0.0886327",
      "wikidata": "Q27248113",
      "admin_level": "6",
      "name:ko-Hani": "利原郡",
      "name:ko-Latn": "Riwŏn-gun"
    }
  },
  {
    "osm_id": -8413386,
    "boundary": "administrative",
    "admin_level": 6,
    "parents": "-356386,-192734",
    "name": "Toksong County",
    "local_name": "덕성군",
    "name_en": "Toksong County",
    "all_tags": {
      "name": "덕성군",
      "name:en": "Toksong County",
      "name:ja": "徳城郡",
      "name:ko": "덕성군",
      "name:zh": "德城郡",
      "boundary": "administrative",
      "way_area": "0.167114",
      "admin_level": "6",
      "name:ko-Hani": "德城郡",
      "name:ko-Latn": "Tŏksŏng-gun"
    }
  },
  {
    "osm_id": -8412739,
    "boundary": "administrative",
    "admin_level": 6,
    "parents": "-356386,-192734",
    "name": "Hongwon County",
    "local_name": "홍원군",
    "name_en": "Hongwon County",
    "all_tags": {
      "name": "홍원군",
      "name:en": "Hongwon County",
      "name:ja": "洪原郡",
      "name:ko": "홍원군",
      "name:zh": "洪原郡",
      "boundary": "administrative",
      "way_area": "0.113989",
      "wikidata": "Q27248045",
      "admin_level": "6",
      "name:ko-Hani": "洪原郡",
      "name:ko-Latn": "Hongwŏn-gun"
    }
  },
  {
    "osm_id": -8412738,
    "boundary": "administrative",
    "admin_level": 6,
    "parents": "-356386,-192734",
    "name": "Kŭmho",
    "local_name": "금호지구",
    "name_en": "Kŭmho",
    "all_tags": {
      "name": "금호지구",
      "name:en": "Kŭmho",
      "name:ja": "琴湖地区",
      "name:ko": "금호지구",
      "name:zh": "琴湖地區",
      "boundary": "administrative",
      "way_area": "0.030908",
      "wikidata": "Q196225",
      "admin_level": "6",
      "name:ko-Hani": "琴湖地區"
    }
  },
  {
    "osm_id": -8412737,
    "boundary": "administrative",
    "admin_level": 6,
    "parents": "-356386,-192734",
    "name": "Pukchong County",
    "local_name": "북청군",
    "name_en": "Pukchong County",
    "all_tags": {
      "name": "북청군",
      "name:en": "Pukchong County",
      "name:ja": "北青郡",
      "name:ko": "북청군",
      "name:zh": "北青郡",
      "boundary": "administrative",
      "way_area": "0.0878616",
      "admin_level": "6",
      "name:ko-Hani": "北靑郡",
      "name:ko-Latn": "Pukch'ŏng-gun"
    }
  },
  {
    "osm_id": -8412736,
    "boundary": "administrative",
    "admin_level": 6,
    "parents": "-356386,-192734",
    "name": "Sinpho",
    "local_name": "신포시",
    "name_en": "Sinpho",
    "all_tags": {
      "name": "신포시",
      "name:de": "Sinpo",
      "name:en": "Sinpho",
      "name:es": "Sinpo",
      "name:et": "Sinp'o",
      "name:fr": "Sinpo",
      "name:ja": "新浦",
      "name:ko": "신포시",
      "name:ru": "Синпхо",
      "name:zh": "新浦市",
      "boundary": "administrative",
      "way_area": "0.0261504",
      "admin_level": "6",
      "name:ko-Hani": "新浦市"
    }
  },
  {
    "osm_id": -8408286,
    "boundary": "administrative",
    "admin_level": 6,
    "parents": "-356386,-192734",
    "name": "Yodok County",
    "local_name": "요덕군",
    "name_en": "Yodok County",
    "all_tags": {
      "name": "요덕군",
      "name:en": "Yodok County",
      "name:ja": "耀徳郡",
      "name:ko": "요덕군",
      "name:zh": "耀德郡",
      "boundary": "administrative",
      "way_area": "0.137707",
      "wikidata": "Q714850",
      "admin_level": "6",
      "name:ko-Hani": "耀德郡",
      "name:ko-Latn": "Yodŏk-gun"
    }
  },
  {
    "osm_id": -8408285,
    "boundary": "administrative",
    "admin_level": 6,
    "parents": "-356386,-192734",
    "name": "Chongpyong County",
    "local_name": "정평군",
    "name_en": "Chongpyong County",
    "all_tags": {
      "name": "정평군",
      "name:en": "Chongpyong County",
      "name:ja": "定平郡",
      "name:ko": "정평군",
      "name:zh": "定平郡",
      "boundary": "administrative",
      "way_area": "0.100431",
      "wikidata": "Q715714",
      "admin_level": "6",
      "name:ko-Hani": "定平郡",
      "name:ko-Latn": "Chŏngp'yŏng-gun"
    }
  },
  {
    "osm_id": -8408284,
    "boundary": "administrative",
    "admin_level": 6,
    "parents": "-356386,-192734",
    "name": "Hamju County",
    "local_name": "함주군",
    "name_en": "Hamju County",
    "all_tags": {
      "name": "함주군",
      "name:en": "Hamju County",
      "name:ja": "咸州郡",
      "name:ko": "함주군",
      "name:zh": "咸州郡",
      "boundary": "administrative",
      "way_area": "0.0748074",
      "wikidata": "Q27245591",
      "admin_level": "6",
      "name:ko-Hani": "咸州郡",
      "name:ko-Latn": "Hamju-gun"
    }
  },
  {
    "osm_id": -8408283,
    "boundary": "administrative",
    "admin_level": 6,
    "parents": "-356386,-192734",
    "name": "Ragwon County",
    "local_name": "락원군",
    "name_en": "Ragwon County",
    "all_tags": {
      "name": "락원군",
      "name:en": "Ragwon County",
      "name:ja": "楽園郡",
      "name:ko": "락원군",
      "name:zh": "樂園郡",
      "boundary": "administrative",
      "way_area": "0.0433358",
      "admin_level": "6",
      "alt_name:ko": "퇴조",
      "name:ko-Hani": "樂園郡",
      "name:ko-Latn": "Ragwŏn-gun"
    }
  },
  {
    "osm_id": -8407677,
    "boundary": "administrative",
    "admin_level": 6,
    "parents": "-356386,-192734",
    "name": "Kowon County",
    "local_name": "고원군",
    "name_en": "Kowon County",
    "all_tags": {
      "name": "고원군",
      "name:en": "Kowon County",
      "name:ja": "高原郡",
      "name:ko": "고원군",
      "name:zh": "高原郡",
      "boundary": "administrative",
      "way_area": "0.0268768",
      "wikidata": "Q27245317",
      "admin_level": "6",
      "name:ko-Hani": "高原郡",
      "name:ko-Latn": "Kowŏn-gun"
    }
  },
  {
    "osm_id": -8407676,
    "boundary": "administrative",
    "admin_level": 6,
    "parents": "-356386,-192734",
    "name": "Kumya County",
    "local_name": "금야군",
    "name_en": "Kumya County",
    "all_tags": {
      "name": "금야군",
      "name:en": "Kumya County",
      "name:ja": "金野郡",
      "name:ko": "금야군",
      "name:zh": "金野郡",
      "boundary": "administrative",
      "way_area": "0.131037",
      "wikidata": "Q706067",
      "admin_level": "6",
      "name:ko-Hani": "金野郡",
      "name:ko-Latn": "Kŭmya-gun"
    }
  },
  {
    "osm_id": -8407675,
    "boundary": "administrative",
    "admin_level": 6,
    "parents": "-356386,-192734",
    "name": "Sudong",
    "local_name": "수동군",
    "name_en": "Sudong",
    "all_tags": {
      "name": "수동군",
      "name:en": "Sudong",
      "name:ko": "수동군",
      "boundary": "administrative",
      "way_area": "0.0819655",
      "admin_level": "6",
      "name:ko-Hani": "水洞郡"
    }
  },
  {
    "osm_id": -8407289,
    "boundary": "administrative",
    "admin_level": 6,
    "parents": "-356386,-192734",
    "name": "Tanchon",
    "local_name": "단천시",
    "name_en": "Tanchon",
    "all_tags": {
      "name": "단천시",
      "name:en": "Tanchon",
      "name:ja": "端川市",
      "name:ko": "단천시",
      "name:zh": "端川市",
      "boundary": "administrative",
      "way_area": "0.276434",
      "admin_level": "6",
      "name:ko-Hani": "端川市",
      "name:ko-Latn": "Tanchŏn-si"
    }
  },
  {
    "osm_id": -8407288,
    "boundary": "administrative",
    "admin_level": 6,
    "parents": "-356386,-192734",
    "name": "Hochon County",
    "local_name": "허천군",
    "name_en": "Hochon County",
    "all_tags": {
      "name": "허천군",
      "name:en": "Hochon County",
      "name:ja": "虚川郡",
      "name:ko": "허천군",
      "name:zh": "虛川郡",
      "boundary": "administrative",
      "way_area": "0.172541",
      "wikidata": "Q704943",
      "admin_level": "6",
      "name:ko-Hani": "虛川郡",
      "name:ko-Latn": "Hŏchŏn-gun"
    }
  },
  {
    "osm_id": -8400380,
    "boundary": "administrative",
    "admin_level": 6,
    "parents": "-3781418,-192734",
    "name": "Chŏngjin",
    "local_name": "청진시",
    "name_en": "Chŏngjin",
    "all_tags": {
      "name": "청진시",
      "name:cs": "Čchongdžin",
      "name:el": "Τσόνγκτζιν",
      "name:en": "Chŏngjin",
      "name:eo": "Ĉongĵino",
      "name:ja": "清津市",
      "name:ko": "청진시",
      "name:ru": "Чхонджин",
      "name:zh": "清津市",
      "boundary": "administrative",
      "way_area": "0.245693",
      "wikidata": "Q109336",
      "wikipedia": "ko:청진시",
      "admin_level": "6",
      "name:ko-Hani": "淸津市"
    }
  },
  {
    "osm_id": -8400379,
    "boundary": "administrative",
    "admin_level": 6,
    "parents": "-356386,-192734",
    "name": "Hamhung",
    "local_name": "함흥시",
    "name_en": "Hamhung",
    "all_tags": {
      "name": "함흥시",
      "name:en": "Hamhung",
      "name:ja": "咸興市",
      "name:ko": "함흥시",
      "name:zh": "咸興市",
      "boundary": "administrative",
      "way_area": "0.0894031",
      "wikidata": "Q109356",
      "admin_level": "6",
      "name:ko-Hani": "咸興市"
    }
  },
  {
    "osm_id": -8400244,
    "boundary": "administrative",
    "admin_level": 6,
    "parents": "-3781418,-192734",
    "name": "Kimch’aek",
    "local_name": "김책시",
    "name_en": "Kimch’aek",
    "all_tags": {
      "name": "김책시",
      "name:el": "Γκίμτσεκ",
      "name:en": "Kimch’aek",
      "name:eo": "Kimĉekurbo",
      "name:ja": "金策市",
      "name:ko": "김책시",
      "name:zh": "金策市",
      "boundary": "administrative",
      "way_area": "0.126791",
      "wikidata": "Q27247721",
      "admin_level": "6",
      "alt_name:ko": "성진시",
      "name:ko-Hani": "金策市"
    }
  },
  {
    "osm_id": -8323973,
    "boundary": "administrative",
    "admin_level": 6,
    "parents": "-356535,-192734",
    "name": "Pyonggang County",
    "local_name": "평강군",
    "name_en": "Pyonggang County",
    "all_tags": {
      "name": "평강군",
      "name:en": "Pyonggang County",
      "name:ja": "平康郡",
      "name:ko": "평강군",
      "name:ru": "уезд Пхёнган",
      "name:uk": "Пгьонґан",
      "name:zh": "平康郡",
      "boundary": "administrative",
      "way_area": "0.0608304",
      "wikidata": "Q487084",
      "admin_level": "6",
      "name:ko-Hani": "平康郡",
      "sorting_name:ru": "Пхёнган уезд"
    }
  },
  {
    "osm_id": -8323972,
    "boundary": "administrative",
    "admin_level": 6,
    "parents": "-356535,-192734",
    "name": "Kimhwa County",
    "local_name": "김화군",
    "name_en": "Kimhwa County",
    "all_tags": {
      "name": "김화군",
      "name:en": "Kimhwa County",
      "name:ja": "金化郡",
      "name:ko": "김화군",
      "name:ru": "уезд Кимхва",
      "name:zh": "金化郡",
      "boundary": "administrative",
      "way_area": "0.0850121",
      "wikidata": "Q485618",
      "wikipedia": "ko:김화군",
      "admin_level": "6",
      "name:ko-Hani": "金化郡",
      "sorting_name:ru": "Кимхва уезд"
    }
  },
  {
    "osm_id": -8323804,
    "boundary": "administrative",
    "admin_level": 6,
    "parents": "-356535,-192734",
    "name": "Sepo County",
    "local_name": "세포군",
    "name_en": "Sepo County",
    "all_tags": {
      "name": "세포군",
      "name:en": "Sepo County",
      "name:fa": "سپو",
      "name:ja": "洗浦郡",
      "name:ko": "세포군",
      "name:no": "Sepo",
      "name:pl": "Sep'o",
      "name:ru": "уезд Сепхо",
      "name:vi": "Sepo",
      "name:zh": "洗浦郡",
      "boundary": "administrative",
      "way_area": "0.115739",
      "wikidata": "Q486747",
      "wikipedia": "ko:세포군",
      "admin_level": "6",
      "name:ko-Hani": "洗浦郡",
      "sorting_name:ru": "Сепхо уезд"
    }
  },
  {
    "osm_id": -8323448,
    "boundary": "administrative",
    "admin_level": 6,
    "parents": "-356535,-192734",
    "name": "Chorwon County",
    "local_name": "철원군",
    "name_en": "Chorwon County",
    "all_tags": {
      "name": "철원군",
      "name:en": "Chorwon County",
      "name:ja": "鉄原郡",
      "name:ko": "철원군",
      "name:ru": "уезд Чхорвон",
      "name:zh": "铁原郡",
      "boundary": "administrative",
      "way_area": "0.0574568",
      "wikidata": "Q490109",
      "admin_level": "6",
      "name:ko-Hani": "鐵原郡",
      "name:zh-Hant": "鐵原郡",
      "sorting_name:ru": "Чхорвон уезд"
    }
  },
  {
    "osm_id": -8323199,
    "boundary": "administrative",
    "admin_level": 6,
    "parents": "-356535,-192734",
    "name": "Ichon County",
    "local_name": "이천군",
    "name_en": "Ichon County",
    "all_tags": {
      "name": "이천군",
      "name:en": "Ichon County",
      "name:ja": "伊川郡",
      "name:ko": "이천군",
      "name:ru": "уезд Ичхон",
      "name:zh": "伊川郡",
      "boundary": "administrative",
      "way_area": "0.0622996",
      "wikidata": "Q199348",
      "admin_level": "6",
      "name:ko-Hani": "伊川郡",
      "sorting_name:ru": "Ичхон уезд"
    }
  },
  {
    "osm_id": -8322192,
    "boundary": "administrative",
    "admin_level": 6,
    "parents": "-356535,-192734",
    "name": "Pangyo County",
    "local_name": "판교군",
    "name_en": "Pangyo County",
    "all_tags": {
      "name": "판교군",
      "name:en": "Pangyo County",
      "name:fa": "پانگیو",
      "name:ja": "板橋郡",
      "name:ko": "판교군",
      "name:no": "Pankyo",
      "name:pl": "P'an'gyo",
      "name:ru": "уезд Пхангё",
      "name:vi": "Pankyo",
      "name:zh": "板橋郡",
      "boundary": "administrative",
      "way_area": "0.0861303",
      "wikidata": "Q486770",
      "wikipedia": "ko:판교군",
      "admin_level": "6",
      "name:ko-Hani": "板橋郡",
      "sorting_name:ru": "Пхангё уезд"
    }
  },
  {
    "osm_id": -8321389,
    "boundary": "administrative",
    "admin_level": 6,
    "parents": "-356535,-192734",
    "name": "Poptong County",
    "local_name": "법동군",
    "name_en": "Poptong County",
    "all_tags": {
      "name": "법동군",
      "name:en": "Poptong County",
      "name:fa": "پاپتانگ",
      "name:ja": "法洞郡",
      "name:ko": "법동군",
      "name:no": "Poptong",
      "name:pl": "Pŏptong",
      "name:ru": "уезд Поптон",
      "name:vi": "Poptong",
      "name:zh": "法洞郡",
      "boundary": "administrative",
      "way_area": "0.088207",
      "wikidata": "Q486734",
      "wikipedia": "ko:법동군",
      "admin_level": "6",
      "name:ko-Hani": "法洞郡",
      "sorting_name:ru": "Поптон уезд"
    }
  },
  {
    "osm_id": -8320618,
    "boundary": "administrative",
    "admin_level": 6,
    "parents": "-356535,-192734",
    "name": "Chonnae County",
    "local_name": "천내군",
    "name_en": "Chonnae County",
    "all_tags": {
      "name": "천내군",
      "name:en": "Chonnae County",
      "name:ja": "川内郡",
      "name:ko": "천내군",
      "name:ru": "уезд Чхоннэ",
      "name:zh": "川內郡",
      "boundary": "administrative",
      "way_area": "0.0397371",
      "wikidata": "Q486742",
      "admin_level": "6",
      "name:ko-Hani": "川內郡",
      "sorting_name:ru": "Чхоннэ уезд"
    }
  },
  {
    "osm_id": -8319793,
    "boundary": "administrative",
    "admin_level": 6,
    "parents": "-356535,-192734",
    "name": "Munchon",
    "local_name": "문천시",
    "name_en": "Munchon",
    "all_tags": {
      "name": "문천시",
      "name:en": "Munchon",
      "name:ja": "文川市",
      "name:ko": "문천시",
      "name:ru": "Мунчхон",
      "name:zh": "文川市",
      "boundary": "administrative",
      "way_area": "0.0403967",
      "wikidata": "Q494606",
      "admin_level": "6",
      "name:ko-Hani": "文川市"
    }
  },
  {
    "osm_id": -8318609,
    "boundary": "administrative",
    "admin_level": 6,
    "parents": "-356535,-192734",
    "name": "Wonsan",
    "local_name": "원산시",
    "name_en": "Wonsan",
    "all_tags": {
      "name": "원산시",
      "name:cs": "Wonsan",
      "name:en": "Wonsan",
      "name:eo": "Vonsano",
      "name:ja": "元山市",
      "name:ko": "원산시",
      "name:ru": "Вонсан",
      "name:zh": "元山市",
      "boundary": "administrative",
      "way_area": "0.0524149",
      "wikidata": "Q109374",
      "admin_level": "6",
      "name:ko-Hani": "元山市"
    }
  },
  {
    "osm_id": -8315133,
    "boundary": "administrative",
    "admin_level": 6,
    "parents": "-356535,-192734",
    "name": "Hoeyang County",
    "local_name": "회양군",
    "name_en": "Hoeyang County",
    "all_tags": {
      "name": "회양군",
      "name:en": "Hoeyang County",
      "name:ja": "淮陽郡",
      "name:ko": "회양군",
      "name:ru": "уезд Хвеян",
      "name:zh": "淮陽郡",
      "boundary": "administrative",
      "way_area": "0.0618524",
      "wikidata": "Q490927",
      "admin_level": "6",
      "name:ko-Hani": "淮陽郡",
      "sorting_name:ru": "Хвеян уезд"
    }
  },
  {
    "osm_id": -8314828,
    "boundary": "administrative",
    "admin_level": 6,
    "parents": "-356535,-192734",
    "name": "Changdo County",
    "local_name": "창도군",
    "name_en": "Changdo County",
    "all_tags": {
      "name": "창도군",
      "name:en": "Changdo County",
      "name:ja": "昌道郡",
      "name:ko": "창도군",
      "name:ru": "уезд Чхандо",
      "name:zh": "昌道郡",
      "boundary": "administrative",
      "way_area": "0.0544081",
      "wikidata": "Q486779",
      "admin_level": "6",
      "name:ko-Hani": "昌道郡",
      "sorting_name:ru": "Чхандо уезд"
    }
  },
  {
    "osm_id": -8313358,
    "boundary": "administrative",
    "admin_level": 6,
    "parents": "-356535,-192734",
    "name": "Tongchon County",
    "local_name": "통천군",
    "name_en": "Tongchon County",
    "all_tags": {
      "name": "통천군",
      "name:en": "Tongchon County",
      "name:ja": "通川郡",
      "name:ko": "통천군",
      "name:ru": "уезд Тхончхон",
      "name:zh": "通川郡",
      "boundary": "administrative",
      "way_area": "0.087166",
      "wikidata": "Q487587",
      "admin_level": "6",
      "name:ko-Hani": "通川郡",
      "sorting_name:ru": "Тхончхон уезд"
    }
  },
  {
    "osm_id": -7117363,
    "boundary": "administrative",
    "admin_level": 6,
    "parents": "-356535,-192734",
    "name": "Anbyon County",
    "local_name": "안변군",
    "name_en": "Anbyon County",
    "all_tags": {
      "name": "안변군",
      "name:en": "Anbyon County",
      "name:ja": "安辺郡",
      "name:ko": "안변군",
      "name:ru": "уезд Анбён",
      "name:zh": "安邊郡",
      "boundary": "administrative",
      "way_area": "0.0579823",
      "wikidata": "Q484890",
      "admin_level": "6",
      "name:ko-Hani": "安邊郡",
      "sorting_name:ru": "Анбён уезд"
    }
  },
  {
    "osm_id": -6968705,
    "boundary": "administrative",
    "admin_level": 6,
    "parents": "-356379,-192734",
    "name": "Taehongdan County",
    "local_name": "대홍단군",
    "name_en": "Taehongdan County",
    "all_tags": {
      "name": "대홍단군",
      "name:en": "Taehongdan County",
      "name:ja": "大紅湍郡",
      "name:ko": "대홍단군",
      "name:ru": "уезд Тэхондан",
      "name:zh": "大红湍郡",
      "boundary": "administrative",
      "way_area": "0.058023",
      "wikidata": "Q703185",
      "admin_level": "6",
      "name:ko-Hani": "大紅湍郡",
      "name:zh-Hant": "大紅湍郡"
    }
  },
  {
    "osm_id": -6648083,
    "boundary": "administrative",
    "admin_level": 4,
    "parents": "-192734",
    "name": "Rason",
    "local_name": "라선시",
    "name_en": "Rason",
    "all_tags": {
      "name": "라선시",
      "name:ar": "راسون",
      "name:cs": "Rason",
      "name:de": "Rason",
      "name:el": "Ράσον",
      "name:en": "Rason",
      "name:es": "Rasŏn",
      "name:fr": "Rasŏn",
      "name:ja": "羅先市",
      "name:ko": "라선시",
      "name:lt": "Rasonas",
      "name:ru": "Насон",
      "name:uk": "Насон",
      "name:vi": "La Thiên",
      "name:zh": "罗先市",
      "alt_name": "나선특별시",
      "boundary": "administrative",
      "int_name": "Rason",
      "way_area": "0.234291",
      "wikidata": "Q221734",
      "ISO3166-2": "KP-13",
      "wikipedia": "en:Rason",
      "population": "196954",
      "short_name": "나선",
      "admin_level": "4",
      "alt_name:ko": "나선시",
      "alt_name:ru": "Расон",
      "old_name:cs": "Radžin-Sonbong",
      "old_name:ru": "Унги",
      "name:ko-Hani": "羅先市",
      "name:ko-Latn": "Rasŏn",
      "name:zh-Hant": "羅先市",
      "official_name": "라선특별시",
      "short_name:ko": "라선",
      "population:date": "2008",
      "official_name:ja": "羅先特別市",
      "official_name:ko": "라선특별시",
      "official_name:zh": "罗先特别市",
      "official_name:ko-Hani": "羅先特別市",
      "official_name:ko-Latn": "Rasŏn T'ŭkpyŏlsi",
      "official_name:zh-Hant": "羅先特別市"
    }
  },
  {
    "osm_id": -6332276,
    "boundary": "administrative",
    "admin_level": 6,
    "parents": "-356379,-192734",
    "name": "Hyesan",
    "local_name": "혜산시",
    "name_en": "Hyesan",
    "all_tags": {
      "name": "혜산시",
      "name:cs": "Hjesan",
      "name:en": "Hyesan",
      "name:ja": "恵山市",
      "name:ko": "혜산시",
      "name:ru": "Хесан",
      "name:zh": "惠山市",
      "boundary": "administrative",
      "way_area": "0.0314212",
      "wikidata": "Q489829",
      "admin_level": "6",
      "name:ko-Hani": "惠山市"
    }
  },
  {
    "osm_id": -6125006,
    "boundary": "administrative",
    "admin_level": 6,
    "parents": "-356379,-192734",
    "name": "Samjiyon",
    "local_name": "삼지연시",
    "name_en": "Samjiyon",
    "all_tags": {
      "name": "삼지연시",
      "name:en": "Samjiyon",
      "name:ja": "三池淵市",
      "name:ko": "삼지연시",
      "name:ru": "Самджиён",
      "name:zh": "三池渊市",
      "boundary": "administrative",
      "way_area": "0.142346",
      "wikidata": "Q700618",
      "admin_level": "6",
      "name:ko-Hani": "三池淵市"
    }
  },
  {
    "osm_id": -5974099,
    "boundary": "administrative",
    "admin_level": 6,
    "parents": "-356535,-192734",
    "name": "Kosan County",
    "local_name": "고산군",
    "name_en": "Kosan County",
    "all_tags": {
      "name": "고산군",
      "name:en": "Kosan County",
      "name:ja": "高山郡",
      "name:ko": "고산군",
      "name:ru": "уезд Косан",
      "name:zh": "高山郡",
      "boundary": "administrative",
      "way_area": "0.0447013",
      "wikidata": "Q486773",
      "admin_level": "6",
      "name:ko-Hani": "高山郡",
      "sorting_name:ru": "Косан уезд"
    }
  },
  {
    "osm_id": -5488132,
    "boundary": "administrative",
    "admin_level": 6,
    "parents": "-356535,-192734",
    "name": "Kosong County",
    "local_name": "고성군",
    "name_en": "Kosong County",
    "all_tags": {
      "name": "고성군",
      "name:en": "Kosong County",
      "name:ja": "高城郡",
      "name:ko": "고성군",
      "name:ru": "уезд Косон",
      "name:zh": "高城郡",
      "boundary": "administrative",
      "way_area": "0.111941",
      "wikidata": "Q486783",
      "admin_level": "6",
      "name:ko-Hani": "高城郡",
      "sorting_name:ru": "Косон уезд"
    }
  },
  {
    "osm_id": -5486618,
    "boundary": "administrative",
    "admin_level": 6,
    "parents": "-356535,-192734",
    "name": "Kumgang County",
    "local_name": "금강군",
    "name_en": "Kumgang County",
    "all_tags": {
      "name": "금강군",
      "name:en": "Kumgang County",
      "name:ja": "金剛郡",
      "name:ko": "금강군",
      "name:ru": "уезд Кымган",
      "name:zh": "金剛郡",
      "boundary": "administrative",
      "way_area": "0.130032",
      "wikidata": "Q487097",
      "admin_level": "6",
      "name:ko-Hani": "金剛郡",
      "sorting_name:ru": "Кымган уезд"
    }
  },
  {
    "osm_id": -5475717,
    "boundary": "administrative",
    "admin_level": 6,
    "parents": "-356392,-192734",
    "name": "Chunggang County",
    "local_name": "중강군",
    "name_en": "Chunggang County",
    "all_tags": {
      "name": "중강군",
      "name:en": "Chunggang County",
      "name:ja": "中江郡",
      "name:ko": "중강군",
      "name:ru": "уезд Чунган",
      "name:zh": "中江郡",
      "boundary": "administrative",
      "way_area": "0.0704104",
      "wikidata": "Q430493",
      "admin_level": "6",
      "name:ko-Hani": "中江郡"
    }
  },
  {
    "osm_id": -5475716,
    "boundary": "administrative",
    "admin_level": 6,
    "parents": "-356392,-192734",
    "name": "Chonchon County",
    "local_name": "전천군",
    "name_en": "Chonchon County",
    "all_tags": {
      "name": "전천군",
      "name:en": "Chonchon County",
      "name:ja": "前川郡",
      "name:ko": "전천군",
      "name:ru": "уезд Чончхон",
      "name:zh": "前川郡",
      "boundary": "administrative",
      "way_area": "0.105401",
      "wikidata": "Q707402",
      "admin_level": "6",
      "name:ko-Hani": "前川郡"
    }
  },
  {
    "osm_id": -5475715,
    "boundary": "administrative",
    "admin_level": 6,
    "parents": "-356392,-192734",
    "name": "Chasong County",
    "local_name": "자성군",
    "name_en": "Chasong County",
    "all_tags": {
      "name": "자성군",
      "name:en": "Chasong County",
      "name:ja": "慈城郡",
      "name:ko": "자성군",
      "name:ru": "уезд Часон",
      "name:zh": "慈城郡",
      "boundary": "administrative",
      "way_area": "0.0931372",
      "wikidata": "Q698477",
      "admin_level": "6",
      "name:ko-Hani": "慈城郡"
    }
  },
  {
    "osm_id": -5475714,
    "boundary": "administrative",
    "admin_level": 6,
    "parents": "-356392,-192734",
    "name": "Changgang County",
    "local_name": "장강군",
    "name_en": "Changgang County",
    "all_tags": {
      "name": "장강군",
      "name:en": "Changgang County",
      "name:ja": "長江郡",
      "name:ko": "장강군",
      "name:ru": "уезд Чанган",
      "name:zh": "長江郡",
      "boundary": "administrative",
      "way_area": "0.0769609",
      "wikidata": "Q707395",
      "admin_level": "6",
      "name:ko-Hani": "長江郡"
    }
  },
  {
    "osm_id": -5475713,
    "boundary": "administrative",
    "admin_level": 6,
    "parents": "-356392,-192734",
    "name": "Hwapyong County",
    "local_name": "화평군",
    "name_en": "Hwapyong County",
    "all_tags": {
      "name": "화평군",
      "name:en": "Hwapyong County",
      "name:ja": "和坪郡",
      "name:ko": "화평군",
      "name:ru": "уезд Хвапхён",
      "name:zh": "和坪郡",
      "boundary": "administrative",
      "way_area": "0.132381",
      "wikidata": "Q705466",
      "admin_level": "6",
      "name:ko-Hani": "和坪郡"
    }
  },
  {
    "osm_id": -5475712,
    "boundary": "administrative",
    "admin_level": 6,
    "parents": "-356392,-192734",
    "name": "Tongsin County",
    "local_name": "동신군",
    "name_en": "Tongsin County",
    "all_tags": {
      "name": "동신군",
      "name:en": "Tongsin County",
      "name:ja": "東新郡",
      "name:ko": "동신군",
      "name:ru": "уезд Тонсин",
      "name:zh": "東新郡",
      "boundary": "administrative",
      "way_area": "0.129258",
      "wikidata": "Q705471",
      "admin_level": "6",
      "name:ko-Hani": "東新郡"
    }
  },
  {
    "osm_id": -5475711,
    "boundary": "administrative",
    "admin_level": 6,
    "parents": "-356392,-192734",
    "name": "Songgan County",
    "local_name": "성간군",
    "name_en": "Songgan County",
    "all_tags": {
      "name": "성간군",
      "name:en": "Songgan County",
      "name:ja": "城干郡",
      "name:ko": "성간군",
      "name:ru": "уезд Сонган",
      "name:zh": "城干郡",
      "boundary": "administrative",
      "way_area": "0.101397",
      "wikidata": "Q705326",
      "admin_level": "6",
      "name:ko-Hani": "城干郡"
    }
  },
  {
    "osm_id": -5475710,
    "boundary": "administrative",
    "admin_level": 6,
    "parents": "-356392,-192734",
    "name": "Sijung County",
    "local_name": "시중군",
    "name_en": "Sijung County",
    "all_tags": {
      "name": "시중군",
      "name:en": "Sijung County",
      "name:ja": "時中郡",
      "name:ko": "시중군",
      "name:ru": "уезд Сиджун",
      "name:zh": "時中郡",
      "boundary": "administrative",
      "way_area": "0.0524827",
      "wikidata": "Q705461",
      "admin_level": "6",
      "name:ko-Hani": "時中郡"
    }
  },
  {
    "osm_id": -5475709,
    "boundary": "administrative",
    "admin_level": 6,
    "parents": "-356392,-192734",
    "name": "Rangnim County",
    "local_name": "랑림군",
    "name_en": "Rangnim County",
    "all_tags": {
      "name": "랑림군",
      "name:en": "Rangnim County",
      "name:ja": "狼林郡",
      "name:ko": "랑림군",
      "name:ru": "уезд Нанним",
      "name:zh": "狼林郡",
      "boundary": "administrative",
      "way_area": "0.218243",
      "wikidata": "Q707721",
      "admin_level": "6",
      "name:ko-Hani": "狼林郡"
    }
  },
  {
    "osm_id": -5475708,
    "boundary": "administrative",
    "admin_level": 6,
    "parents": "-356392,-192734",
    "name": "Ryongnim County",
    "local_name": "룡림군",
    "name_en": "Ryongnim County",
    "all_tags": {
      "name": "룡림군",
      "name:en": "Ryongnim County",
      "name:ja": "龍林郡",
      "name:ko": "룡림군",
      "name:ru": "уезд Йонним",
      "name:zh": "龍林郡",
      "boundary": "administrative",
      "way_area": "0.127671",
      "wikidata": "Q705755",
      "admin_level": "6",
      "name:ko-Hani": "龍林郡"
    }
  },
  {
    "osm_id": -5475707,
    "boundary": "administrative",
    "admin_level": 6,
    "parents": "-356392,-192734",
    "name": "Wiwon County",
    "local_name": "위원군",
    "name_en": "Wiwon County",
    "all_tags": {
      "name": "위원군",
      "name:en": "Wiwon County",
      "name:ja": "渭原郡",
      "name:ko": "위원군",
      "name:ru": "уезд Вивон",
      "name:zh": "渭原郡",
      "boundary": "administrative",
      "way_area": "0.124855",
      "wikidata": "Q705313",
      "admin_level": "6",
      "name:ko-Hani": "渭原郡"
    }
  },
  {
    "osm_id": -5475706,
    "boundary": "administrative",
    "admin_level": 6,
    "parents": "-356392,-192734",
    "name": "Huichon",
    "local_name": "희천시",
    "name_en": "Huichon",
    "all_tags": {
      "name": "희천시",
      "name:en": "Huichon",
      "name:ja": "熙川市",
      "name:ko": "희천시",
      "name:ru": "Хичхон",
      "name:zh": "煕川市",
      "boundary": "administrative",
      "way_area": "0.104267",
      "wikidata": "Q698719",
      "admin_level": "6",
      "name:ko-Hani": "熙川市"
    }
  },
  {
    "osm_id": -5475705,
    "boundary": "administrative",
    "admin_level": 6,
    "parents": "-356392,-192734",
    "name": "Manpo",
    "local_name": "만포시",
    "name_en": "Manpo",
    "all_tags": {
      "name": "만포시",
      "name:en": "Manpo",
      "name:eo": "Manpo",
      "name:ja": "満浦市",
      "name:ko": "만포시",
      "name:pt": "Manpo",
      "name:ru": "Манпхо",
      "name:zh": "满浦市",
      "boundary": "administrative",
      "way_area": "0.0715307",
      "wikidata": "Q698064",
      "admin_level": "6",
      "name:ko-Hani": "滿浦市",
      "name:zh-Hant": "滿浦市"
    }
  },
  {
    "osm_id": -5475704,
    "boundary": "administrative",
    "admin_level": 6,
    "parents": "-356392,-192734",
    "name": "Kanggye",
    "local_name": "강계시",
    "name_en": "Kanggye",
    "all_tags": {
      "name": "강계시",
      "name:cs": "Kanggje",
      "name:en": "Kanggye",
      "name:ja": "江界市",
      "name:ko": "강계시",
      "name:ru": "Канге",
      "name:zh": "江界市",
      "boundary": "administrative",
      "way_area": "0.0401125",
      "wikidata": "Q489825",
      "admin_level": "6",
      "name:ko-Hani": "江界市"
    }
  },
  {
    "osm_id": -5475105,
    "boundary": "administrative",
    "admin_level": 6,
    "parents": "-356392,-192734",
    "name": "Songwon County",
    "local_name": "송원군",
    "name_en": "Songwon County",
    "all_tags": {
      "name": "송원군",
      "name:en": "Songwon County",
      "name:ja": "松源郡",
      "name:ko": "송원군",
      "name:ru": "уезд Сонвон",
      "name:zh": "松源郡",
      "boundary": "administrative",
      "way_area": "0.121761",
      "wikidata": "Q705457",
      "admin_level": "6",
      "name:ko-Hani": "松源郡"
    }
  },
  {
    "osm_id": -5475091,
    "boundary": "administrative",
    "admin_level": 6,
    "parents": "-356392,-192734",
    "name": "Kopung County",
    "local_name": "고풍군",
    "name_en": "Kopung County",
    "all_tags": {
      "name": "고풍군",
      "name:en": "Kopung County",
      "name:ja": "古豊郡",
      "name:ko": "고풍군",
      "name:ru": "уезд Копхун",
      "name:zh": "古豐郡",
      "boundary": "administrative",
      "way_area": "0.0747888",
      "wikidata": "Q705301",
      "admin_level": "6",
      "name:ko-Hani": "古豐郡",
      "name:zh-Hant": "古豐郡"
    }
  },
  {
    "osm_id": -5475058,
    "boundary": "administrative",
    "admin_level": 6,
    "parents": "-356392,-192734",
    "name": "Chosan County",
    "local_name": "초산군",
    "name_en": "Chosan County",
    "all_tags": {
      "name": "초산군",
      "name:en": "Chosan County",
      "name:ja": "楚山郡",
      "name:ko": "초산군",
      "name:ru": "уезд Чхосан",
      "name:zh": "楚山郡",
      "boundary": "administrative",
      "way_area": "0.0607365",
      "wikidata": "Q707684",
      "admin_level": "6",
      "name:ko-Hani": "楚山郡"
    }
  },
  {
    "osm_id": -5475043,
    "boundary": "administrative",
    "admin_level": 6,
    "parents": "-356392,-192734",
    "name": "Usi County",
    "local_name": "우시군",
    "name_en": "Usi County",
    "all_tags": {
      "name": "우시군",
      "name:en": "Usi County",
      "name:ja": "雩時郡",
      "name:ko": "우시군",
      "name:ru": "уезд Уси",
      "name:zh": "雩时郡",
      "boundary": "administrative",
      "way_area": "0.0731484",
      "wikidata": "Q702818",
      "admin_level": "6",
      "name:ko-Hani": "雩時郡",
      "name:zh-Hant": "雩時郡"
    }
  },
  {
    "osm_id": -5470473,
    "boundary": "administrative",
    "admin_level": 6,
    "parents": "-356540,-192734",
    "name": "Sindo County",
    "local_name": "신도군",
    "name_en": "Sindo County",
    "all_tags": {
      "name": "신도군",
      "name:en": "Sindo County",
      "name:ja": "薪島郡",
      "name:ko": "신도군",
      "name:ru": "уезд Синдо",
      "name:zh": "薪岛郡",
      "boundary": "administrative",
      "way_area": "0.0230199",
      "wikidata": "Q702644",
      "admin_level": "6",
      "name:ko-Hani": "薪島郡",
      "name:zh-Hant": "薪島郡",
      "sorting_name:ru": "Синдо уезд"
    }
  },
  {
    "osm_id": -5469505,
    "boundary": "administrative",
    "admin_level": 6,
    "parents": "-356533,-192734",
    "name": "Changyon County",
    "local_name": "장연군",
    "name_en": "Changyon County",
    "all_tags": {
      "name": "장연군",
      "name:en": "Changyon County",
      "name:ja": "長淵郡",
      "name:ko": "장연군",
      "name:ru": "уезд Чанён",
      "name:zh": "長淵郡",
      "boundary": "administrative",
      "way_area": "0.0492882",
      "wikidata": "Q27245880",
      "admin_level": "6",
      "name:ko-Hani": "長淵郡"
    }
  },
  {
    "osm_id": -5469504,
    "boundary": "administrative",
    "admin_level": 6,
    "parents": "-356533,-192734",
    "name": "Kwail County",
    "local_name": "과일군",
    "name_en": "Kwail County",
    "all_tags": {
      "name": "과일군",
      "name:en": "Kwail County",
      "name:ja": "クァイル郡",
      "name:ko": "과일군",
      "name:ru": "уезд Кваиль",
      "name:zh": "瓜飴郡",
      "boundary": "administrative",
      "name:yue": "瓜飴郡",
      "way_area": "0.0703189",
      "wikidata": "Q705091",
      "admin_level": "6",
      "name:ko-Kore": "과일郡"
    }
  },
  {
    "osm_id": -5469483,
    "boundary": "administrative",
    "admin_level": 6,
    "parents": "-356533,-192734",
    "name": "Songhwa County",
    "local_name": "송화군",
    "name_en": "Songhwa County",
    "all_tags": {
      "name": "송화군",
      "name:en": "Songhwa County",
      "name:ja": "松禾郡",
      "name:ko": "송화군",
      "name:ru": "уезд Сонхва",
      "name:zh": "松禾郡",
      "boundary": "administrative",
      "way_area": "0.0197806",
      "admin_level": "6",
      "name:ko-Hani": "松禾郡"
    }
  },
  {
    "osm_id": -5469475,
    "boundary": "administrative",
    "admin_level": 6,
    "parents": "-356533,-192734",
    "name": "Unnyun County",
    "local_name": "은률군",
    "name_en": "Unnyun County",
    "all_tags": {
      "name": "은률군",
      "name:en": "Unnyun County",
      "name:ja": "殷栗郡",
      "name:ko": "은률군",
      "name:ru": "уезд Ыннюн",
      "name:zh": "殷栗郡",
      "boundary": "administrative",
      "way_area": "0.0514545",
      "admin_level": "6",
      "name:ko-Hani": "殷栗郡"
    }
  },
  {
    "osm_id": -5469468,
    "boundary": "administrative",
    "admin_level": 6,
    "parents": "-356533,-192734",
    "name": "Samchon County",
    "local_name": "삼천군",
    "name_en": "Samchon County",
    "all_tags": {
      "name": "삼천군",
      "name:en": "Samchon County",
      "name:ja": "三泉郡",
      "name:ko": "삼천군",
      "name:ru": "уезд Самчхон",
      "name:zh": "三泉郡",
      "boundary": "administrative",
      "way_area": "0.0356805",
      "admin_level": "6",
      "name:ko-Hani": "三泉郡"
    }
  },
  {
    "osm_id": -5469428,
    "boundary": "administrative",
    "admin_level": 6,
    "parents": "-356533,-192734",
    "name": "Unchon County",
    "local_name": "은천군",
    "name_en": "Unchon County",
    "all_tags": {
      "name": "은천군",
      "name:en": "Unchon County",
      "name:ja": "銀泉郡",
      "name:ko": "은천군",
      "name:ru": "уезд Ынчхон",
      "name:zh": "银泉郡",
      "boundary": "administrative",
      "way_area": "0.0472649",
      "admin_level": "6",
      "name:ko-Hani": "銀泉郡",
      "name:zh-Hant": "銀泉郡"
    }
  },
  {
    "osm_id": -5469425,
    "boundary": "administrative",
    "admin_level": 6,
    "parents": "-356533,-192734",
    "name": "Anak County",
    "local_name": "안악군",
    "name_en": "Anak County",
    "all_tags": {
      "name": "안악군",
      "name:en": "Anak County",
      "name:ja": "安岳郡",
      "name:ko": "안악군",
      "name:ru": "уезд Анак",
      "name:zh": "安岳郡",
      "boundary": "administrative",
      "way_area": "0.0401258",
      "admin_level": "6",
      "name:ko-Hani": "安岳郡"
    }
  },
  {
    "osm_id": -5469411,
    "boundary": "administrative",
    "admin_level": 6,
    "parents": "-356533,-192734",
    "name": "Taetan County",
    "local_name": "태탄군",
    "name_en": "Taetan County",
    "all_tags": {
      "name": "태탄군",
      "name:en": "Taetan County",
      "name:ja": "苔灘郡",
      "name:ko": "태탄군",
      "name:ru": "уезд Тхэтхан",
      "name:zh": "苔灘郡",
      "boundary": "administrative",
      "way_area": "0.0372318",
      "admin_level": "6",
      "name:ko-Hani": "苔灘郡"
    }
  },
  {
    "osm_id": -5469410,
    "boundary": "administrative",
    "admin_level": 6,
    "parents": "-356533,-192734",
    "name": "Pyoksong County",
    "local_name": "벽성군",
    "name_en": "Pyoksong County",
    "all_tags": {
      "name": "벽성군",
      "name:en": "Pyoksong County",
      "name:ja": "碧城郡",
      "name:ko": "벽성군",
      "name:ru": "уезд Пёксон",
      "name:uk": "Пьоксон",
      "name:zh": "碧城郡",
      "boundary": "administrative",
      "way_area": "0.0459583",
      "admin_level": "6",
      "name:ko-Hani": "碧城郡",
      "name:ko-Latn": "Pyŏksŏng-gun"
    }
  },
  {
    "osm_id": -5469394,
    "boundary": "administrative",
    "admin_level": 6,
    "parents": "-356533,-192734",
    "name": "Chaeryong County",
    "local_name": "재령군",
    "name_en": "Chaeryong County",
    "all_tags": {
      "name": "재령군",
      "name:en": "Chaeryong County",
      "name:ja": "載寧郡",
      "name:ko": "재령군",
      "name:ru": "уезд Чэрён",
      "name:zh": "載寧郡",
      "boundary": "administrative",
      "way_area": "0.0333864",
      "wikidata": "Q27245810",
      "admin_level": "6",
      "name:ko-Hani": "載寧郡"
    }
  },
  {
    "osm_id": -5469393,
    "boundary": "administrative",
    "admin_level": 6,
    "parents": "-356533,-192734",
    "name": "Sinchon County",
    "local_name": "신천군",
    "name_en": "Sinchon County",
    "all_tags": {
      "name": "신천군",
      "name:en": "Sinchon County",
      "name:ja": "信川郡",
      "name:ko": "신천군",
      "name:ru": "уезд Синчхон",
      "name:zh": "信川郡",
      "boundary": "administrative",
      "way_area": "0.0507836",
      "wikidata": "Q704821",
      "admin_level": "6",
      "name:ko-Hani": "信川郡"
    }
  },
  {
    "osm_id": -5469380,
    "boundary": "administrative",
    "admin_level": 6,
    "parents": "-356533,-192734",
    "name": "Sinwon County",
    "local_name": "신원군",
    "name_en": "Sinwon County",
    "all_tags": {
      "name": "신원군",
      "name:en": "Sinwon County",
      "name:ja": "新院郡",
      "name:ko": "신원군",
      "name:ru": "уезд Синвон",
      "name:zh": "新院郡",
      "boundary": "administrative",
      "way_area": "0.0497524",
      "wikidata": "Q705099",
      "admin_level": "6",
      "name:ko-Hani": "新院郡"
    }
  },
  {
    "osm_id": -5469362,
    "boundary": "administrative",
    "admin_level": 6,
    "parents": "-356533,-192734",
    "name": "Ryongyon County",
    "local_name": "룡연군",
    "name_en": "Ryongyon County",
    "all_tags": {
      "name": "룡연군",
      "name:en": "Ryongyon County",
      "name:ja": "龍淵郡",
      "name:ko": "룡연군",
      "name:ru": "уезд Йонён",
      "name:zh": "龍淵郡",
      "boundary": "administrative",
      "way_area": "0.106844",
      "wikidata": "Q705070",
      "admin_level": "6",
      "name:ko-Hani": "龍淵郡"
    }
  },
  {
    "osm_id": -5469325,
    "boundary": "administrative",
    "admin_level": 6,
    "parents": "-356533,-192734",
    "name": "Onjin County",
    "local_name": "옹진군",
    "name_en": "Onjin County",
    "all_tags": {
      "name": "옹진군",
      "name:en": "Onjin County",
      "name:ja": "甕津郡",
      "name:ko": "옹진군",
      "name:ru": "уезд Онджин",
      "name:zh": "甕津郡",
      "boundary": "administrative",
      "way_area": "0.163572",
      "wikidata": "Q483530",
      "admin_level": "6",
      "name:ko-Hani": "甕津郡"
    }
  },
  {
    "osm_id": -5469308,
    "boundary": "administrative",
    "admin_level": 6,
    "parents": "-356533,-192734",
    "name": "Kangnyong County",
    "local_name": "강령군",
    "name_en": "Kangnyong County",
    "all_tags": {
      "name": "강령군",
      "name:en": "Kangnyong County",
      "name:ja": "康翎郡",
      "name:ko": "강령군",
      "name:ru": "уезд Каннён",
      "name:zh": "康翎郡",
      "boundary": "administrative",
      "way_area": "0.164086",
      "wikidata": "Q27245167",
      "admin_level": "6",
      "name:ko-Hani": "康翎郡"
    }
  },
  {
    "osm_id": -5469296,
    "boundary": "administrative",
    "admin_level": 6,
    "parents": "-356533,-192734",
    "name": "Haeju",
    "local_name": "해주시",
    "name_en": "Haeju",
    "all_tags": {
      "name": "해주시",
      "name:cs": "Hedžu",
      "name:el": "Χέτζου",
      "name:en": "Haeju",
      "name:ja": "海州市",
      "name:ko": "해주시",
      "name:ru": "Хэджу",
      "name:zh": "海州市",
      "boundary": "administrative",
      "way_area": "0.0254121",
      "wikidata": "Q714865",
      "wikipedia": "ko:해주시",
      "admin_level": "6",
      "name:ko-Hani": "海州市"
    }
  },
  {
    "osm_id": -5469279,
    "boundary": "administrative",
    "admin_level": 6,
    "parents": "-356533,-192734",
    "name": "Chongdan County",
    "local_name": "청단군",
    "name_en": "Chongdan County",
    "all_tags": {
      "name": "청단군",
      "name:en": "Chongdan County",
      "name:ja": "青丹郡",
      "name:ko": "청단군",
      "name:ru": "уезд Чхондан",
      "name:zh": "青丹郡",
      "boundary": "administrative",
      "way_area": "0.0955995",
      "wikidata": "Q27245972",
      "admin_level": "6",
      "name:ko-Hani": "靑丹郡"
    }
  },
  {
    "osm_id": -5469278,
    "boundary": "administrative",
    "admin_level": 6,
    "parents": "-356533,-192734",
    "name": "Yonan County",
    "local_name": "연안군",
    "name_en": "Yonan County",
    "all_tags": {
      "name": "연안군",
      "name:en": "Yonan County",
      "name:ja": "延安郡",
      "name:ko": "연안군",
      "name:ru": "уезд Йонан",
      "name:uk": "Йонан",
      "name:zh": "延安郡",
      "boundary": "administrative",
      "way_area": "0.0677498",
      "wikidata": "Q213173",
      "admin_level": "6",
      "name:ko-Hani": "延安郡"
    }
  },
  {
    "osm_id": -5469240,
    "boundary": "administrative",
    "admin_level": 6,
    "parents": "-356533,-192734",
    "name": "Pongchon County",
    "local_name": "봉천군",
    "name_en": "Pongchon County",
    "all_tags": {
      "name": "봉천군",
      "name:en": "Pongchon County",
      "name:ja": "峰泉郡",
      "name:ko": "봉천군",
      "name:ru": "уезд Пончхон",
      "name:zh": "峰泉郡",
      "boundary": "administrative",
      "way_area": "0.051036",
      "admin_level": "6",
      "name:ko-Hani": "峰泉郡"
    }
  },
  {
    "osm_id": -5469223,
    "boundary": "administrative",
    "admin_level": 6,
    "parents": "-356533,-192734",
    "name": "Paekchon County",
    "local_name": "배천군",
    "name_en": "Paekchon County",
    "all_tags": {
      "name": "배천군",
      "name:en": "Paekchon County",
      "name:ja": "白川郡",
      "name:ko": "배천군",
      "name:ru": "уезд Пэкчхон",
      "name:zh": "白川郡",
      "boundary": "administrative",
      "way_area": "0.0541993",
      "wikidata": "Q705733",
      "wikipedia": "ko:배천군",
      "admin_level": "6",
      "name:ko-Hani": "白川郡"
    }
  },
  {
    "osm_id": -5456509,
    "boundary": "administrative",
    "admin_level": 6,
    "parents": "-356442,-192734",
    "name": "Tosan County",
    "local_name": "토산군",
    "name_en": "Tosan County",
    "all_tags": {
      "name": "토산군",
      "name:en": "Tosan County",
      "name:ja": "兎山郡",
      "name:ko": "토산군",
      "name:ru": "уезд Тхосан",
      "name:zh": "兔山郡",
      "boundary": "administrative",
      "way_area": "0.0431837",
      "admin_level": "6",
      "name:ko-Hani": "兎山郡",
      "name:zh-Hant": "兔山郡"
    }
  },
  {
    "osm_id": -5456504,
    "boundary": "administrative",
    "admin_level": 6,
    "parents": "-356442,-192734",
    "name": "Kumchon County",
    "local_name": "금천군",
    "name_en": "Kumchon County",
    "all_tags": {
      "name": "금천군",
      "name:en": "Kumchon County",
      "name:ja": "金川郡",
      "name:ko": "금천군",
      "name:ru": "уезд Кымчхон",
      "name:zh": "金川郡",
      "boundary": "administrative",
      "way_area": "0.0450669",
      "wikidata": "Q705207",
      "admin_level": "6",
      "name:ko-Hani": "金川郡"
    }
  },
  {
    "osm_id": -5456500,
    "boundary": "administrative",
    "admin_level": 6,
    "parents": "-356442,-192734",
    "name": "Pyongsan County",
    "local_name": "평산군",
    "name_en": "Pyongsan County",
    "all_tags": {
      "name": "평산군",
      "name:en": "Pyongsan County",
      "name:ja": "平山郡",
      "name:ko": "평산군",
      "name:ru": "уезд Пхёнсан",
      "name:zh": "平山郡",
      "boundary": "administrative",
      "way_area": "0.0565348",
      "admin_level": "6",
      "name:ko-Hani": "平山郡"
    }
  },
  {
    "osm_id": -5456494,
    "boundary": "administrative",
    "admin_level": 6,
    "parents": "-356442,-192734",
    "name": "Singye County",
    "local_name": "신계군",
    "name_en": "Singye County",
    "all_tags": {
      "name": "신계군",
      "name:en": "Singye County",
      "name:ja": "新渓郡",
      "name:ko": "신계군",
      "name:ru": "уезд Синге",
      "name:zh": "新溪郡",
      "boundary": "administrative",
      "way_area": "0.0755797",
      "admin_level": "6",
      "name:ko-Hani": "新溪郡"
    }
  },
  {
    "osm_id": -5456274,
    "boundary": "administrative",
    "admin_level": 6,
    "parents": "-356442,-192734",
    "name": "Sonhung County",
    "local_name": "서흥군",
    "name_en": "Sonhung County",
    "all_tags": {
      "name": "서흥군",
      "name:en": "Sonhung County",
      "name:ja": "瑞興郡",
      "name:ko": "서흥군",
      "name:ru": "уезд Сохын",
      "name:zh": "瑞興郡",
      "boundary": "administrative",
      "way_area": "0.0585144",
      "wikidata": "Q196270",
      "admin_level": "6",
      "name:ko-Hani": "瑞興郡"
    }
  },
  {
    "osm_id": -5456248,
    "boundary": "administrative",
    "admin_level": 6,
    "parents": "-356442,-192734",
    "name": "Koksan County",
    "local_name": "곡산군",
    "name_en": "Koksan County",
    "all_tags": {
      "name": "곡산군",
      "name:ar": "محافظة كوكسان",
      "name:en": "Koksan County",
      "name:ja": "谷山郡",
      "name:ko": "곡산군",
      "name:no": "Koksan (Nord-Hwanghae)",
      "name:pl": "Koksan",
      "name:ru": "уезд Коксан",
      "name:vi": "Koksan (huyện)",
      "name:zh": "谷山郡",
      "boundary": "administrative",
      "way_area": "0.0394726",
      "wikidata": "Q213406",
      "wikipedia": "ko:곡산군",
      "admin_level": "6",
      "name:ko-Hani": "谷山郡"
    }
  },
  {
    "osm_id": -5456206,
    "boundary": "administrative",
    "admin_level": 6,
    "parents": "-356442,-192734",
    "name": "Suan County",
    "local_name": "수안군",
    "name_en": "Suan County",
    "all_tags": {
      "name": "수안군",
      "name:en": "Suan County",
      "name:ja": "遂安郡",
      "name:ko": "수안군",
      "name:ru": "уезд Суан",
      "name:zh": "遂安郡",
      "boundary": "administrative",
      "way_area": "0.068779",
      "admin_level": "6",
      "name:ko-Hani": "遂安郡",
      "name:zh-Hant": "遂安郡"
    }
  },
  {
    "osm_id": -5456194,
    "boundary": "administrative",
    "admin_level": 6,
    "parents": "-356442,-192734",
    "name": "Pongsan County",
    "local_name": "봉산군",
    "name_en": "Pongsan County",
    "all_tags": {
      "name": "봉산군",
      "name:en": "Pongsan County",
      "name:ja": "鳳山郡",
      "name:ko": "봉산군",
      "name:ru": "уезд Понсан",
      "name:zh": "凤山郡",
      "boundary": "administrative",
      "way_area": "0.0454261",
      "admin_level": "6",
      "name:ko-Hani": "鳳山郡",
      "name:zh-Hant": "鳳山郡"
    }
  },
  {
    "osm_id": -5456104,
    "boundary": "administrative",
    "admin_level": 6,
    "parents": "-356442,-192734",
    "name": "Rinsan County",
    "local_name": "린산군",
    "name_en": "Rinsan County",
    "all_tags": {
      "name": "린산군",
      "name:en": "Rinsan County",
      "name:ja": "麟山郡",
      "name:ko": "린산군",
      "name:ru": "уезд Инсан",
      "name:zh": "麟山郡",
      "boundary": "administrative",
      "way_area": "0.0516748",
      "wikidata": "Q27245700",
      "admin_level": "6",
      "name:ko-Hani": "麟山郡"
    }
  },
  {
    "osm_id": -5456099,
    "boundary": "administrative",
    "admin_level": 6,
    "parents": "-356442,-192734",
    "name": "Unpa County",
    "local_name": "은파군",
    "name_en": "Unpa County",
    "all_tags": {
      "name": "은파군",
      "name:en": "Unpa County",
      "name:ja": "銀波郡",
      "name:ko": "은파군",
      "name:ru": "уезд Ынпха",
      "name:zh": "银波郡",
      "boundary": "administrative",
      "way_area": "0.0396338",
      "admin_level": "6",
      "name:ko-Hani": "銀波郡",
      "name:zh-Hant": "銀波郡"
    }
  },
  {
    "osm_id": -5455454,
    "boundary": "administrative",
    "admin_level": 6,
    "parents": "-356442,-192734",
    "name": "Sinpyong County",
    "local_name": "신평군",
    "name_en": "Sinpyong County",
    "all_tags": {
      "name": "신평군",
      "name:ar": "محافظة شنبيونغ",
      "name:en": "Sinpyong County",
      "name:ja": "新坪郡",
      "name:ko": "신평군",
      "name:no": "Sinpyong",
      "name:pl": "Sinp'yŏng",
      "name:ru": "уезд Синпхён",
      "name:vi": "Sinpyong",
      "name:zh": "新坪郡",
      "boundary": "administrative",
      "way_area": "0.125373",
      "wikidata": "Q711009",
      "wikipedia": "ko:신평군",
      "admin_level": "6",
      "name:ko-Hani": "新坪郡"
    }
  },
  {
    "osm_id": -5455422,
    "boundary": "administrative",
    "admin_level": 6,
    "parents": "-356442,-192734",
    "name": "Yontan County",
    "local_name": "연탄군",
    "name_en": "Yontan County",
    "all_tags": {
      "name": "연탄군",
      "name:en": "Yontan County",
      "name:ja": "燕灘郡",
      "name:ko": "연탄군",
      "name:ru": "уезд Йонтхан",
      "name:zh": "燕灘郡",
      "boundary": "administrative",
      "way_area": "0.0563892",
      "admin_level": "6",
      "name:ko-Hani": "燕灘郡"
    }
  },
  {
    "osm_id": -5455401,
    "boundary": "administrative",
    "admin_level": 6,
    "parents": "-356442,-192734",
    "name": "Songnim",
    "local_name": "송림시",
    "name_en": "Songnim",
    "all_tags": {
      "name": "송림시",
      "name:en": "Songnim",
      "name:ja": "松林市",
      "name:ko": "송림시",
      "name:ru": "Сонним",
      "name:zh": "松林市",
      "boundary": "administrative",
      "way_area": "0.00906647",
      "wikidata": "Q505930",
      "admin_level": "6",
      "name:ko-Hani": "松林市"
    }
  },
  {
    "osm_id": -5455268,
    "boundary": "administrative",
    "admin_level": 4,
    "parents": "-192734",
    "name": "Kaesong",
    "local_name": "개성시",
    "name_en": "Kaesong",
    "all_tags": {
      "name": "개성시",
      "name:el": "Γκέσονγκ",
      "name:en": "Kaesong",
      "name:eo": "Kesongo",
      "name:ja": "開城市",
      "name:ko": "개성시",
      "name:ru": "Кэсон",
      "name:zh": "开城市",
      "boundary": "administrative",
      "way_area": "0.0804483",
      "wikipedia": "ko:개성시",
      "admin_level": "4",
      "name:ko-Hani": "開城市",
      "name:ko-Latn": "Kaesŏng",
      "name:zh-Hans": "开城市",
      "name:zh-Hant": "開城市",
      "official_name": "개성특별시",
      "official_name:ko": "개성특별시",
      "official_name:zh": "開城特別市",
      "official_name:ko-Hani": "開城特別市",
      "official_name:ko-Latn": "Kaesŏng-T'ŭkpyŏlsi"
    }
  },
  {
    "osm_id": -5455246,
    "boundary": "administrative",
    "admin_level": 6,
    "parents": "-356442,-192734",
    "name": "Sariwon",
    "local_name": "사리원시",
    "name_en": "Sariwon",
    "all_tags": {
      "name": "사리원시",
      "name:cs": "Sariwon",
      "name:el": "Σάριουον",
      "name:en": "Sariwon",
      "name:ja": "沙里院市",
      "name:ko": "사리원시",
      "name:ru": "Саривон",
      "name:zh": "沙里院市",
      "boundary": "administrative",
      "way_area": "0.0201123",
      "wikidata": "Q505807",
      "admin_level": "6",
      "name:ko-Hani": "沙里院市",
      "name:ko-Latn": "Sariwŏn-si"
    }
  },
  {
    "osm_id": -5455231,
    "boundary": "administrative",
    "admin_level": 6,
    "parents": "-356442,-192734",
    "name": "Hwangju County",
    "local_name": "황주군",
    "name_en": "Hwangju County",
    "all_tags": {
      "name": "황주군",
      "name:en": "Hwangju County",
      "name:ja": "黄州郡",
      "name:ko": "황주군",
      "name:ru": "уезд Хванджу",
      "name:zh": "黄州郡",
      "boundary": "administrative",
      "way_area": "0.050698",
      "wikidata": "Q27245648",
      "admin_level": "6",
      "name:ko-Hani": "黃州郡",
      "name:zh-Hant": "黃州郡"
    }
  },
  {
    "osm_id": -5454385,
    "boundary": "administrative",
    "admin_level": 6,
    "parents": "-356419,-192734",
    "name": "Taehŭng County",
    "local_name": "대흥군",
    "name_en": "Taehŭng County",
    "all_tags": {
      "name": "대흥군",
      "name:en": "Taehŭng County",
      "name:ja": "大興郡",
      "name:ko": "대흥군",
      "name:ru": "уезд Тэхын",
      "name:zh": "大興郡",
      "boundary": "administrative",
      "way_area": "0.1299",
      "admin_level": "6",
      "name:ko-Hani": "大興郡",
      "name:zh-Hant": "大興郡"
    }
  },
  {
    "osm_id": -5454378,
    "boundary": "administrative",
    "admin_level": 6,
    "parents": "-356419,-192734",
    "name": "Nyongwon County",
    "local_name": "녕원군",
    "name_en": "Nyongwon County",
    "all_tags": {
      "name": "녕원군",
      "name:en": "Nyongwon County",
      "name:ja": "寧遠郡",
      "name:ko": "녕원군",
      "name:ru": "уезд Нёнвон",
      "name:zh": "宁远郡",
      "boundary": "administrative",
      "way_area": "0.126202",
      "admin_level": "6",
      "name:ko-Hani": "寧遠郡",
      "name:zh-Hant": "寧遠郡"
    }
  },
  {
    "osm_id": -5454375,
    "boundary": "administrative",
    "admin_level": 6,
    "parents": "-356419,-192734",
    "name": "Maengsan County",
    "local_name": "맹산군",
    "name_en": "Maengsan County",
    "all_tags": {
      "name": "맹산군",
      "name:en": "Maengsan County",
      "name:ja": "孟山郡",
      "name:ko": "맹산군",
      "name:ru": "уезд Мэнсан",
      "name:zh": "孟山郡",
      "boundary": "administrative",
      "way_area": "0.0759445",
      "wikidata": "Q27245075",
      "admin_level": "6",
      "name:ko-Hani": "孟山郡"
    }
  },
  {
    "osm_id": -5454342,
    "boundary": "administrative",
    "admin_level": 6,
    "parents": "-356419,-192734",
    "name": "Sinyang County",
    "local_name": "신양군",
    "name_en": "Sinyang County",
    "all_tags": {
      "name": "신양군",
      "name:en": "Sinyang County",
      "name:ja": "新陽郡",
      "name:ko": "신양군",
      "name:ru": "уезд Синъян",
      "name:zh": "新阳郡",
      "boundary": "administrative",
      "way_area": "0.0771043",
      "admin_level": "6",
      "name:ko-Hani": "新陽郡",
      "name:zh-Hant": "新陽郡"
    }
  },
  {
    "osm_id": -5454334,
    "boundary": "administrative",
    "admin_level": 6,
    "parents": "-356419,-192734",
    "name": "Yangdok County",
    "local_name": "양덕군",
    "name_en": "Yangdok County",
    "all_tags": {
      "name": "양덕군",
      "name:en": "Yangdok County",
      "name:ja": "陽徳郡",
      "name:ko": "양덕군",
      "name:ru": "уезд Яндок",
      "name:uk": "Яндок повіт",
      "name:zh": "阳德郡",
      "boundary": "administrative",
      "way_area": "0.080627",
      "wikidata": "Q715724",
      "admin_level": "6",
      "name:ko-Hani": "陽德郡",
      "name:zh-Hant": "陽德郡"
    }
  },
  {
    "osm_id": -5454326,
    "boundary": "administrative",
    "admin_level": 6,
    "parents": "-356419,-192734",
    "name": "Hoechang County",
    "local_name": "회창군",
    "name_en": "Hoechang County",
    "all_tags": {
      "name": "회창군",
      "name:en": "Hoechang County",
      "name:ja": "檜倉郡",
      "name:ko": "회창군",
      "name:ru": "уезд Хвечхан",
      "name:zh": "檜倉郡",
      "boundary": "administrative",
      "way_area": "0.0712041",
      "wikidata": "Q27245608",
      "admin_level": "6",
      "name:ko-Hani": "檜倉郡"
    }
  },
  {
    "osm_id": -5454307,
    "boundary": "administrative",
    "admin_level": 6,
    "parents": "-356419,-192734",
    "name": "Songchon County",
    "local_name": "성천군",
    "name_en": "Songchon County",
    "all_tags": {
      "name": "성천군",
      "name:en": "Songchon County",
      "name:ja": "成川郡",
      "name:ko": "성천군",
      "name:ru": "уезд Сончхон",
      "name:zh": "成川郡",
      "boundary": "administrative",
      "way_area": "0.067181",
      "admin_level": "6",
      "name:ko-Hani": "成川郡"
    }
  },
  {
    "osm_id": -5454295,
    "boundary": "administrative",
    "admin_level": 6,
    "parents": "-356419,-192734",
    "name": "Unsan County",
    "local_name": "은산군",
    "name_en": "Unsan County",
    "all_tags": {
      "name": "은산군",
      "name:en": "Unsan County",
      "name:ja": "殷山郡",
      "name:ko": "은산군",
      "name:ru": "уезд Ынсан",
      "name:uk": "Инсан",
      "name:zh": "殷山郡",
      "boundary": "administrative",
      "way_area": "0.05189",
      "admin_level": "6",
      "name:ko-Hani": "殷山郡"
    }
  },
  {
    "osm_id": -5454281,
    "boundary": "administrative",
    "admin_level": 6,
    "parents": "-356419,-192734",
    "name": "Pukchang County",
    "local_name": "북창군",
    "name_en": "Pukchang County",
    "all_tags": {
      "name": "북창군",
      "name:en": "Pukchang County",
      "name:ja": "北倉郡",
      "name:ko": "북창군",
      "name:ru": "уезд Пукчхан",
      "name:zh": "北仓郡",
      "boundary": "administrative",
      "way_area": "0.0709127",
      "admin_level": "6",
      "name:ko-Hani": "北倉郡",
      "name:zh-Hant": "北倉郡"
    }
  },
  {
    "osm_id": -5454213,
    "boundary": "administrative",
    "admin_level": 6,
    "parents": "-5453650,-192734",
    "name": "Onchon County",
    "local_name": "온천군",
    "name_en": "Onchon County",
    "all_tags": {
      "name": "온천군",
      "name:en": "Onchon County",
      "name:ja": "温泉郡",
      "name:ko": "온천군",
      "name:ru": "уезд Ончхон",
      "name:zh": "温泉郡",
      "boundary": "administrative",
      "way_area": "0.0504954",
      "admin_level": "6",
      "name:ko-Hani": "溫泉郡",
      "name:zh-Hant": "溫泉郡"
    }
  },
  {
    "osm_id": -5454212,
    "boundary": "administrative",
    "admin_level": 6,
    "parents": "-5453650,-192734",
    "name": "Ryonggang County",
    "local_name": "룡강군",
    "name_en": "Ryonggang County",
    "all_tags": {
      "name": "룡강군",
      "name:en": "Ryonggang County",
      "name:ja": "龍岡郡",
      "name:ko": "룡강군",
      "name:ru": "уезд Йонган",
      "name:zh": "龙冈郡",
      "boundary": "administrative",
      "way_area": "0.0151914",
      "wikidata": "Q712209",
      "admin_level": "6",
      "name:ko-Hani": "龍岡郡",
      "name:zh-Hant": "龍岡郡"
    }
  },
  {
    "osm_id": -5454211,
    "boundary": "administrative",
    "admin_level": 6,
    "parents": "-5453650,-192734",
    "name": "천리마구역",
    "local_name": "천리마구역",
    "name_en": null,
    "all_tags": {
      "name": "천리마구역",
      "name:ko": "천리마구역",
      "boundary": "administrative",
      "way_area": "0.00944831",
      "admin_level": "6",
      "name:ko-Hani": "千里馬區域"
    }
  },
  {
    "osm_id": -5454210,
    "boundary": "administrative",
    "admin_level": 6,
    "parents": "-5453650,-192734",
    "name": "대안구역",
    "local_name": "대안구역",
    "name_en": null,
    "all_tags": {
      "name": "대안구역",
      "name:ko": "대안구역",
      "boundary": "administrative",
      "way_area": "0.00878788",
      "wikipedia": "ko:대안군",
      "admin_level": "6",
      "name:ko-Hani": "大安區域"
    }
  },
  {
    "osm_id": -5454209,
    "boundary": "administrative",
    "admin_level": 6,
    "parents": "-5453650,-192734",
    "name": "강서구역",
    "local_name": "강서구역",
    "name_en": null,
    "all_tags": {
      "name": "강서구역",
      "name:ko": "강서구역",
      "boundary": "administrative",
      "way_area": "0.0255789",
      "wikipedia": "ko:강서군",
      "admin_level": "6",
      "name:ko-Hani": "江西區域"
    }
  },
  {
    "osm_id": -5454141,
    "boundary": "administrative",
    "admin_level": 6,
    "parents": "-356419,-192734",
    "name": "Chungsan County",
    "local_name": "증산군",
    "name_en": "Chungsan County",
    "all_tags": {
      "name": "증산군",
      "name:en": "Chungsan County",
      "name:ja": "甑山郡",
      "name:ko": "증산군",
      "name:ru": "уезд Чынсан",
      "name:zh": "甑山郡",
      "boundary": "administrative",
      "way_area": "0.0446555",
      "wikidata": "Q27245555",
      "admin_level": "6",
      "name:ko-Hani": "甑山郡"
    }
  },
  {
    "osm_id": -5454113,
    "boundary": "administrative",
    "admin_level": 6,
    "parents": "-356419,-192734",
    "name": "Pyongwon County",
    "local_name": "평원군",
    "name_en": "Pyongwon County",
    "all_tags": {
      "name": "평원군",
      "name:en": "Pyongwon County",
      "name:ja": "平原郡",
      "name:ko": "평원군",
      "name:ru": "уезд Пхёнвон",
      "name:zh": "平原郡",
      "boundary": "administrative",
      "way_area": "0.048991",
      "admin_level": "6",
      "name:ko-Hani": "平原郡"
    }
  },
  {
    "osm_id": -5454106,
    "boundary": "administrative",
    "admin_level": 6,
    "parents": "-356419,-192734",
    "name": "Sukchon County",
    "local_name": "숙천군",
    "name_en": "Sukchon County",
    "all_tags": {
      "name": "숙천군",
      "name:en": "Sukchon County",
      "name:ja": "粛川郡",
      "name:ko": "숙천군",
      "name:ru": "уезд Сукчхон",
      "name:zh": "肃川郡",
      "boundary": "administrative",
      "way_area": "0.0457582",
      "admin_level": "6",
      "name:ko-Hani": "肅川郡",
      "name:zh-Hant": "肅川郡"
    }
  },
  {
    "osm_id": -5454101,
    "boundary": "administrative",
    "admin_level": 6,
    "parents": "-356419,-192734",
    "name": "Mundok County",
    "local_name": "문덕군",
    "name_en": "Mundok County",
    "all_tags": {
      "name": "문덕군",
      "name:en": "Mundok County",
      "name:ja": "文徳郡",
      "name:ko": "문덕군",
      "name:ru": "уезд Мундок",
      "name:zh": "文德郡",
      "boundary": "administrative",
      "way_area": "0.039294",
      "wikidata": "Q27244716",
      "admin_level": "6",
      "name:ko-Hani": "文德郡"
    }
  },
  {
    "osm_id": -5454093,
    "boundary": "administrative",
    "admin_level": 6,
    "parents": "-356419,-192734",
    "name": "Ungok",
    "local_name": "운곡지구",
    "name_en": "Ungok",
    "all_tags": {
      "name": "운곡지구",
      "name:en": "Ungok",
      "name:ja": "雲谷地区",
      "name:ko": "운곡지구",
      "name:ru": "Унгок",
      "name:zh": "雲谷地區",
      "boundary": "administrative",
      "way_area": "0.0156728",
      "admin_level": "6",
      "name:ko-Hani": "雲谷地區"
    }
  },
  {
    "osm_id": -5453678,
    "boundary": "administrative",
    "admin_level": 6,
    "parents": "-356419,-192734",
    "name": "Chongnam County",
    "local_name": "청남군",
    "name_en": "Chongnam County",
    "all_tags": {
      "name": "청남군",
      "name:en": "Chongnam County",
      "name:ko": "청남군",
      "name:ru": "Чхоннам",
      "boundary": "administrative",
      "way_area": "0.00195926",
      "admin_level": "6"
    }
  },
  {
    "osm_id": -5453666,
    "boundary": "administrative",
    "admin_level": 6,
    "parents": "-356419,-192734",
    "name": "Tokchon",
    "local_name": "덕천시",
    "name_en": "Tokchon",
    "all_tags": {
      "name": "덕천시",
      "name:en": "Tokchon",
      "name:ja": "徳川市",
      "name:ko": "덕천시",
      "name:ru": "Токчхон",
      "name:zh": "德川市",
      "boundary": "administrative",
      "way_area": "0.0723987",
      "admin_level": "6",
      "name:ko-Hani": "德川市"
    }
  },
  {
    "osm_id": -5453660,
    "boundary": "administrative",
    "admin_level": 6,
    "parents": "-356419,-192734",
    "name": "Sunchon",
    "local_name": "순천시",
    "name_en": "Sunchon",
    "all_tags": {
      "name": "순천시",
      "name:en": "Sunchon",
      "name:ja": "順川市",
      "name:ko": "순천시",
      "name:ru": "Сунчхон",
      "name:zh": "顺川市",
      "boundary": "administrative",
      "way_area": "0.0339316",
      "wikidata": "Q715946",
      "admin_level": "6",
      "name:ko-Hani": "順川市",
      "name:zh-Hant": "順川市"
    }
  },
  {
    "osm_id": -5453657,
    "boundary": "administrative",
    "admin_level": 6,
    "parents": "-356419,-192734",
    "name": "Kaechon",
    "local_name": "개천시",
    "name_en": "Kaechon",
    "all_tags": {
      "name": "개천시",
      "name:en": "Kaechon",
      "name:ja": "价川市",
      "name:ko": "개천시",
      "name:ru": "Кэчхон",
      "name:zh": "价川市",
      "boundary": "administrative",
      "way_area": "0.0697205",
      "wikidata": "Q6345928",
      "admin_level": "6",
      "name:ko-Hani": "价川市"
    }
  },
  {
    "osm_id": -5453654,
    "boundary": "administrative",
    "admin_level": 6,
    "parents": "-356419,-192734",
    "name": "Anju",
    "local_name": "안주시",
    "name_en": "Anju",
    "all_tags": {
      "name": "안주시",
      "name:en": "Anju",
      "name:ja": "安州市",
      "name:ko": "안주시",
      "name:ru": "Анджу",
      "name:zh": "安州市",
      "boundary": "administrative",
      "way_area": "0.0322611",
      "wikidata": "Q196236",
      "wikipedia": "ko:안주시",
      "admin_level": "6",
      "name:ko-Hani": "安州市"
    }
  },
  {
    "osm_id": -5453650,
    "boundary": "administrative",
    "admin_level": 4,
    "parents": "-192734",
    "name": "Nampo",
    "local_name": "남포시",
    "name_en": "Nampo",
    "all_tags": {
      "name": "남포시",
      "name:cs": "Nampcho",
      "name:en": "Nampo",
      "name:eo": "Nampo",
      "name:es": "Namp'o",
      "name:ja": "南浦市",
      "name:ko": "남포시",
      "name:pt": "Nampo",
      "name:ru": "Нампхо",
      "name:zh": "南浦市",
      "boundary": "administrative",
      "way_area": "0.333736",
      "wikidata": "Q109386",
      "ISO3166-2": "KP-14",
      "wikipedia": "ko:남포특별시",
      "admin_level": "4",
      "name:ko-Hani": "南浦市",
      "name:ko-Latn": "Namp'o",
      "official_name": "남포특급시",
      "official_name:ko": "남포특급시",
      "official_name:zh": "南浦特别市",
      "official_name:ko-Hani": "南浦特級市",
      "official_name:ko-Latn": "Namp'o T'ŭkkŭpsi"
    }
  },
  {
    "osm_id": -5453397,
    "boundary": "administrative",
    "admin_level": 6,
    "parents": "-356419,-192734",
    "name": "Pyŏngsŏng",
    "local_name": "평성시",
    "name_en": "Pyŏngsŏng",
    "all_tags": {
      "name": "평성시",
      "name:en": "Pyŏngsŏng",
      "name:ja": "平城市",
      "name:ko": "평성시",
      "name:ru": "Пхёнсон",
      "name:zh": "平城市",
      "boundary": "administrative",
      "way_area": "0.0322243",
      "wikidata": "Q514136",
      "admin_level": "6",
      "name:ko-Hani": "平城市"
    }
  },
  {
    "osm_id": -5453152,
    "boundary": "administrative",
    "admin_level": 6,
    "parents": "-356540,-192734",
    "name": "Hyangsan County",
    "local_name": "향산군",
    "name_en": "Hyangsan County",
    "all_tags": {
      "name": "향산군",
      "name:en": "Hyangsan County",
      "name:ja": "香山郡",
      "name:ko": "향산군",
      "name:ru": "уезд Хянсан",
      "name:zh": "香山郡",
      "boundary": "administrative",
      "way_area": "0.0513384",
      "wikidata": "Q705492",
      "admin_level": "6",
      "name:ko-Hani": "香山郡",
      "sorting_name:ru": "Хянсан уезд"
    }
  },
  {
    "osm_id": -5453151,
    "boundary": "administrative",
    "admin_level": 6,
    "parents": "-356540,-192734",
    "name": "Kujang County",
    "local_name": "구장군",
    "name_en": "Kujang County",
    "all_tags": {
      "name": "구장군",
      "name:en": "Kujang County",
      "name:ja": "球場郡",
      "name:ko": "구장군",
      "name:ru": "уезд Куджан",
      "name:zh": "球场郡",
      "boundary": "administrative",
      "way_area": "0.0618894",
      "wikidata": "Q705795",
      "admin_level": "6",
      "name:ko-Hani": "球場郡",
      "name:zh-Hant": "球場郡",
      "sorting_name:ru": "Куджан уезд"
    }
  },
  {
    "osm_id": -5453133,
    "boundary": "administrative",
    "admin_level": 6,
    "parents": "-356540,-192734",
    "name": "Unsan County",
    "local_name": "운산군",
    "name_en": "Unsan County",
    "all_tags": {
      "name": "운산군",
      "name:en": "Unsan County",
      "name:ja": "雲山郡",
      "name:ko": "운산군",
      "name:ru": "уезд Унсан",
      "name:uk": "Инсан",
      "name:zh": "云山郡",
      "boundary": "administrative",
      "way_area": "0.0917254",
      "wikidata": "Q708507",
      "admin_level": "6",
      "name:ko-Hani": "雲山郡",
      "name:zh-Hant": "雲山郡",
      "sorting_name:ru": "Унсан уезд"
    }
  },
  {
    "osm_id": -5453089,
    "boundary": "administrative",
    "admin_level": 6,
    "parents": "-356540,-192734",
    "name": "Pakchon County",
    "local_name": "박천군",
    "name_en": "Pakchon County",
    "all_tags": {
      "name": "박천군",
      "name:en": "Pakchon County",
      "name:ja": "博川郡",
      "name:ko": "박천군",
      "name:ru": "уезд Пакчхон",
      "name:zh": "博川郡",
      "boundary": "administrative",
      "way_area": "0.029403",
      "wikidata": "Q705768",
      "admin_level": "6",
      "name:ko-Hani": "博川郡",
      "name:zh-Hant": "博川郡",
      "sorting_name:ru": "Пакчхон уезд"
    }
  },
  {
    "osm_id": -5453088,
    "boundary": "administrative",
    "admin_level": 6,
    "parents": "-356540,-192734",
    "name": "Nyongbyon County",
    "local_name": "녕변군",
    "name_en": "Nyongbyon County",
    "all_tags": {
      "name": "녕변군",
      "name:en": "Nyongbyon County",
      "name:eo": "Jongbjono",
      "name:ja": "寧辺郡",
      "name:ko": "녕변군",
      "name:ru": "уезд Йонбён",
      "name:zh": "寧邊郡",
      "boundary": "administrative",
      "way_area": "0.052697",
      "wikidata": "Q4984076",
      "admin_level": "6",
      "name:ko-Hani": "寧邊郡",
      "name:zh-Hans": "宁边郡",
      "name:zh-Hant": "寧邊郡",
      "sorting_name:ru": "Йонбён уезд"
    }
  },
  {
    "osm_id": -5453023,
    "boundary": "administrative",
    "admin_level": 6,
    "parents": "-356540,-192734",
    "name": "Tongchang County",
    "local_name": "동창군",
    "name_en": "Tongchang County",
    "all_tags": {
      "name": "동창군",
      "name:en": "Tongchang County",
      "name:ja": "東倉郡",
      "name:ko": "동창군",
      "name:ru": "уезд Тончхан",
      "name:zh": "东仓郡",
      "boundary": "administrative",
      "way_area": "0.0703079",
      "wikidata": "Q705717",
      "admin_level": "6",
      "name:ko-Hani": "東倉郡",
      "name:zh-Hant": "東倉郡",
      "sorting_name:ru": "Тончхан уезд"
    }
  },
  {
    "osm_id": -5453015,
    "boundary": "administrative",
    "admin_level": 6,
    "parents": "-356540,-192734",
    "name": "Taechon County",
    "local_name": "태천군",
    "name_en": "Taechon County",
    "all_tags": {
      "name": "태천군",
      "name:en": "Taechon County",
      "name:ja": "泰川郡",
      "name:ko": "태천군",
      "name:ru": "уезд Тхэчхон",
      "name:zh": "泰川郡",
      "boundary": "administrative",
      "way_area": "0.0776824",
      "wikidata": "Q706060",
      "admin_level": "6",
      "name:ko-Hani": "泰川郡",
      "sorting_name:ru": "Тхэчхон уезд"
    }
  },
  {
    "osm_id": -5452929,
    "boundary": "administrative",
    "admin_level": 6,
    "parents": "-356540,-192734",
    "name": "Unjon County",
    "local_name": "운전군",
    "name_en": "Unjon County",
    "all_tags": {
      "name": "운전군",
      "name:en": "Unjon County",
      "name:ja": "雲田郡",
      "name:ko": "운전군",
      "name:ru": "уезд Унджон",
      "name:zh": "云田郡",
      "boundary": "administrative",
      "way_area": "0.0400079",
      "wikidata": "Q705484",
      "admin_level": "6",
      "name:ko-Hani": "雲田郡",
      "name:zh-Hant": "雲田郡",
      "sorting_name:ru": "Унджон уезд"
    }
  },
  {
    "osm_id": -5452899,
    "boundary": "administrative",
    "admin_level": 6,
    "parents": "-356540,-192734",
    "name": "Changsong County",
    "local_name": "창성군",
    "name_en": "Changsong County",
    "all_tags": {
      "name": "창성군",
      "name:en": "Changsong County",
      "name:ja": "昌城郡",
      "name:ko": "창성군",
      "name:ru": "уезд Чхансон",
      "name:zh": "昌城郡",
      "boundary": "administrative",
      "way_area": "0.0645122",
      "wikidata": "Q706048",
      "admin_level": "6",
      "name:ko-Hani": "昌城郡",
      "sorting_name:ru": "Чхансон уезд"
    }
  },
  {
    "osm_id": -5452898,
    "boundary": "administrative",
    "admin_level": 6,
    "parents": "-356540,-192734",
    "name": "Pyokdong County",
    "local_name": "벽동군",
    "name_en": "Pyokdong County",
    "all_tags": {
      "name": "벽동군",
      "name:en": "Pyokdong County",
      "name:ja": "碧潼郡",
      "name:ko": "벽동군",
      "name:ru": "уезд Пёктон",
      "name:uk": "Пьоктон",
      "name:zh": "碧潼郡",
      "boundary": "administrative",
      "way_area": "0.0676142",
      "wikidata": "Q706030",
      "admin_level": "6",
      "name:ko-Hani": "碧潼郡",
      "name:zh-Hant": "碧潼郡",
      "sorting_name:ru": "Пёктон уезд"
    }
  },
  {
    "osm_id": -5452836,
    "boundary": "administrative",
    "admin_level": 6,
    "parents": "-356540,-192734",
    "name": "Kusong",
    "local_name": "구성시",
    "name_en": "Kusong",
    "all_tags": {
      "name": "구성시",
      "name:en": "Kusong",
      "name:ja": "亀城市",
      "name:ko": "구성시",
      "name:ru": "Кусон",
      "name:zh": "龟城市",
      "boundary": "administrative",
      "way_area": "0.0675118",
      "wikidata": "Q431845",
      "admin_level": "6",
      "name:ko-Hani": "龜城市",
      "name:zh-Hant": "龜城市",
      "sorting_name:ru": "Кусон уезд"
    }
  },
  {
    "osm_id": -5452823,
    "boundary": "administrative",
    "admin_level": 6,
    "parents": "-356540,-192734",
    "name": "Taegwan County",
    "local_name": "대관군",
    "name_en": "Taegwan County",
    "all_tags": {
      "name": "대관군",
      "name:en": "Taegwan County",
      "name:ja": "大館郡",
      "name:ko": "대관군",
      "name:ru": "уезд Тэгван",
      "name:zh": "大馆郡",
      "boundary": "administrative",
      "way_area": "0.0889154",
      "wikidata": "Q705749",
      "admin_level": "6",
      "name:ko-Hani": "大館郡",
      "name:zh-Hant": "大館郡",
      "sorting_name:ru": "Тэгван уезд"
    }
  },
  {
    "osm_id": -5452811,
    "boundary": "administrative",
    "admin_level": 6,
    "parents": "-356540,-192734",
    "name": "Chongju",
    "local_name": "정주시",
    "name_en": "Chongju",
    "all_tags": {
      "name": "정주시",
      "name:en": "Chongju",
      "name:ja": "定州市",
      "name:ko": "정주시",
      "name:ru": "Чонджу",
      "name:zh": "定州市",
      "boundary": "administrative",
      "way_area": "0.074162",
      "wikidata": "Q213169",
      "admin_level": "6",
      "name:ko-Hani": "定州市"
    }
  },
  {
    "osm_id": -5452749,
    "boundary": "administrative",
    "admin_level": 6,
    "parents": "-356540,-192734",
    "name": "Sakju County",
    "local_name": "삭주군",
    "name_en": "Sakju County",
    "all_tags": {
      "name": "삭주군",
      "name:en": "Sakju County",
      "name:ja": "朔州郡",
      "name:ko": "삭주군",
      "name:ru": "уезд Сакчу",
      "name:zh": "朔州郡",
      "boundary": "administrative",
      "way_area": "0.0789561",
      "wikidata": "Q225068",
      "admin_level": "6",
      "name:ko-Hani": "朔州郡",
      "sorting_name:ru": "Сакчу уезд"
    }
  },
  {
    "osm_id": -5452734,
    "boundary": "administrative",
    "admin_level": 6,
    "parents": "-356540,-192734",
    "name": "Kwaksan County",
    "local_name": "곽산군",
    "name_en": "Kwaksan County",
    "all_tags": {
      "name": "곽산군",
      "name:en": "Kwaksan County",
      "name:ja": "郭山郡",
      "name:ko": "곽산군",
      "name:ru": "уезд Кваксан",
      "name:zh": "郭山郡",
      "boundary": "administrative",
      "way_area": "0.0664585",
      "wikidata": "Q705761",
      "admin_level": "6",
      "name:ko-Hani": "郭山郡",
      "sorting_name:ru": "Кваксан уезд"
    }
  },
  {
    "osm_id": -5452717,
    "boundary": "administrative",
    "admin_level": 6,
    "parents": "-356540,-192734",
    "name": "Chonma County",
    "local_name": "천마군",
    "name_en": "Chonma County",
    "all_tags": {
      "name": "천마군",
      "name:en": "Chonma County",
      "name:ja": "天摩郡",
      "name:ko": "천마군",
      "name:ru": "уезд Чхонма",
      "name:zh": "天摩郡",
      "boundary": "administrative",
      "way_area": "0.0801638",
      "wikidata": "Q705728",
      "admin_level": "6",
      "name:ko-Hani": "天摩郡",
      "sorting_name:ru": "Чхонма уезд"
    }
  },
  {
    "osm_id": -5452696,
    "boundary": "administrative",
    "admin_level": 6,
    "parents": "-356540,-192734",
    "name": "Sonchon County",
    "local_name": "선천군",
    "name_en": "Sonchon County",
    "all_tags": {
      "name": "선천군",
      "name:en": "Sonchon County",
      "name:ja": "宣川郡",
      "name:ko": "선천군",
      "name:ru": "уезд Сончхон",
      "name:zh": "宣川郡",
      "boundary": "administrative",
      "way_area": "0.0944699",
      "wikidata": "Q705831",
      "admin_level": "6",
      "name:ko-Hani": "宣川郡",
      "sorting_name:ru": "Сончхон уезд"
    }
  },
  {
    "osm_id": -5452597,
    "boundary": "administrative",
    "admin_level": 6,
    "parents": "-356540,-192734",
    "name": "Uiju County",
    "local_name": "의주군",
    "name_en": "Uiju County",
    "all_tags": {
      "name": "의주군",
      "name:en": "Uiju County",
      "name:ja": "義州郡",
      "name:ko": "의주군",
      "name:ru": "уезд Ыйджу",
      "name:uk": "Ийджу",
      "name:zh": "义州郡",
      "boundary": "administrative",
      "way_area": "0.0443331",
      "wikidata": "Q701248",
      "admin_level": "6",
      "name:ko-Hani": "義州郡",
      "name:zh-Hant": "義州郡",
      "sorting_name:ru": "Ыйджу уезд"
    }
  },
  {
    "osm_id": -5452592,
    "boundary": "administrative",
    "admin_level": 6,
    "parents": "-356540,-192734",
    "name": "Tongrim County",
    "local_name": "동림군",
    "name_en": "Tongrim County",
    "all_tags": {
      "name": "동림군",
      "name:en": "Tongrim County",
      "name:ja": "東林郡",
      "name:ko": "동림군",
      "name:ru": "уезд Тонним",
      "name:zh": "东林郡",
      "boundary": "administrative",
      "way_area": "0.0468602",
      "wikidata": "Q705745",
      "admin_level": "6",
      "name:ko-Hani": "東林郡",
      "name:zh-Hant": "東林郡",
      "sorting_name:ru": "Тонним уезд"
    }
  },
  {
    "osm_id": -5448332,
    "boundary": "administrative",
    "admin_level": 6,
    "parents": "-356540,-192734",
    "name": "Cholsan County",
    "local_name": "철산군",
    "name_en": "Cholsan County",
    "all_tags": {
      "name": "철산군",
      "name:en": "Cholsan County",
      "name:ja": "鉄山郡",
      "name:ko": "철산군",
      "name:ru": "уезд Чхольсан",
      "name:zh": "铁山郡",
      "boundary": "administrative",
      "way_area": "0.11597",
      "wikidata": "Q705468",
      "wikipedia": "ko:철산군",
      "admin_level": "6",
      "alt_name:en": "Cheolsan County",
      "name:ko-Hani": "鐵山郡",
      "name:zh-Hant": "鐵山郡",
      "sorting_name:ru": "Чхольсан уезд"
    }
  },
  {
    "osm_id": -5448288,
    "boundary": "administrative",
    "admin_level": 6,
    "parents": "-356540,-192734",
    "name": "Pihyon County",
    "local_name": "피현군",
    "name_en": "Pihyon County",
    "all_tags": {
      "name": "피현군",
      "name:en": "Pihyon County",
      "name:ja": "枇峴郡",
      "name:ko": "피현군",
      "name:ru": "уезд Пхихён",
      "name:zh": "枇岘郡",
      "boundary": "administrative",
      "way_area": "0.0465402",
      "wikidata": "Q706054",
      "admin_level": "6",
      "name:ko-Hani": "枇峴郡",
      "name:zh-Hant": "枇峴郡",
      "sorting_name:ru": "Пхихён уезд"
    }
  },
  {
    "osm_id": -5406211,
    "boundary": "administrative",
    "admin_level": 6,
    "parents": "-356540,-192734",
    "name": "Ryongchon County",
    "local_name": "룡천군",
    "name_en": "Ryongchon County",
    "all_tags": {
      "name": "룡천군",
      "name:en": "Ryongchon County",
      "name:ja": "龍川郡",
      "name:ko": "룡천군",
      "name:ru": "уезд Йончхон",
      "name:zh": "龙川郡",
      "boundary": "administrative",
      "way_area": "0.0231857",
      "wikidata": "Q586891",
      "admin_level": "6",
      "name:ko-Hani": "龍川郡",
      "name:zh-Hant": "龍川郡",
      "sorting_name:ru": "Йончхон уезд"
    }
  },
  {
    "osm_id": -5405593,
    "boundary": "administrative",
    "admin_level": 6,
    "parents": "-356540,-192734",
    "name": "Yomju County",
    "local_name": "염주군",
    "name_en": "Yomju County",
    "all_tags": {
      "name": "염주군",
      "name:en": "Yomju County",
      "name:ja": "塩州郡",
      "name:ko": "염주군",
      "name:ru": "уезд Йомджу",
      "name:zh": "盐州郡",
      "boundary": "administrative",
      "way_area": "0.0340532",
      "wikidata": "Q705815",
      "admin_level": "6",
      "name:ko-Hani": "塩州郡",
      "name:zh-Hant": "鹽州郡",
      "sorting_name:ru": "Йомджу уезд",
      "alt_name:ko-Hani": "鹽州郡"
    }
  },
  {
    "osm_id": -3860523,
    "boundary": "administrative",
    "admin_level": 6,
    "parents": "-356443,-192734",
    "name": "Kangdong County",
    "local_name": "강동군",
    "name_en": "Kangdong County",
    "all_tags": {
      "name": "강동군",
      "name:en": "Kangdong County",
      "name:ja": "江東郡",
      "name:ko": "강동군",
      "name:ru": "уезд Кандон",
      "name:zh": "江东郡",
      "boundary": "administrative",
      "way_area": "0.0585199",
      "wikidata": "Q224927",
      "admin_level": "6",
      "name:ko-Hani": "江東郡",
      "name:zh-Hant": "江東郡"
    }
  },
  {
    "osm_id": -3860518,
    "boundary": "administrative",
    "admin_level": 6,
    "parents": "-356442,-192734",
    "name": "Sungho County",
    "local_name": "승호군",
    "name_en": "Sungho County",
    "all_tags": {
      "name": "승호군",
      "name:en": "Sungho County",
      "name:ja": "勝湖郡",
      "name:ko": "승호군",
      "name:ru": "уезд Сынхо",
      "name:zh": "勝湖郡",
      "boundary": "administrative",
      "way_area": "0.0169833",
      "wikidata": "Q711262",
      "admin_level": "6",
      "name:ko-Hani": "勝湖郡"
    }
  },
  {
    "osm_id": -3859544,
    "boundary": "administrative",
    "admin_level": 6,
    "parents": "-356442,-192734",
    "name": "Chunghwa County",
    "local_name": "중화군",
    "name_en": "Chunghwa County",
    "all_tags": {
      "name": "중화군",
      "name:en": "Chunghwa County",
      "name:ja": "中和郡",
      "name:ko": "중화군",
      "name:ru": "уезд Чунхва",
      "name:zh": "中和郡",
      "boundary": "administrative",
      "way_area": "0.0206797",
      "wikidata": "Q704949",
      "admin_level": "6",
      "name:ko-Hani": "中和郡"
    }
  },
  {
    "osm_id": -3859517,
    "boundary": "administrative",
    "admin_level": 6,
    "parents": "-356443,-192734",
    "name": "Kangnam County",
    "local_name": "강남군",
    "name_en": "Kangnam County",
    "all_tags": {
      "name": "강남군",
      "name:en": "Kangnam County",
      "name:ja": "江南郡",
      "name:ko": "강남군",
      "name:ru": "уезд Каннам",
      "name:zh": "江南郡",
      "boundary": "administrative",
      "way_area": "0.0164182",
      "wikidata": "Q196331",
      "admin_level": "6",
      "name:ko-Hani": "江南郡"
    }
  },
  {
    "osm_id": -3781418,
    "boundary": "administrative",
    "admin_level": 4,
    "parents": "-192734",
    "name": "North Hamgyong",
    "local_name": "함경북도",
    "name_en": "North Hamgyong",
    "all_tags": {
      "name": "함경북도",
      "name:cs": "Severní Hamgjong",
      "name:de": "Nord-Hamgyŏng",
      "name:en": "North Hamgyong",
      "name:es": "Hamgyŏng del Norte",
      "name:fi": "Etelä-Hamgyŏng",
      "name:fr": "Hamgyong du Nord",
      "name:ja": "咸鏡北道",
      "name:ko": "함경북도",
      "name:ru": "Хамгён-Пукто",
      "name:zh": "咸镜北道",
      "boundary": "administrative",
      "way_area": "2.2835",
      "wikidata": "Q109361",
      "ISO3166-2": "KP-09",
      "admin_level": "4",
      "name:ko-Hani": "咸鏡北道",
      "name:ko-Latn": "Hamgyŏng-pukto",
      "name:zh-Hant": "咸鏡北道",
      "is_in:country": "North Korea",
      "is_in:continent": "Asia",
      "is_in:country_code": "KP"
    }
  },
  {
    "osm_id": -356540,
    "boundary": "administrative",
    "admin_level": 4,
    "parents": "-192734",
    "name": "North Pyongan",
    "local_name": "평안북도",
    "name_en": "North Pyongan",
    "all_tags": {
      "name": "평안북도",
      "name:cs": "Severní Pchjongan",
      "name:de": "Nord-P’yŏngan",
      "name:en": "North Pyongan",
      "name:es": "Pyongan del Norte",
      "name:fr": "Pyongan du Nord",
      "name:ja": "平安北道",
      "name:ko": "평안북도",
      "name:ru": "Пхёнан-Пукто",
      "name:vi": "Bình An Bắc",
      "name:zh": "平安北道",
      "boundary": "administrative",
      "way_area": "1.83859",
      "wikidata": "Q109348",
      "ISO3166-2": "KP-03",
      "admin_level": "4",
      "name:ko-Hani": "平安北道",
      "name:ko-Latn": "P’yŏngan-pukto",
      "is_in:country": "North Korea",
      "is_in:continent": "Asia",
      "is_in:country_code": "KP"
    }
  },
  {
    "osm_id": -356539,
    "boundary": "administrative",
    "admin_level": 6,
    "parents": "-356540,-192734",
    "name": "Sinuiju",
    "local_name": "신의주시",
    "name_en": "Sinuiju",
    "all_tags": {
      "name": "신의주시",
      "name:cs": "Sinuidžu",
      "name:en": "Sinuiju",
      "name:eo": "Sinviĵuo",
      "name:ja": "新義州市",
      "name:ko": "신의주시",
      "name:ru": "Синыйджу",
      "name:zh": "新义州市",
      "boundary": "administrative",
      "name:yue": "新義州市",
      "way_area": "0.0201369",
      "wikidata": "Q156243",
      "admin_level": "6",
      "name:ko-Hani": "新義州市",
      "name:zh-Hant": "新義州市"
    }
  },
  {
    "osm_id": -356535,
    "boundary": "administrative",
    "admin_level": 4,
    "parents": "-192734",
    "name": "Kangwon",
    "local_name": "강원도",
    "name_en": "Kangwon",
    "all_tags": {
      "name": "강원도",
      "name:bg": "Кануън",
      "name:ca": "Kangwon",
      "name:cs": "Kangwon",
      "name:da": "Kangwon",
      "name:de": "Kangwŏn-do",
      "name:el": "Γκάνγουον-ντο",
      "name:en": "Kangwon",
      "name:eo": "Kangŭon",
      "name:es": "Provincia de Kangwon",
      "name:eu": "Kangwon",
      "name:fa": "استان کانگوون",
      "name:fi": "Gangwon",
      "name:fr": "Kangwon",
      "name:hu": "Kangvon",
      "name:hy": "Կանգվանդո",
      "name:id": "Kangwon-do",
      "name:it": "Kangwon",
      "name:ja": "江原道",
      "name:ko": "강원도",
      "name:lt": "Kangvono provincija",
      "name:mn": "Умар Солонгосын Канвонь",
      "name:ms": "Kangwŏn",
      "name:nl": "Kangwŏn-do",
      "name:no": "Kangwon",
      "name:pl": "Kangwŏn",
      "name:pt": "Kangwon",
      "name:ro": "Provincia Kangwon",
      "name:ru": "Канвондо",
      "name:sv": "Kangwon",
      "name:th": "จังหวัดคังว็อน",
      "name:tl": "Lalawigan ng Kangwon",
      "name:tr": "Kangvon ili",
      "name:uk": "Канвон",
      "name:ur": "کانگوون صوبہ",
      "name:vi": "Kangwon",
      "name:zh": "江原道",
      "boundary": "administrative",
      "way_area": "1.43932",
      "wikidata": "Q41416",
      "ISO3166-2": "KP-07",
      "wikipedia": "en:Kangwon Province (North Korea)",
      "admin_level": "4",
      "is_in:country": "North Korea",
      "is_in:continent": "Asia",
      "is_in:country_code": "KP"
    }
  },
  {
    "osm_id": -356533,
    "boundary": "administrative",
    "admin_level": 4,
    "parents": "-192734",
    "name": "South Hwanghae",
    "local_name": "황해남도",
    "name_en": "South Hwanghae",
    "all_tags": {
      "name": "황해남도",
      "name:bg": "Южен Хванхе",
      "name:cs": "Jižní Hwanghe",
      "name:da": "Sydhwanghae",
      "name:de": "Hwanghae-namdo",
      "name:en": "South Hwanghae",
      "name:eo": "Sud-Hŭanghae",
      "name:es": "Hwanghae del Sur",
      "name:fi": "Etelä-Hwanghae",
      "name:fr": "Hwanghae du Sud",
      "name:id": "Hwanghae Selatan",
      "name:it": "Sud Hwanghae",
      "name:ja": "黄海南道",
      "name:ko": "황해남도",
      "name:lt": "Pietų Hvanghės provincija",
      "name:nl": "Hwanghae-namdo",
      "name:no": "Sør-Hwanghae",
      "name:pl": "Hwanghae Południowe",
      "name:pt": "Hwanghae Sul",
      "name:ru": "Хванхэ-Намдо",
      "name:sv": "Södra Hwanghae",
      "name:uk": "Південна провінція Хванхе",
      "name:vi": "Hoàng Hải Nam",
      "name:zh": "黄海南道",
      "boundary": "administrative",
      "way_area": "1.37954",
      "wikidata": "Q626052",
      "ISO3166-2": "KP-05",
      "wikipedia": "en:South Hwanghae Province",
      "admin_level": "4",
      "name:ko-Hani": "黃海南道",
      "name:zh-Hans": "黄海南道",
      "name:zh-Hant": "黃海南道",
      "is_in:country": "North Korea",
      "is_in:continent": "Asia",
      "is_in:country_code": "KP"
    }
  },
  {
    "osm_id": -356443,
    "boundary": "administrative",
    "admin_level": 4,
    "parents": "-192734",
    "name": "Pyongyang",
    "local_name": "평양시",
    "name_en": "Pyongyang",
    "all_tags": {
      "name": "평양시",
      "name:af": "Pjongjang",
      "name:am": "ፕዮንግያንግ",
      "name:an": "Pyongyang",
      "name:ar": "بيونغيانغ",
      "name:az": "Pxenyan",
      "name:be": "Пхеньян",
      "name:bg": "Пхенян",
      "name:bn": "পিয়ং ইয়াং",
      "name:bo": "ཕོང་ཡང་།",
      "name:br": "Pyongyang",
      "name:bs": "Pjongjang",
      "name:ca": "Pyongyang",
      "name:cs": "Pchjongjang",
      "name:cy": "P'yŏngyang",
      "name:da": "Pyongyang",
      "name:de": "Pjöngjang",
      "name:el": "Πιονγιάνγκ",
      "name:en": "Pyongyang",
      "name:eo": "Pjongjango",
      "name:es": "Pyongyang",
      "name:et": "P'yŏngyang",
      "name:eu": "Piongiang",
      "name:fa": "پیونگ‌یانگ",
      "name:fi": "Pjongjang",
      "name:fo": "Pyongyang",
      "name:fr": "Pyongyang",
      "name:fy": "Pyongyang",
      "name:ga": "Pyongyang",
      "name:gd": "Pyongyang",
      "name:gl": "Pyongyang",
      "name:he": "פיונגיאנג",
      "name:hi": "प्योंगयांग",
      "name:hr": "Pjongjang",
      "name:ht": "Pyongyang",
      "name:hu": "Phenjan",
      "name:hy": "Պխենյան",
      "name:id": "Pyongyang",
      "name:io": "Pyongyang",
      "name:is": "Pjongjang",
      "name:it": "Pyongyang",
      "name:ja": "平壌市",
      "name:jv": "Pyongyang",
      "name:ka": "ფხენიანი",
      "name:kk": "Пхеньян",
      "name:kl": "Pyongyang",
      "name:kn": "ಪ್ಯೊನ್ಗ್ಯಾಂಗ್",
      "name:ko": "평양시",
      "name:ku": "Pyongyang",
      "name:la": "Pyeongyangum",
      "name:lt": "Pchenjanas",
      "name:lv": "Phenjana",
      "name:mi": "Pyongyang",
      "name:mk": "Пјонгјанг",
      "name:mn": "Пхеньян",
      "name:mr": "प्याँगयांग",
      "name:ms": "Pyongyang",
      "name:nl": "Pyongyang",
      "name:nn": "Pyongyang",
      "name:no": "Pyongyang",
      "name:oc": "Pyeongyang",
      "name:os": "Пхеньян",
      "name:pl": "Pjongjang",
      "name:ps": "پيونګيانګ",
      "name:pt": "Pyongyang",
      "name:ro": "Phenian",
      "name:ru": "Пхеньян",
      "name:sh": "Pjongjang",
      "name:sk": "Pchjongjang",
      "name:sl": "Pjongjang",
      "name:sq": "Pjongian",
      "name:sr": "Пјонгјанг",
      "name:sv": "Pyongyang",
      "name:sw": "Pyongyang",
      "name:ta": "பியொங்யாங்",
      "name:th": "เปียงยาง",
      "name:tl": "Pyongyang",
      "name:tr": "Pyongyang",
      "name:tt": "Пхеньян",
      "name:ug": "Pyongyang",
      "name:uk": "Пхеньян",
      "name:ur": "پیانگ یانگ",
      "name:vi": "Bình Nhưỡng",
      "name:vo": "Pyöngyang",
      "name:yi": "פיאנגיאנג",
      "name:yo": "Pyongyang",
      "name:zh": "平壤市",
      "boundary": "administrative",
      "name:ace": "Pyeongyang",
      "name:ast": "Pyongyang",
      "name:ckb": "پیۆنگیانگ",
      "name:csb": "P'yŏngyang",
      "name:diq": "Pyongyang",
      "name:dsb": "Pchjongjang",
      "name:hif": "Pyongyang",
      "name:ilo": "Pyongyang",
      "name:lez": "Пхеньян",
      "name:lmo": "Pyongyang",
      "name:lzh": "平壤市",
      "name:mzn": "پيونگ يانگ",
      "name:nah": "Pionyang",
      "name:nan": "Pyongyang",
      "name:nap": "Pyongyang",
      "name:nov": "Pyongyang",
      "name:pms": "Pyongyang",
      "name:pnb": "پیانگ یانگ",
      "name:scn": "Pyongyang",
      "name:sco": "Pyongyang",
      "name:tpi": "Pyongyang",
      "name:war": "Pyongyang",
      "name:wuu": "平壤市",
      "name:yue": "平壤市",
      "way_area": "0.19426",
      "wikidata": "Q18808",
      "ISO3166-2": "KP-01",
      "admin_level": "4",
      "name:bat-smg": "Pchenjans",
      "name:ko-Hani": "平壤市",
      "name:ko-Latn": "P'yŏngyang",
      "is_in:country": "North Korea",
      "official_name": "평양직할시",
      "name:be-tarask": "Пхеньян",
      "is_in:continent": "Asia",
      "official_name:ko": "평양직할시",
      "official_name:zh": "平壤直轄市",
      "is_in:country_code": "KP",
      "official_name:ko-Hani": "平壤直轄市",
      "official_name:ko-Latn": "P'yŏngyang Chikhalsi"
    }
  },
  {
    "osm_id": -356442,
    "boundary": "administrative",
    "admin_level": 4,
    "parents": "-192734",
    "name": "North Hwanghae",
    "local_name": "황해북도",
    "name_en": "North Hwanghae",
    "all_tags": {
      "name": "황해북도",
      "name:ar": "هوانغهاي الشمالية",
      "name:bg": "Северен Хванхе",
      "name:ca": "Hwanghae del Nord",
      "name:cs": "Severní Hwanghe",
      "name:da": "Nordhwanghae",
      "name:de": "Hwanghae-pukto",
      "name:en": "North Hwanghae",
      "name:eo": "Nord-Hŭanghae",
      "name:es": "Provincia de Hwanghae del Norte",
      "name:eu": "Ipar Hwanghae",
      "name:fa": "استان هوانگهه شمالی",
      "name:fi": "Pohjois-Hwanghae",
      "name:fr": "Hwanghae du Nord",
      "name:hu": "Észak-Hvanghe",
      "name:id": "Hwanghae Utara",
      "name:it": "Hwanghae Settentrionale",
      "name:ja": "黄海北道",
      "name:ko": "황해북도",
      "name:lt": "Šiaurės Hvanghės provincija",
      "name:mn": "Умар Хуанхэ",
      "name:ms": "Wilayah Hwanghae Utara",
      "name:nl": "Hwanghae-pukto",
      "name:no": "Nord-Hwanghae",
      "name:pl": "Hwanghae Północne",
      "name:pt": "Hwanghae Norte",
      "name:ro": "Provincia Hwanghae de Nord",
      "name:ru": "Хванхэ-Пукто",
      "name:sv": "Norra Hwanghae",
      "name:tl": "Lalawigan ng Hilagang Hwanghae",
      "name:tr": "Kuzey Hwanghae",
      "name:uk": "Північна провінція Хванхе",
      "name:ur": "شمالی ہوانگہائے صوبہ",
      "name:vi": "Hwanghae Bắc",
      "name:zh": "黄海北道",
      "boundary": "administrative",
      "way_area": "0.986635",
      "wikidata": "Q109342",
      "ISO3166-2": "KP-06",
      "wikipedia": "ko:황해북도",
      "admin_level": "4",
      "name:ko-Hani": "黃海北道",
      "name:zh-Hant": "黃海北道",
      "is_in:country": "North Korea",
      "is_in:continent": "Asia",
      "is_in:country_code": "KP"
    }
  },
  {
    "osm_id": -356419,
    "boundary": "administrative",
    "admin_level": 4,
    "parents": "-192734",
    "name": "South Pyongan",
    "local_name": "평안남도",
    "name_en": "South Pyongan",
    "all_tags": {
      "name": "평안남도",
      "name:bg": "Южен Пхьонан",
      "name:cs": "Jižní Pchjongan",
      "name:da": "Sydpyongan",
      "name:de": "Süd-P’yŏngan",
      "name:en": "South Pyongan",
      "name:eo": "Sud-Pjongan",
      "name:es": "P'yŏngan del Sur",
      "name:fi": "Etelä-P'yŏngan",
      "name:fr": "Pyongan du Sud",
      "name:hu": "Dél-Phjongan",
      "name:id": "P'yŏngan Selatan",
      "name:it": "Sud Pyongan",
      "name:ja": "平安南道",
      "name:ko": "평안남도",
      "name:lt": "Pietų Pchenjano provincija",
      "name:nl": "P'yŏngan-namdo",
      "name:no": "Sør-Pyongan",
      "name:pl": "P'yŏngan Południowy",
      "name:pt": "Pyongan Sul",
      "name:ru": "Пхёнан-Намдо",
      "name:sv": "Södra P'yŏngan",
      "name:th": "มณฑลพยองอันใต้",
      "name:uk": "Південна провінція Пхьонан",
      "name:vi": "Bình An Nam",
      "name:zh": "平安南道",
      "boundary": "administrative",
      "way_area": "1.31231",
      "wikidata": "Q109380",
      "ISO3166-2": "KP-02",
      "wikipedia": "en:South Pyongan Province",
      "admin_level": "4",
      "name:ko-Hani": "平安南道",
      "name:ko-Latn": "P’yŏngan-namdo",
      "is_in:country": "North Korea",
      "is_in:continent": "Asia",
      "is_in:country_code": "KP"
    }
  },
  {
    "osm_id": -356392,
    "boundary": "administrative",
    "admin_level": 4,
    "parents": "-192734",
    "name": "Chagang",
    "local_name": "자강도",
    "name_en": "Chagang",
    "all_tags": {
      "name": "자강도",
      "name:cs": "Čagang",
      "name:de": "Chagang-do",
      "name:en": "Chagang",
      "name:es": "Chagang",
      "name:fr": "Jagang",
      "name:ja": "慈江道",
      "name:ko": "자강도",
      "name:ru": "Чагандо",
      "name:zh": "慈江道",
      "boundary": "administrative",
      "way_area": "1.77854",
      "wikidata": "Q272406",
      "ISO3166-2": "KP-04",
      "wikipedia": "ko:자강도",
      "admin_level": "4",
      "name:ko-Hani": "慈江道",
      "is_in:country": "North Korea",
      "is_in:continent": "Asia",
      "is_in:country_code": "KP"
    }
  },
  {
    "osm_id": -356386,
    "boundary": "administrative",
    "admin_level": 4,
    "parents": "-192734",
    "name": "South Hamgyong",
    "local_name": "함경남도",
    "name_en": "South Hamgyong",
    "all_tags": {
      "name": "함경남도",
      "name:bg": "Южен Хамгьон",
      "name:cs": "Jižní Hamgjong",
      "name:da": "Syd-Hamgyong",
      "name:de": "Hamgyŏng-namdo",
      "name:en": "South Hamgyong",
      "name:eo": "Sud-Hamgjong",
      "name:es": "Hamgyŏng del Sur",
      "name:fi": "Etelä-Hamgyŏng",
      "name:fr": "Hamgyong du Sud",
      "name:id": "Hamgyong Selatan",
      "name:it": "Sud Hamgyong",
      "name:ja": "咸鏡南道",
      "name:ko": "함경남도",
      "name:lt": "Pietų Hamgiongo provincija",
      "name:nl": "Hamgyŏng-namdo",
      "name:no": "Sør-Hamgyong",
      "name:pl": "Hamgyŏng Południowy",
      "name:pt": "Hamgyong Sul",
      "name:ru": "Хамгён-Намдо",
      "name:sv": "Södra Hamgyong",
      "name:uk": "Південна провінція Хамгьон",
      "name:vi": "Hamgyong Nam",
      "name:zh": "咸镜南道",
      "boundary": "administrative",
      "way_area": "2.55813",
      "wikidata": "Q109368",
      "ISO3166-2": "KP-08",
      "wikipedia": "en:South Hamgyong Province",
      "admin_level": "4",
      "name:ko-Hani": "咸鏡南道",
      "name:ko-Latn": "Hamgyŏngnam-do",
      "name:zh-Hant": "咸鏡南道",
      "is_in:country": "North Korea",
      "is_in:continent": "Asia",
      "is_in:country_code": "KP"
    }
  },
  {
    "osm_id": -356379,
    "boundary": "administrative",
    "admin_level": 4,
    "parents": "-192734",
    "name": "Ryanggang",
    "local_name": "량강도",
    "name_en": "Ryanggang",
    "all_tags": {
      "name": "량강도",
      "name:cs": "Rjanggang",
      "name:de": "Ryanggang-do",
      "name:en": "Ryanggang",
      "name:es": "Ryanggang",
      "name:fr": "Ryanggang",
      "name:ja": "両江道",
      "name:ko": "량강도",
      "name:ru": "Янгандо",
      "name:zh": "两江道",
      "boundary": "administrative",
      "way_area": "1.50015",
      "wikidata": "Q110171",
      "ISO3166-2": "KP-10",
      "wikipedia": "ko:량강도",
      "admin_level": "4",
      "name:ko-Hani": "兩江道",
      "name:zh-Hant": "兩江道",
      "is_in:country": "North Korea",
      "is_in:continent": "Asia",
      "is_in:country_code": "KP"
    }
  }
]
