[
  {
    "osm_id": -7817657,
    "boundary": "administrative",
    "admin_level": 6,
    "parents": "-2304454,-307756",
    "name": "Goryeong-gun",
    "local_name": "고령군",
    "name_en": "Goryeong-gun",
    "all_tags": {
      "name": "고령군",
      "name:en": "Goryeong-gun",
      "name:ja": "高霊郡",
      "name:ko": "고령군",
      "name:zh": "高靈郡",
      "boundary": "administrative",
      "way_area": "0.0387536",
      "admin_level": "6",
      "name:ko-Hani": "高靈郡"
    }
  },
  {
    "osm_id": -7831215,
    "boundary": "administrative",
    "admin_level": 6,
    "parents": "-2393403,-307756",
    "name": "Tongyeong-si",
    "local_name": "통영시",
    "name_en": "Tongyeong-si",
    "all_tags": {
      "name": "통영시",
      "name:en": "Tongyeong-si",
      "name:ja": "統営市",
      "name:ko": "통영시",
      "name:zh": "統營市",
      "boundary": "administrative",
      "way_area": "0.340449",
      "wikidata": "Q27286246",
      "admin_level": "6",
      "name:ko-Hani": "統營市"
    }
  },
  {
    "osm_id": -7618926,
    "boundary": "administrative",
    "admin_level": 6,
    "parents": "-2327259,-307756",
    "name": "Boryeong-si",
    "local_name": "보령시",
    "name_en": "Boryeong-si",
    "all_tags": {
      "name": "보령시",
      "name:en": "Boryeong-si",
      "name:ja": "保寧市",
      "name:ko": "보령시",
      "name:zh": "保宁市",
      "boundary": "administrative",
      "way_area": "0.227182",
      "wikidata": "Q42098",
      "wikipedia": "ko:보령시",
      "admin_level": "6",
      "name:ko-Hani": "保寧市",
      "name:zh-Hant": "保寧市"
    }
  },
  {
    "osm_id": -5524156,
    "boundary": "administrative",
    "admin_level": 6,
    "parents": "-2398560,-307756",
    "name": "Seogwipo-si",
    "local_name": "서귀포시",
    "name_en": "Seogwipo-si",
    "all_tags": {
      "name": "서귀포시",
      "name:cs": "Sogüpcho",
      "name:el": "Σόγκουιπο",
      "name:en": "Seogwipo-si",
      "name:ja": "西帰浦市",
      "name:ko": "서귀포시",
      "name:zh": "西归浦市",
      "boundary": "administrative",
      "way_area": "0.230158",
      "wikidata": "Q42103",
      "wikipedia": "ko:서귀포시",
      "admin_level": "6",
      "name:ko-Hani": "西歸浦市",
      "name:zh-Hans": "西归浦市",
      "name:zh-Hant": "西歸浦市"
    }
  },
  {
    "osm_id": -7689290,
    "boundary": "administrative",
    "admin_level": 6,
    "parents": "-2398104,-307756",
    "name": "Goheung-gun",
    "local_name": "고흥군",
    "name_en": "Goheung-gun",
    "all_tags": {
      "name": "고흥군",
      "name:en": "Goheung-gun",
      "name:ja": "高興郡",
      "name:ko": "고흥군",
      "name:zh": "高興郡",
      "boundary": "administrative",
      "way_area": "0.191769",
      "admin_level": "6",
      "name:ko-Hani": "高興郡"
    }
  },
  {
    "osm_id": -5523589,
    "boundary": "administrative",
    "admin_level": 6,
    "parents": "-2398560,-307756",
    "name": "Jeju",
    "local_name": "제주시",
    "name_en": "Jeju",
    "all_tags": {
      "name": "제주시",
      "name:cs": "Čedžu",
      "name:en": "Jeju",
      "name:ja": "済州市",
      "name:zh": "济州市",
      "boundary": "administrative",
      "way_area": "0.168561",
      "wikidata": "Q42142",
      "wikipedia": "ko:제주시",
      "admin_level": "6",
      "name:ko-Hani": "濟州市",
      "name:zh-Hans": "济州市",
      "name:zh-Hant": "濟州市"
    }
  },
  {
    "osm_id": -7740687,
    "boundary": "administrative",
    "admin_level": 6,
    "parents": "-2304454,-307756",
    "name": "Pohang-si",
    "local_name": "포항시",
    "name_en": "Pohang-si",
    "all_tags": {
      "name": "포항시",
      "name:el": "Πόχανγκ",
      "name:en": "Pohang-si",
      "name:ja": "浦項市",
      "name:ko": "포항시",
      "name:zh": "浦項市",
      "boundary": "administrative",
      "way_area": "0.14035",
      "population": "514869",
      "admin_level": "6",
      "name:ko-Hani": "浦項市"
    }
  },
  {
    "osm_id": -7584473,
    "boundary": "administrative",
    "admin_level": 6,
    "parents": "-2393403,-307756",
    "name": "Namhae-gun",
    "local_name": "남해군",
    "name_en": "Namhae-gun",
    "all_tags": {
      "name": "남해군",
      "name:en": "Namhae-gun",
      "name:ja": "南海郡",
      "name:ko": "남해군",
      "name:zh": "南海郡",
      "boundary": "administrative",
      "way_area": "0.16199",
      "wikidata": "Q26123",
      "admin_level": "6",
      "name:ko-Hani": "南海郡",
      "name:ko-Latn": "Namhaegun"
    }
  },
  {
    "osm_id": -2419948,
    "boundary": "administrative",
    "admin_level": 6,
    "parents": "-2297418,-307756",
    "name": "Jungnang-gu",
    "local_name": "중랑구",
    "name_en": "Jungnang-gu",
    "all_tags": {
      "ref": "07",
      "name": "중랑구",
      "name:en": "Jungnang-gu",
      "name:ja": "中浪区",
      "name:ko": "중랑구",
      "name:zh": "中浪區",
      "boundary": "administrative",
      "way_area": "0.0018518",
      "wikidata": "Q50444",
      "wikipedia": "ko:중랑구",
      "admin_level": "6",
      "name:ko-Hani": "中浪區"
    }
  },
  {
    "osm_id": -7689296,
    "boundary": "administrative",
    "admin_level": 6,
    "parents": "-2398104,-307756",
    "name": "Haenam-gun",
    "local_name": "해남군",
    "name_en": "Haenam-gun",
    "all_tags": {
      "name": "해남군",
      "name:en": "Haenam-gun",
      "name:ja": "海南郡",
      "name:ko": "해남군",
      "name:zh": "海南郡",
      "boundary": "administrative",
      "way_area": "0.130737",
      "admin_level": "6",
      "name:ko-Hani": "海南郡"
    }
  },
  {
    "osm_id": -2505205,
    "boundary": "administrative",
    "admin_level": 6,
    "parents": "-2297419,-307756",
    "name": "Ganghwa-gun",
    "local_name": "강화군",
    "name_en": "Ganghwa-gun",
    "all_tags": {
      "name": "강화군",
      "name:en": "Ganghwa-gun",
      "name:ja": "江華郡",
      "name:ko": "강화군",
      "name:zh": "江华郡",
      "boundary": "administrative",
      "way_area": "0.11889",
      "wikidata": "Q50205",
      "wikipedia": "ko:강화군",
      "admin_level": "6",
      "name:ko-Hani": "江華郡",
      "name:zh-Hant": "江華郡"
    }
  },
  {
    "osm_id": -2419951,
    "boundary": "administrative",
    "admin_level": 6,
    "parents": "-2297418,-307756",
    "name": "Seodaemun-gu",
    "local_name": "서대문구",
    "name_en": "Seodaemun-gu",
    "all_tags": {
      "ref": "13",
      "name": "서대문구",
      "name:en": "Seodaemun-gu",
      "name:ja": "西大門区",
      "name:ko": "서대문구",
      "name:zh": "西大門區",
      "boundary": "administrative",
      "way_area": "0.00180723",
      "wikidata": "Q50408",
      "wikipedia": "ko:서대문구",
      "admin_level": "6",
      "name:ko-Hani": "西大門區"
    }
  },
  {
    "osm_id": -2546884,
    "boundary": "administrative",
    "admin_level": 6,
    "parents": "-2327259,-307756",
    "name": "Dangjin-si",
    "local_name": "당진시",
    "name_en": "Dangjin-si",
    "all_tags": {
      "name": "당진시",
      "name:en": "Dangjin-si",
      "name:ja": "唐津市",
      "name:ko": "당진시",
      "name:zh": "唐津市",
      "boundary": "administrative",
      "way_area": "0.0895648",
      "wikidata": "Q42089",
      "wikipedia": "it:Dangjin",
      "admin_level": "6",
      "name:ko-Hani": "唐津市"
    }
  },
  {
    "osm_id": -7029833,
    "boundary": "administrative",
    "admin_level": 6,
    "parents": "-2304454,-307756",
    "name": "Yeongdeok-gun",
    "local_name": "영덕군",
    "name_en": "Yeongdeok-gun",
    "all_tags": {
      "name": "영덕군",
      "name:en": "Yeongdeok-gun",
      "name:ja": "盈徳郡",
      "name:ko": "영덕군",
      "name:zh": "盈德郡",
      "boundary": "administrative",
      "way_area": "0.0841193",
      "admin_level": "6",
      "name:ko-Hani": "盈德郡"
    }
  },
  {
    "osm_id": -7689294,
    "boundary": "administrative",
    "admin_level": 6,
    "parents": "-2398104,-307756",
    "name": "Jangheung-gun",
    "local_name": "장흥군",
    "name_en": "Jangheung-gun",
    "all_tags": {
      "name": "장흥군",
      "name:en": "Jangheung-gun",
      "name:ja": "長興郡",
      "name:ko": "장흥군",
      "name:zh": "長興郡",
      "boundary": "administrative",
      "way_area": "0.076228",
      "admin_level": "6",
      "name:ko-Hani": "長興郡"
    }
  },
  {
    "osm_id": -2538332,
    "boundary": "administrative",
    "admin_level": 6,
    "parents": "-2327258,-307756",
    "name": "Danyang-gun",
    "local_name": "단양군",
    "name_en": "Danyang-gun",
    "all_tags": {
      "name": "단양군",
      "name:en": "Danyang-gun",
      "name:ja": "丹陽郡",
      "name:ko": "단양군",
      "name:zh": "丹阳郡",
      "boundary": "administrative",
      "way_area": "0.0789877",
      "wikidata": "Q50220",
      "wikipedia": "ko:단양군",
      "admin_level": "6",
      "name:ko-Hani": "丹陽郡",
      "name:ko-Latn": "Danyang-gun",
      "name:zh-Hant": "丹陽郡"
    }
  },
  {
    "osm_id": -7619551,
    "boundary": "administrative",
    "admin_level": 6,
    "parents": "-2327259,-307756",
    "name": "Seocheon-gun",
    "local_name": "서천군",
    "name_en": "Seocheon-gun",
    "all_tags": {
      "name": "서천군",
      "name:en": "Seocheon-gun",
      "name:ja": "舒川郡",
      "name:ko": "서천군",
      "name:zh": "舒川郡",
      "boundary": "administrative",
      "way_area": "0.0772489",
      "admin_level": "6",
      "name:ko-Hani": "舒川郡"
    }
  },
  {
    "osm_id": -7689291,
    "boundary": "administrative",
    "admin_level": 6,
    "parents": "-2398104,-307756",
    "name": "Boseong-gun",
    "local_name": "보성군",
    "name_en": "Boseong-gun",
    "all_tags": {
      "name": "보성군",
      "name:en": "Boseong-gun",
      "name:ja": "宝城郡",
      "name:ko": "보성군",
      "name:zh": "寶城郡",
      "boundary": "administrative",
      "way_area": "0.0771861",
      "admin_level": "6",
      "name:ko-Hani": "寶城郡"
    }
  },
  {
    "osm_id": -7764032,
    "boundary": "administrative",
    "admin_level": 6,
    "parents": "-2304454,-307756",
    "name": "Yeongju-si",
    "local_name": "영주시",
    "name_en": "Yeongju-si",
    "all_tags": {
      "name": "영주시",
      "name:en": "Yeongju-si",
      "name:ja": "栄州市",
      "name:ko": "영주시",
      "name:zh": "榮州市",
      "boundary": "administrative",
      "way_area": "0.0682421",
      "wikidata": "Q27284463",
      "admin_level": "6",
      "name:ko-Hani": "榮州市"
    }
  },
  {
    "osm_id": -7619923,
    "boundary": "administrative",
    "admin_level": 6,
    "parents": "-2355168,-307756",
    "name": "Gimje-si",
    "local_name": "김제시",
    "name_en": "Gimje-si",
    "all_tags": {
      "name": "김제시",
      "name:en": "Gimje-si",
      "name:ja": "金堤市",
      "name:ko": "김제시",
      "name:zh": "金堤市",
      "boundary": "administrative",
      "way_area": "0.0675849",
      "wikidata": "Q27279481",
      "admin_level": "6",
      "name:ko-Hani": "金堤市"
    }
  },
  {
    "osm_id": -7624184,
    "boundary": "administrative",
    "admin_level": 6,
    "parents": "-2398104,-307756",
    "name": "Muan-gun",
    "local_name": "무안군",
    "name_en": "Muan-gun",
    "all_tags": {
      "name": "무안군",
      "name:en": "Muan-gun",
      "name:ja": "務安郡",
      "name:ko": "무안군",
      "name:zh": "務安郡",
      "boundary": "administrative",
      "way_area": "0.0650977",
      "admin_level": "6",
      "name:ko-Hani": "務安郡"
    }
  },
  {
    "osm_id": -7817880,
    "boundary": "administrative",
    "admin_level": 6,
    "parents": "-2304454,-307756",
    "name": "Seongju-gun",
    "local_name": "성주군",
    "name_en": "Seongju-gun",
    "all_tags": {
      "name": "성주군",
      "name:en": "Seongju-gun",
      "name:ja": "星州郡",
      "name:ko": "성주군",
      "name:zh": "星州郡",
      "boundary": "administrative",
      "way_area": "0.0612843",
      "admin_level": "6",
      "name:ko-Hani": "星州郡"
    }
  },
  {
    "osm_id": -3972089,
    "boundary": "administrative",
    "admin_level": 6,
    "parents": "-2395674,-307756",
    "name": "Nam-gu",
    "local_name": "남구",
    "name_en": "Nam-gu",
    "all_tags": {
      "name": "남구",
      "name:de": "Nam-gu",
      "name:en": "Nam-gu",
      "name:ja": "南区",
      "name:ko": "남구",
      "name:zh": "南區",
      "boundary": "administrative",
      "way_area": "0.00176932",
      "wikidata": "Q50362",
      "admin_level": "6",
      "name:ko-Hani": "南區"
    }
  },
  {
    "osm_id": -3972379,
    "boundary": "administrative",
    "admin_level": 6,
    "parents": "-2396450,-307756",
    "name": "Gijang-gun",
    "local_name": "기장군",
    "name_en": "Gijang-gun",
    "all_tags": {
      "name": "기장군",
      "name:de": "Gijang-gun",
      "name:en": "Gijang-gun",
      "name:ja": "機張郡",
      "name:ko": "기장군",
      "name:zh": "機張郡",
      "boundary": "administrative",
      "way_area": "0.0560843",
      "wikidata": "Q50217",
      "admin_level": "6",
      "name:ko-Hani": "機張郡"
    }
  },
  {
    "osm_id": -8127813,
    "boundary": "administrative",
    "admin_level": 6,
    "parents": "-2395867,-307756",
    "name": "Dong-gu",
    "local_name": "동구",
    "name_en": "Dong-gu",
    "all_tags": {
      "name": "동구",
      "name:en": "Dong-gu",
      "name:ja": "東区",
      "name:ko": "동구",
      "name:zh": "東區",
      "boundary": "administrative",
      "way_area": "0.0524213",
      "wikidata": "Q50379",
      "admin_level": "6",
      "name:ko-Hani": "東區"
    }
  },
  {
    "osm_id": -7689295,
    "boundary": "administrative",
    "admin_level": 6,
    "parents": "-2398104,-307756",
    "name": "Gangjin-gun",
    "local_name": "강진군",
    "name_en": "Gangjin-gun",
    "all_tags": {
      "name": "강진군",
      "name:en": "Gangjin-gun",
      "name:ja": "康津郡",
      "name:ko": "강진군",
      "name:zh": "康津郡",
      "boundary": "administrative",
      "way_area": "0.0544234",
      "admin_level": "6",
      "name:ko-Hani": "康津郡"
    }
  },
  {
    "osm_id": -7619924,
    "boundary": "administrative",
    "admin_level": 6,
    "parents": "-2355168,-307756",
    "name": "Iksan-si",
    "local_name": "익산시",
    "name_en": "Iksan-si",
    "all_tags": {
      "name": "익산시",
      "name:en": "Iksan-si",
      "name:ja": "益山市",
      "name:ko": "익산시",
      "name:zh": "益山市",
      "boundary": "administrative",
      "way_area": "0.0508452",
      "wikidata": "Q42137",
      "wikipedia": "ko:익산시",
      "admin_level": "6",
      "name:ko-Hani": "益山市"
    }
  },
  {
    "osm_id": -7830933,
    "boundary": "administrative",
    "admin_level": 6,
    "parents": "-2393403,-307756",
    "name": "Sacheon-si",
    "local_name": "사천시",
    "name_en": "Sacheon-si",
    "all_tags": {
      "name": "사천시",
      "name:en": "Sacheon-si",
      "name:ja": "泗川市",
      "name:ko": "사천시",
      "name:zh": "泗川市",
      "boundary": "administrative",
      "way_area": "0.0502945",
      "wikidata": "Q42100",
      "wikipedia": "ko:사천시",
      "admin_level": "6",
      "name:ko-Hani": "泗川市"
    }
  },
  {
    "osm_id": -7680385,
    "boundary": "administrative",
    "admin_level": 6,
    "parents": "-2398104,-307756",
    "name": "Gwangyang-si",
    "local_name": "광양시",
    "name_en": "Gwangyang-si",
    "all_tags": {
      "name": "광양시",
      "name:en": "Gwangyang-si",
      "name:ja": "光陽市",
      "name:ko": "광양시",
      "name:zh": "光阳市",
      "boundary": "administrative",
      "way_area": "0.0502144",
      "admin_level": "6",
      "name:ko-Hani": "光陽市"
    }
  },
  {
    "osm_id": -7621809,
    "boundary": "administrative",
    "admin_level": 6,
    "parents": "-2355168,-307756",
    "name": "Sunchang-gun",
    "local_name": "순창군",
    "name_en": "Sunchang-gun",
    "all_tags": {
      "name": "순창군",
      "name:en": "Sunchang-gun",
      "name:ja": "淳昌郡",
      "name:ko": "순창군",
      "name:zh": "淳昌郡",
      "boundary": "administrative",
      "way_area": "0.0498783",
      "admin_level": "6",
      "name:ko-Hani": "淳昌郡"
    }
  },
  {
    "osm_id": -2409159,
    "boundary": "administrative",
    "admin_level": 6,
    "parents": "-2306392,-307756",
    "name": "Ansan",
    "local_name": "안산시",
    "name_en": "Ansan",
    "all_tags": {
      "name": "안산시",
      "name:en": "Ansan",
      "name:ja": "安山市",
      "name:ko": "안산시",
      "name:zh": "安山市",
      "boundary": "administrative",
      "way_area": "0.0493193",
      "wikidata": "Q42117",
      "admin_level": "6",
      "name:ko-Hani": "安山市"
    }
  },
  {
    "osm_id": -2419945,
    "boundary": "administrative",
    "admin_level": 6,
    "parents": "-2297418,-307756",
    "name": "Gwangjin-gu",
    "local_name": "광진구",
    "name_en": "Gwangjin-gu",
    "all_tags": {
      "ref": "05",
      "name": "광진구",
      "name:en": "Gwangjin-gu",
      "name:ja": "広津区",
      "name:ko": "광진구",
      "name:zh": "廣津區",
      "boundary": "administrative",
      "way_area": "0.00174267",
      "wikidata": "Q50355",
      "wikipedia": "ko:광진구",
      "admin_level": "6",
      "name:ko-Hani": "廣津區"
    }
  },
  {
    "osm_id": -2505206,
    "boundary": "administrative",
    "admin_level": 6,
    "parents": "-2297419,-307756",
    "name": "Jung-gu",
    "local_name": "중구",
    "name_en": "Jung-gu",
    "all_tags": {
      "name": "중구",
      "name:de": "Jung-gu",
      "name:en": "Jung-gu",
      "name:ja": "中区",
      "name:ko": "중구",
      "name:zh": "中區",
      "boundary": "administrative",
      "way_area": "0.047627",
      "wikidata": "Q50443",
      "wikipedia": "ko:중구 (인천광역시)",
      "admin_level": "6",
      "name:ko-Hani": "中區"
    }
  },
  {
    "osm_id": -7224485,
    "boundary": "administrative",
    "admin_level": 6,
    "parents": "-2393403,-307756",
    "name": "Gimhae-si",
    "local_name": "김해시",
    "name_en": "Gimhae-si",
    "all_tags": {
      "name": "김해시",
      "name:en": "Gimhae-si",
      "name:ja": "金海市",
      "name:ko": "김해시",
      "name:zh": "金海市",
      "boundary": "administrative",
      "way_area": "0.045653",
      "admin_level": "6",
      "name:ko-Hani": "金海市",
      "name:ko-Latn": "Gimhaesi"
    }
  },
  {
    "osm_id": -3972378,
    "boundary": "administrative",
    "admin_level": 6,
    "parents": "-2396450,-307756",
    "name": "Gangseo-gu",
    "local_name": "강서구",
    "name_en": "Gangseo-gu",
    "all_tags": {
      "name": "강서구",
      "name:de": "Gangseo-gu",
      "name:en": "Gangseo-gu",
      "name:ja": "江西区",
      "name:ko": "강서구",
      "name:zh": "江西區",
      "boundary": "administrative",
      "way_area": "0.0451724",
      "wikidata": "Q50191",
      "admin_level": "6",
      "name:ko-Hani": "江西區",
      "name:ko-Latn": "Gangseo-gu"
    }
  },
  {
    "osm_id": -2414774,
    "boundary": "administrative",
    "admin_level": 6,
    "parents": "-2297418,-307756",
    "name": "Dongjak-gu",
    "local_name": "동작구",
    "name_en": "Dongjak-gu",
    "all_tags": {
      "ref": "20",
      "name": "동작구",
      "name:en": "Dongjak-gu",
      "name:ja": "銅雀区",
      "name:ko": "동작구",
      "name:zh": "銅雀區",
      "boundary": "administrative",
      "way_area": "0.00171451",
      "wikidata": "Q50385",
      "wikipedia": "ko:동작구",
      "admin_level": "6",
      "name:ko-Hani": "銅雀區"
    }
  },
  {
    "osm_id": -2538513,
    "boundary": "administrative",
    "admin_level": 6,
    "parents": "-2327258,-307756",
    "name": "Jincheon-gun",
    "local_name": "진천군",
    "name_en": "Jincheon-gun",
    "all_tags": {
      "name": "진천군",
      "name:en": "Jincheon-gun",
      "name:ja": "鎮川郡",
      "name:ko": "진천군",
      "name:zh": "鎮川郡",
      "boundary": "administrative",
      "way_area": "0.0412472",
      "wikidata": "Q50327",
      "wikipedia": "ko:진천군",
      "admin_level": "6",
      "name:ko-Hani": "鎭川郡"
    }
  },
  {
    "osm_id": -7002834,
    "boundary": "administrative",
    "admin_level": 6,
    "parents": "-2304454,-307756",
    "name": "Uljin-gun",
    "local_name": "울진군",
    "name_en": "Uljin-gun",
    "all_tags": {
      "name": "울진군",
      "name:en": "Uljin-gun",
      "name:ja": "蔚珍郡",
      "name:ko": "울진군",
      "name:zh": "蔚珍郡",
      "boundary": "administrative",
      "way_area": "0.11062",
      "admin_level": "6",
      "name:ko-Hani": "蔚珍郡"
    }
  },
  {
    "osm_id": -2398560,
    "boundary": "administrative",
    "admin_level": 4,
    "parents": "-307756",
    "name": "Jeju",
    "local_name": "제주특별자치도",
    "name_en": "Jeju",
    "all_tags": {
      "name": "제주특별자치도",
      "name:ar": "مقاطعة جيجو",
      "name:be": "Чэджуда",
      "name:bg": "Чеджу-до",
      "name:bn": "জেজু দ্বীপ",
      "name:ca": "Jeju-do",
      "name:cs": "Čedžu",
      "name:cv": "Чеджу",
      "name:da": "Jeju-do",
      "name:de": "Jeju-do",
      "name:en": "Jeju",
      "name:eo": "Jeju-do",
      "name:es": "Jeju",
      "name:et": "Cheju provints",
      "name:eu": "Jejudo",
      "name:fa": "ججو-دو",
      "name:fi": "Jeju",
      "name:fr": "Jeju",
      "name:gl": "Jeju",
      "name:he": "ג'ג'ו",
      "name:hr": "Jeju",
      "name:hu": "Csedzsu-sziget",
      "name:ia": "Jeju-do",
      "name:id": "Jeju",
      "name:io": "Jeju insulo",
      "name:it": "Jeju-do",
      "name:ja": "済州特別自治道",
      "name:jv": "Jejudo",
      "name:ko": "제주특별자치도",
      "name:lt": "Čedžu",
      "name:ms": "Jeju",
      "name:nl": "Jeju-do",
      "name:no": "Jeju",
      "name:pl": "Czedżu",
      "name:pt": "Jeju",
      "name:ro": "Insula Jeju",
      "name:ru": "Чеджудо",
      "name:sr": "Чеџу",
      "name:sv": "Jeju",
      "name:sw": "Jeju-do",
      "name:th": "เกาะเชจู",
      "name:uk": "Провінція Чеджу",
      "name:vi": "Jeju (tỉnh)",
      "name:zh": "济州特别自治道",
      "boundary": "administrative",
      "way_area": "1.07562",
      "wikidata": "Q41164",
      "ISO3166-2": "KR-49",
      "wikipedia": "en:Jeju Province",
      "short_name": "제주",
      "admin_level": "4",
      "alt_name:en": "Jeju Special Autonomous Province",
      "old_name:en": "Cheju-do",
      "name:ko-Hani": "濟州特別自治道",
      "name:zh-Hant": "濟州特別自治道",
      "official_name": "제주특별자치도",
      "short_name:en": "Jeju",
      "short_name:ja": "済州",
      "short_name:ko": "제주",
      "short_name:zh": "濟州",
      "official_name:en": "Jeju Special Self-Governing Province",
      "official_name:ja": "済州特別自治道",
      "official_name:ko": "제주특별자치도",
      "official_name:zh": "濟州特別自治道",
      "official_name:ko-Hani": "濟州特別自治道"
    }
  },
  {
    "osm_id": -2327259,
    "boundary": "administrative",
    "admin_level": 4,
    "parents": "-307756",
    "name": "South Chungcheong",
    "local_name": "충청남도",
    "name_en": "South Chungcheong",
    "all_tags": {
      "name": "충청남도",
      "name:bg": "Чхунчхън-Намдо",
      "name:ca": "Chungcheongnam-do",
      "name:cs": "Jižní Čchungčchong",
      "name:de": "Chungcheongnam-do",
      "name:el": "Τσούνγκτσονγκναμ-ντο",
      "name:en": "South Chungcheong",
      "name:es": "Chungcheong del Sur",
      "name:et": "Lõuna-Ch'ungch'ŏngi provints",
      "name:fa": "چونگچئونگنام-دو",
      "name:fi": "Etelä-Chungcheong",
      "name:fr": "Chungcheong du Sud",
      "name:id": "Chungcheong Selatan",
      "name:it": "Sud Chungcheong",
      "name:ja": "忠清南道",
      "name:ko": "충청남도",
      "name:lt": "Pietų Čungčongo provincija",
      "name:mn": "Өмнөд Чүнчон",
      "name:ms": "Chungcheong Selatan",
      "name:nl": "Chungcheongnam-do",
      "name:no": "Sør-Chungcheong",
      "name:pl": "Chungcheong Południowy",
      "name:pt": "Chungcheong do Sul",
      "name:ru": "Чхунчхон-Намдо",
      "name:sv": "Sydchungcheong",
      "name:sw": "Chungcheongnam-do",
      "name:th": "จังหวัดชุงช็องใต้",
      "name:uk": "Південна провінція Чхунчхон",
      "name:vi": "Chungcheong Nam",
      "name:zh": "忠清南道",
      "boundary": "administrative",
      "way_area": "1.58679",
      "wikidata": "Q41070",
      "ISO3166-2": "KR-44",
      "wikipedia": "en:South Chungcheong Province",
      "short_name": "충남",
      "admin_level": "4",
      "alt_name:en": "South Chungcheong Province",
      "name:ko-Hani": "忠清南道"
    }
  },
  {
    "osm_id": -5403755,
    "boundary": "administrative",
    "admin_level": 6,
    "parents": "-2398104,-307756",
    "name": "Sinan-gun",
    "local_name": "신안군",
    "name_en": "Sinan-gun",
    "all_tags": {
      "name": "신안군",
      "name:en": "Sinan-gun",
      "name:ja": "新安郡",
      "name:ko": "신안군",
      "name:zh": "新安郡",
      "boundary": "administrative",
      "way_area": "1.37882",
      "admin_level": "6",
      "name:ko-Hani": "新安郡"
    }
  },
  {
    "osm_id": -7816731,
    "boundary": "administrative",
    "admin_level": 6,
    "parents": "-2304454,-307756",
    "name": "Gumi-si",
    "local_name": "구미시",
    "name_en": "Gumi-si",
    "all_tags": {
      "name": "구미시",
      "name:en": "Gumi-si",
      "name:ja": "亀尾市",
      "name:ko": "구미시",
      "name:zh": "龜尾市",
      "boundary": "administrative",
      "way_area": "0.0613992",
      "admin_level": "6",
      "name:ko-Hani": "龜尾市"
    }
  },
  {
    "osm_id": -7715627,
    "boundary": "administrative",
    "admin_level": 6,
    "parents": "-2304454,-307756",
    "name": "Ulleung-gun",
    "local_name": "울릉군",
    "name_en": "Ulleung-gun",
    "all_tags": {
      "name": "울릉군",
      "name:cs": "Ullung",
      "name:en": "Ulleung-gun",
      "name:ja": "鬱陵郡",
      "name:ko": "울릉군",
      "name:zh": "郁陵郡",
      "boundary": "administrative",
      "way_area": "0.452857",
      "admin_level": "6",
      "name:ko-Hani": "鬱陵郡",
      "name:zh-Hant": "鬱陵郡"
    }
  },
  {
    "osm_id": -2505209,
    "boundary": "administrative",
    "admin_level": 6,
    "parents": "-2297419,-307756",
    "name": "Ongjin-gun",
    "local_name": "옹진군",
    "name_en": "Ongjin-gun",
    "all_tags": {
      "name": "옹진군",
      "name:en": "Ongjin-gun",
      "name:ja": "甕津郡",
      "name:ko": "옹진군",
      "name:zh": "瓮津郡",
      "boundary": "administrative",
      "way_area": "0.789093",
      "wikidata": "Q50310",
      "wikipedia": "ko:옹진군 (인천광역시)",
      "admin_level": "6",
      "name:ko-Hani": "甕津郡",
      "name:zh-Hans": "瓮津郡",
      "name:zh-Hant": "甕津郡"
    }
  },
  {
    "osm_id": -7689289,
    "boundary": "administrative",
    "admin_level": 6,
    "parents": "-2398104,-307756",
    "name": "Yeosu-si",
    "local_name": "여수시",
    "name_en": "Yeosu-si",
    "all_tags": {
      "name": "여수시",
      "name:ar": "يوسو",
      "name:ca": "Yeosu",
      "name:cs": "Josu",
      "name:de": "Yeosu",
      "name:en": "Yeosu-si",
      "name:eo": "Josu",
      "name:es": "Yeosu",
      "name:et": "Yeosu",
      "name:fa": "یئوسو",
      "name:fi": "Yeosu",
      "name:fr": "Yeosu",
      "name:id": "Yeosu",
      "name:ie": "Yeosu",
      "name:it": "Yeosu",
      "name:ja": "麗水市",
      "name:ka": "იოსუ",
      "name:kk": "Йосу",
      "name:ko": "여수시",
      "name:mn": "Ёсү",
      "name:nl": "Yeosu",
      "name:no": "Yeosu",
      "name:pl": "Yeosu",
      "name:pt": "Yeosu",
      "name:ru": "Йосу",
      "name:sv": "Yeosu",
      "name:tl": "Yeosu",
      "name:tr": "Yeosu",
      "name:uk": "Йосу",
      "name:ur": "یوسو",
      "name:vi": "Yeosu",
      "name:zh": "丽水市",
      "boundary": "administrative",
      "name:ceb": "Yeosu",
      "name:lmo": "Yeosu",
      "name:nan": "Yeosu Chhī",
      "name:szl": "Yeosu",
      "name:war": "Yeosu",
      "way_area": "0.624199",
      "wikidata": "Q42125",
      "wikipedia": "ko:여수시",
      "admin_level": "6",
      "name:ko-Hani": "麗水市",
      "name:ko-Latn": "Yeosu-si",
      "name:zh-Hant": "麗水市"
    }
  },
  {
    "osm_id": -2409173,
    "boundary": "administrative",
    "admin_level": 6,
    "parents": "-2306392,-307756",
    "name": "Hwaseong-si",
    "local_name": "화성시",
    "name_en": "Hwaseong-si",
    "all_tags": {
      "name": "화성시",
      "name:en": "Hwaseong-si",
      "name:ja": "華城市",
      "name:ko": "화성시",
      "name:zh": "华城市",
      "boundary": "administrative",
      "way_area": "0.10891",
      "wikidata": "Q42160",
      "wikipedia": "ko:화성시",
      "admin_level": "6",
      "name:ko-Hani": "華城市",
      "name:zh-Hant": "華城市"
    }
  },
  {
    "osm_id": -7618927,
    "boundary": "administrative",
    "admin_level": 6,
    "parents": "-2327259,-307756",
    "name": "Taean-gun",
    "local_name": "태안군",
    "name_en": "Taean-gun",
    "all_tags": {
      "name": "태안군",
      "name:en": "Taean-gun",
      "name:ja": "泰安郡",
      "name:ko": "태안군",
      "name:zh": "泰安郡",
      "boundary": "administrative",
      "way_area": "0.562982",
      "admin_level": "6",
      "name:ko-Hani": "泰安郡"
    }
  },
  {
    "osm_id": -7689293,
    "boundary": "administrative",
    "admin_level": 6,
    "parents": "-2398104,-307756",
    "name": "Jindo-gun",
    "local_name": "진도군",
    "name_en": "Jindo-gun",
    "all_tags": {
      "name": "진도군",
      "name:en": "Jindo-gun",
      "name:ja": "珍島郡",
      "name:ko": "진도군",
      "name:zh": "珍島郡",
      "boundary": "administrative",
      "way_area": "0.432535",
      "admin_level": "6",
      "name:ko-Hani": "珍島郡"
    }
  },
  {
    "osm_id": -7619922,
    "boundary": "administrative",
    "admin_level": 6,
    "parents": "-2355168,-307756",
    "name": "Gunsan-si",
    "local_name": "군산시",
    "name_en": "Gunsan-si",
    "all_tags": {
      "name": "군산시",
      "name:cs": "Kunsen",
      "name:en": "Gunsan-si",
      "name:ja": "群山市",
      "name:ko": "군산시",
      "name:zh": "群山市",
      "boundary": "administrative",
      "way_area": "0.417626",
      "wikidata": "Q42074",
      "wikipedia": "ko:군산시",
      "admin_level": "6",
      "name:ko-Hani": "群山市"
    }
  },
  {
    "osm_id": -7689292,
    "boundary": "administrative",
    "admin_level": 6,
    "parents": "-2398104,-307756",
    "name": "Wando-gun",
    "local_name": "완도군",
    "name_en": "Wando-gun",
    "all_tags": {
      "name": "완도군",
      "name:en": "Wando-gun",
      "name:ja": "莞島郡",
      "name:ko": "완도군",
      "name:zh": "莞島郡",
      "boundary": "administrative",
      "way_area": "0.394572",
      "admin_level": "6",
      "name:ko-Hani": "莞島郡"
    }
  },
  {
    "osm_id": -4055199,
    "boundary": "administrative",
    "admin_level": 6,
    "parents": "-2396450,-307756",
    "name": "Saha-gu",
    "local_name": "사하구",
    "name_en": "Saha-gu",
    "all_tags": {
      "name": "사하구",
      "name:de": "Saha-gu",
      "name:en": "Saha-gu",
      "name:ja": "沙下区",
      "name:ko": "사하구",
      "name:zh": "沙下區",
      "boundary": "administrative",
      "way_area": "0.03669",
      "wikidata": "Q50400",
      "admin_level": "6",
      "name:ko-Hani": "沙下區"
    }
  },
  {
    "osm_id": -8127817,
    "boundary": "administrative",
    "admin_level": 6,
    "parents": "-2395867,-307756",
    "name": "Buk-gu",
    "local_name": "북구",
    "name_en": "Buk-gu",
    "all_tags": {
      "name": "북구",
      "name:en": "Buk-gu",
      "name:ja": "北区",
      "name:ko": "북구",
      "name:zh": "北區",
      "boundary": "administrative",
      "way_area": "0.0346406",
      "wikidata": "Q50395",
      "admin_level": "6",
      "name:ko-Hani": "北區"
    }
  },
  {
    "osm_id": -2409185,
    "boundary": "administrative",
    "admin_level": 6,
    "parents": "-2306392,-307756",
    "name": "Yangju",
    "local_name": "양주시",
    "name_en": "Yangju",
    "all_tags": {
      "name": "양주시",
      "name:en": "Yangju",
      "name:ja": "楊州市",
      "name:ko": "양주시",
      "name:zh": "杨州市",
      "boundary": "administrative",
      "way_area": "0.0318129",
      "wikidata": "Q42124",
      "wikipedia": "ko:양주시",
      "admin_level": "6",
      "name:ko-Hani": "楊州市",
      "name:zh-Hant": "楊州市",
      "official_name": "양주시",
      "official_name:en": "Yangju-si"
    }
  },
  {
    "osm_id": -2409165,
    "boundary": "administrative",
    "admin_level": 6,
    "parents": "-2306392,-307756",
    "name": "Gimpo-si",
    "local_name": "김포시",
    "name_en": "Gimpo-si",
    "all_tags": {
      "name": "김포시",
      "name:el": "Γκίμπο",
      "name:en": "Gimpo-si",
      "name:ja": "金浦市",
      "name:ko": "김포시",
      "name:zh": "金浦市",
      "boundary": "administrative",
      "way_area": "0.030284",
      "admin_level": "6",
      "name:ko-Hani": "金浦市"
    }
  },
  {
    "osm_id": -2409175,
    "boundary": "administrative",
    "admin_level": 6,
    "parents": "-2306392,-307756",
    "name": "Namyangju-si",
    "local_name": "남양주시",
    "name_en": "Namyangju-si",
    "all_tags": {
      "name": "남양주시",
      "name:en": "Namyangju-si",
      "name:ja": "南楊州市",
      "name:ko": "남양주시",
      "name:zh": "南楊州市",
      "boundary": "administrative",
      "way_area": "0.0466484",
      "admin_level": "6",
      "name:ko-Hani": "南楊州市",
      "official_name": "남양주"
    }
  },
  {
    "osm_id": -7817883,
    "boundary": "administrative",
    "admin_level": 6,
    "parents": "-2304454,-307756",
    "name": "Chilgok-gun",
    "local_name": "칠곡군",
    "name_en": "Chilgok-gun",
    "all_tags": {
      "name": "칠곡군",
      "name:en": "Chilgok-gun",
      "name:ja": "漆谷郡",
      "name:ko": "칠곡군",
      "name:zh": "漆谷郡",
      "boundary": "administrative",
      "way_area": "0.0450769",
      "admin_level": "6",
      "name:ko-Hani": "漆谷郡"
    }
  },
  {
    "osm_id": -3891544,
    "boundary": "administrative",
    "admin_level": 6,
    "parents": "-2395674,-307756",
    "name": "Dong-gu",
    "local_name": "동구",
    "name_en": "Dong-gu",
    "all_tags": {
      "name": "동구",
      "name:de": "Dong-gu",
      "name:en": "Dong-gu",
      "name:ja": "東区",
      "name:ko": "동구",
      "name:zh": "東區",
      "boundary": "administrative",
      "way_area": "0.018267",
      "wikidata": "Q50376",
      "admin_level": "6",
      "name:ko-Hani": "東區"
    }
  },
  {
    "osm_id": -7680386,
    "boundary": "administrative",
    "admin_level": 6,
    "parents": "-2398104,-307756",
    "name": "Gurye-gun",
    "local_name": "구례군",
    "name_en": "Gurye-gun",
    "all_tags": {
      "name": "구례군",
      "name:en": "Gurye-gun",
      "name:ja": "求礼郡",
      "name:ko": "구례군",
      "name:zh": "求禮郡",
      "boundary": "administrative",
      "way_area": "0.0436238",
      "admin_level": "6",
      "name:ko-Hani": "求禮郡"
    }
  },
  {
    "osm_id": -2505211,
    "boundary": "administrative",
    "admin_level": 6,
    "parents": "-2297419,-307756",
    "name": "Yeonsu-gu",
    "local_name": "연수구",
    "name_en": "Yeonsu-gu",
    "all_tags": {
      "name": "연수구",
      "name:en": "Yeonsu-gu",
      "name:ja": "延寿区",
      "name:ko": "연수구",
      "name:zh": "延壽區",
      "boundary": "administrative",
      "way_area": "0.0148749",
      "wikidata": "Q50421",
      "wikipedia": "ko:연수구",
      "admin_level": "6",
      "name:ko-Hani": "延壽區"
    }
  },
  {
    "osm_id": -7348583,
    "boundary": "administrative",
    "admin_level": 6,
    "parents": "-2399220,-307756",
    "name": "Buk-gu",
    "local_name": "북구",
    "name_en": "Buk-gu",
    "all_tags": {
      "name": "북구",
      "name:en": "Buk-gu",
      "name:ja": "北区",
      "name:ko": "북구",
      "name:zh": "北區",
      "boundary": "administrative",
      "way_area": "0.0118734",
      "wikidata": "Q50392",
      "admin_level": "6",
      "name:ko-Hani": "北區"
    }
  },
  {
    "osm_id": -7619919,
    "boundary": "administrative",
    "admin_level": 6,
    "parents": "-2355168,-307756",
    "name": "Jeonju-si",
    "local_name": "전주시",
    "name_en": "Jeonju-si",
    "all_tags": {
      "name": "전주시",
      "name:cs": "Čendžu",
      "name:en": "Jeonju-si",
      "name:fr": "Jeonju",
      "name:ja": "全州市",
      "name:ko": "전주시",
      "name:zh": "全州市",
      "boundary": "administrative",
      "way_area": "0.020297",
      "admin_level": "6",
      "name:ko-Hani": "全州市"
    }
  },
  {
    "osm_id": -4062934,
    "boundary": "administrative",
    "admin_level": 6,
    "parents": "-2396450,-307756",
    "name": "Haeundae-gu",
    "local_name": "해운대구",
    "name_en": "Haeundae-gu",
    "all_tags": {
      "name": "해운대구",
      "name:de": "Haeundae-gu",
      "name:en": "Haeundae-gu",
      "name:ja": "海雲台区",
      "name:ko": "해운대구",
      "name:zh": "海雲臺區",
      "boundary": "administrative",
      "way_area": "0.0110871",
      "wikidata": "Q50449",
      "admin_level": "6",
      "name:ko-Hani": "海雲臺區"
    }
  },
  {
    "osm_id": -7812645,
    "boundary": "administrative",
    "admin_level": 6,
    "parents": "-2398104,-307756",
    "name": "Mokpo-si",
    "local_name": "목포시",
    "name_en": "Mokpo-si",
    "all_tags": {
      "name": "목포시",
      "name:en": "Mokpo-si",
      "name:ja": "木浦市",
      "name:ko": "목포시",
      "name:zh": "木浦市",
      "boundary": "administrative",
      "way_area": "0.0103383",
      "admin_level": "6",
      "name:ko-Hani": "木浦市"
    }
  },
  {
    "osm_id": -2409163,
    "boundary": "administrative",
    "admin_level": 6,
    "parents": "-2306392,-307756",
    "name": "Dongducheon-si",
    "local_name": "동두천시",
    "name_en": "Dongducheon-si",
    "all_tags": {
      "name": "동두천시",
      "name:en": "Dongducheon-si",
      "name:ja": "東豆川市",
      "name:ko": "동두천시",
      "name:zh": "東豆川市",
      "boundary": "administrative",
      "way_area": "0.00981127",
      "wikidata": "Q27266842",
      "admin_level": "6",
      "name:ko-Hani": "東豆川市",
      "official_name": "동두천시"
    }
  },
  {
    "osm_id": -8127814,
    "boundary": "administrative",
    "admin_level": 6,
    "parents": "-2395867,-307756",
    "name": "Nam-gu",
    "local_name": "남구",
    "name_en": "Nam-gu",
    "all_tags": {
      "name": "남구",
      "name:en": "Nam-gu",
      "name:ko": "남구",
      "name:zh": "南区",
      "boundary": "administrative",
      "way_area": "0.00862378",
      "wikidata": "Q50364",
      "admin_level": "6"
    }
  },
  {
    "osm_id": -4068408,
    "boundary": "administrative",
    "admin_level": 6,
    "parents": "-2396450,-307756",
    "name": "Nam-gu",
    "local_name": "남구",
    "name_en": "Nam-gu",
    "all_tags": {
      "name": "남구",
      "name:de": "Nam-gu",
      "name:en": "Nam-gu",
      "name:ja": "南区",
      "name:ko": "남구",
      "name:zh": "南區",
      "boundary": "administrative",
      "way_area": "0.00858892",
      "wikidata": "Q50363",
      "admin_level": "6",
      "name:ko-Hani": "南區"
    }
  },
  {
    "osm_id": -4000722,
    "boundary": "administrative",
    "admin_level": 6,
    "parents": "-2396450,-307756",
    "name": "Seo-gu",
    "local_name": "서구",
    "name_en": "Seo-gu",
    "all_tags": {
      "name": "서구",
      "name:de": "Seo-gu",
      "name:en": "Seo-gu",
      "name:ja": "西区",
      "name:ko": "서구",
      "name:zh": "西區",
      "boundary": "administrative",
      "way_area": "0.00841551",
      "wikidata": "Q50406",
      "admin_level": "6",
      "name:ko-Hani": "西區"
    }
  },
  {
    "osm_id": -2409183,
    "boundary": "administrative",
    "admin_level": 6,
    "parents": "-2306392,-307756",
    "name": "Uijeongbu-si",
    "local_name": "의정부시",
    "name_en": "Uijeongbu-si",
    "all_tags": {
      "name": "의정부시",
      "name:el": "Ούιτζονγκμπου",
      "name:en": "Uijeongbu-si",
      "name:ja": "議政府市",
      "name:ko": "의정부시",
      "name:uk": "Ийджонбу",
      "name:zh": "议政府市",
      "boundary": "administrative",
      "way_area": "0.00834427",
      "wikidata": "Q42135",
      "wikipedia": "ko:의정부",
      "admin_level": "6",
      "name:ko-Hani": "議政府市",
      "name:zh-Hant": "議政府市"
    }
  },
  {
    "osm_id": -3959027,
    "boundary": "administrative",
    "admin_level": 6,
    "parents": "-2395674,-307756",
    "name": "Suseong-gu",
    "local_name": "수성구",
    "name_en": "Suseong-gu",
    "all_tags": {
      "name": "수성구",
      "name:de": "Suseong-gu",
      "name:en": "Suseong-gu",
      "name:ja": "寿城区",
      "name:ko": "수성구",
      "name:zh": "壽城區",
      "boundary": "administrative",
      "way_area": "0.00759168",
      "wikidata": "Q50416",
      "admin_level": "6"
    }
  },
  {
    "osm_id": -4064527,
    "boundary": "administrative",
    "admin_level": 6,
    "parents": "-2396450,-307756",
    "name": "Geumjeong-gu",
    "local_name": "금정구",
    "name_en": "Geumjeong-gu",
    "all_tags": {
      "name": "금정구",
      "name:de": "Geumjeong-gu",
      "name:en": "Geumjeong-gu",
      "name:ja": "金井区",
      "name:ko": "금정구",
      "name:zh": "金井區",
      "boundary": "administrative",
      "way_area": "0.00660375",
      "wikidata": "Q50358",
      "admin_level": "6",
      "name:ko-Hani": "金井區"
    }
  },
  {
    "osm_id": -2414776,
    "boundary": "administrative",
    "admin_level": 6,
    "parents": "-2297418,-307756",
    "name": "Geumcheon-gu",
    "local_name": "금천구",
    "name_en": "Geumcheon-gu",
    "all_tags": {
      "ref": "18",
      "name": "금천구",
      "name:en": "Geumcheon-gu",
      "name:ja": "衿川区",
      "name:ko": "금천구",
      "name:zh": "衿川區",
      "boundary": "administrative",
      "way_area": "0.00130762",
      "wikidata": "Q50359",
      "wikipedia": "ko:금천구",
      "admin_level": "6",
      "name:ko-Hani": "衿川區"
    }
  },
  {
    "osm_id": -3970414,
    "boundary": "administrative",
    "admin_level": 6,
    "parents": "-2395674,-307756",
    "name": "Dalseo-gu",
    "local_name": "달서구",
    "name_en": "Dalseo-gu",
    "all_tags": {
      "name": "달서구",
      "name:de": "Dalseo-gu",
      "name:en": "Dalseo-gu",
      "name:ja": "達西区",
      "name:ko": "달서구",
      "name:zh": "達西區",
      "boundary": "administrative",
      "way_area": "0.00629169",
      "wikidata": "Q50370",
      "admin_level": "6",
      "name:ko-Hani": "達西區"
    }
  },
  {
    "osm_id": -2505208,
    "boundary": "administrative",
    "admin_level": 6,
    "parents": "-2297419,-307756",
    "name": "Namdong-gu",
    "local_name": "남동구",
    "name_en": "Namdong-gu",
    "all_tags": {
      "name": "남동구",
      "name:en": "Namdong-gu",
      "name:ja": "南洞区",
      "name:ko": "남동구",
      "name:zh": "南洞区",
      "boundary": "administrative",
      "way_area": "0.00595155",
      "wikidata": "Q50367",
      "wikipedia": "ko:남동구",
      "admin_level": "6",
      "name:ko-Hani": "南洞區",
      "name:zh-Hans": "南洞区",
      "name:zh-Hant": "南洞區"
    }
  },
  {
    "osm_id": -2409184,
    "boundary": "administrative",
    "admin_level": 6,
    "parents": "-2306392,-307756",
    "name": "Uiwang-si",
    "local_name": "의왕시",
    "name_en": "Uiwang-si",
    "all_tags": {
      "name": "의왕시",
      "name:en": "Uiwang-si",
      "name:ja": "義王市",
      "name:ko": "의왕시",
      "name:zh": "义王市",
      "boundary": "administrative",
      "way_area": "0.0054747",
      "wikidata": "Q42134",
      "wikipedia": "ko:의왕시",
      "admin_level": "6",
      "name:ko-Hani": "義王市",
      "name:zh-Hant": "義王市"
    }
  },
  {
    "osm_id": -4162635,
    "boundary": "administrative",
    "admin_level": 6,
    "parents": "-2399220,-307756",
    "name": "Dong-gu",
    "local_name": "동구",
    "name_en": "Dong-gu",
    "all_tags": {
      "name": "동구",
      "name:de": "Dong-gu",
      "name:en": "Dong-gu",
      "name:es": "Dong-gu",
      "name:ja": "東区",
      "name:ko": "동구",
      "name:zh": "東區",
      "boundary": "administrative",
      "way_area": "0.00484344",
      "wikidata": "Q50375",
      "admin_level": "6",
      "name:ko-Hani": "東區"
    }
  },
  {
    "osm_id": -2414779,
    "boundary": "administrative",
    "admin_level": 6,
    "parents": "-2297418,-307756",
    "name": "Seocho-gu",
    "local_name": "서초구",
    "name_en": "Seocho-gu",
    "all_tags": {
      "ref": "22",
      "name": "서초구",
      "name:en": "Seocho-gu",
      "name:ja": "瑞草区",
      "name:ko": "서초구",
      "name:zh": "瑞草區",
      "boundary": "administrative",
      "way_area": "0.00475822",
      "wikidata": "Q20395",
      "wikipedia": "ko:서초구",
      "admin_level": "6",
      "name:ko-Hani": "瑞草區"
    }
  },
  {
    "osm_id": -2409176,
    "boundary": "administrative",
    "admin_level": 6,
    "parents": "-2306392,-307756",
    "name": "Osan-si",
    "local_name": "오산시",
    "name_en": "Osan-si",
    "all_tags": {
      "name": "오산시",
      "name:en": "Osan-si",
      "name:ja": "烏山市",
      "name:ko": "오산시",
      "name:zh": "烏山市",
      "boundary": "administrative",
      "way_area": "0.00432353",
      "admin_level": "6",
      "name:ko-Hani": "烏山市"
    }
  },
  {
    "osm_id": -2398104,
    "boundary": "administrative",
    "admin_level": 4,
    "parents": "-307756",
    "name": "South Jeolla",
    "local_name": "전라남도",
    "name_en": "South Jeolla",
    "all_tags": {
      "name": "전라남도",
      "name:bg": "Чъла-Намдо",
      "name:ca": "Jeollanam-do",
      "name:cs": "Jižní Čolla",
      "name:de": "Jeollanam-do",
      "name:el": "Τζόλαναμ-ντο",
      "name:en": "South Jeolla",
      "name:es": "Jeolla del Sur",
      "name:et": "Lõuna-Chŏlla provints",
      "name:fa": "جئولانام-دو",
      "name:fi": "Etelä-Jeolla",
      "name:fr": "Jeolla du Sud",
      "name:id": "Jeolla Selatan",
      "name:it": "Sud Jeolla",
      "name:ja": "全羅南道",
      "name:ko": "전라남도",
      "name:lt": "Pietų Džolos provincija",
      "name:mn": "Өмнөд Чолла",
      "name:ms": "Jeolla Selatan",
      "name:nl": "Jeollanam-do",
      "name:no": "Sør-Jeolla",
      "name:pl": "Jeolla Południowa",
      "name:pt": "Jeolla do Sul",
      "name:ru": "Чолла-Намдо",
      "name:sv": "Sydjeolla",
      "name:sw": "Jeollanam-do",
      "name:th": "จังหวัดจ็อลลาใต้",
      "name:uk": "Південна провінція Чолла",
      "name:vi": "Jeolla Nam",
      "name:zh": "全羅南道",
      "boundary": "administrative",
      "way_area": "4.24955",
      "wikidata": "Q41161",
      "ISO3166-2": "KR-46",
      "wikipedia": "en:South Jeolla Province",
      "short_name": "전남",
      "admin_level": "4",
      "alt_name:en": "South Jeolla Province",
      "name:ko-Hani": "全羅南道",
      "name:ko-Latn": "Jeollanam-do",
      "short_name:en": "Jeonnam",
      "short_name:zh": "全南"
    }
  },
  {
    "osm_id": -7624185,
    "boundary": "administrative",
    "admin_level": 6,
    "parents": "-2398104,-307756",
    "name": "Hampyeong-gun",
    "local_name": "함평군",
    "name_en": "Hampyeong-gun",
    "all_tags": {
      "name": "함평군",
      "name:en": "Hampyeong-gun",
      "name:ja": "咸平郡",
      "name:ko": "함평군",
      "name:zh": "咸平郡",
      "boundary": "administrative",
      "way_area": "0.0412543",
      "admin_level": "6",
      "name:ko-Hani": "咸平郡"
    }
  },
  {
    "osm_id": -7684733,
    "boundary": "administrative",
    "admin_level": 6,
    "parents": "-2398104,-307756",
    "name": "Yeongam-gun",
    "local_name": "영암군",
    "name_en": "Yeongam-gun",
    "all_tags": {
      "name": "영암군",
      "name:en": "Yeongam-gun",
      "name:ja": "霊岩郡",
      "name:ko": "영암군",
      "name:zh": "靈岩郡",
      "boundary": "administrative",
      "way_area": "0.0623302",
      "admin_level": "6",
      "name:ko-Hani": "靈岩郡"
    }
  },
  {
    "osm_id": -7624183,
    "boundary": "administrative",
    "admin_level": 6,
    "parents": "-2398104,-307756",
    "name": "Naju-si",
    "local_name": "나주시",
    "name_en": "Naju-si",
    "all_tags": {
      "name": "나주시",
      "name:en": "Naju-si",
      "name:ja": "羅州市",
      "name:ko": "나주시",
      "name:zh": "罗州市",
      "boundary": "administrative",
      "way_area": "0.059914",
      "wikidata": "Q42083",
      "wikipedia": "ko:나주시",
      "admin_level": "6",
      "name:ko-Hani": "羅州市",
      "name:zh-Hant": "羅州市"
    }
  },
  {
    "osm_id": -2399220,
    "boundary": "administrative",
    "admin_level": 4,
    "parents": "-307756",
    "name": "Gwangju",
    "local_name": "광주",
    "name_en": "Gwangju",
    "all_tags": {
      "name": "광주",
      "name:af": "Gwangju",
      "name:ar": "غوانغجو",
      "name:bg": "Куанджу",
      "name:bi": "Gwangju",
      "name:ca": "Gwangju",
      "name:cs": "Kwangdžu",
      "name:da": "Gwangju",
      "name:de": "Gwangju",
      "name:el": "Γκουάνγκτζου",
      "name:en": "Gwangju",
      "name:eo": "Gŭangĝu",
      "name:es": "Gwangju",
      "name:et": "Kwangju",
      "name:eu": "Gwangju",
      "name:fa": "گوانگجو",
      "name:fi": "Gwangju",
      "name:fr": "Gwangju",
      "name:he": "קוואנגג'ו",
      "name:ht": "Gouanjou",
      "name:id": "Gwangju",
      "name:io": "Gwangju",
      "name:it": "Gwangju",
      "name:ja": "光州",
      "name:kl": "Gwangju",
      "name:ko": "광주",
      "name:la": "Quansua",
      "name:lt": "Kvandžu",
      "name:mi": "Gwangju",
      "name:mn": "Куанжү",
      "name:mr": "ग्वांगजू",
      "name:ms": "Gwangju",
      "name:nl": "Gwangju",
      "name:no": "Gwangju",
      "name:pl": "Gwangju",
      "name:pt": "Gwangju",
      "name:ro": "Gwangju",
      "name:ru": "Кванджу",
      "name:sr": "Квангџу",
      "name:sv": "Gwangju",
      "name:sw": "Gwangju",
      "name:th": "ควังจู",
      "name:tl": "Gwangju",
      "name:tr": "Gwangju",
      "name:uk": "Кванджу",
      "name:vi": "Gwangju",
      "name:vo": "Gwangju",
      "name:zh": "光州",
      "alt_name": "광주",
      "boundary": "administrative",
      "way_area": "0.0494219",
      "wikidata": "Q41283",
      "ISO3166-2": "KR-29",
      "wikipedia": "ko:광주광역시",
      "population": "1467996",
      "admin_level": "4",
      "alt_name:ko": "광주",
      "name:ko-Hani": "光州",
      "official_name": "광주광역시",
      "official_name:ja": "光州広域市",
      "official_name:ko": "광주광역시",
      "official_name:zh": "光州广域市",
      "official_name:ko-Hani": "光州廣域市",
      "official_name:zh-Hant": "光州廣域市"
    }
  },
  {
    "osm_id": -7684734,
    "boundary": "administrative",
    "admin_level": 6,
    "parents": "-2398104,-307756",
    "name": "Hwasun-gun",
    "local_name": "화순군",
    "name_en": "Hwasun-gun",
    "all_tags": {
      "name": "화순군",
      "name:en": "Hwasun-gun",
      "name:ja": "和順郡",
      "name:ko": "화순군",
      "name:zh": "和順郡",
      "boundary": "administrative",
      "way_area": "0.0778043",
      "admin_level": "6",
      "name:ko-Hani": "和順郡"
    }
  },
  {
    "osm_id": -7680384,
    "boundary": "administrative",
    "admin_level": 6,
    "parents": "-2398104,-307756",
    "name": "Suncheon-si",
    "local_name": "순천시",
    "name_en": "Suncheon-si",
    "all_tags": {
      "name": "순천시",
      "name:en": "Suncheon-si",
      "name:ja": "順天市",
      "name:ko": "순천시",
      "name:zh": "顺天市",
      "boundary": "administrative",
      "way_area": "0.0923981",
      "wikidata": "Q42112",
      "wikipedia": "ko:순천시 (전라남도)",
      "admin_level": "6",
      "name:ko-Hani": "順天市",
      "name:zh-Hant": "順天市"
    }
  },
  {
    "osm_id": -7830999,
    "boundary": "administrative",
    "admin_level": 6,
    "parents": "-2393403,-307756",
    "name": "Hadong-gun",
    "local_name": "하동군",
    "name_en": "Hadong-gun",
    "all_tags": {
      "name": "하동군",
      "name:en": "Hadong-gun",
      "name:ja": "河東郡",
      "name:ko": "하동군",
      "name:zh": "河東郡",
      "boundary": "administrative",
      "way_area": "0.0701933",
      "admin_level": "6",
      "name:ko-Hani": "河東郡"
    }
  },
  {
    "osm_id": -2396450,
    "boundary": "administrative",
    "admin_level": 4,
    "parents": "-307756",
    "name": "Busan",
    "local_name": "부산",
    "name_en": "Busan",
    "all_tags": {
      "name": "부산",
      "place": "Metropolitan city",
      "name:af": "Busan",
      "name:ar": "بسان",
      "name:be": "Пусан",
      "name:bg": "Пусан",
      "name:bi": "Busan",
      "name:ca": "Busan",
      "name:cs": "Pusan",
      "name:da": "Busan",
      "name:de": "Busan",
      "name:el": "Μπούσαν",
      "name:en": "Busan",
      "name:eo": "Pusano",
      "name:es": "Busan",
      "name:et": "Busan",
      "name:eu": "Busan",
      "name:fa": "بوسان",
      "name:fi": "Busan",
      "name:fr": "Busan",
      "name:gl": "Busan",
      "name:he": "פוסן",
      "name:hi": "बुसान",
      "name:hr": "Busan",
      "name:hu": "Puszan",
      "name:hy": "Պուսան",
      "name:id": "Busan",
      "name:io": "Busan",
      "name:it": "Busan",
      "name:ja": "釜山",
      "name:jv": "Busan",
      "name:ka": "პუსანი",
      "name:kl": "Busan",
      "name:ko": "부산",
      "name:la": "Pusanum",
      "name:lt": "Busanas",
      "name:lv": "Pusana",
      "name:mi": "Busan",
      "name:ml": "ബുസാൻ",
      "name:mn": "Пүсан",
      "name:mr": "बुसान",
      "name:my": "ဘူဆန်မြို့",
      "name:nl": "Busan",
      "name:nn": "Pusan",
      "name:no": "Busan",
      "name:os": "Пусан",
      "name:pl": "Pusan",
      "name:pt": "Busan",
      "name:ro": "Busan",
      "name:ru": "Пусан",
      "name:sk": "Pusan",
      "name:sr": "Бусан",
      "name:sv": "Pusan",
      "name:sw": "Busan",
      "name:th": "ปูซาน",
      "name:tl": "Busan",
      "name:tr": "Busan",
      "name:uk": "Пусан",
      "name:vi": "Busan",
      "name:zh": "釜山",
      "boundary": "administrative",
      "way_area": "0.199856",
      "wikidata": "Q16520",
      "ISO3166-2": "KR-26",
      "wikipedia": "en:Busan",
      "population": "3586079",
      "admin_level": "4",
      "loc_name:en": "Busan city",
      "loc_name:ja": "釜山市",
      "loc_name:ko": "부산시",
      "loc_name:zh": "釜山市",
      "old_name:en": "Pusan",
      "name:ko-Hani": "釜山",
      "name:ko-Latn": "Busan",
      "official_name": "부산광역시",
      "short_name:ja": "釜山",
      "short_name:ko": "부산",
      "short_name:zh": "釜山",
      "loc_name:ko-Hani": "釜山市",
      "loc_name:ko-Latn": "Busan-si",
      "official_name:en": "Busan Metropolitan City",
      "official_name:ja": "釜山広域市",
      "official_name:ko": "부산광역시",
      "official_name:zh": "釜山广域市",
      "short_name:ko-Hani": "釜山",
      "short_name:ko-Latn": "Busan",
      "official_name:zh-Hant": "釜山廣域市"
    }
  },
  {
    "osm_id": -7624187,
    "boundary": "administrative",
    "admin_level": 6,
    "parents": "-2398104,-307756",
    "name": "Yeonggwang-gun",
    "local_name": "영광군",
    "name_en": "Yeonggwang-gun",
    "all_tags": {
      "name": "영광군",
      "name:en": "Yeonggwang-gun",
      "name:ja": "霊光郡",
      "name:ko": "영광군",
      "name:zh": "靈光郡",
      "boundary": "administrative",
      "way_area": "0.235592",
      "admin_level": "6",
      "name:ko-Hani": "靈光郡"
    }
  },
  {
    "osm_id": -7624186,
    "boundary": "administrative",
    "admin_level": 6,
    "parents": "-2355168,-307756",
    "name": "Gochang-gun",
    "local_name": "고창군",
    "name_en": "Gochang-gun",
    "all_tags": {
      "name": "고창군",
      "name:en": "Gochang-gun",
      "name:ja": "高敞郡",
      "name:ko": "고창군",
      "name:zh": "高敞郡",
      "boundary": "administrative",
      "way_area": "0.0820226",
      "admin_level": "6",
      "name:ko-Hani": "高敞郡"
    }
  },
  {
    "osm_id": -7619921,
    "boundary": "administrative",
    "admin_level": 6,
    "parents": "-2355168,-307756",
    "name": "Buan-gun",
    "local_name": "부안군",
    "name_en": "Buan-gun",
    "all_tags": {
      "name": "부안군",
      "name:en": "Buan-gun",
      "name:ja": "扶安郡",
      "name:ko": "부안군",
      "name:zh": "扶安郡",
      "boundary": "administrative",
      "way_area": "0.185486",
      "admin_level": "6",
      "name:ko-Hani": "扶安郡"
    }
  },
  {
    "osm_id": -7680389,
    "boundary": "administrative",
    "admin_level": 6,
    "parents": "-2398104,-307756",
    "name": "Jangseong-gun",
    "local_name": "장성군",
    "name_en": "Jangseong-gun",
    "all_tags": {
      "name": "장성군",
      "name:en": "Jangseong-gun",
      "name:ja": "長城郡",
      "name:ko": "장성군",
      "name:zh": "長城郡",
      "boundary": "administrative",
      "way_area": "0.0511637",
      "admin_level": "6",
      "name:ko-Hani": "長城郡"
    }
  },
  {
    "osm_id": -7680388,
    "boundary": "administrative",
    "admin_level": 6,
    "parents": "-2398104,-307756",
    "name": "Damyang-gun",
    "local_name": "담양군",
    "name_en": "Damyang-gun",
    "all_tags": {
      "name": "담양군",
      "name:en": "Damyang-gun",
      "name:ja": "潭陽郡",
      "name:ko": "담양군",
      "name:zh": "潭陽郡",
      "boundary": "administrative",
      "way_area": "0.0448035",
      "admin_level": "6",
      "name:ko-Hani": "潭陽郡"
    }
  },
  {
    "osm_id": -7680387,
    "boundary": "administrative",
    "admin_level": 6,
    "parents": "-2398104,-307756",
    "name": "Gokseong-gun",
    "local_name": "곡성군",
    "name_en": "Gokseong-gun",
    "all_tags": {
      "name": "곡성군",
      "name:en": "Gokseong-gun",
      "name:ja": "谷城郡",
      "name:ko": "곡성군",
      "name:zh": "谷城郡",
      "boundary": "administrative",
      "way_area": "0.0545455",
      "admin_level": "6",
      "name:ko-Hani": "谷城郡"
    }
  },
  {
    "osm_id": -2355168,
    "boundary": "administrative",
    "admin_level": 4,
    "parents": "-307756",
    "name": "North Jeolla",
    "local_name": "전라북도",
    "name_en": "North Jeolla",
    "all_tags": {
      "name": "전라북도",
      "name:bg": "Чъла-Пукто",
      "name:ca": "Jeollabuk-do",
      "name:cs": "Severní Čolla",
      "name:de": "Jeollabuk-do",
      "name:el": "Τζόλαμπουκ-ντο",
      "name:en": "North Jeolla",
      "name:es": "Jeolla del Norte",
      "name:et": "Põhja-Chŏlla provints",
      "name:fa": "جئولابوک-دو",
      "name:fi": "Pohjois-Jeolla",
      "name:fr": "Jeolla du Nord",
      "name:id": "Jeolla Utara",
      "name:it": "Nord Jeolla",
      "name:ja": "全羅北道",
      "name:jv": "Jeollabuk-do",
      "name:ko": "전라북도",
      "name:lt": "Šiaurės Džolos provincija",
      "name:mn": "Умард Чолла",
      "name:ms": "Jeolla Utara",
      "name:nl": "Jeollabuk-do",
      "name:no": "Nord-Jeolla",
      "name:pl": "Jeolla Północna",
      "name:pt": "Jeolla do Norte",
      "name:ru": "Чолла-Пукто",
      "name:sv": "Nordjeolla",
      "name:sw": "Jeollabuk-do",
      "name:th": "จังหวัดจ็อลลาเหนือ",
      "name:uk": "Північна провінція Чолла",
      "name:vi": "Jeolla Bắc",
      "name:zh": "全羅北道",
      "boundary": "administrative",
      "way_area": "1.35342",
      "wikidata": "Q41157",
      "ISO3166-2": "KR-45",
      "wikipedia": "en:North Jeolla Province",
      "short_name": "전북",
      "admin_level": "4",
      "alt_name:en": "North Jeolla Province",
      "name:ko-Hani": "全羅北道",
      "short_name:en": "Jeonbuk",
      "short_name:zh": "全北"
    }
  },
  {
    "osm_id": -7621808,
    "boundary": "administrative",
    "admin_level": 6,
    "parents": "-2355168,-307756",
    "name": "Jeongeup-si",
    "local_name": "정읍시",
    "name_en": "Jeongeup-si",
    "all_tags": {
      "name": "정읍시",
      "name:en": "Jeongeup-si",
      "name:ja": "井邑市",
      "name:ko": "정읍시",
      "name:zh": "井邑市",
      "boundary": "administrative",
      "way_area": "0.0692383",
      "wikidata": "Q42141",
      "wikipedia": "ko:정읍시",
      "admin_level": "6",
      "name:ko-Hani": "井邑市"
    }
  },
  {
    "osm_id": -7621807,
    "boundary": "administrative",
    "admin_level": 6,
    "parents": "-2355168,-307756",
    "name": "Imsil-gun",
    "local_name": "임실군",
    "name_en": "Imsil-gun",
    "all_tags": {
      "name": "임실군",
      "name:en": "Imsil-gun",
      "name:ja": "任実郡",
      "name:ko": "임실군",
      "name:uk": "Імсіль",
      "name:zh": "任實郡",
      "boundary": "administrative",
      "way_area": "0.0589939",
      "admin_level": "6",
      "name:ko-Hani": "任實郡"
    }
  },
  {
    "osm_id": -7621810,
    "boundary": "administrative",
    "admin_level": 6,
    "parents": "-2355168,-307756",
    "name": "Namwon-si",
    "local_name": "남원시",
    "name_en": "Namwon-si",
    "all_tags": {
      "name": "남원시",
      "name:en": "Namwon-si",
      "name:ja": "南原市",
      "name:ko": "남원시",
      "name:zh": "南原市",
      "boundary": "administrative",
      "way_area": "0.0736927",
      "wikidata": "Q42087",
      "wikipedia": "ko:남원시",
      "admin_level": "6",
      "name:ko-Hani": "南原市"
    }
  },
  {
    "osm_id": -7825606,
    "boundary": "administrative",
    "admin_level": 6,
    "parents": "-2393403,-307756",
    "name": "Sancheong-gun",
    "local_name": "산청군",
    "name_en": "Sancheong-gun",
    "all_tags": {
      "name": "산청군",
      "name:en": "Sancheong-gun",
      "name:ja": "山清郡",
      "name:ko": "산청군",
      "name:zh": "山清郡",
      "boundary": "administrative",
      "way_area": "0.0785174",
      "admin_level": "6",
      "name:ko-Hani": "山淸郡"
    }
  },
  {
    "osm_id": -7812364,
    "boundary": "administrative",
    "admin_level": 6,
    "parents": "-2355168,-307756",
    "name": "Jangsu-gun",
    "local_name": "장수군",
    "name_en": "Jangsu-gun",
    "all_tags": {
      "name": "장수군",
      "name:en": "Jangsu-gun",
      "name:ja": "長水郡",
      "name:ko": "장수군",
      "name:zh": "长水郡",
      "boundary": "administrative",
      "way_area": "0.0533731",
      "admin_level": "6",
      "name:ko-Hani": "長水郡",
      "name:zh-Hant": "長水郡"
    }
  },
  {
    "osm_id": -7621812,
    "boundary": "administrative",
    "admin_level": 6,
    "parents": "-2355168,-307756",
    "name": "Jinan-gun",
    "local_name": "진안군",
    "name_en": "Jinan-gun",
    "all_tags": {
      "name": "진안군",
      "name:en": "Jinan-gun",
      "name:ja": "鎮安郡",
      "name:ko": "진안군",
      "name:zh": "鎮安郡",
      "boundary": "administrative",
      "way_area": "0.0789058",
      "admin_level": "6",
      "name:ko-Hani": "鎭安郡"
    }
  },
  {
    "osm_id": -7833356,
    "boundary": "administrative",
    "admin_level": 6,
    "parents": "-2393403,-307756",
    "name": "Hamyang-gun",
    "local_name": "함양군",
    "name_en": "Hamyang-gun",
    "all_tags": {
      "name": "함양군",
      "name:en": "Hamyang-gun",
      "name:ja": "咸陽郡",
      "name:ko": "함양군",
      "name:zh": "咸陽郡",
      "boundary": "administrative",
      "way_area": "0.0717043",
      "admin_level": "6",
      "name:ko-Hani": "咸陽郡"
    }
  },
  {
    "osm_id": -7828117,
    "boundary": "administrative",
    "admin_level": 6,
    "parents": "-2393403,-307756",
    "name": "Geochang-gun",
    "local_name": "거창군",
    "name_en": "Geochang-gun",
    "all_tags": {
      "name": "거창군",
      "name:en": "Geochang-gun",
      "name:ja": "居昌郡",
      "name:ko": "거창군",
      "name:zh": "居昌郡",
      "boundary": "administrative",
      "way_area": "0.0797692",
      "wikidata": "Q50206",
      "admin_level": "6",
      "name:ko-Hani": "居昌郡"
    }
  },
  {
    "osm_id": -7621813,
    "boundary": "administrative",
    "admin_level": 6,
    "parents": "-2355168,-307756",
    "name": "Wanju-gun",
    "local_name": "완주군",
    "name_en": "Wanju-gun",
    "all_tags": {
      "name": "완주군",
      "name:en": "Wanju-gun",
      "name:ja": "完州郡",
      "name:ko": "완주군",
      "name:zh": "完州郡",
      "boundary": "administrative",
      "way_area": "0.0826098",
      "admin_level": "6",
      "name:ko-Hani": "完州郡"
    }
  },
  {
    "osm_id": -7580853,
    "boundary": "administrative",
    "admin_level": 6,
    "parents": "-2327259,-307756",
    "name": "Nonsan-si",
    "local_name": "논산시",
    "name_en": "Nonsan-si",
    "all_tags": {
      "name": "논산시",
      "name:cs": "Nonsan",
      "name:en": "Nonsan-si",
      "name:ja": "論山市",
      "name:ko": "논산시",
      "name:zh": "论山市",
      "boundary": "administrative",
      "way_area": "0.0550656",
      "wikidata": "Q42088",
      "wikipedia": "ko:논산시",
      "admin_level": "6",
      "name:ko-Hani": "論山市",
      "name:zh-Hant": "論山市"
    }
  },
  {
    "osm_id": -7578882,
    "boundary": "administrative",
    "admin_level": 6,
    "parents": "-2327259,-307756",
    "name": "Buyeo-gun",
    "local_name": "부여군",
    "name_en": "Buyeo-gun",
    "all_tags": {
      "name": "부여군",
      "name:en": "Buyeo-gun",
      "name:ja": "扶余郡",
      "name:ko": "부여군",
      "name:zh": "扶餘郡",
      "boundary": "administrative",
      "way_area": "0.0622435",
      "admin_level": "6",
      "name:ko-Hani": "扶餘郡"
    }
  },
  {
    "osm_id": -7619553,
    "boundary": "administrative",
    "admin_level": 6,
    "parents": "-2327259,-307756",
    "name": "Cheongyang-gun",
    "local_name": "청양군",
    "name_en": "Cheongyang-gun",
    "all_tags": {
      "name": "청양군",
      "name:en": "Cheongyang-gun",
      "name:ja": "青陽郡",
      "name:ko": "청양군",
      "name:zh": "青陽郡",
      "boundary": "administrative",
      "way_area": "0.048075",
      "admin_level": "6",
      "name:ko-Hani": "靑陽郡"
    }
  },
  {
    "osm_id": -7578884,
    "boundary": "administrative",
    "admin_level": 6,
    "parents": "-2327259,-307756",
    "name": "Gongju-si",
    "local_name": "공주시",
    "name_en": "Gongju-si",
    "all_tags": {
      "name": "공주시",
      "name:en": "Gongju-si",
      "name:ja": "公州市",
      "name:ko": "공주시",
      "name:zh": "公州市",
      "boundary": "administrative",
      "way_area": "0.087384",
      "admin_level": "6",
      "name:ko-Hani": "公州市"
    }
  },
  {
    "osm_id": -2538512,
    "boundary": "administrative",
    "admin_level": 6,
    "parents": "-2327259,-307756",
    "name": "Geumsan-gun",
    "local_name": "금산군",
    "name_en": "Geumsan-gun",
    "all_tags": {
      "name": "금산군",
      "name:en": "Geumsan-gun",
      "name:ja": "錦山郡",
      "name:ko": "금산군",
      "name:zh": "錦山郡",
      "boundary": "administrative",
      "way_area": "0.0577244",
      "admin_level": "6",
      "name:ko-Hani": "錦山郡"
    }
  },
  {
    "osm_id": -7621811,
    "boundary": "administrative",
    "admin_level": 6,
    "parents": "-2355168,-307756",
    "name": "Muju-gun",
    "local_name": "무주군",
    "name_en": "Muju-gun",
    "all_tags": {
      "name": "무주군",
      "name:en": "Muju-gun",
      "name:ja": "茂朱郡",
      "name:ko": "무주군",
      "name:zh": "茂朱郡",
      "boundary": "administrative",
      "way_area": "0.0628697",
      "admin_level": "6",
      "name:ko-Hani": "茂朱郡"
    }
  },
  {
    "osm_id": -2541040,
    "boundary": "administrative",
    "admin_level": 6,
    "parents": "-2327258,-307756",
    "name": "Yeongdong-gun",
    "local_name": "영동군",
    "name_en": "Yeongdong-gun",
    "all_tags": {
      "name": "영동군",
      "name:en": "Yeongdong-gun",
      "name:ja": "永同郡",
      "name:ko": "영동군",
      "name:zh": "永同郡",
      "boundary": "administrative",
      "way_area": "0.0853329",
      "wikidata": "Q50261",
      "wikipedia": "ko:영동군",
      "admin_level": "6",
      "name:ko-Hani": "永同郡"
    }
  },
  {
    "osm_id": -3890427,
    "boundary": "administrative",
    "admin_level": 6,
    "parents": "-2349984,-307756",
    "name": "Seo-gu",
    "local_name": "서구",
    "name_en": "Seo-gu",
    "all_tags": {
      "name": "서구",
      "name:en": "Seo-gu",
      "name:ja": "西区",
      "name:ko": "서구",
      "name:zh": "西區",
      "boundary": "administrative",
      "way_area": "0.00960736",
      "wikidata": "Q50405",
      "wikipedia": "ko:서구 (대전광역시)",
      "admin_level": "6",
      "name:ko-Hani": "西區"
    }
  },
  {
    "osm_id": -3890428,
    "boundary": "administrative",
    "admin_level": 6,
    "parents": "-2349984,-307756",
    "name": "Yuseong-gu",
    "local_name": "유성구",
    "name_en": "Yuseong-gu",
    "all_tags": {
      "name": "유성구",
      "name:en": "Yuseong-gu",
      "name:ja": "儒城区",
      "name:ko": "유성구",
      "name:zh": "儒城區",
      "boundary": "administrative",
      "way_area": "0.0176626",
      "wikidata": "Q50431",
      "wikipedia": "ko:유성구",
      "admin_level": "6",
      "name:ko-Hani": "儒城區"
    }
  },
  {
    "osm_id": -3889016,
    "boundary": "administrative",
    "admin_level": 6,
    "parents": "-2349984,-307756",
    "name": "Dong-gu",
    "local_name": "동구",
    "name_en": "Dong-gu",
    "all_tags": {
      "name": "동구",
      "name:en": "Dong-gu",
      "name:ja": "東区",
      "name:ko": "동구",
      "name:zh": "東區",
      "boundary": "administrative",
      "way_area": "0.0138209",
      "wikidata": "Q50377",
      "admin_level": "6",
      "name:ko-Hani": "東區"
    }
  },
  {
    "osm_id": -7820650,
    "boundary": "administrative",
    "admin_level": 6,
    "parents": "-2393403,-307756",
    "name": "Jinju-si",
    "local_name": "진주시",
    "name_en": "Jinju-si",
    "all_tags": {
      "name": "진주시",
      "name:en": "Jinju-si",
      "name:ja": "晋州市",
      "name:ko": "진주시",
      "name:zh": "晉州市",
      "boundary": "administrative",
      "way_area": "0.0705463",
      "wikidata": "Q27288670",
      "admin_level": "6",
      "name:ko-Hani": "晉州市"
    }
  },
  {
    "osm_id": -7825714,
    "boundary": "administrative",
    "admin_level": 6,
    "parents": "-2393403,-307756",
    "name": "Uiryeong-gun",
    "local_name": "의령군",
    "name_en": "Uiryeong-gun",
    "all_tags": {
      "name": "의령군",
      "name:en": "Uiryeong-gun",
      "name:ja": "宜寧郡",
      "name:ko": "의령군",
      "name:uk": "Ийрьон",
      "name:zh": "宜寧郡",
      "boundary": "administrative",
      "way_area": "0.0478388",
      "admin_level": "6",
      "name:ko-Hani": "宜寧郡"
    }
  },
  {
    "osm_id": -7828253,
    "boundary": "administrative",
    "admin_level": 6,
    "parents": "-2393403,-307756",
    "name": "Haman-gun",
    "local_name": "함안군",
    "name_en": "Haman-gun",
    "all_tags": {
      "name": "함안군",
      "name:en": "Haman-gun",
      "name:ja": "咸安郡",
      "name:ko": "함안군",
      "name:zh": "咸安郡",
      "boundary": "administrative",
      "way_area": "0.0411575",
      "admin_level": "6",
      "name:ko-Hani": "咸安郡"
    }
  },
  {
    "osm_id": -7828150,
    "boundary": "administrative",
    "admin_level": 6,
    "parents": "-2393403,-307756",
    "name": "Hapcheon-gun",
    "local_name": "합천군",
    "name_en": "Hapcheon-gun",
    "all_tags": {
      "name": "합천군",
      "name:en": "Hapcheon-gun",
      "name:ja": "陜川郡",
      "name:ko": "합천군",
      "name:zh": "陜川郡",
      "boundary": "administrative",
      "way_area": "0.0974095",
      "admin_level": "6",
      "name:ko-Hani": "陜川郡"
    }
  },
  {
    "osm_id": -7224484,
    "boundary": "administrative",
    "admin_level": 6,
    "parents": "-2393403,-307756",
    "name": "Changwon-si",
    "local_name": "창원시",
    "name_en": "Changwon-si",
    "all_tags": {
      "name": "창원시",
      "name:en": "Changwon-si",
      "name:hu": "Cshangvon-si",
      "name:ja": "昌原市",
      "name:ko": "창원시",
      "name:zh": "昌原市",
      "boundary": "administrative",
      "way_area": "0.0941485",
      "admin_level": "6",
      "name:ko-Hani": "昌原市",
      "name:ko-Latn": "Changwon-si"
    }
  },
  {
    "osm_id": -7825897,
    "boundary": "administrative",
    "admin_level": 6,
    "parents": "-2393403,-307756",
    "name": "Changnyeong-gun",
    "local_name": "창녕군",
    "name_en": "Changnyeong-gun",
    "all_tags": {
      "name": "창녕군",
      "name:en": "Changnyeong-gun",
      "name:ja": "昌寧郡",
      "name:ko": "창녕군",
      "name:zh": "昌寧郡",
      "boundary": "administrative",
      "way_area": "0.0525674",
      "admin_level": "6",
      "name:ko-Hani": "昌寧郡"
    }
  },
  {
    "osm_id": -3972253,
    "boundary": "administrative",
    "admin_level": 6,
    "parents": "-2395674,-307756",
    "name": "Dalseong-gun",
    "local_name": "달성군",
    "name_en": "Dalseong-gun",
    "all_tags": {
      "name": "달성군",
      "name:de": "Dalseong-gun",
      "name:en": "Dalseong-gun",
      "name:ja": "達城郡",
      "name:ko": "달성군",
      "name:zh": "達城郡",
      "boundary": "administrative",
      "way_area": "0.0423781",
      "wikidata": "Q50239",
      "admin_level": "6",
      "name:ko-Hani": "達城郡"
    }
  },
  {
    "osm_id": -2395674,
    "boundary": "administrative",
    "admin_level": 4,
    "parents": "-307756",
    "name": "Daegu",
    "local_name": "대구",
    "name_en": "Daegu",
    "all_tags": {
      "name": "대구",
      "name:af": "Daegu",
      "name:ar": "ديغو",
      "name:bg": "Тегу",
      "name:ca": "Daegu",
      "name:cs": "Tegu",
      "name:da": "Daegu",
      "name:de": "Daegu",
      "name:el": "Νταεγού",
      "name:en": "Daegu",
      "name:eo": "Taeguo",
      "name:es": "Daegu",
      "name:et": "Daegu",
      "name:eu": "Daegu",
      "name:fa": "دائجو",
      "name:fi": "Daegu",
      "name:fr": "Daegu",
      "name:he": "טגו",
      "name:id": "Daegu",
      "name:io": "Daegu",
      "name:it": "Daegu",
      "name:ja": "大邱",
      "name:kl": "Daegu",
      "name:ko": "대구",
      "name:la": "Daegu",
      "name:lt": "Tegu",
      "name:lv": "Tegu",
      "name:mi": "Daegu",
      "name:ml": "ദേഗു",
      "name:mn": "Тэгү",
      "name:mr": "दैगू",
      "name:ms": "Daegu",
      "name:nl": "Daegu",
      "name:nn": "Daegu",
      "name:no": "Daegu",
      "name:os": "Тэгу",
      "name:pl": "Daegu",
      "name:pt": "Daegu",
      "name:ro": "Daegu",
      "name:ru": "Тэгу",
      "name:sk": "Tägu",
      "name:sr": "Тегу",
      "name:sv": "Daegu",
      "name:sw": "Daegu",
      "name:th": "แทกู",
      "name:tl": "Daegu",
      "name:tr": "Daegu",
      "name:uk": "Тегу",
      "name:vi": "Daegu",
      "name:zh": "大邱",
      "boundary": "administrative",
      "way_area": "0.0880226",
      "wikidata": "Q20927",
      "ISO3166-2": "KR-27",
      "wikipedia": "ko:대구광역시",
      "population": "2528933",
      "admin_level": "4",
      "loc_name:en": "Daegu city",
      "loc_name:ja": "大邱市",
      "loc_name:ko": "대구시",
      "loc_name:zh": "大邱市",
      "old_name:en": "Taegu",
      "name:ko-Hani": "大邱",
      "name:ko-Latn": "Daegu",
      "name:zh-Hant": "大邱",
      "official_name": "대구광역시",
      "short_name:ja": "大邱",
      "short_name:ko": "대구",
      "short_name:zh": "大邱",
      "loc_name:ko-Hani": "大邱市",
      "loc_name:ko-Latn": "Daegu-si",
      "official_name:en": "Daegu Metropolitan City",
      "official_name:ja": "大邱広域市",
      "official_name:ko": "대구광역시",
      "official_name:zh": "大邱广域市",
      "short_name:ko-Hani": "大邱",
      "short_name:ko-Latn": "Daegu",
      "official_name:zh-Hant": "大邱廣域市"
    }
  },
  {
    "osm_id": -7224487,
    "boundary": "administrative",
    "admin_level": 6,
    "parents": "-2393403,-307756",
    "name": "Yangsan-si",
    "local_name": "양산시",
    "name_en": "Yangsan-si",
    "all_tags": {
      "name": "양산시",
      "name:en": "Yangsan-si",
      "name:ja": "梁山市",
      "name:ko": "양산시",
      "name:zh": "梁山市",
      "boundary": "administrative",
      "way_area": "0.0492166",
      "wikidata": "Q27264492",
      "admin_level": "6",
      "name:ko-Hani": "梁山市",
      "name:ko-Latn": "Yangsansi"
    }
  },
  {
    "osm_id": -2395867,
    "boundary": "administrative",
    "admin_level": 4,
    "parents": "-307756",
    "name": "Ulsan",
    "local_name": "울산",
    "name_en": "Ulsan",
    "all_tags": {
      "name": "울산",
      "name:af": "Ulsan",
      "name:ar": "أولسان",
      "name:bg": "Улсан",
      "name:bi": "Ulsan",
      "name:ca": "Ulsan",
      "name:cs": "Ulsan",
      "name:da": "Ulsan",
      "name:de": "Ulsan",
      "name:el": "Ούλσαν",
      "name:en": "Ulsan",
      "name:eo": "Ulsan",
      "name:es": "Ulsan",
      "name:et": "Ulsan",
      "name:eu": "Ulsan",
      "name:fa": "اولسان",
      "name:fi": "Ulsan",
      "name:fr": "Ulsan",
      "name:he": "אולסן",
      "name:hu": "Ulszan",
      "name:id": "Ulsan",
      "name:io": "Ulsan",
      "name:it": "Ulsan",
      "name:ja": "蔚山",
      "name:kl": "Ulsan",
      "name:ko": "울산",
      "name:lt": "Ulsanas",
      "name:mi": "Ulsan",
      "name:mn": "Үлсан",
      "name:mr": "उल्सान",
      "name:nl": "Ulsan",
      "name:no": "Ulsan",
      "name:pl": "Ulsan",
      "name:pt": "Ulsan",
      "name:ro": "Ulsan",
      "name:ru": "Ульсан",
      "name:sv": "Ulsan",
      "name:sw": "Ulsan",
      "name:th": "อุลซัน",
      "name:tl": "Ulsan",
      "name:vi": "Ulsan",
      "name:zh": "蔚山",
      "boundary": "administrative",
      "way_area": "0.21717",
      "wikidata": "Q41278",
      "ISO3166-2": "KR-31",
      "wikipedia": "en:Ulsan",
      "population": "1129827",
      "admin_level": "4",
      "loc_name:en": "Ulsan city",
      "loc_name:ja": "蔚山市",
      "loc_name:ko": "울산시",
      "loc_name:zh": "蔚山市",
      "name:ko-Hani": "蔚山",
      "name:ko-Latn": "Ulsan",
      "name:zh-Hant": "蔚山",
      "short_name:ja": "蔚山",
      "short_name:ko": "울산",
      "short_name:zh": "蔚山",
      "loc_name:ko-Hani": "蔚山市",
      "loc_name:ko-Latn": "Ulsan-si",
      "official_name:en": "Ulsan Metropolitan City",
      "official_name:ja": "蔚山広域市",
      "official_name:ko": "울산광역시",
      "official_name:zh": "蔚山广域市",
      "short_name:ko-Hani": "蔚山",
      "short_name:ko-Latn": "Ulsan",
      "official_name:zh-Hant": "蔚山廣域市"
    }
  },
  {
    "osm_id": -8127815,
    "boundary": "administrative",
    "admin_level": 6,
    "parents": "-2395867,-307756",
    "name": "Ulju-gun",
    "local_name": "울주군",
    "name_en": "Ulju-gun",
    "all_tags": {
      "name": "울주군",
      "name:en": "Ulju-gun",
      "name:ja": "蔚州郡",
      "name:ko": "울주군",
      "name:zh": "蔚州郡",
      "boundary": "administrative",
      "way_area": "0.117841",
      "admin_level": "6",
      "name:ko-Hani": "蔚州郡"
    }
  },
  {
    "osm_id": -7741683,
    "boundary": "administrative",
    "admin_level": 6,
    "parents": "-2304454,-307756",
    "name": "Cheongdo-gun",
    "local_name": "청도군",
    "name_en": "Cheongdo-gun",
    "all_tags": {
      "name": "청도군",
      "name:en": "Cheongdo-gun",
      "name:ja": "清道郡",
      "name:ko": "청도군",
      "name:zh": "清道郡",
      "boundary": "administrative",
      "way_area": "0.068862",
      "admin_level": "6",
      "name:ko-Hani": "淸道郡"
    }
  },
  {
    "osm_id": -7741682,
    "boundary": "administrative",
    "admin_level": 6,
    "parents": "-2304454,-307756",
    "name": "Gyeongsan-si",
    "local_name": "경산시",
    "name_en": "Gyeongsan-si",
    "all_tags": {
      "name": "경산시",
      "name:en": "Gyeongsan-si",
      "name:ja": "慶山市",
      "name:ko": "경산시",
      "name:zh": "慶山市",
      "boundary": "administrative",
      "way_area": "0.0412354",
      "admin_level": "6",
      "name:ko-Hani": "慶山市"
    }
  },
  {
    "osm_id": -7740688,
    "boundary": "administrative",
    "admin_level": 6,
    "parents": "-2304454,-307756",
    "name": "Gyeongju-si",
    "local_name": "경주시",
    "name_en": "Gyeongju-si",
    "all_tags": {
      "name": "경주시",
      "name:en": "Gyeongju-si",
      "name:ja": "慶州市",
      "name:ko": "경주시",
      "name:zh": "庆州市",
      "boundary": "administrative",
      "way_area": "0.139752",
      "wikidata": "Q42097",
      "wikipedia": "ko:경주시",
      "admin_level": "6",
      "name:ko-Hani": "慶州市",
      "name:zh-Hant": "慶州市"
    }
  },
  {
    "osm_id": -7715625,
    "boundary": "administrative",
    "admin_level": 6,
    "parents": "-2304454,-307756",
    "name": "Gimcheon-si",
    "local_name": "김천시",
    "name_en": "Gimcheon-si",
    "all_tags": {
      "name": "김천시",
      "name:en": "Gimcheon-si",
      "name:ja": "金泉市",
      "name:ko": "김천시",
      "name:zh": "金泉市",
      "boundary": "administrative",
      "way_area": "0.100592",
      "admin_level": "6",
      "name:ko-Hani": "金泉市"
    }
  },
  {
    "osm_id": -7715629,
    "boundary": "administrative",
    "admin_level": 6,
    "parents": "-2304454,-307756",
    "name": "Sangju-si",
    "local_name": "상주시",
    "name_en": "Sangju-si",
    "all_tags": {
      "name": "상주시",
      "name:en": "Sangju-si",
      "name:ja": "尚州市",
      "name:ko": "상주시",
      "name:zh": "尚州市",
      "boundary": "administrative",
      "way_area": "0.126168",
      "wikidata": "Q42163",
      "wikipedia": "ko:상주시",
      "admin_level": "6",
      "name:ko-Hani": "尚州市"
    }
  },
  {
    "osm_id": -7816959,
    "boundary": "administrative",
    "admin_level": 6,
    "parents": "-2304454,-307756",
    "name": "Gunwi-gun",
    "local_name": "군위군",
    "name_en": "Gunwi-gun",
    "all_tags": {
      "name": "군위군",
      "name:en": "Gunwi-gun",
      "name:ja": "軍威郡",
      "name:ko": "군위군",
      "name:zh": "軍威郡",
      "boundary": "administrative",
      "way_area": "0.0614215",
      "admin_level": "6",
      "name:ko-Hani": "軍威郡"
    }
  },
  {
    "osm_id": -7741681,
    "boundary": "administrative",
    "admin_level": 6,
    "parents": "-2304454,-307756",
    "name": "Yeongcheon-si",
    "local_name": "영천시",
    "name_en": "Yeongcheon-si",
    "all_tags": {
      "name": "영천시",
      "name:en": "Yeongcheon-si",
      "name:ja": "永川市",
      "name:ko": "영천시",
      "name:zh": "永川市",
      "boundary": "administrative",
      "way_area": "0.0914836",
      "wikidata": "Q42128",
      "wikipedia": "ko:영천시",
      "admin_level": "6",
      "name:ko-Hani": "永川市"
    }
  },
  {
    "osm_id": -7721487,
    "boundary": "administrative",
    "admin_level": 6,
    "parents": "-2304454,-307756",
    "name": "Andong-si",
    "local_name": "안동시",
    "name_en": "Andong-si",
    "all_tags": {
      "name": "안동시",
      "name:en": "Andong-si",
      "name:ja": "安東市",
      "name:ko": "안동시",
      "name:zh": "安東市",
      "boundary": "administrative",
      "way_area": "0.153801",
      "admin_level": "6",
      "name:ko-Hani": "安東市"
    }
  },
  {
    "osm_id": -7817173,
    "boundary": "administrative",
    "admin_level": 6,
    "parents": "-2304454,-307756",
    "name": "Cheongsong-gun",
    "local_name": "청송군",
    "name_en": "Cheongsong-gun",
    "all_tags": {
      "name": "청송군",
      "name:en": "Cheongsong-gun",
      "name:ja": "青松郡",
      "name:ko": "청송군",
      "name:zh": "青松郡",
      "boundary": "administrative",
      "way_area": "0.0850653",
      "admin_level": "6",
      "name:ko-Hani": "靑松郡"
    }
  },
  {
    "osm_id": -7502370,
    "boundary": "administrative",
    "admin_level": 6,
    "parents": "-2327259,-307756",
    "name": "Seosan-si",
    "local_name": "서산시",
    "name_en": "Seosan-si",
    "all_tags": {
      "name": "서산시",
      "name:el": "Σόσαν",
      "name:en": "Seosan-si",
      "name:ja": "瑞山市",
      "name:ko": "서산시",
      "name:zh": "瑞山市",
      "boundary": "administrative",
      "way_area": "0.0888892",
      "wikidata": "Q27267460",
      "admin_level": "6",
      "name:ko-Hani": "瑞山市"
    }
  },
  {
    "osm_id": -2297419,
    "boundary": "administrative",
    "admin_level": 4,
    "parents": "-307756",
    "name": "Incheon",
    "local_name": "인천",
    "name_en": "Incheon",
    "all_tags": {
      "name": "인천",
      "name:ar": "إنتشون",
      "name:cs": "Inčchon",
      "name:da": "Incheon",
      "name:de": "Incheon",
      "name:el": "Ίντσον",
      "name:en": "Incheon",
      "name:es": "Incheon",
      "name:fr": "Inchon",
      "name:he": "אינצ'ון",
      "name:ja": "仁川広域市",
      "name:ko": "인천",
      "name:lt": "Inčonas",
      "name:ru": "Инчхон",
      "name:uk": "Інчхон",
      "name:zh": "仁川廣域市",
      "boundary": "administrative",
      "way_area": "1.00425",
      "wikidata": "Q20934",
      "ISO3166-2": "KR-28",
      "wikipedia": "en:Incheon",
      "population": "2870545",
      "short_name": "인천",
      "admin_level": "4",
      "name:ko-Hani": "仁川",
      "name:ko-Latn": "Incheon",
      "name:zh-Hans": "仁川广域市",
      "name:zh-Hant": "仁川廣域市",
      "official_name": "인천광역시",
      "short_name:en": "Incheon",
      "short_name:ko": "인천",
      "short_name:zh": "仁川",
      "official_name:en": "Incheon Metropolitan City",
      "official_name:ko": "인천광역시",
      "official_name:ko-Hani": "仁川廣域市",
      "official_name:ko-Latn": "Incheon-gwangyeoksi"
    }
  },
  {
    "osm_id": -2546883,
    "boundary": "administrative",
    "admin_level": 6,
    "parents": "-2327259,-307756",
    "name": "Asan-si",
    "local_name": "아산시",
    "name_en": "Asan-si",
    "all_tags": {
      "name": "아산시",
      "name:en": "Asan-si",
      "name:ja": "牙山市",
      "name:ko": "아산시",
      "name:zh": "牙山市",
      "boundary": "administrative",
      "way_area": "0.0558901",
      "wikidata": "Q42114",
      "wikipedia": "ko:아산시",
      "admin_level": "6",
      "name:ko-Hani": "牙山市"
    }
  },
  {
    "osm_id": -2409179,
    "boundary": "administrative",
    "admin_level": 6,
    "parents": "-2306392,-307756",
    "name": "Pyeongtaek-si",
    "local_name": "평택시",
    "name_en": "Pyeongtaek-si",
    "all_tags": {
      "name": "평택시",
      "name:el": "Πιόνγκτεκ",
      "name:en": "Pyeongtaek-si",
      "name:ja": "平沢市",
      "name:ko": "평택시",
      "name:uk": "Пгьонтхек",
      "name:zh": "平泽市",
      "boundary": "administrative",
      "way_area": "0.0502575",
      "wikidata": "Q42154",
      "wikipedia": "ko:평택시",
      "admin_level": "6",
      "name:ko-Hani": "平澤市",
      "name:zh-Hant": "平澤市"
    }
  },
  {
    "osm_id": -2409189,
    "boundary": "administrative",
    "admin_level": 6,
    "parents": "-2306392,-307756",
    "name": "Yongin-si",
    "local_name": "용인시",
    "name_en": "Yongin-si",
    "all_tags": {
      "name": "용인시",
      "name:en": "Yongin-si",
      "name:ja": "竜仁市",
      "name:ko": "용인시",
      "name:zh": "龙仁市",
      "boundary": "administrative",
      "way_area": "0.0601281",
      "wikidata": "Q18459",
      "wikipedia": "ko:용인시",
      "admin_level": "6",
      "name:ko-Hani": "龍仁市",
      "name:zh-Hant": "龍仁市"
    }
  },
  {
    "osm_id": -2541043,
    "boundary": "administrative",
    "admin_level": 6,
    "parents": "-2327258,-307756",
    "name": "Cheongju-si",
    "local_name": "청주시",
    "name_en": "Cheongju-si",
    "all_tags": {
      "name": "청주시",
      "name:en": "Cheongju-si",
      "name:ja": "清州市",
      "name:ko": "청주시",
      "name:ru": "Чхонджу",
      "name:zh": "清州市",
      "boundary": "administrative",
      "way_area": "0.0945301",
      "wikidata": "Q42147",
      "wikipedia": "ko:청주시",
      "admin_level": "6",
      "name:ko-Hani": "淸州市",
      "name:ko-Latn": "Cheongju-si"
    }
  },
  {
    "osm_id": -2539139,
    "boundary": "administrative",
    "admin_level": 6,
    "parents": "-2327258,-307756",
    "name": "Jeungpyeong-gun",
    "local_name": "증평군",
    "name_en": "Jeungpyeong-gun",
    "all_tags": {
      "name": "증평군",
      "name:en": "Jeungpyeong-gun",
      "name:ja": "曾坪郡",
      "name:ko": "증평군",
      "name:zh": "曾坪郡",
      "boundary": "administrative",
      "way_area": "0.0082586",
      "wikidata": "Q50324",
      "wikipedia": "ko:증평군",
      "admin_level": "6",
      "name:ko-Hani": "曾坪郡"
    }
  },
  {
    "osm_id": -2327258,
    "boundary": "administrative",
    "admin_level": 4,
    "parents": "-307756",
    "name": "North Chungcheong",
    "local_name": "충청북도",
    "name_en": "North Chungcheong",
    "all_tags": {
      "ref": "충북",
      "name": "충청북도",
      "name:bg": "Чхунчхън-Пукто",
      "name:ca": "Chungcheongbuk-do",
      "name:cs": "Severní Čchungčchong",
      "name:de": "Chungcheongbuk-do",
      "name:el": "Τσούνγκτσονγκμπουκ-ντο",
      "name:en": "North Chungcheong",
      "name:es": "Chungcheong del Norte",
      "name:et": "Põhja-Ch'ungch'ŏngi provints",
      "name:fa": "چونگچیونبوک-دو",
      "name:fi": "Pohjois-Chungcheon",
      "name:fr": "Chungcheong du Nord",
      "name:id": "Chungcheong Utara",
      "name:it": "Nord Chungcheong",
      "name:ja": "忠清北道",
      "name:ko": "충청북도",
      "name:lt": "Šiaurės Čungčongo provincija",
      "name:mn": "Умард Чүнчон",
      "name:nl": "Chungcheongbuk-do",
      "name:no": "Nord-Chungcheong",
      "name:pl": "Ch'ungch'ŏng Północny",
      "name:pt": "Chungcheong do Norte",
      "name:ru": "Чхунчхон-Пукто",
      "name:sv": "Nordchungcheong",
      "name:sw": "Chungcheongbuk-do",
      "name:uk": "Північна провінція Чхунчхон",
      "name:vi": "Chungcheong Bắc",
      "name:zh": "忠清北道",
      "boundary": "administrative",
      "way_area": "0.747856",
      "wikidata": "Q41066",
      "ISO3166-2": "KR-43",
      "wikipedia": "ko:충청북도",
      "short_name": "충북",
      "admin_level": "4",
      "alt_name:en": "North Chungcheong Province",
      "name:ko-Hani": "忠清北道",
      "name:ko-Latn": "Chungcheongbuk-do"
    }
  },
  {
    "osm_id": -2539138,
    "boundary": "administrative",
    "admin_level": 6,
    "parents": "-2327258,-307756",
    "name": "Goesan-gun",
    "local_name": "괴산군",
    "name_en": "Goesan-gun",
    "all_tags": {
      "name": "괴산군",
      "name:en": "Goesan-gun",
      "name:ja": "槐山郡",
      "name:ko": "괴산군",
      "name:zh": "槐山郡",
      "boundary": "administrative",
      "way_area": "0.0850081",
      "wikidata": "Q50213",
      "wikipedia": "ko:괴산군",
      "admin_level": "6",
      "name:ko-Hani": "槐山郡"
    }
  },
  {
    "osm_id": -2409181,
    "boundary": "administrative",
    "admin_level": 6,
    "parents": "-2306392,-307756",
    "name": "Siheung-si",
    "local_name": "시흥시",
    "name_en": "Siheung-si",
    "all_tags": {
      "name": "시흥시",
      "name:en": "Siheung-si",
      "name:ja": "始興市",
      "name:ko": "시흥시",
      "name:zh": "始兴市",
      "boundary": "administrative",
      "way_area": "0.0167462",
      "wikidata": "Q42113",
      "wikipedia": "ko:시흥시",
      "admin_level": "6",
      "name:ko-Hani": "始興市",
      "name:zh-Hant": "始興市"
    }
  },
  {
    "osm_id": -2505210,
    "boundary": "administrative",
    "admin_level": 6,
    "parents": "-2297419,-307756",
    "name": "Seo-gu",
    "local_name": "서구",
    "name_en": "Seo-gu",
    "all_tags": {
      "name": "서구",
      "name:en": "Seo-gu",
      "name:ja": "西区",
      "name:ko": "서구",
      "name:zh": "西區",
      "boundary": "administrative",
      "way_area": "0.0164049",
      "wikidata": "Q50407",
      "wikipedia": "ko:서구 (인천광역시)",
      "admin_level": "6",
      "name:ko-Hani": "西區"
    }
  },
  {
    "osm_id": -2409162,
    "boundary": "administrative",
    "admin_level": 6,
    "parents": "-2306392,-307756",
    "name": "Bucheon-si",
    "local_name": "부천시",
    "name_en": "Bucheon-si",
    "all_tags": {
      "name": "부천시",
      "name:cs": "Pučchon",
      "name:en": "Bucheon-si",
      "name:ja": "富川市",
      "name:ko": "부천시",
      "name:zh": "富川市",
      "boundary": "administrative",
      "way_area": "0.00545726",
      "population": "848191",
      "admin_level": "6",
      "alt_name:cs": "Bučchon",
      "name:ko-Hani": "富川市",
      "population:date": "2018-08-31"
    }
  },
  {
    "osm_id": -2414777,
    "boundary": "administrative",
    "admin_level": 6,
    "parents": "-2297418,-307756",
    "name": "Guro-gu",
    "local_name": "구로구",
    "name_en": "Guro-gu",
    "all_tags": {
      "ref": "17",
      "name": "구로구",
      "name:en": "Guro-gu",
      "name:ja": "九老区",
      "name:ko": "구로구",
      "name:zh": "九老區",
      "boundary": "administrative",
      "way_area": "0.00205803",
      "wikidata": "Q50356",
      "wikipedia": "ko:구로구",
      "admin_level": "6",
      "name:ko-Hani": "九老區"
    }
  },
  {
    "osm_id": -2414775,
    "boundary": "administrative",
    "admin_level": 6,
    "parents": "-2297418,-307756",
    "name": "Gangseo-gu",
    "local_name": "강서구",
    "name_en": "Gangseo-gu",
    "all_tags": {
      "ref": "16",
      "name": "강서구",
      "name:en": "Gangseo-gu",
      "name:ja": "江西区",
      "name:ko": "강서구",
      "name:zh": "江西区",
      "boundary": "administrative",
      "way_area": "0.00426495",
      "wikidata": "Q50192",
      "wikipedia": "ko:강서구 (서울특별시)",
      "admin_level": "6",
      "name:ko-Hani": "江西區",
      "name:zh-Hans": "江西区",
      "name:zh-Hant": "江西區"
    }
  },
  {
    "osm_id": -2409182,
    "boundary": "administrative",
    "admin_level": 6,
    "parents": "-2306392,-307756",
    "name": "Suwon-si",
    "local_name": "수원시",
    "name_en": "Suwon-si",
    "all_tags": {
      "name": "수원시",
      "name:en": "Suwon-si",
      "name:ja": "水原市",
      "name:ko": "수원시",
      "name:ru": "Сувон",
      "name:zh": "水原市",
      "boundary": "administrative",
      "way_area": "0.0122986",
      "wikidata": "Q20714",
      "admin_level": "6",
      "name:ko-Hani": "水原市",
      "official_name:en": "Suwon-si"
    }
  },
  {
    "osm_id": -2409180,
    "boundary": "administrative",
    "admin_level": 6,
    "parents": "-2306392,-307756",
    "name": "Seongnam-si",
    "local_name": "성남시",
    "name_en": "Seongnam-si",
    "all_tags": {
      "name": "성남시",
      "name:en": "Seongnam-si",
      "name:fr": "Seongnam",
      "name:ja": "城南市",
      "name:ko": "성남시",
      "name:zh": "城南市",
      "alt_name": "Sŏngnam",
      "boundary": "administrative",
      "way_area": "0.0143985",
      "wikidata": "Q42108",
      "wikipedia": "en:Seongnam",
      "admin_level": "6",
      "name:ko-Hani": "城南市"
    }
  },
  {
    "osm_id": -2410520,
    "boundary": "administrative",
    "admin_level": 6,
    "parents": "-2297418,-307756",
    "name": "Gangnam-gu",
    "local_name": "강남구",
    "name_en": "Gangnam-gu",
    "all_tags": {
      "ref": "23",
      "name": "강남구",
      "name:en": "Gangnam-gu",
      "name:ja": "江南区",
      "name:ko": "강남구",
      "name:zh": "江南區",
      "boundary": "administrative",
      "way_area": "0.00412042",
      "wikidata": "Q20398",
      "wikipedia": "ko:강남구",
      "admin_level": "6",
      "name:ko-Hani": "江南區"
    }
  },
  {
    "osm_id": -2297418,
    "boundary": "administrative",
    "admin_level": 4,
    "parents": "-307756",
    "name": "Seoul",
    "local_name": "서울",
    "name_en": "Seoul",
    "all_tags": {
      "ref": "01",
      "name": "서울",
      "place": "city",
      "name:af": "Seoel",
      "name:am": "ሶል",
      "name:an": "Seúl",
      "name:ar": "سول",
      "name:az": "Seul",
      "name:ba": "Сеул",
      "name:be": "Сеул",
      "name:bg": "Сеул",
      "name:bh": "सियोल",
      "name:bn": "সিওল",
      "name:bo": "སེ་ཨུལ།",
      "name:bs": "Seul",
      "name:ca": "Seül",
      "name:cs": "Soul",
      "name:cv": "Сеул",
      "name:de": "Seoul",
      "name:el": "Σεούλ",
      "name:en": "Seoul",
      "name:eo": "Seulo",
      "name:es": "Seúl",
      "name:et": "Sŏul",
      "name:eu": "Seul",
      "name:fa": "سئول",
      "name:fi": "Soul",
      "name:fr": "Séoul",
      "name:gl": "Seúl",
      "name:he": "סיאול",
      "name:hi": "सियोल",
      "name:hr": "Seul",
      "name:hu": "Szöul",
      "name:hy": "Սեուլ",
      "name:is": "Seúl",
      "name:it": "Seul",
      "name:ja": "ソウル",
      "name:ka": "სეული",
      "name:kk": "Сеул",
      "name:km": "សេអ៊ូល",
      "name:kn": "ಸೌಲ್",
      "name:ko": "서울",
      "name:ku": "Sêûl",
      "name:ky": "Сеул",
      "name:la": "Seulum",
      "name:lt": "Seulas",
      "name:lv": "Seula",
      "name:mk": "Сеул",
      "name:ml": "സോൾ",
      "name:mn": "Сөүл",
      "name:mr": "सोल",
      "name:my": "ဆိုးလ်မြို့",
      "name:nl": "Seoel",
      "name:oc": "Seol",
      "name:os": "Сеул",
      "name:pl": "Seul",
      "name:pt": "Seul",
      "name:qu": "Siul",
      "name:ro": "Seul",
      "name:ru": "Сеул",
      "name:sk": "Soul",
      "name:sl": "Seul",
      "name:sr": "Сеул",
      "name:sv": "Seoul",
      "name:ta": "சியோல்",
      "name:tg": "Сеул",
      "name:th": "โซล",
      "name:tk": "Seul",
      "name:tr": "Seul",
      "name:uk": "Сеул",
      "name:ur": "سؤل",
      "name:uz": "Seul",
      "name:vi": "Seoul",
      "name:vo": "Söul",
      "name:yi": "סעאל",
      "name:zh": "首尔市 / 首爾",
      "boundary": "administrative",
      "name:arz": "سول",
      "name:ast": "Seúl",
      "name:bjn": "Soul",
      "name:cdo": "Siū-ék",
      "name:ckb": "سۆل",
      "name:crh": "Seul",
      "name:csb": "Seul",
      "name:diq": "Seul",
      "name:dsb": "Soul",
      "name:ext": "Seúl",
      "name:gag": "Seul",
      "name:gan": "首爾",
      "name:jbo": ".sol.",
      "name:lzh": "首爾",
      "name:mhr": "Сеул",
      "name:nah": "Seul",
      "name:nan": "Seoul Te̍k-pia̍t-chhī",
      "name:pnb": "سیول",
      "name:rue": "Соул",
      "name:sah": "Сеул",
      "name:szl": "Seul",
      "name:tpi": "Sol",
      "name:wuu": "首尔",
      "name:yue": "首爾",
      "way_area": "0.0618543",
      "wikidata": "Q8684",
      "ISO3166-2": "KR-11",
      "wikipedia": "en:Seoul",
      "population": "9509458",
      "admin_level": "4",
      "alt_name:ar": "سيول;سيئول",
      "alt_name:ur": "سیول",
      "alt_name:vi": "Xơ-un",
      "old_name:vi": "Thủ Nhĩ",
      "old_name:zh": "汉城 / 漢城",
      "name:bat-smg": "Seuls",
      "name:fiu-vro": "Sŏul",
      "name:ko-Latn": "Seoul",
      "name:zh-Hans": "首尔市",
      "name:zh-Hant": "首爾",
      "name:roa-tara": "Seul",
      "official_name": "서울특별시",
      "name:be-tarask": "Сэул",
      "official_name:ar": "مدينة سول الخاصة",
      "official_name:en": "Seoul Special City",
      "official_name:ko": "서울특별시",
      "official_name:zh": "首尔特别市",
      "old_name:zh-Hans": "汉城",
      "old_name:zh-Hant": "漢城",
      "official_name:ko-Kore": "서울特別市",
      "official_name:ko-Latn": "Seoul-teukbyeolsi",
      "official_name:zh-Hant": "首爾特別市"
    }
  },
  {
    "osm_id": -2306392,
    "boundary": "administrative",
    "admin_level": 4,
    "parents": "-307756",
    "name": "Gyeonggi",
    "local_name": "경기도",
    "name_en": "Gyeonggi",
    "all_tags": {
      "ref": "08",
      "name": "경기도",
      "name:bg": "Кьонги-до",
      "name:ca": "Gyeonggi-do",
      "name:cs": "Kjonggi",
      "name:de": "Gyeonggi-do",
      "name:el": "Γκιόνγκι-ντο",
      "name:en": "Gyeonggi",
      "name:es": "Gyeonggi",
      "name:et": "Kyŏnggi provints",
      "name:fa": "گیونگی-دو",
      "name:fi": "Gyeonggi",
      "name:fr": "Gyeonggi",
      "name:id": "Gyeonggi",
      "name:it": "Gyeonggi",
      "name:ja": "京畿道",
      "name:ko": "경기도",
      "name:lt": "Kiongi provincija",
      "name:mn": "Кёнги аймаг",
      "name:ms": "Gyeonggi",
      "name:nl": "Gyeonggi-do",
      "name:no": "Gyeonggi",
      "name:pl": "Gyeonggi",
      "name:pt": "Gyeonggi",
      "name:ro": "Gyeonggi-do",
      "name:ru": "Кёнгидо",
      "name:su": "Gyeonggi-do",
      "name:sv": "Gyeonggi",
      "name:sw": "Gyeonggi-do",
      "name:uk": "Провінція Кьонгі",
      "name:vi": "Gyeonggi",
      "name:zh": "京畿道",
      "boundary": "administrative",
      "way_area": "1.11852",
      "wikidata": "Q20937",
      "ISO3166-2": "KR-41",
      "wikipedia": "ko:경기도",
      "short_name": "경기",
      "admin_level": "4",
      "alt_name:cs": "Gjonggi",
      "name:ko-Hani": "京畿道",
      "name:ko-Latn": "Gyeonggido"
    }
  },
  {
    "osm_id": -2409166,
    "boundary": "administrative",
    "admin_level": 6,
    "parents": "-2306392,-307756",
    "name": "Goyang-si",
    "local_name": "고양시",
    "name_en": "Goyang-si",
    "all_tags": {
      "name": "고양시",
      "name:el": "Γκόγιανγκ",
      "name:en": "Goyang-si",
      "name:ja": "高陽市",
      "name:ko": "고양시",
      "name:ru": "Коян",
      "name:zh": "高阳市",
      "boundary": "administrative",
      "way_area": "0.0271214",
      "wikidata": "Q42061",
      "wikipedia": "ko:고양시",
      "admin_level": "6",
      "name:ko-Hani": "高陽市",
      "name:zh-Hans": "高阳市",
      "name:zh-Hant": "高陽市"
    }
  },
  {
    "osm_id": -2419942,
    "boundary": "administrative",
    "admin_level": 6,
    "parents": "-2297418,-307756",
    "name": "Eunpyeong-gu",
    "local_name": "은평구",
    "name_en": "Eunpyeong-gu",
    "all_tags": {
      "ref": "12",
      "name": "은평구",
      "name:en": "Eunpyeong-gu",
      "name:ja": "恩平区",
      "name:ko": "은평구",
      "name:zh": "恩平区",
      "boundary": "administrative",
      "way_area": "0.00304133",
      "wikidata": "Q50432",
      "wikipedia": "ko:은평구",
      "admin_level": "6",
      "name:ko-Hani": "恩平區",
      "name:zh-Hant": "恩平區"
    }
  },
  {
    "osm_id": -2409170,
    "boundary": "administrative",
    "admin_level": 6,
    "parents": "-2306392,-307756",
    "name": "Gwangju-si",
    "local_name": "광주시",
    "name_en": "Gwangju-si",
    "all_tags": {
      "name": "광주시",
      "name:cs": "Kwangdžu",
      "name:en": "Gwangju-si",
      "name:ja": "広州市",
      "name:ko": "광주시",
      "name:zh": "廣州市",
      "boundary": "administrative",
      "way_area": "0.0437661",
      "admin_level": "6",
      "name:ko-Hani": "廣州市"
    }
  },
  {
    "osm_id": -2409186,
    "boundary": "administrative",
    "admin_level": 6,
    "parents": "-2306392,-307756",
    "name": "Yangpyeong-gun",
    "local_name": "양평군",
    "name_en": "Yangpyeong-gun",
    "all_tags": {
      "name": "양평군",
      "name:en": "Yangpyeong-gun",
      "name:ja": "楊平郡",
      "name:ko": "양평군",
      "name:zh": "楊平郡",
      "boundary": "administrative",
      "way_area": "0.089569",
      "admin_level": "6",
      "name:ko-Hani": "楊平郡"
    }
  },
  {
    "osm_id": -7715631,
    "boundary": "administrative",
    "admin_level": 6,
    "parents": "-2304454,-307756",
    "name": "Mungyeong-si",
    "local_name": "문경시",
    "name_en": "Mungyeong-si",
    "all_tags": {
      "name": "문경시",
      "name:en": "Mungyeong-si",
      "name:ja": "聞慶市",
      "name:ko": "문경시",
      "name:zh": "聞慶市",
      "boundary": "administrative",
      "way_area": "0.0918644",
      "admin_level": "6",
      "name:ko-Hani": "聞慶市"
    }
  },
  {
    "osm_id": -2538334,
    "boundary": "administrative",
    "admin_level": 6,
    "parents": "-2327258,-307756",
    "name": "Jecheon-si",
    "local_name": "제천시",
    "name_en": "Jecheon-si",
    "all_tags": {
      "name": "제천시",
      "name:en": "Jecheon-si",
      "name:ja": "堤川市",
      "name:ko": "제천시",
      "name:zh": "堤川市",
      "boundary": "administrative",
      "way_area": "0.0894202",
      "wikidata": "Q42143",
      "wikipedia": "ko:제천시",
      "admin_level": "6",
      "name:ko-Hani": "堤川市"
    }
  },
  {
    "osm_id": -7817332,
    "boundary": "administrative",
    "admin_level": 6,
    "parents": "-2304454,-307756",
    "name": "Yeongyang-gun",
    "local_name": "영양군",
    "name_en": "Yeongyang-gun",
    "all_tags": {
      "name": "영양군",
      "name:en": "Yeongyang-gun",
      "name:ja": "英陽郡",
      "name:ko": "영양군",
      "name:zh": "英陽郡",
      "boundary": "administrative",
      "way_area": "0.082665",
      "admin_level": "6",
      "name:ko-Hani": "英陽郡"
    }
  },
  {
    "osm_id": -2537817,
    "boundary": "administrative",
    "admin_level": 6,
    "parents": "-2308426,-307756",
    "name": "Gangneung-si",
    "local_name": "강릉시",
    "name_en": "Gangneung-si",
    "all_tags": {
      "name": "강릉시",
      "name:de": "Gangneung",
      "name:en": "Gangneung-si",
      "name:ja": "江陵市",
      "name:ko": "강릉시",
      "name:ru": "Кангнунг",
      "name:zh": "江陵市",
      "boundary": "administrative",
      "way_area": "0.201412",
      "wikidata": "Q42056",
      "admin_level": "6",
      "name:ko-Hani": "江陵市"
    }
  },
  {
    "osm_id": -2409188,
    "boundary": "administrative",
    "admin_level": 6,
    "parents": "-2306392,-307756",
    "name": "Yeoncheon-gun",
    "local_name": "연천군",
    "name_en": "Yeoncheon-gun",
    "all_tags": {
      "name": "연천군",
      "name:en": "Yeoncheon-gun",
      "name:ja": "漣川郡",
      "name:ko": "연천군",
      "name:zh": "漣川郡",
      "boundary": "administrative",
      "way_area": "0.0693727",
      "admin_level": "6",
      "name:ko-Hani": "漣川郡"
    }
  },
  {
    "osm_id": -2517799,
    "boundary": "administrative",
    "admin_level": 6,
    "parents": "-2308426,-307756",
    "name": "Yangyang-gun",
    "local_name": "양양군",
    "name_en": "Yangyang-gun",
    "all_tags": {
      "name": "양양군",
      "name:de": "Yangyang-gun",
      "name:en": "Yangyang-gun",
      "name:ja": "襄陽郡",
      "name:ko": "양양군",
      "name:uk": "Ян'ян повіт",
      "name:zh": "襄陽郡",
      "boundary": "administrative",
      "way_area": "0.132521",
      "wikidata": "Q50254",
      "wikipedia": "ko:양양군",
      "admin_level": "6",
      "name:ko-Hani": "襄陽郡"
    }
  },
  {
    "osm_id": -2304454,
    "boundary": "administrative",
    "admin_level": 4,
    "parents": "-307756",
    "name": "North Gyeongsang",
    "local_name": "경상북도",
    "name_en": "North Gyeongsang",
    "all_tags": {
      "name": "경상북도",
      "name:bg": "Кьонсан-Пукто",
      "name:ca": "Gyeongsangbuk-do",
      "name:cs": "Severní Kjongsang",
      "name:de": "Gyeongsangbuk-do",
      "name:el": "Γκιόνγκσανγκμπουκ-ντο",
      "name:en": "North Gyeongsang",
      "name:es": "Gyeongsang del Norte",
      "name:et": "Põhja-Kyŏngsangi provints",
      "name:fa": "جئونسانگبوک-دو",
      "name:fi": "Pohjois-Gyeongsang",
      "name:fr": "Gyeongsang du Nord",
      "name:id": "Gyeongsang Utara",
      "name:it": "Nord Gyeongsang",
      "name:ja": "慶尚北道",
      "name:ko": "경상북도",
      "name:lt": "Šiaurės Kiongsango provincija",
      "name:ms": "Gyeongsang Utara",
      "name:nl": "Gyeongsangbuk-do",
      "name:no": "Nord-Gyeongsang",
      "name:pl": "Gyeongsang Północny",
      "name:pt": "Gyeongsang do Norte",
      "name:ro": "Gyeongsangbuk-do",
      "name:ru": "Кёнсан-Пукто",
      "name:sv": "Nordgyeongsang",
      "name:sw": "Gyeongsangbuk-do",
      "name:th": "จังหวัดคย็องซังเหนือ",
      "name:uk": "Північна провінція Кьонсан",
      "name:vi": "Gyeongsang Bắc",
      "name:zh": "庆尚北道",
      "boundary": "administrative",
      "way_area": "2.80669",
      "wikidata": "Q41154",
      "ISO3166-2": "KR-47",
      "wikipedia": "en:North Gyeongsang Province",
      "admin_level": "4",
      "alt_name:en": "North Gyeongsang Province",
      "loc_name:ko": "경북도",
      "name:ko-Hani": "慶尙北道",
      "name:zh-Hant": "慶尚北道",
      "short_name:en": "Gyeongbuk",
      "short_name:ko": "경북",
      "short_name:zh": "慶北",
      "loc_name:ko-Latn": "Gyeongbuk-do",
      "official_name:en": "Gyeongsangbuk-do",
      "official_name:ko": "경상북도",
      "loc_name:ko_hanja": "慶北道",
      "short_name:ko-Latn": "Gyeongbuk",
      "short_name:ko_hanja": "慶北"
    }
  },
  {
    "osm_id": -4061473,
    "boundary": "administrative",
    "admin_level": 6,
    "parents": "-2396450,-307756",
    "name": "Buk-gu",
    "local_name": "북구",
    "name_en": "Buk-gu",
    "all_tags": {
      "name": "북구",
      "name:de": "Buk-gu",
      "name:en": "Buk-gu",
      "name:ja": "北区",
      "name:ko": "북구",
      "name:zh": "北區",
      "boundary": "administrative",
      "way_area": "0.00391725",
      "wikidata": "Q50394",
      "admin_level": "6",
      "name:ko-Hani": "北區"
    }
  },
  {
    "osm_id": -4010399,
    "boundary": "administrative",
    "admin_level": 6,
    "parents": "-2396450,-307756",
    "name": "Sasang-gu",
    "local_name": "사상구",
    "name_en": "Sasang-gu",
    "all_tags": {
      "name": "사상구",
      "name:de": "Sasang-gu",
      "name:en": "Sasang-gu",
      "name:ja": "沙上区",
      "name:ko": "사상구",
      "name:zh": "沙上區",
      "boundary": "administrative",
      "way_area": "0.00364604",
      "wikidata": "Q50398",
      "admin_level": "6",
      "name:ko-Hani": "沙上區"
    }
  },
  {
    "osm_id": -8127816,
    "boundary": "administrative",
    "admin_level": 6,
    "parents": "-2395867,-307756",
    "name": "Jung-gu",
    "local_name": "중구",
    "name_en": "Jung-gu",
    "all_tags": {
      "name": "중구",
      "name:en": "Jung-gu",
      "name:ja": "中区",
      "name:ko": "중구",
      "name:zh": "中區",
      "boundary": "administrative",
      "way_area": "0.00364257",
      "wikidata": "Q50442",
      "admin_level": "6",
      "name:ko-Hani": "中區"
    }
  },
  {
    "osm_id": -2409169,
    "boundary": "administrative",
    "admin_level": 6,
    "parents": "-2306392,-307756",
    "name": "Gwacheon-si",
    "local_name": "과천시",
    "name_en": "Gwacheon-si",
    "all_tags": {
      "name": "과천시",
      "name:en": "Gwacheon-si",
      "name:ja": "果川市",
      "name:ko": "과천시",
      "name:zh": "果川市",
      "boundary": "administrative",
      "way_area": "0.00360595",
      "admin_level": "6",
      "name:ko-Hani": "果川市"
    }
  },
  {
    "osm_id": -2503127,
    "boundary": "administrative",
    "admin_level": 6,
    "parents": "-2297419,-307756",
    "name": "Bupyeong-gu",
    "local_name": "부평구",
    "name_en": "Bupyeong-gu",
    "all_tags": {
      "name": "부평구",
      "name:de": "Bupyeong-gu",
      "name:en": "Bupyeong-gu",
      "name:ja": "富平区",
      "name:ko": "부평구",
      "name:zh": "富平區",
      "boundary": "administrative",
      "way_area": "0.00324903",
      "wikidata": "Q50391",
      "wikipedia": "ko:부평구",
      "admin_level": "6",
      "name:ko-Hani": "富平區"
    }
  },
  {
    "osm_id": -2409164,
    "boundary": "administrative",
    "admin_level": 6,
    "parents": "-2306392,-307756",
    "name": "Gapyeong-gun",
    "local_name": "가평군",
    "name_en": "Gapyeong-gun",
    "all_tags": {
      "name": "가평군",
      "name:en": "Gapyeong-gun",
      "name:ja": "加平郡",
      "name:ko": "가평군",
      "name:zh": "加平郡",
      "boundary": "administrative",
      "way_area": "0.0860087",
      "admin_level": "6",
      "name:ko-Hani": "加平郡"
    }
  },
  {
    "osm_id": -2349984,
    "boundary": "administrative",
    "admin_level": 4,
    "parents": "-307756",
    "name": "Daejeon",
    "local_name": "대전",
    "name_en": "Daejeon",
    "all_tags": {
      "name": "대전",
      "name:af": "Daejeon",
      "name:ar": "دايجيون",
      "name:bg": "Теджън",
      "name:bi": "Daejeon",
      "name:ca": "Daejeon",
      "name:cs": "Tedžon",
      "name:da": "Daejeon",
      "name:de": "Daejeon",
      "name:el": "Ντέτζον",
      "name:en": "Daejeon",
      "name:eo": "Deĝon",
      "name:es": "Daejeon",
      "name:et": "Taejŏn",
      "name:eu": "Daejeon",
      "name:fa": "دائجونگ",
      "name:fi": "Daejeon",
      "name:fr": "Daejeon",
      "name:he": "טג'אן",
      "name:ia": "Daejeon",
      "name:id": "Daejeon",
      "name:io": "Daejon",
      "name:it": "Daejeon",
      "name:ja": "大田",
      "name:kl": "Daejeon",
      "name:ko": "대전",
      "name:la": "Daejeon",
      "name:lt": "Tedžonas",
      "name:mi": "Daejeon",
      "name:mn": "Тэжон",
      "name:mr": "देजॉन",
      "name:ms": "Daejeon",
      "name:nl": "Daejeon",
      "name:no": "Daejeon",
      "name:pl": "Daejeon",
      "name:pt": "Daejeon",
      "name:ro": "Daejeon",
      "name:ru": "Тэджон",
      "name:sv": "Daejeon",
      "name:sw": "Daejeon",
      "name:th": "แทจ็อน",
      "name:tl": "Daejeon",
      "name:uk": "Теджон",
      "name:uz": "Daejeon",
      "name:vi": "Daejeon",
      "name:zh": "大田",
      "boundary": "administrative",
      "way_area": "0.0542997",
      "wikidata": "Q20921",
      "ISO3166-2": "KR-30",
      "wikipedia": "ko:대전광역시",
      "population": "1537324",
      "short_name": "대전",
      "admin_level": "4",
      "alt_name:en": "Taejŏn",
      "old_name:cs": "Tedžen",
      "old_name:en": "Taejon",
      "name:ko-Hani": "大田",
      "name:zh-Hant": "大田",
      "official_name": "대전광역시",
      "official_name:en": "Daejeon Metropolitan City",
      "official_name:ja": "大田広域市",
      "official_name:ko": "대전광역시",
      "official_name:zh": "大田广域市",
      "official_name:ko-Hani": "大田廣域市",
      "official_name:zh-Hant": "大田廣域市"
    }
  },
  {
    "osm_id": -4114426,
    "boundary": "administrative",
    "admin_level": 6,
    "parents": "-2396450,-307756",
    "name": "Busanjin-gu",
    "local_name": "부산진구",
    "name_en": "Busanjin-gu",
    "all_tags": {
      "name": "부산진구",
      "name:de": "Busanjin-gu",
      "name:en": "Busanjin-gu",
      "name:ja": "釜山鎮区",
      "name:ko": "부산진구",
      "name:zh": "釜山鎮區",
      "boundary": "administrative",
      "way_area": "0.00293287",
      "wikidata": "Q50390",
      "admin_level": "6",
      "name:ko-Hani": "釜山鎭區"
    }
  },
  {
    "osm_id": -2505207,
    "boundary": "administrative",
    "admin_level": 6,
    "parents": "-2297419,-307756",
    "name": "Michuhol-gu",
    "local_name": "미추홀구",
    "name_en": "Michuhol-gu",
    "all_tags": {
      "name": "미추홀구",
      "name:en": "Michuhol-gu",
      "name:ja": "弥鄒忽区",
      "name:ko": "미추홀구",
      "name:zh": "彌鄒忽區",
      "boundary": "administrative",
      "way_area": "0.00253172",
      "wikidata": "Q50365",
      "wikipedia": "ko:미추홀구",
      "admin_level": "6",
      "name:ko-Hani": "彌鄒忽區"
    }
  },
  {
    "osm_id": -2419952,
    "boundary": "administrative",
    "admin_level": 6,
    "parents": "-2297418,-307756",
    "name": "Seongbuk-gu",
    "local_name": "성북구",
    "name_en": "Seongbuk-gu",
    "all_tags": {
      "ref": "08",
      "name": "성북구",
      "name:en": "Seongbuk-gu",
      "name:ja": "城北区",
      "name:ko": "성북구",
      "name:zh": "城北區",
      "boundary": "administrative",
      "way_area": "0.00252331",
      "wikidata": "Q50412",
      "wikipedia": "ko:성북구",
      "admin_level": "6",
      "name:ko-Hani": "城北區"
    }
  },
  {
    "osm_id": -2414781,
    "boundary": "administrative",
    "admin_level": 6,
    "parents": "-2297418,-307756",
    "name": "Yeongdeungpo-gu",
    "local_name": "영등포구",
    "name_en": "Yeongdeungpo-gu",
    "all_tags": {
      "ref": "19",
      "name": "영등포구",
      "name:en": "Yeongdeungpo-gu",
      "name:ja": "永登浦区",
      "name:ko": "영등포구",
      "name:zh": "永登浦區",
      "boundary": "administrative",
      "way_area": "0.00247959",
      "wikidata": "Q50190",
      "wikipedia": "ko:영등포구",
      "admin_level": "6",
      "name:ko-Hani": "永登浦區"
    }
  },
  {
    "osm_id": -2419943,
    "boundary": "administrative",
    "admin_level": 6,
    "parents": "-2297418,-307756",
    "name": "Gangbuk-gu",
    "local_name": "강북구",
    "name_en": "Gangbuk-gu",
    "all_tags": {
      "ref": "09",
      "name": "강북구",
      "name:en": "Gangbuk-gu",
      "name:ja": "江北区",
      "name:ko": "강북구",
      "name:zh": "江北區",
      "boundary": "administrative",
      "way_area": "0.00241718",
      "wikidata": "Q50349",
      "wikipedia": "ko:강북구",
      "admin_level": "6",
      "name:ko-Hani": "江北區"
    }
  },
  {
    "osm_id": -2409172,
    "boundary": "administrative",
    "admin_level": 6,
    "parents": "-2306392,-307756",
    "name": "Hanam-si",
    "local_name": "하남시",
    "name_en": "Hanam-si",
    "all_tags": {
      "name": "하남시",
      "name:en": "Hanam-si",
      "name:ja": "河南市",
      "name:ko": "하남시",
      "name:zh": "河南市",
      "boundary": "administrative",
      "way_area": "0.00947976",
      "admin_level": "6",
      "name:ko-Hani": "河南市",
      "official_name": "하남시"
    }
  },
  {
    "osm_id": -2419940,
    "boundary": "administrative",
    "admin_level": 6,
    "parents": "-2297418,-307756",
    "name": "Dobong-gu",
    "local_name": "도봉구",
    "name_en": "Dobong-gu",
    "all_tags": {
      "ref": "10",
      "name": "도봉구",
      "name:en": "Dobong-gu",
      "name:ja": "道峰区",
      "name:ko": "도봉구",
      "name:zh": "道峰區",
      "boundary": "administrative",
      "way_area": "0.00211695",
      "wikidata": "Q50374",
      "wikipedia": "ko:도봉구",
      "admin_level": "6",
      "name:ko-Hani": "道峰區"
    }
  },
  {
    "osm_id": -2419947,
    "boundary": "administrative",
    "admin_level": 6,
    "parents": "-2297418,-307756",
    "name": "Jung-gu",
    "local_name": "중구",
    "name_en": "Jung-gu",
    "all_tags": {
      "ref": "02",
      "name": "중구",
      "name:en": "Jung-gu",
      "name:ja": "中区",
      "name:ko": "중구",
      "name:zh": "中區",
      "boundary": "administrative",
      "way_area": "0.00101742",
      "wikidata": "Q50441",
      "wikipedia": "ko:중구 (서울특별시)",
      "admin_level": "6",
      "name:ko-Hani": "中區"
    }
  },
  {
    "osm_id": -2517796,
    "boundary": "administrative",
    "admin_level": 6,
    "parents": "-2308426,-307756",
    "name": "Chuncheon-si",
    "local_name": "춘천시",
    "name_en": "Chuncheon-si",
    "all_tags": {
      "name": "춘천시",
      "name:en": "Chuncheon-si",
      "name:ja": "春川市",
      "name:ko": "춘천시",
      "name:zh": "春川市",
      "boundary": "administrative",
      "way_area": "0.114194",
      "wikidata": "Q42148",
      "wikipedia": "ko:춘천시",
      "admin_level": "6",
      "name:ko-Hani": "春川市"
    }
  },
  {
    "osm_id": -3966426,
    "boundary": "administrative",
    "admin_level": 6,
    "parents": "-2395674,-307756",
    "name": "Buk-gu",
    "local_name": "북구",
    "name_en": "Buk-gu",
    "all_tags": {
      "name": "북구",
      "name:de": "Buk-gu",
      "name:en": "Buk-gu",
      "name:ja": "北区",
      "name:ko": "북구",
      "name:zh": "北區",
      "boundary": "administrative",
      "way_area": "0.00932108",
      "wikidata": "Q50393",
      "admin_level": "6",
      "name:ko-Hani": "北區"
    }
  },
  {
    "osm_id": -3888601,
    "boundary": "administrative",
    "admin_level": 6,
    "parents": "-2349984,-307756",
    "name": "Daedeok-gu",
    "local_name": "대덕구",
    "name_en": "Daedeok-gu",
    "all_tags": {
      "name": "대덕구",
      "name:en": "Daedeok-gu",
      "name:ja": "大徳区",
      "name:ko": "대덕구",
      "name:zh": "大德區",
      "boundary": "administrative",
      "way_area": "0.00702088",
      "wikidata": "Q50371",
      "wikipedia": "ko:대덕구",
      "admin_level": "6",
      "name:ko-Hani": "大德區"
    }
  },
  {
    "osm_id": -7580846,
    "boundary": "administrative",
    "admin_level": 6,
    "parents": "-2327259,-307756",
    "name": "Gyeryong-si",
    "local_name": "계룡시",
    "name_en": "Gyeryong-si",
    "all_tags": {
      "name": "계룡시",
      "name:en": "Gyeryong-si",
      "name:ja": "鶏龍市",
      "name:ko": "계룡시",
      "name:zh": "雞龍市",
      "boundary": "administrative",
      "way_area": "0.00607726",
      "admin_level": "6",
      "name:ko-Hani": "鷄龍市"
    }
  },
  {
    "osm_id": -2541037,
    "boundary": "administrative",
    "admin_level": 6,
    "parents": "-2327258,-307756",
    "name": "Boeun-gun",
    "local_name": "보은군",
    "name_en": "Boeun-gun",
    "all_tags": {
      "name": "보은군",
      "name:en": "Boeun-gun",
      "name:ja": "報恩郡",
      "name:ko": "보은군",
      "name:zh": "報恩郡",
      "boundary": "administrative",
      "way_area": "0.0584594",
      "wikidata": "Q50244",
      "wikipedia": "ko:보은군",
      "admin_level": "6",
      "name:ko-Hani": "報恩郡"
    }
  },
  {
    "osm_id": -2419949,
    "boundary": "administrative",
    "admin_level": 6,
    "parents": "-2297418,-307756",
    "name": "Mapo-gu",
    "local_name": "마포구",
    "name_en": "Mapo-gu",
    "all_tags": {
      "ref": "14",
      "name": "마포구",
      "name:en": "Mapo-gu",
      "name:ja": "麻浦区",
      "name:ko": "마포구",
      "name:zh": "麻浦區",
      "boundary": "administrative",
      "way_area": "0.00243468",
      "wikidata": "Q50388",
      "wikipedia": "ko:마포구",
      "admin_level": "6",
      "name:ko-Hani": "麻浦區"
    }
  },
  {
    "osm_id": -7578859,
    "boundary": "administrative",
    "admin_level": 6,
    "parents": "-2327259,-307756",
    "name": "Yesan-gun",
    "local_name": "예산군",
    "name_en": "Yesan-gun",
    "all_tags": {
      "name": "예산군",
      "name:en": "Yesan-gun",
      "name:ja": "礼山郡",
      "name:ko": "예산군",
      "name:zh": "禮山郡",
      "boundary": "administrative",
      "way_area": "0.0546159",
      "admin_level": "6",
      "name:ko-Hani": "禮山郡"
    }
  },
  {
    "osm_id": -7619555,
    "boundary": "administrative",
    "admin_level": 6,
    "parents": "-2327259,-307756",
    "name": "Hongseong-gun",
    "local_name": "홍성군",
    "name_en": "Hongseong-gun",
    "all_tags": {
      "name": "홍성군",
      "name:en": "Hongseong-gun",
      "name:ja": "洪城郡",
      "name:ko": "홍성군",
      "name:zh": "洪城郡",
      "boundary": "administrative",
      "way_area": "0.0494704",
      "admin_level": "6",
      "name:ko-Hani": "洪城郡"
    }
  },
  {
    "osm_id": -2419955,
    "boundary": "administrative",
    "admin_level": 6,
    "parents": "-2297418,-307756",
    "name": "Yongsan-gu",
    "local_name": "용산구",
    "name_en": "Yongsan-gu",
    "all_tags": {
      "ref": "03",
      "name": "용산구",
      "name:en": "Yongsan-gu",
      "name:ja": "龍山区",
      "name:ko": "용산구",
      "name:zh": "龍山區",
      "boundary": "administrative",
      "way_area": "0.00222153",
      "wikidata": "Q50429",
      "wikipedia": "ko:용산구",
      "admin_level": "6",
      "name:ko-Hani": "龍山區",
      "name:ko-Latn": "Yongsan-gu"
    }
  },
  {
    "osm_id": -3889109,
    "boundary": "administrative",
    "admin_level": 6,
    "parents": "-2349984,-307756",
    "name": "Jung-gu",
    "local_name": "중구",
    "name_en": "Jung-gu",
    "all_tags": {
      "name": "중구",
      "name:en": "Jung-gu",
      "name:ja": "中区",
      "name:ko": "중구",
      "name:zh": "中區",
      "boundary": "administrative",
      "way_area": "0.00618801",
      "wikidata": "Q50439",
      "admin_level": "6",
      "name:ko-Hani": "中區"
    }
  },
  {
    "osm_id": -2419953,
    "boundary": "administrative",
    "admin_level": 6,
    "parents": "-2297418,-307756",
    "name": "Seongdong-gu",
    "local_name": "성동구",
    "name_en": "Seongdong-gu",
    "all_tags": {
      "ref": "04",
      "name": "성동구",
      "name:en": "Seongdong-gu",
      "name:ja": "城東区",
      "name:ko": "성동구",
      "name:zh": "城東區",
      "boundary": "administrative",
      "way_area": "0.00163216",
      "wikidata": "Q50411",
      "wikipedia": "ko:성동구",
      "admin_level": "6",
      "name:ko-Hani": "城東區"
    }
  },
  {
    "osm_id": -3969938,
    "boundary": "administrative",
    "admin_level": 6,
    "parents": "-2395674,-307756",
    "name": "Seo-gu",
    "local_name": "서구",
    "name_en": "Seo-gu",
    "all_tags": {
      "name": "서구",
      "name:de": "Seo-gu",
      "name:en": "Seo-gu",
      "name:ja": "西区",
      "name:ko": "서구",
      "name:zh": "西區",
      "boundary": "administrative",
      "way_area": "0.00170401",
      "wikidata": "Q50404",
      "admin_level": "6",
      "name:ko-Hani": "西區"
    }
  },
  {
    "osm_id": -4110492,
    "boundary": "administrative",
    "admin_level": 6,
    "parents": "-2396450,-307756",
    "name": "Dongnae-gu",
    "local_name": "동래구",
    "name_en": "Dongnae-gu",
    "all_tags": {
      "name": "동래구",
      "name:de": "Dongnae-gu",
      "name:en": "Dongnae-gu",
      "name:ja": "東莱区",
      "name:ko": "동래구",
      "name:zh": "東萊區",
      "boundary": "administrative",
      "way_area": "0.00164548",
      "wikidata": "Q50383",
      "admin_level": "6",
      "name:ko-Hani": "東萊區"
    }
  },
  {
    "osm_id": -7348741,
    "boundary": "administrative",
    "admin_level": 6,
    "parents": "-2399220,-307756",
    "name": "Nam-gu",
    "local_name": "남구",
    "name_en": "Nam-gu",
    "all_tags": {
      "name": "남구",
      "name:en": "Nam-gu",
      "name:ja": "南区",
      "name:ko": "남구",
      "name:zh": "南區",
      "boundary": "administrative",
      "way_area": "0.00598746",
      "wikidata": "Q50361",
      "admin_level": "6",
      "name:ko-Hani": "南區"
    }
  },
  {
    "osm_id": -2419941,
    "boundary": "administrative",
    "admin_level": 6,
    "parents": "-2297418,-307756",
    "name": "Dongdaemun-gu",
    "local_name": "동대문구",
    "name_en": "Dongdaemun-gu",
    "all_tags": {
      "ref": "06",
      "name": "동대문구",
      "name:en": "Dongdaemun-gu",
      "name:ja": "東大門区",
      "name:ko": "동대문구",
      "name:zh": "東大門區",
      "boundary": "administrative",
      "way_area": "0.00147488",
      "wikidata": "Q50382",
      "wikipedia": "ko:동대문구",
      "admin_level": "6",
      "name:ko-Hani": "東大門區"
    }
  },
  {
    "osm_id": -4010740,
    "boundary": "administrative",
    "admin_level": 6,
    "parents": "-2396450,-307756",
    "name": "Suyeong-gu",
    "local_name": "수영구",
    "name_en": "Suyeong-gu",
    "all_tags": {
      "name": "수영구",
      "name:de": "Suyeong-gu",
      "name:en": "Suyeong-gu",
      "name:ja": "水営区",
      "name:ko": "수영구",
      "name:zh": "水營區",
      "boundary": "administrative",
      "way_area": "0.00147462",
      "wikidata": "Q50417",
      "admin_level": "6",
      "name:ko-Hani": "水營區"
    }
  },
  {
    "osm_id": -2409161,
    "boundary": "administrative",
    "admin_level": 6,
    "parents": "-2306392,-307756",
    "name": "Anyang-si",
    "local_name": "안양시",
    "name_en": "Anyang-si",
    "all_tags": {
      "name": "안양시",
      "name:en": "Anyang-si",
      "name:ja": "安養市",
      "name:ko": "안양시",
      "name:zh": "安养市",
      "boundary": "administrative",
      "way_area": "0.00602173",
      "wikidata": "Q42120",
      "wikipedia": "ko:안양시",
      "admin_level": "6",
      "name:ko-Hani": "安養市",
      "name:zh-Hant": "安養市"
    }
  },
  {
    "osm_id": -4112499,
    "boundary": "administrative",
    "admin_level": 6,
    "parents": "-2396450,-307756",
    "name": "Yeonje-gu",
    "local_name": "연제구",
    "name_en": "Yeonje-gu",
    "all_tags": {
      "name": "연제구",
      "name:de": "Yeonje-gu",
      "name:en": "Yeonje-gu",
      "name:ja": "蓮堤区",
      "name:ko": "연제구",
      "name:zh": "蓮堤區",
      "boundary": "administrative",
      "way_area": "0.0012065",
      "wikidata": "Q50422",
      "admin_level": "6",
      "name:ko-Hani": "蓮堤區"
    }
  },
  {
    "osm_id": -3972401,
    "boundary": "administrative",
    "admin_level": 6,
    "parents": "-2396450,-307756",
    "name": "Dong-gu",
    "local_name": "동구",
    "name_en": "Dong-gu",
    "all_tags": {
      "name": "동구",
      "name:de": "Dong-gu",
      "name:en": "Dong-gu",
      "name:ja": "東区",
      "name:ko": "동구",
      "name:zh": "東區",
      "boundary": "administrative",
      "way_area": "0.00112782",
      "wikidata": "Q50378",
      "admin_level": "6",
      "name:ko-Hani": "東區"
    }
  },
  {
    "osm_id": -2505204,
    "boundary": "administrative",
    "admin_level": 6,
    "parents": "-2297419,-307756",
    "name": "Dong-gu",
    "local_name": "동구",
    "name_en": "Dong-gu",
    "all_tags": {
      "name": "동구",
      "name:de": "Dong-gu",
      "name:en": "Dong-gu",
      "name:ja": "東区",
      "name:ko": "동구",
      "name:zh": "東區",
      "boundary": "administrative",
      "way_area": "0.000989142",
      "wikidata": "Q50380",
      "wikipedia": "ko:동구 (인천광역시)",
      "admin_level": "6",
      "name:ko-Hani": "東區"
    }
  },
  {
    "osm_id": -3966394,
    "boundary": "administrative",
    "admin_level": 6,
    "parents": "-2395674,-307756",
    "name": "Jung-gu",
    "local_name": "중구",
    "name_en": "Jung-gu",
    "all_tags": {
      "name": "중구",
      "name:de": "Jung-gu",
      "name:en": "Jung-gu",
      "name:ja": "中区",
      "name:ko": "중구",
      "name:zh": "中區",
      "boundary": "administrative",
      "way_area": "0.000699835",
      "wikidata": "Q50438",
      "admin_level": "6",
      "name:ko-Hani": "中區"
    }
  },
  {
    "osm_id": -7348759,
    "boundary": "administrative",
    "admin_level": 6,
    "parents": "-2399220,-307756",
    "name": "Seo-gu",
    "local_name": "서구",
    "name_en": "Seo-gu",
    "all_tags": {
      "name": "서구",
      "name:en": "Seo-gu",
      "name:ja": "西区",
      "name:ko": "서구",
      "name:zh": "西區",
      "boundary": "administrative",
      "way_area": "0.00474097",
      "wikidata": "Q50403",
      "admin_level": "6",
      "name:ko-Hani": "西區"
    }
  },
  {
    "osm_id": -2409171,
    "boundary": "administrative",
    "admin_level": 6,
    "parents": "-2306392,-307756",
    "name": "Gwangmyeong",
    "local_name": "광명시",
    "name_en": "Gwangmyeong",
    "all_tags": {
      "name": "광명시",
      "name:de": "Gwangmyeong",
      "name:en": "Gwangmyeong",
      "name:ja": "光明市",
      "name:ko": "광명시",
      "name:zh": "光明市",
      "boundary": "administrative",
      "way_area": "0.00393021",
      "admin_level": "6",
      "name:ko-Hani": "光明市"
    }
  },
  {
    "osm_id": -2419950,
    "boundary": "administrative",
    "admin_level": 6,
    "parents": "-2297418,-307756",
    "name": "Nowon-gu",
    "local_name": "노원구",
    "name_en": "Nowon-gu",
    "all_tags": {
      "ref": "11",
      "name": "노원구",
      "name:en": "Nowon-gu",
      "name:ja": "蘆原区",
      "name:ko": "노원구",
      "name:zh": "蘆原區",
      "boundary": "administrative",
      "way_area": "0.00366158",
      "wikidata": "Q50368",
      "wikipedia": "ko:노원구",
      "admin_level": "6",
      "name:ko-Hani": "蘆原區"
    }
  },
  {
    "osm_id": -2409167,
    "boundary": "administrative",
    "admin_level": 6,
    "parents": "-2306392,-307756",
    "name": "Gunpo-si",
    "local_name": "군포시",
    "name_en": "Gunpo-si",
    "all_tags": {
      "name": "군포시",
      "name:en": "Gunpo-si",
      "name:ja": "軍浦市",
      "name:ko": "군포시",
      "name:zh": "軍浦市",
      "boundary": "administrative",
      "way_area": "0.00365494",
      "admin_level": "6",
      "name:ko-Hani": "軍浦市"
    }
  },
  {
    "osm_id": -2409168,
    "boundary": "administrative",
    "admin_level": 6,
    "parents": "-2306392,-307756",
    "name": "Guri-si",
    "local_name": "구리시",
    "name_en": "Guri-si",
    "all_tags": {
      "name": "구리시",
      "name:en": "Guri-si",
      "name:ja": "九里市",
      "name:ko": "구리시",
      "name:zh": "九里市",
      "boundary": "administrative",
      "way_area": "0.0033883",
      "admin_level": "6",
      "name:ko-Hani": "九里市",
      "official_name": "구리시"
    }
  },
  {
    "osm_id": -2414778,
    "boundary": "administrative",
    "admin_level": 6,
    "parents": "-2297418,-307756",
    "name": "Gwanak-gu",
    "local_name": "관악구",
    "name_en": "Gwanak-gu",
    "all_tags": {
      "ref": "21",
      "name": "관악구",
      "name:en": "Gwanak-gu",
      "name:ja": "冠岳区",
      "name:ko": "관악구",
      "name:zh": "冠岳區",
      "boundary": "administrative",
      "way_area": "0.00304946",
      "wikidata": "Q50353",
      "wikipedia": "ko:관악구",
      "admin_level": "6",
      "name:ko-Hani": "冠岳區"
    }
  },
  {
    "osm_id": -2419946,
    "boundary": "administrative",
    "admin_level": 6,
    "parents": "-2297418,-307756",
    "name": "Jongno-gu",
    "local_name": "종로구",
    "name_en": "Jongno-gu",
    "all_tags": {
      "ref": "01",
      "name": "종로구",
      "name:en": "Jongno-gu",
      "name:ja": "鍾路区",
      "name:ko": "종로구",
      "name:zh": "鍾路區",
      "boundary": "administrative",
      "way_area": "0.00244119",
      "wikidata": "Q36929",
      "wikipedia": "ko:종로구",
      "admin_level": "6",
      "name:ko-Hani": "鍾路區"
    }
  },
  {
    "osm_id": -2419944,
    "boundary": "administrative",
    "admin_level": 6,
    "parents": "-2297418,-307756",
    "name": "Gangdong-gu",
    "local_name": "강동구",
    "name_en": "Gangdong-gu",
    "all_tags": {
      "ref": "25",
      "name": "강동구",
      "name:en": "Gangdong-gu",
      "name:ja": "江東区",
      "name:ko": "강동구",
      "name:zh": "江东区",
      "boundary": "administrative",
      "way_area": "0.002504",
      "wikidata": "Q50348",
      "wikipedia": "ko:강동구",
      "admin_level": "6",
      "name:ko-Hani": "江東區"
    }
  },
  {
    "osm_id": -3987205,
    "boundary": "administrative",
    "admin_level": 6,
    "parents": "-2396450,-307756",
    "name": "Jung-gu",
    "local_name": "중구",
    "name_en": "Jung-gu",
    "all_tags": {
      "name": "중구",
      "name:de": "Jung-gu",
      "name:en": "Jung-gu",
      "name:ja": "中区",
      "name:ko": "중구",
      "name:zh": "中區",
      "boundary": "administrative",
      "way_area": "0.000409588",
      "wikidata": "Q50440",
      "admin_level": "6",
      "name:ko-Hani": "中區"
    }
  },
  {
    "osm_id": -2474718,
    "boundary": "administrative",
    "admin_level": 6,
    "parents": "-2327259,-307756",
    "name": "Cheonan-si",
    "local_name": "천안시",
    "name_en": "Cheonan-si",
    "all_tags": {
      "name": "천안시",
      "name:en": "Cheonan-si",
      "name:ja": "天安市",
      "name:ko": "천안시",
      "name:zh": "天安市",
      "boundary": "administrative",
      "way_area": "0.064372",
      "admin_level": "6",
      "name:ko-Hani": "天安市"
    }
  },
  {
    "osm_id": -2503128,
    "boundary": "administrative",
    "admin_level": 6,
    "parents": "-2297419,-307756",
    "name": "Gyeyang-gu",
    "local_name": "계양구",
    "name_en": "Gyeyang-gu",
    "all_tags": {
      "name": "계양구",
      "name:de": "Gyeyang-gu",
      "name:en": "Gyeyang-gu",
      "name:ja": "桂陽区",
      "name:ko": "계양구",
      "name:zh": "桂陽區",
      "boundary": "administrative",
      "way_area": "0.00463759",
      "wikidata": "Q50352",
      "wikipedia": "ko:계양구",
      "admin_level": "6",
      "name:ko-Hani": "桂陽區"
    }
  },
  {
    "osm_id": -7348758,
    "boundary": "administrative",
    "admin_level": 6,
    "parents": "-2399220,-307756",
    "name": "Gwangsan-gu",
    "local_name": "광산구",
    "name_en": "Gwangsan-gu",
    "all_tags": {
      "name": "광산구",
      "name:en": "Gwangsan-gu",
      "name:ja": "光山区",
      "name:ko": "광산구",
      "name:zh": "光山區",
      "boundary": "administrative",
      "way_area": "0.0219766",
      "wikidata": "Q50354",
      "wikipedia": "ko:광산구",
      "admin_level": "6",
      "name:ko-Hani": "光山區"
    }
  },
  {
    "osm_id": -2537818,
    "boundary": "administrative",
    "admin_level": 6,
    "parents": "-2308426,-307756",
    "name": "Samcheok-si",
    "local_name": "삼척시",
    "name_en": "Samcheok-si",
    "all_tags": {
      "name": "삼척시",
      "name:en": "Samcheok-si",
      "name:ja": "三陟市",
      "name:ko": "삼척시",
      "name:zh": "三陟市",
      "boundary": "administrative",
      "way_area": "0.221887",
      "wikidata": "Q42102",
      "wikipedia": "ko:삼척시",
      "admin_level": "6",
      "name:ko-Hani": "三陟市"
    }
  },
  {
    "osm_id": -2517798,
    "boundary": "administrative",
    "admin_level": 6,
    "parents": "-2308426,-307756",
    "name": "Sokcho-si",
    "local_name": "속초시",
    "name_en": "Sokcho-si",
    "all_tags": {
      "name": "속초시",
      "name:en": "Sokcho-si",
      "name:ja": "束草市",
      "name:ko": "속초시",
      "name:zh": "束草市",
      "boundary": "administrative",
      "way_area": "0.0309271",
      "admin_level": "6",
      "name:ko-Hani": "束草市"
    }
  },
  {
    "osm_id": -2409178,
    "boundary": "administrative",
    "admin_level": 6,
    "parents": "-2306392,-307756",
    "name": "Pocheon-si",
    "local_name": "포천시",
    "name_en": "Pocheon-si",
    "all_tags": {
      "name": "포천시",
      "name:en": "Pocheon-si",
      "name:ja": "抱川市",
      "name:ko": "포천시",
      "name:zh": "抱川市",
      "boundary": "administrative",
      "way_area": "0.0846707",
      "admin_level": "6",
      "name:ko-Hani": "抱川市"
    }
  },
  {
    "osm_id": -7831149,
    "boundary": "administrative",
    "admin_level": 6,
    "parents": "-2393403,-307756",
    "name": "Geoje-si",
    "local_name": "거제시",
    "name_en": "Geoje-si",
    "all_tags": {
      "name": "거제시",
      "name:en": "Geoje-si",
      "name:ja": "巨済市",
      "name:ko": "거제시",
      "name:zh": "巨濟市",
      "boundary": "administrative",
      "way_area": "0.151546",
      "admin_level": "6",
      "name:ko-Hani": "巨濟市"
    }
  },
  {
    "osm_id": -7817889,
    "boundary": "administrative",
    "admin_level": 6,
    "parents": "-2304454,-307756",
    "name": "Bonghwa-gun",
    "local_name": "봉화군",
    "name_en": "Bonghwa-gun",
    "all_tags": {
      "name": "봉화군",
      "name:en": "Bonghwa-gun",
      "name:ja": "奉化郡",
      "name:ko": "봉화군",
      "name:zh": "奉化郡",
      "boundary": "administrative",
      "way_area": "0.121149",
      "admin_level": "6",
      "name:ko-Hani": "奉化郡"
    }
  },
  {
    "osm_id": -2541039,
    "boundary": "administrative",
    "admin_level": 6,
    "parents": "-2327258,-307756",
    "name": "Okcheon-gun",
    "local_name": "옥천군",
    "name_en": "Okcheon-gun",
    "all_tags": {
      "name": "옥천군",
      "name:en": "Okcheon-gun",
      "name:ja": "沃川郡",
      "name:ko": "옥천군",
      "name:zh": "沃川郡",
      "boundary": "administrative",
      "way_area": "0.0546582",
      "wikidata": "Q50309",
      "wikipedia": "ko:옥천군",
      "admin_level": "6",
      "name:ko-Hani": "沃川郡"
    }
  },
  {
    "osm_id": -2537819,
    "boundary": "administrative",
    "admin_level": 6,
    "parents": "-2308426,-307756",
    "name": "Taebaek-si",
    "local_name": "태백시",
    "name_en": "Taebaek-si",
    "all_tags": {
      "name": "태백시",
      "name:en": "Taebaek-si",
      "name:ja": "太白市",
      "name:ko": "태백시",
      "name:zh": "太白市",
      "boundary": "administrative",
      "way_area": "0.0307761",
      "admin_level": "6",
      "name:ko-Hani": "太白市"
    }
  },
  {
    "osm_id": -7831031,
    "boundary": "administrative",
    "admin_level": 6,
    "parents": "-2393403,-307756",
    "name": "Goseong-gun",
    "local_name": "고성군",
    "name_en": "Goseong-gun",
    "all_tags": {
      "name": "고성군",
      "name:en": "Goseong-gun",
      "name:ja": "固城郡",
      "name:ko": "고성군",
      "name:zh": "固城郡",
      "boundary": "administrative",
      "way_area": "0.0662054",
      "admin_level": "6",
      "name:ko-Hani": "固城郡"
    }
  },
  {
    "osm_id": -2538331,
    "boundary": "administrative",
    "admin_level": 6,
    "parents": "-2327258,-307756",
    "name": "Chungju-si",
    "local_name": "충주시",
    "name_en": "Chungju-si",
    "all_tags": {
      "name": "충주시",
      "name:en": "Chungju-si",
      "name:ja": "忠州市",
      "name:ko": "충주시",
      "name:zh": "忠州市",
      "boundary": "administrative",
      "way_area": "0.0993862",
      "wikidata": "Q31094",
      "wikipedia": "ko:충주시",
      "admin_level": "6"
    }
  },
  {
    "osm_id": -7817014,
    "boundary": "administrative",
    "admin_level": 6,
    "parents": "-2304454,-307756",
    "name": "Uiseong-gun",
    "local_name": "의성군",
    "name_en": "Uiseong-gun",
    "all_tags": {
      "name": "의성군",
      "name:en": "Uiseong-gun",
      "name:ja": "義城郡",
      "name:ko": "의성군",
      "name:zh": "義城郡",
      "boundary": "administrative",
      "way_area": "0.116976",
      "admin_level": "6",
      "name:ko-Hani": "義城郡"
    }
  },
  {
    "osm_id": -2526324,
    "boundary": "administrative",
    "admin_level": 6,
    "parents": "-2308426,-307756",
    "name": "Hongcheon-gun",
    "local_name": "홍천군",
    "name_en": "Hongcheon-gun",
    "all_tags": {
      "name": "홍천군",
      "name:en": "Hongcheon-gun",
      "name:ja": "洪川郡",
      "name:ko": "홍천군",
      "name:zh": "洪川郡",
      "boundary": "administrative",
      "way_area": "0.18585",
      "wikidata": "Q50344",
      "wikipedia": "ko:홍천군",
      "admin_level": "6",
      "name:ko-Hani": "洪川郡"
    }
  },
  {
    "osm_id": -2419954,
    "boundary": "administrative",
    "admin_level": 6,
    "parents": "-2297418,-307756",
    "name": "Songpa-gu",
    "local_name": "송파구",
    "name_en": "Songpa-gu",
    "all_tags": {
      "ref": "24",
      "name": "송파구",
      "name:en": "Songpa-gu",
      "name:ja": "松坡区",
      "name:ko": "송파구",
      "name:zh": "松坡區",
      "boundary": "administrative",
      "way_area": "0.00343896",
      "wikidata": "Q50415",
      "wikipedia": "ko:송파구",
      "admin_level": "6",
      "name:ko-Hani": "松坡區"
    }
  },
  {
    "osm_id": -3972384,
    "boundary": "administrative",
    "admin_level": 6,
    "parents": "-2396450,-307756",
    "name": "Yeongdo-gu",
    "local_name": "영도구",
    "name_en": "Yeongdo-gu",
    "all_tags": {
      "name": "영도구",
      "name:de": "Yeongdo-gu",
      "name:en": "Yeongdo-gu",
      "name:ja": "影島区",
      "name:ko": "영도구",
      "name:zh": "影島區",
      "boundary": "administrative",
      "way_area": "0.0108536",
      "wikidata": "Q50423",
      "admin_level": "6",
      "name:ko-Hani": "影島區"
    }
  },
  {
    "osm_id": -2409174,
    "boundary": "administrative",
    "admin_level": 6,
    "parents": "-2306392,-307756",
    "name": "Icheon-si",
    "local_name": "이천시",
    "name_en": "Icheon-si",
    "all_tags": {
      "name": "이천시",
      "name:el": "Ίτσον",
      "name:en": "Icheon-si",
      "name:fr": "Icheon",
      "name:ja": "利川市",
      "name:ko": "이천시",
      "name:zh": "利川市",
      "boundary": "administrative",
      "way_area": "0.0469162",
      "wikidata": "Q42136",
      "wikipedia": "ko:이천시",
      "admin_level": "6",
      "name:ko-Hani": "利川市",
      "name:ko-Latn": "Icheon"
    }
  },
  {
    "osm_id": -2529084,
    "boundary": "administrative",
    "admin_level": 6,
    "parents": "-2308426,-307756",
    "name": "Jeongseon-gun",
    "local_name": "정선군",
    "name_en": "Jeongseon-gun",
    "all_tags": {
      "name": "정선군",
      "name:en": "Jeongseon-gun",
      "name:ja": "旌善郡",
      "name:ko": "정선군",
      "name:zh": "旌善郡",
      "boundary": "administrative",
      "way_area": "0.12402",
      "admin_level": "6",
      "name:ko-Hani": "旌善郡"
    }
  },
  {
    "osm_id": -2505634,
    "boundary": "administrative",
    "admin_level": 6,
    "parents": "-2308426,-307756",
    "name": "Cheorwon-gun",
    "local_name": "철원군",
    "name_en": "Cheorwon-gun",
    "all_tags": {
      "name": "철원군",
      "name:en": "Cheorwon-gun",
      "name:ja": "鉄原郡",
      "name:ko": "철원군",
      "name:zh": "铁原郡",
      "boundary": "administrative",
      "way_area": "0.0913865",
      "admin_level": "6",
      "name:ko-Hani": "鐵原郡",
      "name:ko-Latn": "Cheorwon-gun"
    }
  },
  {
    "osm_id": -2393403,
    "boundary": "administrative",
    "admin_level": 4,
    "parents": "-307756",
    "name": "South Gyeongsang",
    "local_name": "경상남도",
    "name_en": "South Gyeongsang",
    "all_tags": {
      "name": "경상남도",
      "name:bg": "Кьонсан-Намдо",
      "name:ca": "Gyeongsangnam-do",
      "name:cs": "Jižní Kjongsang",
      "name:de": "Gyeongsangnam-do",
      "name:el": "Γκιόνγκσανγκναμ-ντο",
      "name:en": "South Gyeongsang",
      "name:es": "Gyeongsang del Sur",
      "name:et": "Lõuna-Kyŏngsangi provints",
      "name:fa": "جئونسانگنام-دو",
      "name:fi": "Etelä-Gyeongsang",
      "name:fr": "Gyeongsang du Sud",
      "name:id": "Gyeongsang Selatan",
      "name:it": "Sud Gyeongsang",
      "name:ja": "慶尚南道",
      "name:ko": "경상남도",
      "name:lt": "Pietų Kiongsango provincija",
      "name:ms": "Gyeongsang Selatan",
      "name:nl": "Gyeongsangnam-do",
      "name:no": "Sør-Gyeongsang",
      "name:pl": "Gyeongsang Południowy",
      "name:pt": "Gyeongsang do Sul",
      "name:ru": "Кёнсан-Намдо",
      "name:sv": "Sydgyeongsang",
      "name:sw": "Gyeongsangnam-do",
      "name:th": "จังหวัดคย็องซังใต้",
      "name:uk": "Південна провінція Кьонсан",
      "name:vi": "Gyeongsang Nam",
      "name:zh": "庆尚南道",
      "boundary": "administrative",
      "way_area": "1.64804",
      "wikidata": "Q41151",
      "ISO3166-2": "KR-48",
      "wikipedia": "ko:경상남도",
      "admin_level": "4",
      "alt_name:en": "South Gyeongsang Province",
      "loc_name:ko": "경남도",
      "name:ko-Hani": "慶尙南道",
      "name:ko-Latn": "Gyeongsangnam-do",
      "name:zh-Hant": "慶尙南道",
      "short_name:en": "Gyeongnam",
      "short_name:ko": "경남",
      "short_name:zh": "慶南",
      "loc_name:ko-Hani": "慶南道",
      "loc_name:ko-Latn": "Gyeongnam-do",
      "official_name:ko": "경상남도",
      "short_name:ko-Hani": "慶南",
      "short_name:ko-Latn": "Gyeongnam",
      "short_name:zh-Hans": "庆南"
    }
  },
  {
    "osm_id": -2538333,
    "boundary": "administrative",
    "admin_level": 6,
    "parents": "-2327258,-307756",
    "name": "Eumseong-gun",
    "local_name": "음성군",
    "name_en": "Eumseong-gun",
    "all_tags": {
      "name": "음성군",
      "name:en": "Eumseong-gun",
      "name:ja": "陰城郡",
      "name:ko": "음성군",
      "name:zh": "陰城郡",
      "boundary": "administrative",
      "way_area": "0.0525672",
      "wikidata": "Q50315",
      "wikipedia": "ko:음성군",
      "admin_level": "6",
      "name:ko-Hani": "陰城郡"
    }
  },
  {
    "osm_id": -2529083,
    "boundary": "administrative",
    "admin_level": 6,
    "parents": "-2308426,-307756",
    "name": "Hoengseong-gun",
    "local_name": "횡성군",
    "name_en": "Hoengseong-gun",
    "all_tags": {
      "name": "횡성군",
      "name:en": "Hoengseong-gun",
      "name:ja": "横城郡",
      "name:ko": "횡성군",
      "name:zh": "橫城郡",
      "boundary": "administrative",
      "way_area": "0.101592",
      "admin_level": "6",
      "name:ko-Hani": "橫城郡"
    }
  },
  {
    "osm_id": -2505635,
    "boundary": "administrative",
    "admin_level": 6,
    "parents": "-2308426,-307756",
    "name": "Goseong-gun",
    "local_name": "고성군",
    "name_en": "Goseong-gun",
    "all_tags": {
      "name": "고성군",
      "name:en": "Goseong-gun",
      "name:ja": "高城郡",
      "name:ko": "고성군",
      "name:zh": "高城郡",
      "boundary": "administrative",
      "way_area": "0.168279",
      "wikidata": "Q50209",
      "admin_level": "6",
      "name:ko-Hani": "高城郡"
    }
  },
  {
    "osm_id": -2349795,
    "boundary": "administrative",
    "admin_level": 4,
    "parents": "-307756",
    "name": "Sejong",
    "local_name": "세종",
    "name_en": "Sejong",
    "all_tags": {
      "name": "세종",
      "name:bi": "Sejong",
      "name:cs": "Sedžong",
      "name:de": "Sejong",
      "name:el": "Σέτζονγκ",
      "name:en": "Sejong",
      "name:es": "Sejong",
      "name:fr": "Sejong",
      "name:it": "Sejong",
      "name:ja": "世宗特別自治市",
      "name:ko": "세종",
      "name:lt": "Sedžongas",
      "name:ms": "Sejong",
      "name:nl": "Sejong",
      "name:no": "Sejong",
      "name:ru": "Седжон",
      "name:sv": "Sejong",
      "name:th": "เมืองเซจง",
      "name:vi": "Sejong",
      "name:zh": "世宗特别自治市",
      "alt_name": "세종시",
      "boundary": "administrative",
      "way_area": "0.0469055",
      "wikidata": "Q20929",
      "ISO3166-2": "KR-50",
      "wikipedia": "ko:세종특별자치시",
      "population": "333217",
      "short_name": "세종",
      "admin_level": "4",
      "alt_name:en": "Sejong Special Autonomous City",
      "name:ko-Hani": "世宗",
      "official_name": "세종특별자치시",
      "official_name:en": "Sejong Metropolitan Autonomous City",
      "official_name:ja": "世宗特別自治市",
      "official_name:ko": "세종특별자치시",
      "official_name:zh": "世宗特別自治市",
      "official_name:ko-Hani": "世宗特別自治市"
    }
  },
  {
    "osm_id": -2529085,
    "boundary": "administrative",
    "admin_level": 6,
    "parents": "-2308426,-307756",
    "name": "Pyeongchang-gun",
    "local_name": "평창군",
    "name_en": "Pyeongchang-gun",
    "all_tags": {
      "name": "평창군",
      "name:en": "Pyeongchang-gun",
      "name:ja": "平昌郡",
      "name:ko": "평창군",
      "name:pl": "Pjongczang",
      "name:vi": "Pyeongchang-gun",
      "name:zh": "平昌郡",
      "boundary": "administrative",
      "way_area": "0.149252",
      "wikidata": "Q188624",
      "wikipedia": "ko:평창군",
      "admin_level": "6",
      "alt_name:vi": "Bình Xương",
      "name:ko-Hani": "平昌郡"
    }
  },
  {
    "osm_id": -2537820,
    "boundary": "administrative",
    "admin_level": 6,
    "parents": "-2308426,-307756",
    "name": "Yeongwol-gun",
    "local_name": "영월군",
    "name_en": "Yeongwol-gun",
    "all_tags": {
      "name": "영월군",
      "name:en": "Yeongwol-gun",
      "name:ja": "寧越郡",
      "name:ko": "영월군",
      "name:zh": "宁越郡",
      "boundary": "administrative",
      "way_area": "0.114462",
      "admin_level": "6",
      "name:ko-Hani": "寧越郡",
      "name:zh-Hant": "寧越郡"
    }
  },
  {
    "osm_id": -7741680,
    "boundary": "administrative",
    "admin_level": 6,
    "parents": "-2304454,-307756",
    "name": "Yecheon-gun",
    "local_name": "예천군",
    "name_en": "Yecheon-gun",
    "all_tags": {
      "name": "예천군",
      "name:en": "Yecheon-gun",
      "name:ja": "醴泉郡",
      "name:ko": "예천군",
      "name:zh": "醴泉郡",
      "boundary": "administrative",
      "way_area": "0.0674766",
      "admin_level": "6",
      "name:ko-Hani": "醴泉郡"
    }
  },
  {
    "osm_id": -2409160,
    "boundary": "administrative",
    "admin_level": 6,
    "parents": "-2306392,-307756",
    "name": "Anseong-si",
    "local_name": "안성시",
    "name_en": "Anseong-si",
    "all_tags": {
      "name": "안성시",
      "name:en": "Anseong-si",
      "name:ja": "安城市",
      "name:ko": "안성시",
      "name:zh": "安城市",
      "boundary": "administrative",
      "way_area": "0.0560557",
      "admin_level": "6",
      "name:ko-Hani": "安城市"
    }
  },
  {
    "osm_id": -2414780,
    "boundary": "administrative",
    "admin_level": 6,
    "parents": "-2297418,-307756",
    "name": "Yangcheon-gu",
    "local_name": "양천구",
    "name_en": "Yangcheon-gu",
    "all_tags": {
      "ref": "15",
      "name": "양천구",
      "name:en": "Yangcheon-gu",
      "name:ja": "陽川区",
      "name:ko": "양천구",
      "name:zh": "陽川區",
      "boundary": "administrative",
      "way_area": "0.00177442",
      "wikidata": "Q50420",
      "wikipedia": "ko:양천구",
      "admin_level": "6",
      "name:ko-Hani": "陽川區"
    }
  },
  {
    "osm_id": -2308426,
    "boundary": "administrative",
    "admin_level": 4,
    "parents": "-307756",
    "name": "Gangwon",
    "local_name": "강원도",
    "name_en": "Gangwon",
    "all_tags": {
      "name": "강원도",
      "name:bg": "Кануън-до",
      "name:ca": "Gangwon-do",
      "name:cs": "Kangwon",
      "name:de": "Gangwon-do",
      "name:el": "Γκάνγουον-ντο",
      "name:en": "Gangwon",
      "name:es": "Gangwon",
      "name:et": "Kangwŏni provints",
      "name:fa": "گانکون-دو",
      "name:fi": "Gangwon",
      "name:fr": "Gangwon",
      "name:id": "Gangwon",
      "name:it": "Gangwon",
      "name:ja": "江原道",
      "name:ko": "강원도",
      "name:lt": "Kangvono provincija",
      "name:mn": "Өмнөд Солонгосын Канвон",
      "name:ms": "Gangwon",
      "name:nl": "Gangwon-do",
      "name:no": "Gangwon",
      "name:pl": "Gangwon",
      "name:pt": "Gangwon",
      "name:ru": "Канвондо",
      "name:sv": "Gangwon",
      "name:th": "จังหวัดคังว็อน",
      "name:uk": "Провінція Канвон",
      "name:vi": "Gangwon",
      "name:zh": "江原道",
      "boundary": "administrative",
      "way_area": "2.15239",
      "wikidata": "Q41071",
      "ISO3166-2": "KR-42",
      "wikipedia": "ko:강원도 (남)",
      "admin_level": "4",
      "alt_name:vi": "Giang Nguyên",
      "name:ko-Hani": "江原道",
      "name:ko-Latn": "Gangwon-do"
    }
  },
  {
    "osm_id": -2537816,
    "boundary": "administrative",
    "admin_level": 6,
    "parents": "-2308426,-307756",
    "name": "Donghae-si",
    "local_name": "동해시",
    "name_en": "Donghae-si",
    "all_tags": {
      "name": "동해시",
      "name:en": "Donghae-si",
      "name:ja": "東海市",
      "name:ko": "동해시",
      "name:zh": "東海市",
      "boundary": "administrative",
      "way_area": "0.0648843",
      "admin_level": "6",
      "name:ko-Hani": "東海市"
    }
  },
  {
    "osm_id": -7224486,
    "boundary": "administrative",
    "admin_level": 6,
    "parents": "-2393403,-307756",
    "name": "Miryang-si",
    "local_name": "밀양시",
    "name_en": "Miryang-si",
    "all_tags": {
      "name": "밀양시",
      "name:en": "Miryang-si",
      "name:ja": "密陽市",
      "name:ko": "밀양시",
      "name:zh": "密阳市",
      "boundary": "administrative",
      "way_area": "0.0788356",
      "wikidata": "Q42096",
      "wikipedia": "ko:밀양시",
      "admin_level": "6",
      "name:ko-Hani": "密陽市",
      "name:ko-Latn": "Miryang-si",
      "name:zh-Hant": "密陽市",
      "alt_name:ko-Latn": "Milyang"
    }
  },
  {
    "osm_id": -2505636,
    "boundary": "administrative",
    "admin_level": 6,
    "parents": "-2308426,-307756",
    "name": "Inje-gun",
    "local_name": "인제군",
    "name_en": "Inje-gun",
    "all_tags": {
      "name": "인제군",
      "name:en": "Inje-gun",
      "name:ja": "麟蹄郡",
      "name:ko": "인제군",
      "name:zh": "麟蹄郡",
      "boundary": "administrative",
      "way_area": "0.168164",
      "admin_level": "6",
      "name:ko-Hani": "麟蹄郡"
    }
  },
  {
    "osm_id": -2529086,
    "boundary": "administrative",
    "admin_level": 6,
    "parents": "-2308426,-307756",
    "name": "Wonju-si",
    "local_name": "원주시",
    "name_en": "Wonju-si",
    "all_tags": {
      "name": "원주시",
      "name:en": "Wonju-si",
      "name:ja": "原州市",
      "name:ko": "원주시",
      "name:zh": "原州市",
      "boundary": "administrative",
      "way_area": "0.0881125",
      "wikidata": "Q27267002",
      "admin_level": "6",
      "name:ko-Hani": "原州市"
    }
  },
  {
    "osm_id": -2505637,
    "boundary": "administrative",
    "admin_level": 6,
    "parents": "-2308426,-307756",
    "name": "Yanggu-gun",
    "local_name": "양구군",
    "name_en": "Yanggu-gun",
    "all_tags": {
      "name": "양구군",
      "name:de": "Yanggu-gun",
      "name:en": "Yanggu-gun",
      "name:ja": "楊口郡",
      "name:ko": "양구군",
      "name:zh": "楊口郡",
      "boundary": "administrative",
      "way_area": "0.0714024",
      "admin_level": "6",
      "name:ko-Hani": "楊口郡"
    }
  },
  {
    "osm_id": -2409177,
    "boundary": "administrative",
    "admin_level": 6,
    "parents": "-2306392,-307756",
    "name": "Paju-si",
    "local_name": "파주시",
    "name_en": "Paju-si",
    "all_tags": {
      "name": "파주시",
      "name:bg": "Паджу",
      "name:de": "Paju",
      "name:el": "Πάτζου",
      "name:en": "Paju-si",
      "name:es": "Paju",
      "name:et": "P'aju",
      "name:fa": "پاجو",
      "name:fr": "Paju",
      "name:id": "Paju",
      "name:it": "Paju",
      "name:ja": "坡州市",
      "name:ko": "파주시",
      "name:mn": "Пажү",
      "name:nl": "Paju",
      "name:no": "Paju",
      "name:pl": "Paju",
      "name:ru": "Пхаджу",
      "name:sv": "Paju",
      "name:th": "พาจู",
      "name:tl": "Paju",
      "name:uk": "Пхаджу",
      "name:vi": "Paju",
      "name:zh": "坡州市",
      "boundary": "administrative",
      "way_area": "0.0690856",
      "wikidata": "Q42153",
      "wikipedia": "ko:파주시",
      "population": "444181",
      "admin_level": "6",
      "name:ko-Hani": "坡州市",
      "official_name": "파주시",
      "population:date": "2018-07-31",
      "population:source": "http://stat.paju.go.kr/new_stat/new02_03.asp"
    }
  },
  {
    "osm_id": -2517797,
    "boundary": "administrative",
    "admin_level": 6,
    "parents": "-2308426,-307756",
    "name": "Hwacheon-gun",
    "local_name": "화천군",
    "name_en": "Hwacheon-gun",
    "all_tags": {
      "name": "화천군",
      "name:de": "Hwacheon-gun",
      "name:en": "Hwacheon-gun",
      "name:ja": "華川郡",
      "name:ko": "화천군",
      "name:zh": "華川郡",
      "boundary": "administrative",
      "way_area": "0.0932653",
      "admin_level": "6",
      "name:ko-Hani": "華川郡"
    }
  }
]
