[
  {
    "osm_id": -5432599,
    "boundary": "administrative",
    "admin_level": 6,
    "parents": "-4579480,-305099",
    "name": "Rumaithiya",
    "local_name": "الرميثية",
    "name_en": "Rumaithiya",
    "all_tags": {
      "ref": "RUM",
      "name": "الرميثية",
      "place": "locality",
      "name:ar": "الرميثية",
      "name:en": "Rumaithiya",
      "name:fa": "الرمیثیه",
      "name:ur": "رمیثیہ",
      "boundary": "administrative",
      "way_area": "0.000471388",
      "wikidata": "Q4116014",
      "wikipedia": "ar:الرميثية",
      "admin_level": "6"
    }
  },
  {
    "osm_id": -5432511,
    "boundary": "administrative",
    "admin_level": 6,
    "parents": "-4579480,-305099",
    "name": "Rumaithiya - Block 5",
    "local_name": "الرميثية - قطعة 5",
    "name_en": "Rumaithiya - Block 5",
    "all_tags": {
      "ref": "RUM 5",
      "name": "الرميثية - قطعة 5",
      "place": "city",
      "name:ar": "الرميثية - قطعة 5",
      "name:en": "Rumaithiya - Block 5",
      "boundary": "administrative",
      "way_area": "3.78714e-05",
      "admin_level": "6",
      "border_type": "city"
    }
  },
  {
    "osm_id": -4579482,
    "boundary": "administrative",
    "admin_level": 4,
    "parents": "-305099",
    "name": "Mubarak Al-Kabeer",
    "local_name": "مبارك الكبير",
    "name_en": "Mubarak Al-Kabeer",
    "all_tags": {
      "name": "مبارك الكبير",
      "name:ar": "مبارك الكبير",
      "name:cs": "Mubarak al-Kabír",
      "name:de": "Mubarak al-Kabir",
      "name:en": "Mubarak Al-Kabeer",
      "name:es": "Mubarak el Grande",
      "name:fr": "Mubarak Al-Kabeer",
      "name:ja": "ムバーラク・アル=カビール",
      "boundary": "administrative",
      "way_area": "0.0217222",
      "wikidata": "Q913370",
      "ISO3166-2": "KW-MU",
      "wikipedia": "en:Mubarak Al-Kabeer Governorate",
      "admin_level": "4"
    }
  },
  {
    "osm_id": -4579481,
    "boundary": "administrative",
    "admin_level": 4,
    "parents": "-305099",
    "name": "Jahra",
    "local_name": "الجهراء",
    "name_en": "Jahra",
    "all_tags": {
      "name": "الجهراء",
      "name:ar": "الجهراء",
      "name:cs": "al-Džahra",
      "name:de": "al-Dschahra",
      "name:en": "Jahra",
      "name:es": "Yahra",
      "name:fr": "Al Jahra",
      "name:ja": "ジャハラー",
      "boundary": "administrative",
      "way_area": "1.25461",
      "wikidata": "Q405701",
      "ISO3166-2": "KW-JA",
      "wikipedia": "en:Jahra Governorate",
      "admin_level": "4"
    }
  },
  {
    "osm_id": -4579480,
    "boundary": "administrative",
    "admin_level": 4,
    "parents": "-305099",
    "name": "Hawalli",
    "local_name": "حولي",
    "name_en": "Hawalli",
    "all_tags": {
      "name": "حولي",
      "name:ar": "حولي",
      "name:cs": "Hawalli",
      "name:de": "Hawalli",
      "name:en": "Hawalli",
      "name:es": "Hawalli",
      "name:fr": "Hawalli",
      "name:ja": "ハワリ",
      "boundary": "administrative",
      "way_area": "0.0212625",
      "wikidata": "Q747432",
      "ISO3166-2": "KW-HA",
      "wikipedia": "en:Hawalli Governorate",
      "admin_level": "4"
    }
  },
  {
    "osm_id": -4579479,
    "boundary": "administrative",
    "admin_level": 4,
    "parents": "-305099",
    "name": "Farwaniya",
    "local_name": "الفروانية",
    "name_en": "Farwaniya",
    "all_tags": {
      "name": "الفروانية",
      "name:ar": "الفروانية",
      "name:cs": "al-Farváníja",
      "name:de": "al-Farwaniyya",
      "name:en": "Farwaniya",
      "name:es": "Al Farwaniyah",
      "name:fr": "Al Farwaniyah",
      "name:ja": "ファルワーニーヤ",
      "boundary": "administrative",
      "way_area": "0.0184869",
      "wikidata": "Q1072757",
      "ISO3166-2": "KW-FA",
      "wikipedia": "ar:محافظة الفروانية",
      "admin_level": "4"
    }
  },
  {
    "osm_id": -4579478,
    "boundary": "administrative",
    "admin_level": 4,
    "parents": "-305099",
    "name": "Al Asimah",
    "local_name": "العاصمة",
    "name_en": "Al Asimah",
    "all_tags": {
      "name": "العاصمة",
      "name:ar": "العاصمة",
      "name:cs": "al-Ásima",
      "name:de": "al-Asima",
      "name:en": "Al Asimah",
      "name:es": "Al Asimah",
      "name:fr": "Al Asimah",
      "name:ja": "アースィマ",
      "boundary": "administrative",
      "way_area": "0.428919",
      "wikidata": "Q1046645",
      "ISO3166-2": "KW-KU",
      "wikipedia": "en:Capital Governorate (Kuwait)",
      "admin_level": "4",
      "alt_name:cs": "Guvernorát hlavního města",
      "alt_name:en": "Capital;Al Kuwayt"
    }
  },
  {
    "osm_id": -4579477,
    "boundary": "administrative",
    "admin_level": 4,
    "parents": "-305099",
    "name": "Ahmadi",
    "local_name": "الاحمدي",
    "name_en": "Ahmadi",
    "all_tags": {
      "name": "الاحمدي",
      "name:ar": "الاحمدي",
      "name:cs": "al-Ahmadí",
      "name:de": "al-Ahmadi",
      "name:en": "Ahmadi",
      "name:es": "Ahmadí",
      "name:fr": "Al Ahmadi",
      "name:ja": "アハマディ",
      "boundary": "administrative",
      "way_area": "0.529662",
      "wikidata": "Q552354",
      "ISO3166-2": "KW-AH",
      "wikipedia": "ar:محافظة الأحمدي",
      "admin_level": "4"
    }
  }
]
