[
  {
    "osm_id": -9210172,
    "boundary": "administrative",
    "admin_level": 6,
    "parents": "-215739,-214665",
    "name": "Келесский район",
    "local_name": "Келесский район",
    "name_en": null,
    "all_tags": {
      "name": "Келесский район",
      "name:ru": "Келесский район",
      "boundary": "administrative",
      "way_area": "0.376674",
      "wikidata": "Q2554452",
      "wikipedia": "ru:Келесский_район",
      "addr:region": "Туркестанская область",
      "admin_level": "6",
      "addr:country": "KZ"
    }
  },
  {
    "osm_id": -9159398,
    "boundary": "administrative",
    "admin_level": 6,
    "parents": "-215718,-214665",
    "name": "Кегенский район",
    "local_name": "Кегенский район",
    "name_en": null,
    "all_tags": {
      "name": "Кегенский район",
      "name:kk": "Райымбек ауданы",
      "name:ru": "Райымбекский район",
      "boundary": "administrative",
      "way_area": "0.74598",
      "wikidata": "Q2556235",
      "wikipedia": "ru:Райымбекский район",
      "addr:region": "Алматинская область",
      "admin_level": "6",
      "addr:country": "KZ"
    }
  },
  {
    "osm_id": -8768984,
    "boundary": "administrative",
    "admin_level": 6,
    "parents": "-215739,-214665",
    "name": "Zhetisay District",
    "local_name": "Жетисайский район",
    "name_en": "Zhetisay District",
    "all_tags": {
      "name": "Жетисайский район",
      "name:en": "Zhetisay District",
      "name:kk": "Жетісай ауданы",
      "name:ru": "Жетисайский район",
      "name:uk": "Жетисайський район",
      "boundary": "administrative",
      "way_area": "0.106693",
      "wikidata": "Q27351090",
      "wikipedia": "ru:Жетысайский район",
      "addr:region": "Туркестанская область",
      "admin_level": "6",
      "addr:country": "KZ"
    }
  },
  {
    "osm_id": -8593081,
    "boundary": "administrative",
    "admin_level": 6,
    "parents": "-3087155,-214665",
    "name": "район \"Байконур\"",
    "local_name": "район \"Байконур\"",
    "name_en": null,
    "all_tags": {
      "kato": "711410000",
      "name": "район \"Байконур\"",
      "name:kk": "\"Байқоңыр\" ауданы",
      "alt_name": "район \"Байқоңыр\"",
      "boundary": "administrative",
      "way_area": "0.0235824",
      "wikidata": "Q57782659",
      "wikipedia": "kk:Байқоңыр ауданы (Астана)",
      "admin_level": "6"
    }
  },
  {
    "osm_id": -5550509,
    "boundary": "administrative",
    "admin_level": 6,
    "parents": "-3389772,-214665",
    "name": "Аль-Фарабийский район",
    "local_name": "Аль-Фарабийский район",
    "name_en": null,
    "all_tags": {
      "name": "Аль-Фарабийский район",
      "name:ru": "Аль-Фарабийский район",
      "boundary": "administrative",
      "way_area": "0.0163462",
      "wikidata": "Q19613159",
      "wikipedia": "ru:Аль-Фарабийский район",
      "population": "219000",
      "admin_level": "6",
      "addr:country": "KZ"
    }
  },
  {
    "osm_id": -5548210,
    "boundary": "administrative",
    "admin_level": 6,
    "parents": "-3389772,-214665",
    "name": "Абайский район",
    "local_name": "Абайский район",
    "name_en": null,
    "all_tags": {
      "name": "Абайский район",
      "name:ru": "Абайский район",
      "boundary": "administrative",
      "way_area": "0.0542144",
      "wikidata": "Q27353792",
      "wikipedia": "ru:Абайский район (Шымкент)",
      "admin_level": "6",
      "addr:country": "KZ"
    }
  },
  {
    "osm_id": -5518210,
    "boundary": "administrative",
    "admin_level": 6,
    "parents": "-215718,-214665",
    "name": "Карасайский район",
    "local_name": "Карасайский район",
    "name_en": null,
    "all_tags": {
      "name": "Карасайский район",
      "name:kk": "Қарасай ауданы",
      "name:ru": "Карасайский район",
      "boundary": "administrative",
      "way_area": "0.221686",
      "wikidata": "Q2550378",
      "wikipedia": "ru:Карасайский район",
      "addr:region": "Алматинская область",
      "admin_level": "6",
      "addr:country": "KZ"
    }
  },
  {
    "osm_id": -5518195,
    "boundary": "administrative",
    "admin_level": 6,
    "parents": "-215718,-214665",
    "name": "Илийский район",
    "local_name": "Илийский район",
    "name_en": null,
    "all_tags": {
      "name": "Илийский район",
      "name:kk": "Іле ауданы",
      "name:ru": "Илийский район",
      "boundary": "administrative",
      "way_area": "0.875626",
      "wikidata": "Q2466404",
      "wikipedia": "ru:Илийский район",
      "addr:region": "Алматинская область",
      "admin_level": "6",
      "addr:country": "KZ"
    }
  },
  {
    "osm_id": -5518138,
    "boundary": "administrative",
    "admin_level": 6,
    "parents": "-215718,-214665",
    "name": "Ескельдинский район",
    "local_name": "Ескельдинский район",
    "name_en": null,
    "all_tags": {
      "name": "Ескельдинский район",
      "name:kk": "Ескелді ауданы",
      "name:ru": "Ескельдинский район",
      "boundary": "administrative",
      "way_area": "0.461422",
      "wikidata": "Q2550435",
      "wikipedia": "ru:Ескельдинский район",
      "addr:region": "Алматинская область",
      "admin_level": "6",
      "addr:country": "KZ"
    }
  },
  {
    "osm_id": -5518135,
    "boundary": "administrative",
    "admin_level": 6,
    "parents": "-215718,-214665",
    "name": "Текели Г.А.",
    "local_name": "Текели Г.А.",
    "name_en": null,
    "all_tags": {
      "name": "Текели Г.А.",
      "name:kk": "Текелі Қ.Ә.",
      "name:ru": "Текели Г.А.",
      "boundary": "administrative",
      "way_area": "0.008029",
      "wikidata": "Q2302185",
      "wikipedia": "ru:Текели",
      "addr:region": "Алматинская область",
      "admin_level": "6",
      "addr:country": "KZ"
    }
  },
  {
    "osm_id": -5518093,
    "boundary": "administrative",
    "admin_level": 6,
    "parents": "-215718,-214665",
    "name": "Енбекшиказахский район",
    "local_name": "Енбекшиказахский район",
    "name_en": null,
    "all_tags": {
      "name": "Енбекшиказахский район",
      "name:kk": "Еңбекшіқазақ ауданы",
      "name:ru": "Енбекшиказахский район",
      "boundary": "administrative",
      "way_area": "0.971548",
      "wikidata": "Q2556225",
      "wikipedia": "ru:Енбекшиказахский район",
      "addr:region": "Алматинская область",
      "admin_level": "6",
      "addr:country": "KZ"
    }
  },
  {
    "osm_id": -5518065,
    "boundary": "administrative",
    "admin_level": 6,
    "parents": "-215718,-214665",
    "name": "Капчагай Г.А.",
    "local_name": "Капчагай Г.А.",
    "name_en": null,
    "all_tags": {
      "name": "Капчагай Г.А.",
      "name:kk": "Қапшағай Қ.Ә.",
      "name:ru": "Капчагай Г.А.",
      "boundary": "administrative",
      "way_area": "0.356801",
      "wikidata": "Q1816833",
      "wikipedia": "ru:Капчагай",
      "addr:region": "Алматинская область",
      "admin_level": "6",
      "addr:country": "KZ"
    }
  },
  {
    "osm_id": -5518039,
    "boundary": "administrative",
    "admin_level": 6,
    "parents": "-215718,-214665",
    "name": "Кербулакский район",
    "local_name": "Кербулакский район",
    "name_en": null,
    "all_tags": {
      "name": "Кербулакский район",
      "name:kk": "Кербұлақ ауданы",
      "name:ru": "Кербулакский район",
      "boundary": "administrative",
      "way_area": "1.29502",
      "wikidata": "Q2556317",
      "wikipedia": "ru:Кербулакский район",
      "addr:region": "Алматинская область",
      "admin_level": "6",
      "addr:country": "KZ"
    }
  },
  {
    "osm_id": -5518011,
    "boundary": "administrative",
    "admin_level": 6,
    "parents": "-215718,-214665",
    "name": "Коксуский район",
    "local_name": "Коксуский район",
    "name_en": null,
    "all_tags": {
      "name": "Коксуский район",
      "name:kk": "Көксу ауданы",
      "name:ru": "Коксуский район",
      "boundary": "administrative",
      "way_area": "0.806484",
      "wikidata": "Q2550398",
      "wikipedia": "ru:Коксуский район",
      "addr:region": "Алматинская область",
      "admin_level": "6",
      "addr:country": "KZ"
    }
  },
  {
    "osm_id": -5517959,
    "boundary": "administrative",
    "admin_level": 6,
    "parents": "-215718,-214665",
    "name": "Панфиловский район",
    "local_name": "Панфиловский район",
    "name_en": null,
    "all_tags": {
      "name": "Панфиловский район",
      "name:kk": "Панфилов ауданы",
      "name:ru": "Панфиловский район",
      "boundary": "administrative",
      "way_area": "1.16487",
      "wikidata": "Q2556261",
      "wikipedia": "ru:Панфиловский район (Алматинская область)",
      "addr:region": "Алматинская область",
      "admin_level": "6",
      "addr:country": "KZ"
    }
  },
  {
    "osm_id": -5517948,
    "boundary": "administrative",
    "admin_level": 6,
    "parents": "-215718,-214665",
    "name": "Уйгурский район",
    "local_name": "Уйгурский район",
    "name_en": null,
    "all_tags": {
      "name": "Уйгурский район",
      "name:kk": "Ұйғыр ауданы",
      "name:ru": "Уйгурский район",
      "boundary": "administrative",
      "way_area": "0.971583",
      "wikidata": "Q2360606",
      "wikipedia": "ru:Уйгурский район",
      "addr:region": "Алматинская область",
      "admin_level": "6",
      "addr:country": "KZ"
    }
  },
  {
    "osm_id": -5517935,
    "boundary": "administrative",
    "admin_level": 6,
    "parents": "-215718,-214665",
    "name": "Райымбекский район",
    "local_name": "Райымбекский район",
    "name_en": null,
    "all_tags": {
      "name": "Райымбекский район",
      "name:kk": "Райымбек ауданы",
      "name:ru": "Райымбекский район",
      "boundary": "administrative",
      "way_area": "0.815212",
      "wikidata": "Q2556235",
      "wikipedia": "ru:Райымбекский район",
      "addr:region": "Алматинская область",
      "admin_level": "6",
      "addr:country": "KZ"
    }
  },
  {
    "osm_id": -5517907,
    "boundary": "administrative",
    "admin_level": 6,
    "parents": "-215718,-214665",
    "name": "Aksu District",
    "local_name": "Аксуский район",
    "name_en": "Aksu District",
    "all_tags": {
      "name": "Аксуский район",
      "name:en": "Aksu District",
      "name:kk": "Ақсу ауданы",
      "name:ru": "Аксуский район",
      "boundary": "administrative",
      "way_area": "1.46349",
      "wikidata": "Q2737272",
      "wikipedia": "ru:Аксуский район",
      "addr:region": "Алматинская область",
      "admin_level": "6",
      "addr:country": "KZ"
    }
  },
  {
    "osm_id": -5517903,
    "boundary": "administrative",
    "admin_level": 6,
    "parents": "-215718,-214665",
    "name": "Sarkand District",
    "local_name": "Саркандский район",
    "name_en": "Sarkand District",
    "all_tags": {
      "name": "Саркандский район",
      "name:en": "Sarkand District",
      "name:kk": "Сарқан ауданы",
      "name:ru": "Саркандский район",
      "boundary": "administrative",
      "way_area": "2.88064",
      "wikidata": "Q2556173",
      "wikipedia": "ru:Саркандский район",
      "addr:region": "Алматинская область",
      "admin_level": "6",
      "addr:country": "KZ"
    }
  },
  {
    "osm_id": -5517853,
    "boundary": "administrative",
    "admin_level": 6,
    "parents": "-215718,-214665",
    "name": "Alakol District",
    "local_name": "Алакольский район",
    "name_en": "Alakol District",
    "all_tags": {
      "name": "Алакольский район",
      "name:en": "Alakol District",
      "name:kk": "Алакөл ауданы",
      "name:ru": "Алакольский район",
      "boundary": "administrative",
      "way_area": "2.70708",
      "wikidata": "Q2556249",
      "wikipedia": "ru:Алакольский район",
      "addr:region": "Алматинская область",
      "admin_level": "6",
      "addr:country": "KZ"
    }
  },
  {
    "osm_id": -5517817,
    "boundary": "administrative",
    "admin_level": 6,
    "parents": "-215718,-214665",
    "name": "Каратальский район",
    "local_name": "Каратальский район",
    "name_en": null,
    "all_tags": {
      "name": "Каратальский район",
      "name:kk": "Қаратал ауданы",
      "name:ru": "Каратальский район",
      "boundary": "administrative",
      "way_area": "2.79427",
      "wikidata": "Q2550342",
      "wikipedia": "ru:Каратальский район",
      "addr:region": "Алматинская область",
      "admin_level": "6",
      "addr:country": "KZ"
    }
  },
  {
    "osm_id": -5517810,
    "boundary": "administrative",
    "admin_level": 6,
    "parents": "-215718,-214665",
    "name": "Balkhash District",
    "local_name": "Балхашский район",
    "name_en": "Balkhash District",
    "all_tags": {
      "name": "Балхашский район",
      "name:en": "Balkhash District",
      "name:kk": "Балқаш ауданы",
      "name:ru": "Балхашский район",
      "name:uk": "Балхаський район",
      "boundary": "administrative",
      "name:pnb": "ضلع بلکھاش",
      "way_area": "4.324",
      "wikidata": "Q2565663",
      "wikipedia": "ru:Балхашский район",
      "addr:region": "Алматинская область",
      "admin_level": "6",
      "addr:country": "KZ",
      "name:kk-Arab": "بالقاش اۋدانى",
      "name:kk-Latn": "Balqaş awdanı"
    }
  },
  {
    "osm_id": -5517787,
    "boundary": "administrative",
    "admin_level": 6,
    "parents": "-215718,-214665",
    "name": "Жамбылский район",
    "local_name": "Жамбылский район",
    "name_en": null,
    "all_tags": {
      "name": "Жамбылский район",
      "name:kk": "Жамбыл ауданы",
      "name:ru": "Жамбылский район",
      "boundary": "administrative",
      "way_area": "2.12865",
      "wikidata": "Q2550363",
      "wikipedia": "ru:Жамбылский район (Алматинская область)",
      "addr:region": "Алматинская область",
      "admin_level": "6",
      "addr:country": "KZ"
    }
  },
  {
    "osm_id": -5515236,
    "boundary": "administrative",
    "admin_level": 6,
    "parents": "-215686,-214665",
    "name": "Жанаозен Г.А.",
    "local_name": "Жанаозен Г.А.",
    "name_en": null,
    "all_tags": {
      "name": "Жанаозен Г.А.",
      "name:kk": "Жаңаөзен Қ.Ә.",
      "name:ru": "Жанаозен Г.А.",
      "boundary": "administrative",
      "way_area": "0.057262",
      "wikidata": "Q1000852",
      "wikipedia": "kk:Жаңаөзен",
      "addr:region": "Мангистауская область",
      "admin_level": "6",
      "addr:country": "KZ"
    }
  },
  {
    "osm_id": -5515125,
    "boundary": "administrative",
    "admin_level": 6,
    "parents": "-215686,-214665",
    "name": "Актау Г.А.",
    "local_name": "Актау Г.А.",
    "name_en": null,
    "all_tags": {
      "name": "Актау Г.А.",
      "name:kk": "Ақтау Қ.Ә.",
      "name:ru": "Актау Г.А.",
      "boundary": "administrative",
      "way_area": "0.033852",
      "wikidata": "Q198989",
      "wikipedia": "de:Aqtau",
      "addr:region": "Мангистауская область",
      "admin_level": "6",
      "addr:country": "KZ"
    }
  },
  {
    "osm_id": -5513406,
    "boundary": "administrative",
    "admin_level": 6,
    "parents": "-215776,-214665",
    "name": "Karkaraly District",
    "local_name": "Каркаралинский район",
    "name_en": "Karkaraly District",
    "all_tags": {
      "name": "Каркаралинский район",
      "name:en": "Karkaraly District",
      "name:kk": "Қарқаралы ауданы",
      "name:ru": "Каркаралинский район",
      "name:uk": "Каркаралінський район",
      "boundary": "administrative",
      "way_area": "4.44097",
      "wikidata": "Q2726421",
      "wikipedia": "ru:Каркаралинский район",
      "addr:region": "Карагандинская область",
      "admin_level": "6",
      "addr:country": "KZ"
    }
  },
  {
    "osm_id": -5513390,
    "boundary": "administrative",
    "admin_level": 6,
    "parents": "-215776,-214665",
    "name": "Nura District",
    "local_name": "Нуринский район",
    "name_en": "Nura District",
    "all_tags": {
      "name": "Нуринский район",
      "name:en": "Nura District",
      "name:kk": "Нұра ауданы",
      "name:ru": "Нуринский район",
      "name:uk": "Нуринський район",
      "boundary": "administrative",
      "way_area": "5.79008",
      "wikidata": "Q2726443",
      "wikipedia": "ru:Нуринский район",
      "addr:region": "Карагандинская область",
      "admin_level": "6",
      "addr:country": "KZ"
    }
  },
  {
    "osm_id": -5513311,
    "boundary": "administrative",
    "admin_level": 6,
    "parents": "-215776,-214665",
    "name": "Ulytau District",
    "local_name": "Улытауский район",
    "name_en": "Ulytau District",
    "all_tags": {
      "name": "Улытауский район",
      "name:en": "Ulytau District",
      "name:kk": "Ұлытау ауданы",
      "name:ru": "Улытауский район",
      "name:uk": "Улитауський район",
      "boundary": "administrative",
      "way_area": "13.8055",
      "wikidata": "Q2668108",
      "wikipedia": "ru:Улытауский район",
      "addr:region": "Карагандинская область",
      "admin_level": "6",
      "addr:country": "KZ"
    }
  },
  {
    "osm_id": -5513234,
    "boundary": "administrative",
    "admin_level": 6,
    "parents": "-215776,-214665",
    "name": "Сатпаев Г.А.",
    "local_name": "Сатпаев Г.А.",
    "name_en": null,
    "all_tags": {
      "name": "Сатпаев Г.А.",
      "name:kk": "Сәтбаев Қ.Ә.",
      "name:ru": "Сатпаев Г.А.",
      "name:uk": "Сатпаєв державна адміністрація",
      "boundary": "administrative",
      "way_area": "0.133117",
      "wikidata": "Q1020484",
      "wikipedia": "ru:Сатпаев (город)",
      "addr:region": "Карагандинская область",
      "admin_level": "6",
      "addr:country": "KZ"
    }
  },
  {
    "osm_id": -5513216,
    "boundary": "administrative",
    "admin_level": 6,
    "parents": "-215776,-214665",
    "name": "Жезказган Г.А.",
    "local_name": "Жезказган Г.А.",
    "name_en": null,
    "all_tags": {
      "name": "Жезказган Г.А.",
      "name:kk": "Жезқазған Қ.Ә.",
      "name:ru": "Жезказган Г.А.",
      "name:uk": "Жезказґан державна адміністрація",
      "boundary": "administrative",
      "way_area": "1.03203",
      "wikidata": "Q740832",
      "wikipedia": "de:Schesqasghan",
      "addr:region": "Карагандинская область",
      "admin_level": "6",
      "addr:country": "KZ"
    }
  },
  {
    "osm_id": -5513067,
    "boundary": "administrative",
    "admin_level": 6,
    "parents": "-215776,-214665",
    "name": "Балхаш Г.А.",
    "local_name": "Балхаш Г.А.",
    "name_en": null,
    "all_tags": {
      "name": "Балхаш Г.А.",
      "name:kk": "Балқаш Қ.Ә.",
      "name:ru": "Балхаш Г.А.",
      "name:uk": "Балхаш державна адміністрація",
      "boundary": "administrative",
      "way_area": "0.720861",
      "wikidata": "Q805515",
      "wikipedia": "de:Balqasch",
      "addr:region": "Карагандинская область",
      "admin_level": "6",
      "addr:country": "KZ"
    }
  },
  {
    "osm_id": -5512957,
    "boundary": "administrative",
    "admin_level": 6,
    "parents": "-215776,-214665",
    "name": "Aktogay District",
    "local_name": "Актогайский район",
    "name_en": "Aktogay District",
    "all_tags": {
      "name": "Актогайский район",
      "name:en": "Aktogay District",
      "name:kk": "Ақтоғай ауданы",
      "name:ru": "Актогайский район",
      "name:uk": "Актоґайський район",
      "boundary": "administrative",
      "way_area": "6.08346",
      "wikidata": "Q612211",
      "wikipedia": "ru:Актогайский район (Карагандинская область)",
      "addr:region": "Карагандинская область",
      "admin_level": "6",
      "addr:country": "KZ"
    }
  },
  {
    "osm_id": -5512909,
    "boundary": "administrative",
    "admin_level": 6,
    "parents": "-215776,-214665",
    "name": "Шетский район",
    "local_name": "Шетский район",
    "name_en": null,
    "all_tags": {
      "name": "Шетский район",
      "name:kk": "Шет ауданы",
      "name:ru": "Шетский район",
      "name:uk": "Шетський район",
      "boundary": "administrative",
      "way_area": "7.88257",
      "wikidata": "Q2726493",
      "wikipedia": "ru:Шетский район",
      "addr:region": "Карагандинская область",
      "admin_level": "6",
      "addr:country": "KZ"
    }
  },
  {
    "osm_id": -5512171,
    "boundary": "administrative",
    "admin_level": 6,
    "parents": "-215776,-214665",
    "name": "Каражал Г.А.",
    "local_name": "Каражал Г.А.",
    "name_en": null,
    "all_tags": {
      "name": "Каражал Г.А.",
      "name:kk": "Қаражал Қ.Ә.",
      "name:ru": "Каражал Г.А.",
      "name:uk": "Каражал державна адміністрація",
      "boundary": "administrative",
      "way_area": "1.51979",
      "wikidata": "Q1010149",
      "wikipedia": "de:Qaraschal",
      "addr:region": "Карагандинская область",
      "admin_level": "6",
      "addr:country": "KZ"
    }
  },
  {
    "osm_id": -5511917,
    "boundary": "administrative",
    "admin_level": 6,
    "parents": "-215776,-214665",
    "name": "Zhanaarka District",
    "local_name": "Жанааркинский район",
    "name_en": "Zhanaarka District",
    "all_tags": {
      "name": "Жанааркинский район",
      "name:en": "Zhanaarka District",
      "name:kk": "Жаңаарқа ауданы",
      "name:ru": "Жанааркинский район",
      "name:uk": "Жанааркинський район",
      "boundary": "administrative",
      "way_area": "6.13288",
      "wikidata": "Q2726480",
      "wikipedia": "ru:Жанааркинский район",
      "addr:region": "Карагандинская область",
      "admin_level": "6",
      "addr:country": "KZ"
    }
  },
  {
    "osm_id": -5511722,
    "boundary": "administrative",
    "admin_level": 6,
    "parents": "-215776,-214665",
    "name": "Осакаровский район",
    "local_name": "Осакаровский район",
    "name_en": null,
    "all_tags": {
      "name": "Осакаровский район",
      "name:kk": "Осакаров ауданы",
      "name:ru": "Осакаровский район",
      "name:uk": "Осакаровський район",
      "boundary": "administrative",
      "way_area": "1.43597",
      "wikidata": "Q737748",
      "wikipedia": "ru:Осакаровский район",
      "addr:region": "Карагандинская область",
      "admin_level": "6",
      "addr:country": "KZ"
    }
  },
  {
    "osm_id": -5511683,
    "boundary": "administrative",
    "admin_level": 6,
    "parents": "-215776,-214665",
    "name": "Абайский район",
    "local_name": "Абайский район",
    "name_en": null,
    "all_tags": {
      "name": "Абайский район",
      "name:kk": "Абай ауданы",
      "name:ru": "Абайский район",
      "name:uk": "Абайський район",
      "boundary": "administrative",
      "way_area": "0.834282",
      "wikidata": "Q2283566",
      "wikipedia": "ru:Абайский район (Карагандинская область)",
      "addr:region": "Карагандинская область",
      "admin_level": "6",
      "addr:country": "KZ"
    }
  },
  {
    "osm_id": -5511265,
    "boundary": "administrative",
    "admin_level": 6,
    "parents": "-215776,-214665",
    "name": "Бухар-Жырауский район",
    "local_name": "Бухар-Жырауский район",
    "name_en": null,
    "all_tags": {
      "name": "Бухар-Жырауский район",
      "name:kk": "Бұқар жырау ауданы",
      "name:ru": "Бухар-Жырауский район",
      "name:uk": "Бухар-Жирауський район",
      "boundary": "administrative",
      "way_area": "1.81081",
      "wikidata": "Q2726463",
      "wikipedia": "ru:Бухар-Жырауский район",
      "addr:region": "Карагандинская область",
      "admin_level": "6",
      "addr:country": "KZ"
    }
  },
  {
    "osm_id": -5511190,
    "boundary": "administrative",
    "admin_level": 6,
    "parents": "-215776,-214665",
    "name": "Темиртау Г.А.",
    "local_name": "Темиртау Г.А.",
    "name_en": null,
    "all_tags": {
      "name": "Темиртау Г.А.",
      "name:kk": "Теміртау Қ.Ә.",
      "name:ru": "Темиртау Г.А.",
      "name:uk": "Теміртау державна адміністрація",
      "boundary": "administrative",
      "way_area": "0.0378327",
      "wikidata": "Q1001104",
      "wikipedia": "ru:Темиртау",
      "addr:region": "Карагандинская область",
      "admin_level": "6",
      "addr:country": "KZ"
    }
  },
  {
    "osm_id": -5511125,
    "boundary": "administrative",
    "admin_level": 6,
    "parents": "-215776,-214665",
    "name": "Шахтинск Г.А.",
    "local_name": "Шахтинск Г.А.",
    "name_en": null,
    "all_tags": {
      "name": "Шахтинск Г.А.",
      "name:kk": "Шахтинск Қ.Ә.",
      "name:ru": "Шахтинск Г.А.",
      "name:uk": "Шахтінск державна адміністрація",
      "boundary": "administrative",
      "way_area": "0.0294601",
      "wikidata": "Q1019377",
      "wikipedia": "de:Schachtinsk",
      "addr:region": "Карагандинская область",
      "admin_level": "6",
      "addr:country": "KZ"
    }
  },
  {
    "osm_id": -5511047,
    "boundary": "administrative",
    "admin_level": 6,
    "parents": "-215776,-214665",
    "name": "Сарань Г.А.",
    "local_name": "Сарань Г.А.",
    "name_en": null,
    "all_tags": {
      "name": "Сарань Г.А.",
      "name:kk": "Саран Қ.Ә.",
      "name:ru": "Сарань Г.А.",
      "boundary": "administrative",
      "way_area": "0.0201581",
      "wikidata": "Q1703483",
      "wikipedia": "de:Saran (Kasachstan)",
      "addr:region": "Карагандинская область",
      "admin_level": "6",
      "addr:country": "KZ"
    }
  },
  {
    "osm_id": -5510861,
    "boundary": "administrative",
    "admin_level": 6,
    "parents": "-215727,-214665",
    "name": "Чиилийский район",
    "local_name": "Чиилийский район",
    "name_en": null,
    "all_tags": {
      "name": "Чиилийский район",
      "name:kk": "Шиелі ауданы",
      "name:ru": "Чиилийский район",
      "name:uk": "Чиїлійський район",
      "boundary": "administrative",
      "way_area": "3.46643",
      "wikidata": "Q2632718",
      "wikipedia": "ru:Чиилийский район",
      "addr:region": "Кызылординская область",
      "admin_level": "6",
      "addr:country": "KZ"
    }
  },
  {
    "osm_id": -5509954,
    "boundary": "administrative",
    "admin_level": 6,
    "parents": "-215727,-214665",
    "name": "Syrdariya District",
    "local_name": "Сырдарьинский район",
    "name_en": "Syrdariya District",
    "all_tags": {
      "name": "Сырдарьинский район",
      "name:en": "Syrdariya District",
      "name:kk": "Сырдария ауданы",
      "name:ru": "Сырдарьинский район",
      "name:uk": "Сирдар'їнський район",
      "boundary": "administrative",
      "way_area": "3.368",
      "wikidata": "Q2422603",
      "wikipedia": "ru:Сырдарьинский район (Кызылординская область)",
      "addr:region": "Кызылординская область",
      "admin_level": "6",
      "addr:country": "KZ"
    }
  },
  {
    "osm_id": -5509420,
    "boundary": "administrative",
    "admin_level": 6,
    "parents": "-215727,-214665",
    "name": "Karmakshy District",
    "local_name": "Кармакшинский район",
    "name_en": "Karmakshy District",
    "all_tags": {
      "name": "Кармакшинский район",
      "name:en": "Karmakshy District",
      "name:kk": "Қармақшы ауданы",
      "name:ru": "Кармакшинский район",
      "name:uk": "Кармакшинський район",
      "boundary": "administrative",
      "way_area": "3.43947",
      "wikidata": "Q2632749",
      "wikipedia": "ru:Кармакшинский район",
      "addr:region": "Кызылординская область",
      "admin_level": "6",
      "addr:country": "KZ"
    }
  },
  {
    "osm_id": -5509366,
    "boundary": "administrative",
    "admin_level": 6,
    "parents": "-215727,-214665",
    "name": "Kazaly District",
    "local_name": "Казалинский район",
    "name_en": "Kazaly District",
    "all_tags": {
      "name": "Казалинский район",
      "name:en": "Kazaly District",
      "name:kk": "Қазалы ауданы",
      "name:ru": "Казалинский район",
      "name:uk": "Казалинський район",
      "boundary": "administrative",
      "way_area": "4.37129",
      "wikidata": "Q976752",
      "wikipedia": "ru:Казалинский район",
      "addr:region": "Кызылординская область",
      "admin_level": "6",
      "addr:country": "KZ"
    }
  },
  {
    "osm_id": -5509261,
    "boundary": "administrative",
    "admin_level": 6,
    "parents": "-215727,-214665",
    "name": "Жанакорганский район",
    "local_name": "Жанакорганский район",
    "name_en": null,
    "all_tags": {
      "name": "Жанакорганский район",
      "name:kk": "Жаңақорған ауданы",
      "name:ru": "Жанакорганский район",
      "name:uk": "Жанакорґанський район",
      "boundary": "administrative",
      "way_area": "1.86216",
      "wikidata": "Q2726410",
      "wikipedia": "ru:Жанакорганский район",
      "addr:region": "Кызылординская область",
      "admin_level": "6",
      "addr:country": "KZ"
    }
  },
  {
    "osm_id": -5509144,
    "boundary": "administrative",
    "admin_level": 6,
    "parents": "-215727,-214665",
    "name": "Zhalagash District",
    "local_name": "Жалагашский район",
    "name_en": "Zhalagash District",
    "all_tags": {
      "name": "Жалагашский район",
      "name:en": "Zhalagash District",
      "name:kk": "Жалағаш ауданы",
      "name:ru": "Жалагашский район",
      "name:uk": "Жалаґаський район",
      "boundary": "administrative",
      "way_area": "2.61451",
      "wikidata": "Q2726452",
      "wikipedia": "ru:Жалагашский район",
      "addr:region": "Кызылординская область",
      "admin_level": "6",
      "addr:country": "KZ"
    }
  },
  {
    "osm_id": -5508563,
    "boundary": "administrative",
    "admin_level": 6,
    "parents": "-215727,-214665",
    "name": "Aral District",
    "local_name": "Аральский район",
    "name_en": "Aral District",
    "all_tags": {
      "name": "Аральский район",
      "name:en": "Aral District",
      "name:kk": "Арал ауданы",
      "name:ru": "Аральский район",
      "name:uk": "Аральський район",
      "boundary": "administrative",
      "way_area": "6.57919",
      "wikidata": "Q2726397",
      "wikipedia": "ru:Аральский район",
      "addr:region": "Кызылординская область",
      "admin_level": "6",
      "addr:country": "KZ"
    }
  },
  {
    "osm_id": -5503599,
    "boundary": "administrative",
    "admin_level": 6,
    "parents": "-215718,-214665",
    "name": "Талгарский район",
    "local_name": "Талгарский район",
    "name_en": null,
    "all_tags": {
      "name": "Талгарский район",
      "name:kk": "Талғар ауданы",
      "name:ru": "Талгарский район",
      "boundary": "administrative",
      "way_area": "0.414178",
      "wikidata": "Q2556049",
      "wikipedia": "ru:Талгарский район",
      "addr:region": "Алматинская область",
      "admin_level": "6",
      "addr:country": "KZ"
    }
  },
  {
    "osm_id": -5502043,
    "boundary": "administrative",
    "admin_level": 6,
    "parents": "-214665",
    "name": "Экибастуз Г.А.",
    "local_name": "Экибастуз Г.А.",
    "name_en": null,
    "all_tags": {
      "name": "Экибастуз Г.А.",
      "name:kk": "Екібастұз Қ.Ә.",
      "name:ru": "Экибастуз Г.А.",
      "name:uk": "Екібастуз державна адміністрація",
      "boundary": "administrative",
      "way_area": "2.4577",
      "wikidata": "Q496442",
      "wikipedia": "ru:Экибастуз",
      "addr:region": "Павлодарская область",
      "admin_level": "6",
      "addr:country": "KZ"
    }
  },
  {
    "osm_id": -5502032,
    "boundary": "administrative",
    "admin_level": 6,
    "parents": "-214665",
    "name": "Sharbaqty District",
    "local_name": "Щербактинский район",
    "name_en": "Sharbaqty District",
    "all_tags": {
      "name": "Щербактинский район",
      "name:en": "Sharbaqty District",
      "name:fr": "District de Charbakty",
      "name:kk": "Шарбақты ауданы",
      "name:ru": "Щербактинский район",
      "name:uk": "Шарбактинський район",
      "boundary": "administrative",
      "way_area": "0.903055",
      "wikidata": "Q2554498",
      "wikipedia": "ru:Щербактинский район",
      "addr:region": "Павлодарская область",
      "admin_level": "6",
      "alt_name:en": "Sharbakty District",
      "old_name:uk": "Щербактинський район",
      "addr:country": "KZ",
      "name:kk-Arab": "شارباقتى اۋدانى",
      "name:kk-Latn": "Şarbaqtı awdanı"
    }
  },
  {
    "osm_id": -5502020,
    "boundary": "administrative",
    "admin_level": 6,
    "parents": "-214665",
    "name": "Uspen District",
    "local_name": "Успенский район",
    "name_en": "Uspen District",
    "all_tags": {
      "name": "Успенский район",
      "name:en": "Uspen District",
      "name:fr": "district d'Ouspen",
      "name:kk": "Успен ауданы",
      "name:ru": "Успенский район",
      "name:uk": "Успенський район",
      "boundary": "administrative",
      "way_area": "0.730434",
      "wikidata": "Q2554534",
      "wikipedia": "ru:Успенский район (Павлодарская область)",
      "addr:region": "Павлодарская область",
      "admin_level": "6",
      "addr:country": "KZ"
    }
  },
  {
    "osm_id": -5501718,
    "boundary": "administrative",
    "admin_level": 6,
    "parents": "-214665",
    "name": "Аксу Г.А.",
    "local_name": "Аксу Г.А.",
    "name_en": null,
    "all_tags": {
      "name": "Аксу Г.А.",
      "name:kk": "Ақсу Қ.Ә.",
      "name:ru": "Аксу Г.А.",
      "name:uk": "Аксу державна адміністрація",
      "boundary": "administrative",
      "way_area": "1.05324",
      "wikidata": "Q622780",
      "wikipedia": "ru:Аксу (город, Павлодарская область)",
      "addr:region": "Павлодарская область",
      "admin_level": "6",
      "addr:country": "KZ"
    }
  },
  {
    "osm_id": -5501700,
    "boundary": "administrative",
    "admin_level": 6,
    "parents": "-214665",
    "name": "Павлодар Г.А.",
    "local_name": "Павлодар Г.А.",
    "name_en": null,
    "all_tags": {
      "name": "Павлодар Г.А.",
      "name:kk": "Павлодар Қ.Ә.",
      "name:ru": "Павлодар Г.А.",
      "boundary": "administrative",
      "way_area": "0.0831821",
      "wikidata": "Q486282",
      "wikipedia": "ru:Павлодар",
      "addr:region": "Павлодарская область",
      "admin_level": "6",
      "addr:country": "KZ"
    }
  },
  {
    "osm_id": -5501694,
    "boundary": "administrative",
    "admin_level": 6,
    "parents": "-214665",
    "name": "Pavlodar District",
    "local_name": "Павлодарский район",
    "name_en": "Pavlodar District",
    "all_tags": {
      "name": "Павлодарский район",
      "name:en": "Pavlodar District",
      "name:fr": "district de Pavlodar",
      "name:kk": "Павлодар ауданы",
      "name:ru": "Павлодарский район",
      "name:uk": "Павлодарський район",
      "boundary": "administrative",
      "way_area": "0.767916",
      "wikidata": "Q509303",
      "wikipedia": "ru:Павлодарский район",
      "addr:region": "Павлодарская область",
      "admin_level": "6",
      "addr:country": "KZ"
    }
  },
  {
    "osm_id": -5501685,
    "boundary": "administrative",
    "admin_level": 6,
    "parents": "-214665",
    "name": "May District",
    "local_name": "Майский район",
    "name_en": "May District",
    "all_tags": {
      "name": "Майский район",
      "name:en": "May District",
      "name:kk": "Май ауданы",
      "name:ru": "Майский район",
      "name:uk": "Майський район",
      "boundary": "administrative",
      "way_area": "2.30904",
      "wikidata": "Q2554476",
      "wikipedia": "ru:Майский район (Павлодарская область)",
      "addr:region": "Павлодарская область",
      "admin_level": "6",
      "addr:country": "KZ"
    }
  },
  {
    "osm_id": -5500667,
    "boundary": "administrative",
    "admin_level": 6,
    "parents": "-214665",
    "name": "Аккулинский район",
    "local_name": "Аккулинский район",
    "name_en": null,
    "all_tags": {
      "url": "http://adilet.zan.kz/kaz/docs/U1800000724",
      "name": "Аккулинский район",
      "name:fr": "District d'Akku",
      "name:kk": "Аққулы ауданы",
      "name:ru": "Аккулинский район",
      "name:uk": "Аккулинський район",
      "alt_name": "район Аққулы",
      "boundary": "administrative",
      "way_area": "1.04088",
      "wikidata": "Q47982",
      "wikipedia": "ru:Аккулинский район",
      "addr:region": "Павлодарская область",
      "admin_level": "6",
      "old_name:bg": "Лебяжински район",
      "old_name:fr": "District de Lebyaji",
      "old_name:kk": "Лебяжье ауданы",
      "old_name:ru": "Лебяжинский район",
      "old_name:uk": "Леб'яжинський район",
      "old_name:uz": "Lebyaji tumani",
      "addr:country": "KZ",
      "name:kk-Arab": "اققۋلى اۋدانى"
    }
  },
  {
    "osm_id": -5500613,
    "boundary": "administrative",
    "admin_level": 6,
    "parents": "-214665",
    "name": "Terenkol District",
    "local_name": "Теренкольский район",
    "name_en": "Terenkol District",
    "all_tags": {
      "name": "Теренкольский район",
      "name:en": "Terenkol District",
      "name:fr": "district de Terenkol",
      "name:kk": "Тереңкөл ауданы",
      "name:ru": "Теренкольский район",
      "name:uk": "Теренкольський район",
      "alt_name": "район Тереңкөл",
      "boundary": "administrative",
      "way_area": "0.916587",
      "wikidata": "Q75251",
      "wikipedia": "ru:Теренкольский район",
      "addr:region": "Павлодарская область",
      "admin_level": "6",
      "old_name:en": "Kashyr District",
      "old_name:kk": "Қашыр ауданы",
      "old_name:ru": "Качирский район",
      "old_name:uk": "Качирський район",
      "addr:country": "KZ"
    }
  },
  {
    "osm_id": -5500411,
    "boundary": "administrative",
    "admin_level": 6,
    "parents": "-214665",
    "name": "Ertis District",
    "local_name": "Иртышский район",
    "name_en": "Ertis District",
    "all_tags": {
      "name": "Иртышский район",
      "name:en": "Ertis District",
      "name:fr": "district d'Ertis",
      "name:kk": "Ертіс ауданы",
      "name:ru": "Иртышский район",
      "name:uk": "Іртиський район",
      "boundary": "administrative",
      "way_area": "1.37316",
      "wikidata": "Q58179",
      "wikipedia": "ru:Иртышский район (Павлодарская область)",
      "addr:region": "Павлодарская область",
      "admin_level": "6",
      "addr:country": "KZ"
    }
  },
  {
    "osm_id": -5500371,
    "boundary": "administrative",
    "admin_level": 6,
    "parents": "-214665",
    "name": "Zhelezin District",
    "local_name": "Железинский район",
    "name_en": "Zhelezin District",
    "all_tags": {
      "name": "Железинский район",
      "name:en": "Zhelezin District",
      "name:fr": "district de Jelezin",
      "name:kk": "Железин ауданы",
      "name:ru": "Железинский район",
      "name:uk": "Железінський район",
      "boundary": "administrative",
      "way_area": "1.04702",
      "wikidata": "Q44486",
      "wikipedia": "ru:Железинский район",
      "addr:region": "Павлодарская область",
      "admin_level": "6",
      "addr:country": "KZ"
    }
  },
  {
    "osm_id": -5499988,
    "boundary": "administrative",
    "admin_level": 6,
    "parents": "-214665",
    "name": "Bayanaul District",
    "local_name": "Баянаульский район",
    "name_en": "Bayanaul District",
    "all_tags": {
      "name": "Баянаульский район",
      "name:en": "Bayanaul District",
      "name:fr": "district de Bayanaoul",
      "name:kk": "Баянауыл ауданы",
      "name:ru": "Баянаульский район",
      "name:uk": "Баянаульський район",
      "boundary": "administrative",
      "way_area": "2.35245",
      "wikidata": "Q2448467",
      "wikipedia": "ru:Баянаульский район",
      "addr:region": "Павлодарская область",
      "admin_level": "6",
      "addr:country": "KZ"
    }
  },
  {
    "osm_id": -5499832,
    "boundary": "administrative",
    "admin_level": 6,
    "parents": "-214665",
    "name": "Aktogay District",
    "local_name": "Актогайский район",
    "name_en": "Aktogay District",
    "all_tags": {
      "name": "Актогайский район",
      "name:en": "Aktogay District",
      "name:fr": "district d'Aktogaï",
      "name:kk": "Ақтоғай ауданы",
      "name:ru": "Актогайский район",
      "name:uk": "Актоґайський район",
      "boundary": "administrative",
      "way_area": "1.2995",
      "wikidata": "Q2476575",
      "wikipedia": "ru:Актогайский район (Павлодарская область)",
      "addr:region": "Павлодарская область",
      "admin_level": "6",
      "addr:country": "KZ"
    }
  },
  {
    "osm_id": -5499667,
    "boundary": "administrative",
    "admin_level": 6,
    "parents": "-215699,-214665",
    "name": "Городская администрация Курчатов",
    "local_name": "Городская администрация Курчатов",
    "name_en": null,
    "all_tags": {
      "name": "Городская администрация Курчатов",
      "name:kk": "Курчатов қала әкімшілігі",
      "name:ru": "Городская администрация Курчатов",
      "name:uk": "Курчатов міська адміністрація",
      "alt_name": "Курчатов городской акимат",
      "boundary": "administrative",
      "old_name": "Семипалатинск-21",
      "way_area": "0.0171809",
      "wikidata": "Q767177",
      "wikipedia": "ru:Курчатов (Казахстан)",
      "addr:region": "Восточно-Казахстанская область",
      "admin_level": "6",
      "name:prefix": "город",
      "old_name:ru": "Семипалатинск-21",
      "addr:country": "KZ",
      "name:prefix:kk": "қала",
      "name:prefix:ru": "город"
    }
  },
  {
    "osm_id": -5498152,
    "boundary": "administrative",
    "admin_level": 6,
    "parents": "-215739,-214665",
    "name": "Толебийский район",
    "local_name": "Толебийский район",
    "name_en": null,
    "all_tags": {
      "name": "Толебийский район",
      "name:kk": "Төле би ауданы",
      "name:ru": "Толебийский район",
      "boundary": "administrative",
      "way_area": "0.325548",
      "wikidata": "Q75318",
      "wikipedia": "ru:Толебийский район",
      "addr:region": "Туркестанская область",
      "admin_level": "6",
      "addr:country": "KZ"
    }
  },
  {
    "osm_id": -5498009,
    "boundary": "administrative",
    "admin_level": 6,
    "parents": "-215739,-214665",
    "name": "Тюлькубасский район",
    "local_name": "Тюлькубасский район",
    "name_en": null,
    "all_tags": {
      "name": "Тюлькубасский район",
      "name:kk": "Түлкібас ауданы",
      "name:ru": "Тюлькубасский район",
      "boundary": "administrative",
      "way_area": "0.256852",
      "wikidata": "Q2554511",
      "wikipedia": "ru:Тюлькубасский район",
      "addr:region": "Туркестанская область",
      "admin_level": "6",
      "addr:country": "KZ"
    }
  },
  {
    "osm_id": -5497131,
    "boundary": "administrative",
    "admin_level": 6,
    "parents": "-215739,-214665",
    "name": "Сарыагашский район",
    "local_name": "Сарыагашский район",
    "name_en": null,
    "all_tags": {
      "name": "Сарыагашский район",
      "name:kk": "Сарыағаш ауданы",
      "name:ru": "Сарыагашский район",
      "boundary": "administrative",
      "way_area": "0.445825",
      "wikidata": "Q2554452",
      "wikipedia": "ru:Сарыагашский район",
      "addr:region": "Туркестанская область",
      "admin_level": "6",
      "addr:country": "KZ"
    }
  },
  {
    "osm_id": -5496738,
    "boundary": "administrative",
    "admin_level": 6,
    "parents": "-215739,-214665",
    "name": "Сайрамский район",
    "local_name": "Сайрамский район",
    "name_en": null,
    "all_tags": {
      "name": "Сайрамский район",
      "name:kk": "Сайрам ауданы",
      "name:ru": "Сайрамский район",
      "boundary": "administrative",
      "way_area": "0.115592",
      "wikidata": "Q574486",
      "wikipedia": "ru:Сайрамский район",
      "addr:region": "Туркестанская область",
      "admin_level": "6",
      "addr:country": "KZ"
    }
  },
  {
    "osm_id": -5496366,
    "boundary": "administrative",
    "admin_level": 6,
    "parents": "-215739,-214665",
    "name": "Turkestan Қ.Ә.",
    "local_name": "Туркестан Г.А.",
    "name_en": "Turkestan Қ.Ә.",
    "all_tags": {
      "name": "Туркестан Г.А.",
      "name:en": "Turkestan Қ.Ә.",
      "name:ru": "Туркестан Г.А.",
      "boundary": "administrative",
      "old_name": "Hazrat-e Turkestan, Yassy",
      "way_area": "0.0312598",
      "population": "155552",
      "addr:region": "Туркестанская область",
      "admin_level": "6",
      "addr:country": "KZ",
      "addr:postcode": "161200"
    }
  },
  {
    "osm_id": -5496171,
    "boundary": "administrative",
    "admin_level": 6,
    "parents": "-215739,-214665",
    "name": "Казыгуртский район",
    "local_name": "Казыгуртский район",
    "name_en": null,
    "all_tags": {
      "name": "Казыгуртский район",
      "name:kk": "Қазығұрт ауданы",
      "name:ru": "Казыгуртский район",
      "boundary": "administrative",
      "way_area": "0.447311",
      "wikidata": "Q1370228",
      "wikipedia": "ru:Казыгуртский район",
      "addr:region": "Туркестанская область",
      "admin_level": "6",
      "addr:country": "KZ"
    }
  },
  {
    "osm_id": -5460063,
    "boundary": "administrative",
    "admin_level": 6,
    "parents": "-2465058,-214665",
    "name": "Наурызбайский район",
    "local_name": "Наурызбайский район",
    "name_en": null,
    "all_tags": {
      "name": "Наурызбайский район",
      "name:ru": "Наурызбайский район",
      "boundary": "administrative",
      "way_area": "0.00773256",
      "wikidata": "Q18405618",
      "wikipedia": "ru:Наурызбайский район",
      "addr:region": "Алматы",
      "admin_level": "6",
      "addr:country": "KZ"
    }
  },
  {
    "osm_id": -5295657,
    "boundary": "administrative",
    "admin_level": 6,
    "parents": "-215727,-214665",
    "name": "Baikonur",
    "local_name": "Байконыр Г.А.",
    "name_en": "Baikonur",
    "all_tags": {
      "name": "Байконыр Г.А.",
      "name:de": "Baikonur",
      "name:en": "Baikonur",
      "name:fr": "Baïkonour",
      "name:kk": "Байқоңыр Қ.Ә.",
      "name:ru": "Байконыр Г.А.",
      "name:uk": "Байконур державна адміністрація",
      "boundary": "administrative",
      "int_name": "Baikonur",
      "way_area": "0.00439777",
      "wikidata": "Q165413",
      "ISO3166-2": "KZ-BAY",
      "wikipedia": "kk:Байқоңыр (қала)",
      "addr:region": "Кызылординская область",
      "admin_level": "6",
      "addr:country": "KZ"
    }
  },
  {
    "osm_id": -3767383,
    "boundary": "administrative",
    "admin_level": 6,
    "parents": "-215441,-214665",
    "name": "Уральск Г.А.",
    "local_name": "Уральск Г.А.",
    "name_en": null,
    "all_tags": {
      "name": "Уральск Г.А.",
      "name:kk": "Орал Қ.Ә.",
      "name:ru": "Уральск Г.А.",
      "boundary": "administrative",
      "way_area": "0.0315514",
      "wikidata": "Q487439",
      "wikipedia": "ru:Уральск",
      "addr:region": "Западно-Казахстанская область",
      "admin_level": "6",
      "addr:country": "KZ"
    }
  },
  {
    "osm_id": -3486954,
    "boundary": "administrative",
    "admin_level": 6,
    "parents": "-3087155,-214665",
    "name": "район \"Сарыарка\"",
    "local_name": "район \"Сарыарка\"",
    "name_en": null,
    "all_tags": {
      "kato": "711310000",
      "name": "район \"Сарыарка\"",
      "name:ru": "район \"Сарыарка\"",
      "boundary": "administrative",
      "way_area": "0.00881454",
      "wikidata": "Q16694762",
      "wikipedia": "kk:Сарыарқа ауданы",
      "admin_level": "6"
    }
  },
  {
    "osm_id": -3482819,
    "boundary": "administrative",
    "admin_level": 6,
    "parents": "-3087155,-214665",
    "name": "район \"Алматы\"",
    "local_name": "район \"Алматы\"",
    "name_en": null,
    "all_tags": {
      "kato": "711110000",
      "name": "район \"Алматы\"",
      "name:ru": "район \"Алматы\"",
      "boundary": "administrative",
      "way_area": "0.019878",
      "wikidata": "Q12528524",
      "wikipedia": "kk:Алматы ауданы (Нұр-Сұлтан қаласы)",
      "admin_level": "6"
    }
  },
  {
    "osm_id": -3479876,
    "boundary": "administrative",
    "admin_level": 6,
    "parents": "-3087155,-214665",
    "name": "район \"Есиль\"",
    "local_name": "район \"Есиль\"",
    "name_en": null,
    "all_tags": {
      "kato": "711210000",
      "name": "район \"Есиль\"",
      "name:ar": "منطقة إيسل",
      "name:ru": "район \"Есиль\"",
      "boundary": "administrative",
      "way_area": "0.039855",
      "wikidata": "Q16648877",
      "wikipedia": "kk:Есіл ауданы (Астана)",
      "admin_level": "6"
    }
  },
  {
    "osm_id": -3407634,
    "boundary": "administrative",
    "admin_level": 6,
    "parents": "-215739,-214665",
    "name": "Ordabasy District",
    "local_name": "Ордабасынский район",
    "name_en": "Ordabasy District",
    "all_tags": {
      "name": "Ордабасынский район",
      "name:en": "Ordabasy District",
      "name:kk": "Ордабасы ауданы",
      "name:ru": "Ордабасынский район",
      "name:uk": "Ордабасинський район",
      "boundary": "administrative",
      "way_area": "0.289337",
      "wikidata": "Q2554428",
      "wikipedia": "ru:Ордабасинский район",
      "addr:region": "Туркестанская область",
      "admin_level": "6",
      "addr:country": "KZ",
      "name:kk-Arab": "ورداباسى اۋدانى",
      "name:kk-Latn": "Ordabası awdanı"
    }
  },
  {
    "osm_id": -3407558,
    "boundary": "administrative",
    "admin_level": 6,
    "parents": "-215739,-214665",
    "name": "район Байдибека",
    "local_name": "район Байдибека",
    "name_en": null,
    "all_tags": {
      "name": "район Байдибека",
      "name:kk": "Бәйдібек ауданы",
      "name:ru": "район Байдибека",
      "alt_name": "Байдибекский район",
      "boundary": "administrative",
      "way_area": "0.797086",
      "wikidata": "Q522660",
      "wikipedia": "ru:Байдибекский район",
      "addr:region": "Туркестанская область",
      "admin_level": "6",
      "addr:country": "KZ"
    }
  },
  {
    "osm_id": -3407442,
    "boundary": "administrative",
    "admin_level": 6,
    "parents": "-215739,-214665",
    "name": "Арысь Г.А.",
    "local_name": "Арысь Г.А.",
    "name_en": null,
    "all_tags": {
      "name": "Арысь Г.А.",
      "name:kk": "Арыс Қ.Ә.",
      "name:ru": "Арысь Г.А.",
      "boundary": "administrative",
      "way_area": "0.698785",
      "wikidata": "Q718108",
      "wikipedia": "de:Arys (Kasachstan)",
      "addr:region": "Туркестанская область",
      "admin_level": "6",
      "addr:country": "KZ"
    }
  },
  {
    "osm_id": -3407327,
    "boundary": "administrative",
    "admin_level": 6,
    "parents": "-215739,-214665",
    "name": "Шардаринский район",
    "local_name": "Шардаринский район",
    "name_en": null,
    "all_tags": {
      "name": "Шардаринский район",
      "name:kk": "Шардара ауданы",
      "name:ru": "Шардаринский район",
      "boundary": "administrative",
      "way_area": "1.39354",
      "wikidata": "Q2605432",
      "wikipedia": "ru:Шардаринский район",
      "addr:region": "Туркестанская область",
      "admin_level": "6",
      "addr:country": "KZ"
    }
  },
  {
    "osm_id": -3407205,
    "boundary": "administrative",
    "admin_level": 6,
    "parents": "-215739,-214665",
    "name": "Maktaaral District",
    "local_name": "Мактааральский район",
    "name_en": "Maktaaral District",
    "all_tags": {
      "name": "Мактааральский район",
      "name:en": "Maktaaral District",
      "name:kk": "Мақтаарал ауданы",
      "name:ru": "Мактааральский район",
      "boundary": "administrative",
      "way_area": "0.0895204",
      "wikidata": "Q27351090",
      "wikipedia": "ru:Жетысайский район",
      "addr:region": "Туркестанская область",
      "admin_level": "6",
      "addr:country": "KZ"
    }
  },
  {
    "osm_id": -3407147,
    "boundary": "administrative",
    "admin_level": 6,
    "parents": "-215739,-214665",
    "name": "Otyrar District",
    "local_name": "Отрарский район",
    "name_en": "Otyrar District",
    "all_tags": {
      "name": "Отрарский район",
      "name:en": "Otyrar District",
      "name:kk": "Отырар ауданы",
      "name:ru": "Отрарский район",
      "name:uk": "Отирарський район",
      "boundary": "administrative",
      "way_area": "1.96528",
      "wikidata": "Q2554487",
      "wikipedia": "ru:Отырарский район",
      "addr:region": "Туркестанская область",
      "admin_level": "6",
      "addr:country": "KZ",
      "name:kk-Arab": "وتىرار اۋدانى",
      "name:kk-Latn": "Otırar awdanı"
    }
  },
  {
    "osm_id": -3407078,
    "boundary": "administrative",
    "admin_level": 6,
    "parents": "-215739,-214665",
    "name": "Кентау Г.А.",
    "local_name": "Кентау Г.А.",
    "name_en": null,
    "all_tags": {
      "name": "Кентау Г.А.",
      "name:kk": "Кентау Қ.Ә.",
      "name:ru": "Кентау Г.А.",
      "boundary": "administrative",
      "way_area": "0.856195",
      "wikidata": "Q1315249",
      "wikipedia": "ru:Кентау",
      "addr:region": "Туркестанская область",
      "admin_level": "6",
      "addr:country": "KZ"
    }
  },
  {
    "osm_id": -3407031,
    "boundary": "administrative",
    "admin_level": 6,
    "parents": "-215739,-214665",
    "name": "Sozak District",
    "local_name": "Сузакский район",
    "name_en": "Sozak District",
    "all_tags": {
      "name": "Сузакский район",
      "name:en": "Sozak District",
      "name:kk": "Созақ ауданы",
      "name:ru": "Сузакский район",
      "boundary": "administrative",
      "way_area": "4.68478",
      "wikidata": "Q2554556",
      "wikipedia": "ru:Сузакский район (Туркестанская область)",
      "addr:region": "Туркестанская область",
      "admin_level": "6",
      "addr:country": "KZ"
    }
  },
  {
    "osm_id": -3404209,
    "boundary": "administrative",
    "admin_level": 6,
    "parents": "-215743,-214665",
    "name": "Степногорск Г.А.",
    "local_name": "Степногорск Г.А.",
    "name_en": null,
    "all_tags": {
      "name": "Степногорск Г.А.",
      "name:kk": "Степногор Қ.Ә.",
      "name:ru": "Степногорск Г.А.",
      "name:uk": "Степноґорск державна адміністрація",
      "boundary": "administrative",
      "way_area": "0.207726",
      "wikidata": "Q2030615",
      "wikipedia": "ru:Степногорск",
      "addr:region": "Акмолинская область",
      "admin_level": "6",
      "addr:country": "KZ",
      "addr:district": "Степногорск Г.А."
    }
  },
  {
    "osm_id": -3404061,
    "boundary": "administrative",
    "admin_level": 6,
    "parents": "-215743,-214665",
    "name": "Шортандинский район",
    "local_name": "Шортандинский район",
    "name_en": null,
    "all_tags": {
      "name": "Шортандинский район",
      "name:kk": "Шортанды ауданы",
      "name:ru": "Шортандинский район",
      "name:uk": "Шортандинський район",
      "boundary": "administrative",
      "way_area": "0.607429",
      "wikidata": "Q2556281",
      "wikipedia": "ru:Шортандинский район",
      "addr:region": "Акмолинская область",
      "admin_level": "6",
      "addr:country": "KZ"
    }
  },
  {
    "osm_id": -3403962,
    "boundary": "administrative",
    "admin_level": 6,
    "parents": "-215743,-214665",
    "name": "Сандыктауский район",
    "local_name": "Сандыктауский район",
    "name_en": null,
    "all_tags": {
      "name": "Сандыктауский район",
      "name:kk": "Сандықтау ауданы",
      "name:ru": "Сандыктауский район",
      "name:uk": "Сандиктауський район",
      "boundary": "administrative",
      "way_area": "0.842761",
      "wikidata": "Q2565597",
      "wikipedia": "ru:Сандыктауский район",
      "addr:region": "Акмолинская область",
      "admin_level": "6",
      "addr:country": "KZ"
    }
  },
  {
    "osm_id": -3403954,
    "boundary": "administrative",
    "admin_level": 6,
    "parents": "-215743,-214665",
    "name": "Буландынский район",
    "local_name": "Буландынский район",
    "name_en": null,
    "all_tags": {
      "name": "Буландынский район",
      "name:kk": "Бұланды ауданы",
      "name:ru": "Буландынский район",
      "name:uk": "Буландинський район",
      "boundary": "administrative",
      "way_area": "0.668573",
      "wikidata": "Q4703463",
      "wikipedia": "ru:Буландынский район",
      "addr:region": "Акмолинская область",
      "admin_level": "6",
      "addr:country": "KZ"
    }
  },
  {
    "osm_id": -3403942,
    "boundary": "administrative",
    "admin_level": 6,
    "parents": "-215743,-214665",
    "name": "Burabay District",
    "local_name": "Бурабайский район",
    "name_en": "Burabay District",
    "all_tags": {
      "name": "Бурабайский район",
      "name:be": "Бурабайскі раён",
      "name:en": "Burabay District",
      "name:fr": "District de Bourabaï",
      "name:kk": "Бурабай ауданы",
      "name:ru": "Бурабайский район",
      "name:uk": "Бурабайський район",
      "boundary": "administrative",
      "name:pnb": "ضلع بورابے",
      "way_area": "0.793795",
      "wikidata": "Q2556214",
      "wikipedia": "ru:Бурабайский район",
      "addr:region": "Акмолинская область",
      "admin_level": "6",
      "old_name:be": "Шчучынскі раён",
      "old_name:en": "Schuchinsk District",
      "old_name:kk": "Щучье ауданы",
      "old_name:uk": "Щучинський район",
      "addr:country": "KZ",
      "name:kk-Arab": "بۋراباي اۋدانى",
      "name:kk-Latn": "Bwrabaý awdanı"
    }
  },
  {
    "osm_id": -3403915,
    "boundary": "administrative",
    "admin_level": 6,
    "parents": "-215743,-214665",
    "name": "район Биржан сал",
    "local_name": "район Биржан сал",
    "name_en": null,
    "all_tags": {
      "name": "район Биржан сал",
      "name:kk": "Біржан сал ауданы",
      "name:ru": "район Биржан сал",
      "name:uk": "Біржан-сал район",
      "boundary": "administrative",
      "old_name": "Енбекшильдерский район",
      "way_area": "1.46607",
      "wikidata": "Q2565681",
      "wikipedia": "kk:Біржан сал ауданы",
      "addr:region": "Акмолинская область",
      "admin_level": "6",
      "old_name:kk": "Еңбекшілдер ауданы",
      "old_name:ru": "Енбекшильдерский район",
      "addr:country": "KZ"
    }
  },
  {
    "osm_id": -3403895,
    "boundary": "administrative",
    "admin_level": 6,
    "parents": "-215743,-214665",
    "name": "Ereymentau District",
    "local_name": "Ерейментауский район",
    "name_en": "Ereymentau District",
    "all_tags": {
      "name": "Ерейментауский район",
      "name:en": "Ereymentau District",
      "name:kk": "Ерейментау ауданы",
      "name:ru": "Ерейментауский район",
      "name:uk": "Ерейментауський район",
      "boundary": "administrative",
      "way_area": "2.32498",
      "wikidata": "Q2565654",
      "wikipedia": "ru:Ерейментауский район",
      "addr:region": "Акмолинская область",
      "admin_level": "6",
      "addr:country": "KZ"
    }
  },
  {
    "osm_id": -3403782,
    "boundary": "administrative",
    "admin_level": 6,
    "parents": "-215743,-214665",
    "name": "Аршалынский район",
    "local_name": "Аршалынский район",
    "name_en": null,
    "all_tags": {
      "name": "Аршалынский район",
      "name:kk": "Аршалы ауданы",
      "name:ru": "Аршалынский район",
      "name:uk": "Аршалинський район",
      "boundary": "administrative",
      "way_area": "0.747494",
      "wikidata": "Q2321988",
      "wikipedia": "ru:Аршалынский район",
      "addr:region": "Акмолинская область",
      "admin_level": "6",
      "addr:country": "KZ"
    }
  },
  {
    "osm_id": -3403760,
    "boundary": "administrative",
    "admin_level": 6,
    "parents": "-215743,-214665",
    "name": "Целиноградский район",
    "local_name": "Целиноградский район",
    "name_en": null,
    "all_tags": {
      "name": "Целиноградский район",
      "name:kk": "Целиноград ауданы",
      "name:ru": "Целиноградский район",
      "name:uk": "Цілиноградський район",
      "boundary": "administrative",
      "way_area": "1.01277",
      "wikidata": "Q2224859",
      "wikipedia": "ru:Целиноградский район",
      "addr:region": "Акмолинская область",
      "admin_level": "6",
      "addr:country": "KZ"
    }
  },
  {
    "osm_id": -3403743,
    "boundary": "administrative",
    "admin_level": 6,
    "parents": "-215743,-214665",
    "name": "Korgalzhyn District",
    "local_name": "Коргалжынский район",
    "name_en": "Korgalzhyn District",
    "all_tags": {
      "name": "Коргалжынский район",
      "name:en": "Korgalzhyn District",
      "name:kk": "Қорғалжын ауданы",
      "name:ru": "Коргалжынский район",
      "name:uk": "Корґалжинський район",
      "boundary": "administrative",
      "way_area": "1.17239",
      "wikidata": "Q2565586",
      "wikipedia": "ru:Коргалжынский район",
      "addr:region": "Акмолинская область",
      "admin_level": "6",
      "addr:country": "KZ"
    }
  },
  {
    "osm_id": -3403723,
    "boundary": "administrative",
    "admin_level": 6,
    "parents": "-215743,-214665",
    "name": "Егиндыкольский район",
    "local_name": "Егиндыкольский район",
    "name_en": null,
    "all_tags": {
      "name": "Егиндыкольский район",
      "name:kk": "Егіндікөл ауданы",
      "name:ru": "Егиндыкольский район",
      "name:uk": "Єґіндикольський район",
      "boundary": "administrative",
      "way_area": "0.689196",
      "wikidata": "Q2565628",
      "wikipedia": "ru:Егиндыкольский район",
      "addr:region": "Акмолинская область",
      "admin_level": "6",
      "addr:country": "KZ"
    }
  },
  {
    "osm_id": -3403694,
    "boundary": "administrative",
    "admin_level": 6,
    "parents": "-215743,-214665",
    "name": "Астраханский район",
    "local_name": "Астраханский район",
    "name_en": null,
    "all_tags": {
      "name": "Астраханский район",
      "name:kk": "Астрахан ауданы",
      "name:ru": "Астраханский район",
      "name:uk": "Астраханський район",
      "boundary": "administrative",
      "way_area": "0.954375",
      "wikidata": "Q2466344",
      "wikipedia": "ru:Астраханский район",
      "addr:region": "Акмолинская область",
      "admin_level": "6",
      "addr:country": "KZ"
    }
  },
  {
    "osm_id": -3403636,
    "boundary": "administrative",
    "admin_level": 6,
    "parents": "-215743,-214665",
    "name": "Жаркаинский район",
    "local_name": "Жаркаинский район",
    "name_en": null,
    "all_tags": {
      "name": "Жаркаинский район",
      "name:kk": "Жарқайың ауданы",
      "name:ru": "Жаркаинский район",
      "name:uk": "Жаркаїнський район",
      "boundary": "administrative",
      "way_area": "1.53909",
      "wikidata": "Q2556274",
      "wikipedia": "ru:Жаркаинский район",
      "addr:region": "Акмолинская область",
      "admin_level": "6",
      "addr:country": "KZ"
    }
  },
  {
    "osm_id": -3403602,
    "boundary": "administrative",
    "admin_level": 6,
    "parents": "-215743,-214665",
    "name": "Атбасарский район",
    "local_name": "Атбасарский район",
    "name_en": null,
    "all_tags": {
      "name": "Атбасарский район",
      "name:kk": "Атбасар ауданы",
      "name:ru": "Атбасарский район",
      "name:uk": "Атбасарський район",
      "boundary": "administrative",
      "way_area": "1.37107",
      "wikidata": "Q4812946",
      "wikipedia": "ru:Атбасарский район",
      "addr:region": "Акмолинская область",
      "admin_level": "6",
      "addr:country": "KZ"
    }
  },
  {
    "osm_id": -3403595,
    "boundary": "administrative",
    "admin_level": 6,
    "parents": "-215743,-214665",
    "name": "Жаксынский район",
    "local_name": "Жаксынский район",
    "name_en": null,
    "all_tags": {
      "name": "Жаксынский район",
      "name:kk": "Жақсы ауданы",
      "name:ru": "Жаксынский район",
      "name:uk": "Жаксинський район",
      "boundary": "administrative",
      "way_area": "1.26029",
      "wikidata": "Q2605063",
      "wikipedia": "ru:Жаксынский район",
      "addr:region": "Акмолинская область",
      "admin_level": "6",
      "addr:country": "KZ"
    }
  },
  {
    "osm_id": -3403444,
    "boundary": "administrative",
    "admin_level": 6,
    "parents": "-215743,-214665",
    "name": "Zerendi District",
    "local_name": "Зерендинский район",
    "name_en": "Zerendi District",
    "all_tags": {
      "name": "Зерендинский район",
      "name:en": "Zerendi District",
      "name:kk": "Зеренді ауданы",
      "name:ru": "Зерендинский район",
      "name:uk": "Зерендинський район",
      "boundary": "administrative",
      "way_area": "1.05415",
      "wikidata": "Q2556291",
      "wikipedia": "ru:Зерендинский район",
      "addr:region": "Акмолинская область",
      "admin_level": "6",
      "addr:country": "KZ"
    }
  },
  {
    "osm_id": -3403437,
    "boundary": "administrative",
    "admin_level": 6,
    "parents": "-215743,-214665",
    "name": "Аккольский район",
    "local_name": "Аккольский район",
    "name_en": null,
    "all_tags": {
      "name": "Аккольский район",
      "name:kk": "Ақкөл ауданы",
      "name:ru": "Аккольский район",
      "name:uk": "Аккольський район",
      "boundary": "administrative",
      "way_area": "1.22608",
      "wikidata": "Q2456359",
      "wikipedia": "ru:Аккольский район",
      "addr:region": "Акмолинская область",
      "admin_level": "6",
      "addr:country": "KZ"
    }
  },
  {
    "osm_id": -3403342,
    "boundary": "administrative",
    "admin_level": 6,
    "parents": "-215743,-214665",
    "name": "Esil District",
    "local_name": "Есильский район",
    "name_en": "Esil District",
    "all_tags": {
      "name": "Есильский район",
      "name:en": "Esil District",
      "name:kk": "Есіл ауданы",
      "name:ru": "Есильский район",
      "name:uk": "Єсільський район",
      "boundary": "administrative",
      "way_area": "1.03969",
      "wikidata": "Q2565577",
      "wikipedia": "ru:Есильский район (Акмолинская область)",
      "addr:region": "Акмолинская область",
      "admin_level": "6",
      "addr:country": "KZ"
    }
  },
  {
    "osm_id": -3397460,
    "boundary": "administrative",
    "admin_level": 6,
    "parents": "-215683,-214665",
    "name": "Shalkar District",
    "local_name": "Шалкарский район",
    "name_en": "Shalkar District",
    "all_tags": {
      "name": "Шалкарский район",
      "name:en": "Shalkar District",
      "name:kk": "Шалқар ауданы",
      "name:ru": "Шалкарский район",
      "name:uk": "Шалкарський район",
      "boundary": "administrative",
      "way_area": "7.39409",
      "wikidata": "Q980931",
      "wikipedia": "ru:Шалкарский район",
      "addr:region": "Актюбинская область",
      "admin_level": "6",
      "addr:country": "KZ"
    }
  },
  {
    "osm_id": -3397459,
    "boundary": "administrative",
    "admin_level": 6,
    "parents": "-215683,-214665",
    "name": "Khromtau District",
    "local_name": "Хромтауский район",
    "name_en": "Khromtau District",
    "all_tags": {
      "name": "Хромтауский район",
      "name:en": "Khromtau District",
      "name:kk": "Хромтау ауданы",
      "name:ru": "Хромтауский район",
      "boundary": "administrative",
      "way_area": "1.58967",
      "wikidata": "Q2550426",
      "wikipedia": "ru:Хромтауский район",
      "addr:region": "Актюбинская область",
      "admin_level": "6",
      "addr:country": "KZ"
    }
  },
  {
    "osm_id": -3397458,
    "boundary": "administrative",
    "admin_level": 6,
    "parents": "-215683,-214665",
    "name": "Kobda District",
    "local_name": "Хобдинский район",
    "name_en": "Kobda District",
    "all_tags": {
      "name": "Хобдинский район",
      "name:en": "Kobda District",
      "name:ru": "Хобдинский район",
      "name:uk": "Хобдинський район",
      "boundary": "administrative",
      "way_area": "1.75238",
      "wikidata": "Q2737287",
      "wikipedia": "ru:Хобдинский район",
      "addr:region": "Актюбинская область",
      "admin_level": "6",
      "addr:country": "KZ"
    }
  },
  {
    "osm_id": -3397457,
    "boundary": "administrative",
    "admin_level": 6,
    "parents": "-215683,-214665",
    "name": "Oiyl District",
    "local_name": "Уилский район",
    "name_en": "Oiyl District",
    "all_tags": {
      "name": "Уилский район",
      "name:en": "Oiyl District",
      "name:kk": "Ойыл ауданы",
      "name:ru": "Уилский район",
      "name:uk": "Уїльський район",
      "boundary": "administrative",
      "way_area": "1.35189",
      "wikidata": "Q2550333",
      "wikipedia": "ru:Уилский район",
      "addr:region": "Актюбинская область",
      "admin_level": "6",
      "addr:country": "KZ"
    }
  },
  {
    "osm_id": -3397456,
    "boundary": "administrative",
    "admin_level": 6,
    "parents": "-215683,-214665",
    "name": "Temir District",
    "local_name": "Темирский район",
    "name_en": "Temir District",
    "all_tags": {
      "name": "Темирский район",
      "name:en": "Temir District",
      "name:kk": "Темір ауданы",
      "name:ru": "Темирский район",
      "name:uk": "Темірський район",
      "boundary": "administrative",
      "way_area": "1.54564",
      "wikidata": "Q2550391",
      "wikipedia": "ru:Темирский район",
      "addr:region": "Актюбинская область",
      "admin_level": "6",
      "addr:country": "KZ"
    }
  },
  {
    "osm_id": -3397455,
    "boundary": "administrative",
    "admin_level": 6,
    "parents": "-215683,-214665",
    "name": "Mugalzhar District",
    "local_name": "Мугалжарский район",
    "name_en": "Mugalzhar District",
    "all_tags": {
      "name": "Мугалжарский район",
      "name:en": "Mugalzhar District",
      "name:kk": "Мұғалжар ауданы",
      "name:ru": "Мугалжарский район",
      "boundary": "administrative",
      "way_area": "3.60764",
      "wikidata": "Q2550369",
      "wikipedia": "ru:Мугалжарский район",
      "addr:region": "Актюбинская область",
      "admin_level": "6",
      "addr:country": "KZ"
    }
  },
  {
    "osm_id": -3397454,
    "boundary": "administrative",
    "admin_level": 6,
    "parents": "-215683,-214665",
    "name": "Martuk District",
    "local_name": "Мартукский район",
    "name_en": "Martuk District",
    "all_tags": {
      "name": "Мартукский район",
      "name:en": "Martuk District",
      "name:kk": "Мартөк ауданы",
      "name:ru": "Мартукский район",
      "boundary": "administrative",
      "way_area": "0.822496",
      "wikidata": "Q2550413",
      "wikipedia": "ru:Мартукский район",
      "addr:region": "Актюбинская область",
      "admin_level": "6",
      "addr:country": "KZ"
    }
  },
  {
    "osm_id": -3397453,
    "boundary": "administrative",
    "admin_level": 6,
    "parents": "-215683,-214665",
    "name": "Kargaly District",
    "local_name": "Каргалинский район",
    "name_en": "Kargaly District",
    "all_tags": {
      "name": "Каргалинский район",
      "name:en": "Kargaly District",
      "name:kk": "Қарғалы ауданы",
      "name:ru": "Каргалинский район",
      "boundary": "administrative",
      "way_area": "0.630828",
      "wikidata": "Q2550358",
      "wikipedia": "ru:Каргалинский район",
      "addr:region": "Актюбинская область",
      "admin_level": "6",
      "addr:country": "KZ"
    }
  },
  {
    "osm_id": -3397452,
    "boundary": "administrative",
    "admin_level": 6,
    "parents": "-215683,-214665",
    "name": "Yrgyz District",
    "local_name": "Иргизский район",
    "name_en": "Yrgyz District",
    "all_tags": {
      "name": "Иргизский район",
      "name:en": "Yrgyz District",
      "name:kk": "Ырғыз ауданы",
      "name:ru": "Иргизский район",
      "name:uk": "Ірґізький район",
      "boundary": "administrative",
      "way_area": "5.09909",
      "wikidata": "Q2550383",
      "wikipedia": "ru:Иргизский район",
      "addr:region": "Актюбинская область",
      "admin_level": "6",
      "addr:country": "KZ"
    }
  },
  {
    "osm_id": -3397451,
    "boundary": "administrative",
    "admin_level": 6,
    "parents": "-215683,-214665",
    "name": "Bayganin District",
    "local_name": "Байганинский район",
    "name_en": "Bayganin District",
    "all_tags": {
      "name": "Байганинский район",
      "name:en": "Bayganin District",
      "name:kk": "Байғанин ауданы",
      "name:ru": "Байганинский район",
      "name:uk": "Байґанінський район",
      "boundary": "administrative",
      "way_area": "7.13714",
      "wikidata": "Q2115182",
      "wikipedia": "ru:Байганинский район",
      "addr:region": "Актюбинская область",
      "admin_level": "6",
      "addr:country": "KZ"
    }
  },
  {
    "osm_id": -3397450,
    "boundary": "administrative",
    "admin_level": 6,
    "parents": "-215683,-214665",
    "name": "Ayteke Bi District",
    "local_name": "Айтекебийский район",
    "name_en": "Ayteke Bi District",
    "all_tags": {
      "name": "Айтекебийский район",
      "name:en": "Ayteke Bi District",
      "name:kk": "Әйтеке би ауданы",
      "name:ru": "Айтекебийский район",
      "boundary": "administrative",
      "way_area": "4.54294",
      "wikidata": "Q1209360",
      "wikipedia": "ru:Айтекебийский район",
      "addr:region": "Актюбинская область",
      "admin_level": "6",
      "addr:country": "KZ"
    }
  },
  {
    "osm_id": -3396852,
    "boundary": "administrative",
    "admin_level": 6,
    "parents": "-215727,-214665",
    "name": "Кызылорда Г.А.",
    "local_name": "Кызылорда Г.А.",
    "name_en": null,
    "all_tags": {
      "name": "Кызылорда Г.А.",
      "name:kk": "Қызылорда Қ.Ә.",
      "name:ru": "Кызылорда Г.А.",
      "name:uk": "Кизилорда державна адміністрація",
      "boundary": "administrative",
      "way_area": "0.274201",
      "wikidata": "Q491123",
      "wikipedia": "ru:Кызылорда",
      "addr:region": "Кызылординская область",
      "admin_level": "6",
      "addr:country": "KZ"
    }
  },
  {
    "osm_id": -3395778,
    "boundary": "administrative",
    "admin_level": 6,
    "parents": "-215699,-214665",
    "name": "Shemonaikha District",
    "local_name": "Шемонаихинский район",
    "name_en": "Shemonaikha District",
    "all_tags": {
      "name": "Шемонаихинский район",
      "name:en": "Shemonaikha District",
      "name:fr": "district de Chemonaikha",
      "name:kk": "Шемонаиха ауданы",
      "name:ru": "Шемонаихинский район",
      "name:uk": "Шемонаїхинський район",
      "boundary": "administrative",
      "way_area": "0.507198",
      "wikidata": "Q2466428",
      "wikipedia": "ru:Шемонаихинский район",
      "start_date": "1928-01-17",
      "addr:region": "Восточно-Казахстанская область",
      "admin_level": "6",
      "addr:country": "KZ"
    }
  },
  {
    "osm_id": -3395777,
    "boundary": "administrative",
    "admin_level": 6,
    "parents": "-215699,-214665",
    "name": "Urzhar District",
    "local_name": "Урджарский район",
    "name_en": "Urzhar District",
    "all_tags": {
      "name": "Урджарский район",
      "name:en": "Urzhar District",
      "name:fr": "district d’Urjar",
      "name:kk": "Үржар ауданы",
      "name:ru": "Урджарский район",
      "name:uk": "Урджарський район",
      "boundary": "administrative",
      "way_area": "2.88412",
      "wikidata": "Q2550803",
      "wikipedia": "ru:Урджарский район",
      "addr:region": "Восточно-Казахстанская область",
      "admin_level": "6",
      "addr:country": "KZ"
    }
  },
  {
    "osm_id": -3395776,
    "boundary": "administrative",
    "admin_level": 6,
    "parents": "-215699,-214665",
    "name": "Ulan District",
    "local_name": "Уланский район",
    "name_en": "Ulan District",
    "all_tags": {
      "name": "Уланский район",
      "name:en": "Ulan District",
      "name:fr": "district d’Ulan",
      "name:kk": "Ұлан ауданы",
      "name:ru": "Уланский район",
      "name:uk": "Уланський райо́н",
      "boundary": "administrative",
      "way_area": "1.17889",
      "wikidata": "Q2550757",
      "wikipedia": "ru:Уланский район",
      "addr:region": "Восточно-Казахстанская область",
      "admin_level": "6",
      "addr:country": "KZ"
    }
  },
  {
    "osm_id": -3395775,
    "boundary": "administrative",
    "admin_level": 6,
    "parents": "-215699,-214665",
    "name": "Tarbagatay District",
    "local_name": "Тарбагатайский район",
    "name_en": "Tarbagatay District",
    "all_tags": {
      "name": "Тарбагатайский район",
      "name:en": "Tarbagatay District",
      "name:fr": "district de Tarbagataï",
      "name:kk": "Тарбағатай ауданы",
      "name:ru": "Тарбагатайский район",
      "name:uk": "Тарбаґатайський район",
      "boundary": "administrative",
      "way_area": "2.86393",
      "wikidata": "Q613774",
      "wikipedia": "ru:Тарбагатайский район (Восточно-Казахстанская область)",
      "addr:region": "Восточно-Казахстанская область",
      "admin_level": "6",
      "addr:country": "KZ"
    }
  },
  {
    "osm_id": -3395774,
    "boundary": "administrative",
    "admin_level": 6,
    "parents": "-215699,-214665",
    "name": "Kurshim District",
    "local_name": "Курчумский район",
    "name_en": "Kurshim District",
    "all_tags": {
      "name": "Курчумский район",
      "name:en": "Kurshim District",
      "name:fr": "district de Kourchim",
      "name:kk": "Күршім ауданы",
      "name:ru": "Курчумский район",
      "name:uk": "Курчумський район",
      "boundary": "administrative",
      "way_area": "2.8233",
      "wikidata": "Q2550784",
      "wikipedia": "kk:Күршім ауданы",
      "addr:region": "Восточно-Казахстанская область",
      "admin_level": "6",
      "addr:country": "KZ"
    }
  },
  {
    "osm_id": -3395773,
    "boundary": "administrative",
    "admin_level": 6,
    "parents": "-215699,-214665",
    "name": "Kokpekti District",
    "local_name": "Кокпектинский район",
    "name_en": "Kokpekti District",
    "all_tags": {
      "name": "Кокпектинский район",
      "name:en": "Kokpekti District",
      "name:fr": "district de Kokpekti",
      "name:kk": "Көкпекті ауданы",
      "name:ru": "Кокпектинский район",
      "name:uk": "Кокпектинський район",
      "boundary": "administrative",
      "way_area": "1.73143",
      "wikidata": "Q2550775",
      "wikipedia": "ru:Кокпектинский район",
      "addr:region": "Восточно-Казахстанская область",
      "admin_level": "6",
      "addr:country": "KZ"
    }
  },
  {
    "osm_id": -3395772,
    "boundary": "administrative",
    "admin_level": 6,
    "parents": "-215699,-214665",
    "name": "Katonkaragay District",
    "local_name": "Катон-Карагайский район",
    "name_en": "Katonkaragay District",
    "all_tags": {
      "name": "Катон-Карагайский район",
      "name:en": "Katonkaragay District",
      "name:fr": "district de Katonkaragaï",
      "name:kk": "Катонқарағай ауданы",
      "name:ru": "Катон-Карагайский район",
      "name:uk": "Катон-Караґайський район",
      "boundary": "administrative",
      "way_area": "1.65021",
      "wikidata": "Q2550792",
      "wikipedia": "ru:Катон-Карагайский район",
      "addr:region": "Восточно-Казахстанская область",
      "admin_level": "6",
      "addr:country": "KZ"
    }
  },
  {
    "osm_id": -3395771,
    "boundary": "administrative",
    "admin_level": 6,
    "parents": "-215699,-214665",
    "name": "Altai District",
    "local_name": "Алтайский район",
    "name_en": "Altai District",
    "all_tags": {
      "name": "Алтайский район",
      "name:en": "Altai District",
      "name:fr": "district d'Altay",
      "name:kk": "Алтай ауданы",
      "name:ru": "Алтайский район",
      "name:uk": "Алтайський район",
      "boundary": "administrative",
      "old_name": "Зыряновский район;Зырян ауданы",
      "way_area": "1.3081",
      "wikidata": "Q2664367",
      "wikipedia": "ru:Алтайский район (Восточно-Казахстанская область)",
      "addr:region": "Восточно-Казахстанская область",
      "admin_level": "6",
      "addr:country": "KZ"
    }
  },
  {
    "osm_id": -3395770,
    "boundary": "administrative",
    "admin_level": 6,
    "parents": "-215699,-214665",
    "name": "Zharma District",
    "local_name": "Жарминский район",
    "name_en": "Zharma District",
    "all_tags": {
      "name": "Жарминский район",
      "name:en": "Zharma District",
      "name:kk": "Жарма ауданы",
      "name:ru": "Жарминский район",
      "name:uk": "Жарминський район",
      "boundary": "administrative",
      "way_area": "2.75287",
      "wikidata": "Q2726381",
      "wikipedia": "ru:Жарминский район",
      "addr:region": "Восточно-Казахстанская область",
      "admin_level": "6",
      "addr:country": "KZ"
    }
  },
  {
    "osm_id": -3395769,
    "boundary": "administrative",
    "admin_level": 6,
    "parents": "-215699,-214665",
    "name": "Glubokoe District",
    "local_name": "Глубоковский район",
    "name_en": "Glubokoe District",
    "all_tags": {
      "name": "Глубоковский район",
      "name:en": "Glubokoe District",
      "name:fr": "district de Glubokoe",
      "name:kk": "Глубокое ауданы",
      "name:ru": "Глубоковский район",
      "name:uk": "Глибоківський район",
      "boundary": "administrative",
      "way_area": "0.914021",
      "wikidata": "Q893317",
      "wikipedia": "ru:Глубоковский район",
      "addr:region": "Восточно-Казахстанская область",
      "admin_level": "6",
      "addr:country": "KZ"
    }
  },
  {
    "osm_id": -3395768,
    "boundary": "administrative",
    "admin_level": 6,
    "parents": "-215699,-214665",
    "name": "Borodulikha District",
    "local_name": "Бородулихинский район",
    "name_en": "Borodulikha District",
    "all_tags": {
      "name": "Бородулихинский район",
      "name:en": "Borodulikha District",
      "name:fr": "district de Borodulikha",
      "name:kk": "Бородулиха ауданы",
      "name:ru": "Бородулихинский район",
      "name:uk": "Бородуліхинський район",
      "boundary": "administrative",
      "way_area": "0.887529",
      "wikidata": "Q2550746",
      "wikipedia": "ru:Бородулихинский район",
      "addr:region": "Восточно-Казахстанская область",
      "admin_level": "6",
      "addr:country": "KZ"
    }
  },
  {
    "osm_id": -3395767,
    "boundary": "administrative",
    "admin_level": 6,
    "parents": "-215699,-214665",
    "name": "Beskaragay District",
    "local_name": "Бескарагайский район",
    "name_en": "Beskaragay District",
    "all_tags": {
      "name": "Бескарагайский район",
      "name:en": "Beskaragay District",
      "name:fr": "district de Beskaragaï",
      "name:kk": "Бесқарағай ауданы",
      "name:ru": "Бескарагайский район",
      "name:uk": "Бескараґайський район",
      "boundary": "administrative",
      "way_area": "1.457",
      "wikidata": "Q2466416",
      "wikipedia": "ru:Бескарагайский район",
      "addr:region": "Восточно-Казахстанская область",
      "admin_level": "6",
      "addr:country": "KZ"
    }
  },
  {
    "osm_id": -3395766,
    "boundary": "administrative",
    "admin_level": 6,
    "parents": "-215699,-214665",
    "name": "Ayagoz District",
    "local_name": "Аягозский район",
    "name_en": "Ayagoz District",
    "all_tags": {
      "name": "Аягозский район",
      "name:en": "Ayagoz District",
      "name:fr": "district d'Aïagouz",
      "name:kk": "Аягөз ауданы",
      "name:ru": "Аягозский район",
      "name:uk": "Аягозький район",
      "boundary": "administrative",
      "way_area": "5.73574",
      "wikidata": "Q2550754",
      "wikipedia": "ru:Аягозский район",
      "addr:region": "Восточно-Казахстанская область",
      "admin_level": "6",
      "addr:country": "KZ"
    }
  },
  {
    "osm_id": -3395765,
    "boundary": "administrative",
    "admin_level": 6,
    "parents": "-215699,-214665",
    "name": "Abay District",
    "local_name": "Абайский район",
    "name_en": "Abay District",
    "all_tags": {
      "name": "Абайский район",
      "name:en": "Abay District",
      "name:fr": "district d'Abaï",
      "name:kk": "Абай ауданы",
      "name:ru": "Абайский район",
      "name:uk": "Аба́йський райо́н",
      "boundary": "administrative",
      "way_area": "2.47279",
      "wikidata": "Q1099244",
      "wikipedia": "ru:Абайский район (Восточно-Казахстанская область)",
      "addr:region": "Восточно-Казахстанская область",
      "admin_level": "6",
      "addr:country": "KZ"
    }
  },
  {
    "osm_id": -3392135,
    "boundary": "administrative",
    "admin_level": 6,
    "parents": "-215718,-214665",
    "name": "Талдыкорган Г.А.",
    "local_name": "Талдыкорган Г.А.",
    "name_en": null,
    "all_tags": {
      "kato": "191000000",
      "name": "Талдыкорган Г.А.",
      "name:kk": "Талдықорған Қ.Ә.",
      "name:ru": "Талдыкорган Г.А.",
      "boundary": "administrative",
      "way_area": "0.0440794",
      "wikidata": "Q491102",
      "wikipedia": "ru:Талдыкорган",
      "addr:region": "Алматинская область",
      "admin_level": "6",
      "addr:country": "KZ"
    }
  },
  {
    "osm_id": -3390291,
    "boundary": "administrative",
    "admin_level": 6,
    "parents": "-2465058,-214665",
    "name": "Бостандыкский район",
    "local_name": "Бостандыкский район",
    "name_en": null,
    "all_tags": {
      "name": "Бостандыкский район",
      "name:ru": "Бостандыкский район",
      "boundary": "administrative",
      "way_area": "0.0109113",
      "wikidata": "Q16627789",
      "wikipedia": "ru:Бостандыкский район",
      "addr:region": "Алматы",
      "admin_level": "6",
      "addr:country": "KZ"
    }
  },
  {
    "osm_id": -3389772,
    "boundary": "administrative",
    "admin_level": 4,
    "parents": "-214665",
    "name": "Shymkent",
    "local_name": "Шымкент",
    "name_en": "Shymkent",
    "all_tags": {
      "name": "Шымкент",
      "name:ar": "شيمكنت",
      "name:en": "Shymkent",
      "name:fr": "Chimkent",
      "name:kk": "Шымкент",
      "name:pl": "Szymkent",
      "name:ru": "Шымкент",
      "boundary": "administrative",
      "way_area": "0.127207",
      "wikidata": "Q485496",
      "ISO3166-2": "KZ-SHY",
      "wikipedia": "ru:Шымкент",
      "admin_level": "4",
      "addr:country": "KZ",
      "description:ru": "уровень области по административному делению (КАТО)"
    }
  },
  {
    "osm_id": -3389569,
    "boundary": "administrative",
    "admin_level": 6,
    "parents": "-215699,-214665",
    "name": "Усть-Каменогорск Г.А.",
    "local_name": "Усть-Каменогорск Г.А.",
    "name_en": null,
    "all_tags": {
      "name": "Усть-Каменогорск Г.А.",
      "name:kk": "өскемен қ.ә.",
      "name:ru": "Усть-Каменогорск Г.А.",
      "name:uk": "Усть-Камєноґорск державна адміністрація",
      "boundary": "administrative",
      "way_area": "0.0742452",
      "wikidata": "Q162548",
      "wikipedia": "ru:Усть-Каменогорск",
      "addr:region": "Восточно-Казахстанская область",
      "admin_level": "6",
      "addr:country": "KZ"
    }
  },
  {
    "osm_id": -3389552,
    "boundary": "administrative",
    "admin_level": 6,
    "parents": "-215699,-214665",
    "name": "Городская администрация Семей",
    "local_name": "Городская администрация Семей",
    "name_en": null,
    "all_tags": {
      "name": "Городская администрация Семей",
      "name:kk": "Семей қала әкімшілігі",
      "name:ru": "Городская администрация Семей",
      "name:uk": "Семей міська адміністрація",
      "alt_name": "Семей городской акимат",
      "boundary": "administrative",
      "way_area": "3.62455",
      "wikidata": "Q61944",
      "wikipedia": "ru:Семей",
      "addr:region": "Восточно-Казахстанская область",
      "admin_level": "6",
      "addr:country": "KZ"
    }
  },
  {
    "osm_id": -3389550,
    "boundary": "administrative",
    "admin_level": 6,
    "parents": "-215699,-214665",
    "name": "Городская администрация Риддера",
    "local_name": "Городская администрация Риддера",
    "name_en": null,
    "all_tags": {
      "name": "Городская администрация Риддера",
      "name:kk": "Риддер қалалық әкімдігі",
      "name:ru": "Городская администрация Риддера",
      "name:uk": "Ріддер міська адміністрація",
      "alt_name": "Риддер городской акимат",
      "boundary": "administrative",
      "way_area": "0.429463",
      "wikidata": "Q986100",
      "wikipedia": "ru:Риддер",
      "addr:region": "Восточно-Казахстанская область",
      "admin_level": "6",
      "addr:country": "KZ"
    }
  },
  {
    "osm_id": -3389541,
    "boundary": "administrative",
    "admin_level": 6,
    "parents": "-214834,-214665",
    "name": "Атырау Г.А.",
    "local_name": "Атырау Г.А.",
    "name_en": null,
    "all_tags": {
      "name": "Атырау Г.А.",
      "name:kk": "Атырау қ.ә.",
      "name:ru": "Атырау Г.А.",
      "boundary": "administrative",
      "way_area": "0.68541",
      "wikidata": "Q486913",
      "wikipedia": "ru:Атырау",
      "population": "355117",
      "addr:region": "Атырауская область",
      "admin_level": "6",
      "addr:country": "KZ"
    }
  },
  {
    "osm_id": -3389531,
    "boundary": "administrative",
    "admin_level": 6,
    "parents": "-215683,-214665",
    "name": "Актобе Г.А.",
    "local_name": "Актобе Г.А.",
    "name_en": null,
    "all_tags": {
      "name": "Актобе Г.А.",
      "name:kk": "Ақтөбе қ.ә.",
      "name:ru": "Актобе Г.А.",
      "boundary": "administrative",
      "way_area": "0.302989",
      "wikidata": "Q477232",
      "wikipedia": "ru:Актобе",
      "admin_level": "6"
    }
  },
  {
    "osm_id": -3388834,
    "boundary": "administrative",
    "admin_level": 6,
    "parents": "-215722,-214665",
    "name": "Тараз Г.А.",
    "local_name": "Тараз Г.А.",
    "name_en": null,
    "all_tags": {
      "name": "Тараз Г.А.",
      "name:kk": "Тараз Қ.Ә.",
      "name:ru": "Тараз Г.А.",
      "boundary": "administrative",
      "way_area": "0.016227",
      "wikipedia": "ru:Тараз",
      "admin_level": "6"
    }
  },
  {
    "osm_id": -3388823,
    "boundary": "administrative",
    "admin_level": 6,
    "parents": "-215722,-214665",
    "name": "Talas District",
    "local_name": "Таласский район",
    "name_en": "Talas District",
    "all_tags": {
      "name": "Таласский район",
      "name:en": "Talas District",
      "name:kk": "Талас ауданы",
      "name:ru": "Таласский район",
      "name:uk": "Таласький район",
      "boundary": "administrative",
      "way_area": "1.34524",
      "wikidata": "Q2422636",
      "wikipedia": "ru:Таласский район (Жамбылская область)",
      "admin_level": "6",
      "name:kk-Arab": "تالاس اۋدانى",
      "name:kk-Latn": "Talas awdanı"
    }
  },
  {
    "osm_id": -3388762,
    "boundary": "administrative",
    "admin_level": 6,
    "parents": "-215722,-214665",
    "name": "Жуалынский район",
    "local_name": "Жуалынский район",
    "name_en": null,
    "all_tags": {
      "name": "Жуалынский район",
      "name:kk": "Жуалы ауданы",
      "name:ru": "Жуалынский район",
      "boundary": "administrative",
      "way_area": "0.462443",
      "wikidata": "Q2549660",
      "wikipedia": "ru:Жуалынский район",
      "admin_level": "6"
    }
  },
  {
    "osm_id": -3388761,
    "boundary": "administrative",
    "admin_level": 6,
    "parents": "-215722,-214665",
    "name": "Жамбылский район",
    "local_name": "Жамбылский район",
    "name_en": null,
    "all_tags": {
      "name": "Жамбылский район",
      "name:kk": "Жамбыл ауданы",
      "name:ru": "Жамбылский район",
      "boundary": "administrative",
      "way_area": "0.46948",
      "wikidata": "Q2549654",
      "wikipedia": "ru:Жамбылский район (Жамбылская область)",
      "admin_level": "6"
    }
  },
  {
    "osm_id": -3388760,
    "boundary": "administrative",
    "admin_level": 6,
    "parents": "-215722,-214665",
    "name": "Байзакский район",
    "local_name": "Байзакский район",
    "name_en": null,
    "all_tags": {
      "name": "Байзакский район",
      "name:kk": "Байзақ ауданы",
      "name:ru": "Байзакский район",
      "boundary": "administrative",
      "way_area": "0.512465",
      "wikidata": "Q2549636",
      "wikipedia": "ru:Байзакский район",
      "admin_level": "6"
    }
  },
  {
    "osm_id": -3388744,
    "boundary": "administrative",
    "admin_level": 6,
    "parents": "-215743,-214665",
    "name": "Кокшетау Г.А.",
    "local_name": "Кокшетау Г.А.",
    "name_en": null,
    "all_tags": {
      "name": "Кокшетау Г.А.",
      "name:kk": "Көкшетау Қ.Ә.",
      "name:ru": "Кокшетау Г.А.",
      "boundary": "administrative",
      "way_area": "0.0525769",
      "wikidata": "Q490643",
      "wikipedia": "ru:Кокшетау",
      "addr:region": "Акмолинская область",
      "admin_level": "6",
      "addr:country": "KZ"
    }
  },
  {
    "osm_id": -3388702,
    "boundary": "administrative",
    "admin_level": 6,
    "parents": "-215722,-214665",
    "name": "Turar Ryskulov District",
    "local_name": "район Турара Рыскулова",
    "name_en": "Turar Ryskulov District",
    "all_tags": {
      "name": "район Турара Рыскулова",
      "name:en": "Turar Ryskulov District",
      "name:kk": "Тұрар Рысқұлов ауданы",
      "name:ru": "район Турара Рыскулова",
      "name:uk": "Турара Рискулова район",
      "boundary": "administrative",
      "way_area": "1.00495",
      "wikidata": "Q731355",
      "wikipedia": "ru:Район имени Т. Рыскулова",
      "admin_level": "6",
      "name:kk-Arab": "سارىسۋ اۋدانى"
    }
  },
  {
    "osm_id": -3388694,
    "boundary": "administrative",
    "admin_level": 6,
    "parents": "-215722,-214665",
    "name": "Меркенский район",
    "local_name": "Меркенский район",
    "name_en": null,
    "all_tags": {
      "name": "Меркенский район",
      "name:kk": "Мерке ауданы",
      "name:ru": "Меркенский район",
      "name:uk": "Меркенський район",
      "boundary": "administrative",
      "way_area": "0.780327",
      "wikidata": "Q2549670",
      "wikipedia": "ru:Меркенский район",
      "admin_level": "6",
      "name:kk-Arab": "مەركى اۋدانى",
      "name:kk-Latn": "Merki awdanı"
    }
  },
  {
    "osm_id": -3388660,
    "boundary": "administrative",
    "admin_level": 6,
    "parents": "-215722,-214665",
    "name": "Кордайский район",
    "local_name": "Кордайский район",
    "name_en": null,
    "all_tags": {
      "name": "Кордайский район",
      "name:kk": "Қордай ауданы",
      "name:ru": "Кордайский район",
      "boundary": "administrative",
      "way_area": "0.99659",
      "wikidata": "Q2554520",
      "wikipedia": "ru:Кордайский район",
      "admin_level": "6"
    }
  },
  {
    "osm_id": -3388481,
    "boundary": "administrative",
    "admin_level": 6,
    "parents": "-215722,-214665",
    "name": "Шуский район",
    "local_name": "Шуский район",
    "name_en": null,
    "all_tags": {
      "name": "Шуский район",
      "name:kk": "Шу ауданы",
      "name:ru": "Шуский район",
      "name:uk": "Шуський район",
      "boundary": "administrative",
      "way_area": "1.33144",
      "wikidata": "Q2422652",
      "wikipedia": "ru:Шуский район",
      "admin_level": "6",
      "name:kk-Arab": "شۋ اۋدانى",
      "name:kk-Latn": "Şw awdanı"
    }
  },
  {
    "osm_id": -3388414,
    "boundary": "administrative",
    "admin_level": 6,
    "parents": "-215722,-214665",
    "name": "Moiynkum District",
    "local_name": "Мойынкумский район",
    "name_en": "Moiynkum District",
    "all_tags": {
      "name": "Мойынкумский район",
      "name:en": "Moiynkum District",
      "name:kk": "Мойынқұм ауданы",
      "name:ru": "Мойынкумский район",
      "name:uk": "Мойинкумський район",
      "boundary": "administrative",
      "way_area": "5.63065",
      "wikidata": "Q2549644",
      "wikipedia": "ru:Мойынкумский район",
      "admin_level": "6",
      "name:kk-Arab": "مويىنقۇم اۋدانى",
      "name:kk-Latn": "Moýınqum awdanı"
    }
  },
  {
    "osm_id": -3388218,
    "boundary": "administrative",
    "admin_level": 6,
    "parents": "-215722,-214665",
    "name": "Sarysu District",
    "local_name": "Сарысуский район",
    "name_en": "Sarysu District",
    "all_tags": {
      "name": "Сарысуский район",
      "name:en": "Sarysu District",
      "name:kk": "Сарысу ауданы",
      "name:ru": "Сарысуский район",
      "name:uk": "Сарисуський район",
      "boundary": "administrative",
      "way_area": "3.72471",
      "wikidata": "Q2321974",
      "wikipedia": "ru:Сарысуский район",
      "admin_level": "6",
      "name:kk-Arab": "سارىسۋ اۋدانى",
      "name:kk-Latn": "Sarısw awdanı"
    }
  },
  {
    "osm_id": -3386005,
    "boundary": "administrative",
    "admin_level": 6,
    "parents": "-215776,-214665",
    "name": "Караганда Г.А.",
    "local_name": "Караганда Г.А.",
    "name_en": null,
    "all_tags": {
      "kato": "351000000",
      "name": "Караганда Г.А.",
      "name:kk": "Қарағанды Қ.Ә.",
      "name:ru": "Караганда Г.А.",
      "name:uk": "Караґанда державна адміністрація",
      "boundary": "administrative",
      "name:en1": "Karaganda",
      "name:en2": "Qaraghandy",
      "way_area": "0.062443",
      "wikidata": "Q484706",
      "wikipedia": "de:Qaraghandy",
      "addr:region": "Карагандинская область",
      "admin_level": "6",
      "addr:country": "KZ"
    }
  },
  {
    "osm_id": -3383468,
    "boundary": "administrative",
    "admin_level": 6,
    "parents": "-215699,-214665",
    "name": "Zaysan District",
    "local_name": "Зайсанский район",
    "name_en": "Zaysan District",
    "all_tags": {
      "name": "Зайсанский район",
      "name:bg": "Зайсански район",
      "name:en": "Zaysan District",
      "name:it": "Distretto di Zajsan",
      "name:kk": "Зайсан ауданы",
      "name:mk": "Зајсан (округ)",
      "name:ms": "Daerah Zaysan",
      "name:ru": "Зайсанский район",
      "name:uk": "Зайсанський район",
      "boundary": "administrative",
      "way_area": "1.2102",
      "wikidata": "Q2726370",
      "wikipedia": "kk:Зайсан ауданы",
      "addr:region": "Восточно-Казахстанская область",
      "admin_level": "6",
      "addr:country": "KZ"
    }
  },
  {
    "osm_id": -3338024,
    "boundary": "administrative",
    "admin_level": 6,
    "parents": "-1288730,-214665",
    "name": "Костанай Г.А.",
    "local_name": "Костанай Г.А.",
    "name_en": null,
    "all_tags": {
      "name": "Костанай Г.А.",
      "name:kk": "Қостанай Қ.Ә.",
      "name:ru": "Костанай Г.А.",
      "name:uk": "Костанай державна адміністрація",
      "boundary": "administrative",
      "way_area": "0.0407854",
      "wikidata": "Q488990",
      "wikipedia": "de:Qostanai",
      "addr:region": "Костанайская область",
      "admin_level": "6",
      "addr:country": "KZ"
    }
  },
  {
    "osm_id": -3087155,
    "boundary": "administrative",
    "admin_level": 4,
    "parents": "-214665",
    "name": "Nur-Sultan",
    "local_name": "Нур-Султан",
    "name_en": "Nur-Sultan",
    "all_tags": {
      "name": "Нур-Султан",
      "name:ar": "نور سلطان",
      "name:be": "Нур-Cултан",
      "name:ca": "Astanà",
      "name:cs": "Nur-Sultan",
      "name:de": "Nur-Sultan",
      "name:en": "Nur-Sultan",
      "name:eo": "Nur-Sultano",
      "name:es": "Nur-Sultán",
      "name:fa": "نورسلطان",
      "name:fr": "Nour-Soultan",
      "name:kk": "Нұр-Сұлтан",
      "name:lt": "Nur-Sultanas",
      "name:mk": "Нур-Султан",
      "name:nl": "Noersoeltan",
      "name:pl": "Nur-Sułtan",
      "name:pt": "Nur-Sultan",
      "name:ru": "Нур-Султан",
      "name:ug": "نۇرسۇلتان",
      "name:uk": "Нур-Султан",
      "name:ur": "نورسلطان",
      "name:zh": "努尔-苏丹",
      "boundary": "administrative",
      "name:azb": "نورسلطان",
      "name:pnb": "نور سلطان",
      "old_name": "Астана;Целиноград;Акмола",
      "timezone": "Asia/Almaty",
      "way_area": "0.09213",
      "wikidata": "Q1520",
      "ISO3166-2": "KZ-AST",
      "wikipedia": "ru:Астана",
      "admin_level": "4",
      "old_name:ar": "آستانا;أستانا;استانا;أستانة;أسطانا;الأستانا",
      "old_name:es": "Astaná;Akmola;Tselinograd;Akmolinsk",
      "old_name:fa": "آستانه",
      "old_name:mk": "Астана",
      "old_name:ps": "استانه",
      "old_name:pt": "Astana",
      "old_name:ru": "Астана;Целиноград;Акмола",
      "old_name:ug": "ئاستانا",
      "old_name:uk": "Астана;Цілиноград;Ак-Мола;Акмолінськ",
      "old_name:ur": "آستانہ",
      "addr:country": "KZ",
      "alt_name:azb": "نورسولتان",
      "name:ku-Arab": "نور-سولتان",
      "old_name:azb": "آستانا",
      "old_name:ckb": "ئاستانا",
      "old_name:lrc": "آستانٱ;آستانه",
      "old_name:mzn": "آستانه",
      "old_name:pnb": "آستانہ",
      "description:ru": "уровень области по административному делению (КАТО)",
      "name:be-tarask": "Нур-Cултан",
      "old_name:ku-Arab": "ئاستانا",
      "old_name:zh-Hans": "阿斯塔纳",
      "old_name:zh-Hant": "阿斯塔納"
    }
  },
  {
    "osm_id": -3072808,
    "boundary": "administrative",
    "admin_level": 6,
    "parents": "-2465058,-214665",
    "name": "Ауэзовский район",
    "local_name": "Ауэзовский район",
    "name_en": null,
    "all_tags": {
      "name": "Ауэзовский район",
      "name:ru": "Ауэзовский район",
      "boundary": "administrative",
      "way_area": "0.00262056",
      "wikidata": "Q16534658",
      "wikipedia": "ru:Ауэзовский район",
      "addr:region": "Алматы",
      "admin_level": "6",
      "addr:country": "KZ"
    }
  },
  {
    "osm_id": -3072807,
    "boundary": "administrative",
    "admin_level": 6,
    "parents": "-2465058,-214665",
    "name": "Алмалинский район",
    "local_name": "Алмалинский район",
    "name_en": null,
    "all_tags": {
      "name": "Алмалинский район",
      "name:ru": "Алмалинский район",
      "boundary": "administrative",
      "way_area": "0.00200871",
      "wikidata": "Q16533574",
      "wikipedia": "ru:Алмалинский район",
      "addr:region": "Алматы",
      "admin_level": "6",
      "addr:country": "KZ"
    }
  },
  {
    "osm_id": -3072217,
    "boundary": "administrative",
    "admin_level": 6,
    "parents": "-2465058,-214665",
    "name": "Медеуский район",
    "local_name": "Медеуский район",
    "name_en": null,
    "all_tags": {
      "name": "Медеуский район",
      "name:ru": "Медеуский район",
      "boundary": "administrative",
      "way_area": "0.0302687",
      "wikidata": "Q4287636",
      "wikipedia": "ru:Медеуский район",
      "addr:region": "Алматы",
      "admin_level": "6",
      "addr:country": "KZ"
    }
  },
  {
    "osm_id": -3072216,
    "boundary": "administrative",
    "admin_level": 6,
    "parents": "-2465058,-214665",
    "name": "Алатауский район",
    "local_name": "Алатауский район",
    "name_en": null,
    "all_tags": {
      "name": "Алатауский район",
      "name:ru": "Алатауский район",
      "boundary": "administrative",
      "way_area": "0.0116962",
      "wikidata": "Q16533408",
      "wikipedia": "ru:Алатауский район",
      "addr:region": "Алматы",
      "admin_level": "6",
      "addr:country": "KZ"
    }
  },
  {
    "osm_id": -3072130,
    "boundary": "administrative",
    "admin_level": 6,
    "parents": "-2465058,-214665",
    "name": "Жетысуский район",
    "local_name": "Жетысуский район",
    "name_en": null,
    "all_tags": {
      "name": "Жетысуский район",
      "name:ru": "Жетысуский район",
      "boundary": "administrative",
      "way_area": "0.00437009",
      "wikidata": "Q16651870",
      "wikipedia": "ru:Жетысуский район",
      "addr:region": "Алматы",
      "admin_level": "6",
      "addr:country": "KZ"
    }
  },
  {
    "osm_id": -3072001,
    "boundary": "administrative",
    "admin_level": 6,
    "parents": "-2465058,-214665",
    "name": "Турксибский район",
    "local_name": "Турксибский район",
    "name_en": null,
    "all_tags": {
      "name": "Турксибский район",
      "name:ru": "Турксибский район",
      "boundary": "administrative",
      "way_area": "0.00837681",
      "wikidata": "Q4466184",
      "wikipedia": "ru:Турксибский район",
      "addr:region": "Алматы",
      "admin_level": "6",
      "addr:country": "KZ"
    }
  },
  {
    "osm_id": -2914970,
    "boundary": "administrative",
    "admin_level": 6,
    "parents": "-1288730,-214665",
    "name": "Лисаковск Г.А.",
    "local_name": "Лисаковск Г.А.",
    "name_en": null,
    "all_tags": {
      "name": "Лисаковск Г.А.",
      "name:kk": "Лисаков Қ.Ә.",
      "name:ru": "Лисаковск Г.А.",
      "name:uk": "Лісаковск державна адміністрація",
      "boundary": "administrative",
      "way_area": "0.0239637",
      "wikidata": "Q657052",
      "wikipedia": "de:Lissakowsk",
      "addr:region": "Костанайская область",
      "admin_level": "6",
      "addr:country": "KZ"
    }
  },
  {
    "osm_id": -2830457,
    "boundary": "administrative",
    "admin_level": 6,
    "parents": "-215760,-214665",
    "name": "Gabit Musirepov District",
    "local_name": "район имени Габита Мусрепова",
    "name_en": "Gabit Musirepov District",
    "all_tags": {
      "name": "район имени Габита Мусрепова",
      "name:en": "Gabit Musirepov District",
      "name:kk": "Ғабит Мүсірепов ауданы",
      "name:ru": "район имени Габита Мусрепова",
      "name:uk": "імені Ґабіта Мусрепова район",
      "boundary": "administrative",
      "way_area": "1.45686",
      "wikidata": "Q25563",
      "wikipedia": "ru:Район имени Габита Мусрепова",
      "addr:region": "Северо-Казахстанская область",
      "admin_level": "6",
      "addr:country": "KZ"
    }
  },
  {
    "osm_id": -2830456,
    "boundary": "administrative",
    "admin_level": 6,
    "parents": "-215760,-214665",
    "name": "Shal akyn District",
    "local_name": "район Шал акына",
    "name_en": "Shal akyn District",
    "all_tags": {
      "name": "район Шал акына",
      "name:en": "Shal akyn District",
      "name:kk": "Шал ақын ауданы",
      "name:ru": "район Шал акына",
      "name:uk": "Шал-акина район",
      "boundary": "administrative",
      "way_area": "0.676554",
      "wikidata": "Q32421",
      "wikipedia": "ru:Район Шал Акына",
      "admin_level": "6"
    }
  },
  {
    "osm_id": -2830455,
    "boundary": "administrative",
    "admin_level": 6,
    "parents": "-215760,-214665",
    "name": "Magzhan Zhumabaev District",
    "local_name": "район Магжана Жумабаева",
    "name_en": "Magzhan Zhumabaev District",
    "all_tags": {
      "name": "район Магжана Жумабаева",
      "name:en": "Magzhan Zhumabaev District",
      "name:kk": "Мағжан Жұмабаев ауданы",
      "name:ru": "район Магжана Жумабаева",
      "name:uk": "Маґжана Жумабаєва район",
      "boundary": "administrative",
      "way_area": "1.07989",
      "wikidata": "Q30513",
      "wikipedia": "ru:Район Магжана Жумабаева",
      "addr:region": "Северо-Казахстанская область",
      "admin_level": "6",
      "addr:country": "KZ"
    }
  },
  {
    "osm_id": -2830454,
    "boundary": "administrative",
    "admin_level": 6,
    "parents": "-215760,-214665",
    "name": "Ualikhanov District",
    "local_name": "Уалихановский район",
    "name_en": "Ualikhanov District",
    "all_tags": {
      "name": "Уалихановский район",
      "name:en": "Ualikhanov District",
      "name:kk": "Уәлиханов ауданы",
      "name:ru": "Уалихановский район",
      "name:uk": "Уаліхановський район",
      "boundary": "administrative",
      "way_area": "1.66993",
      "wikidata": "Q30516",
      "wikipedia": "ru:Уалихановский район",
      "addr:region": "Северо-Казахстанская область",
      "admin_level": "6",
      "addr:country": "KZ"
    }
  },
  {
    "osm_id": -2830453,
    "boundary": "administrative",
    "admin_level": 6,
    "parents": "-215760,-214665",
    "name": "Timiryazev District",
    "local_name": "Тимирязевский район",
    "name_en": "Timiryazev District",
    "all_tags": {
      "name": "Тимирязевский район",
      "name:en": "Timiryazev District",
      "name:kk": "Тимирязев ауданы",
      "name:ru": "Тимирязевский район",
      "name:uk": "Тімірязєвський район",
      "boundary": "administrative",
      "way_area": "0.61863",
      "wikidata": "Q32417",
      "wikipedia": "ru:Тимирязевский район (Северо-Казахстанская область)",
      "admin_level": "6"
    }
  },
  {
    "osm_id": -2830452,
    "boundary": "administrative",
    "admin_level": 6,
    "parents": "-215760,-214665",
    "name": "Taiynsha District",
    "local_name": "Тайыншинский район",
    "name_en": "Taiynsha District",
    "all_tags": {
      "name": "Тайыншинский район",
      "name:en": "Taiynsha District",
      "name:ru": "Тайыншинский район",
      "name:uk": "Тайиншинський район",
      "boundary": "administrative",
      "way_area": "1.62656",
      "wikidata": "Q35899",
      "wikipedia": "ru:Тайыншинский район",
      "admin_level": "6"
    }
  },
  {
    "osm_id": -2830451,
    "boundary": "administrative",
    "admin_level": 6,
    "parents": "-215760,-214665",
    "name": "Mamlyut District",
    "local_name": "Мамлютский район",
    "name_en": "Mamlyut District",
    "all_tags": {
      "name": "Мамлютский район",
      "name:en": "Mamlyut District",
      "name:kk": "Мамлют ауданы",
      "name:ru": "Мамлютский район",
      "name:uk": "Мамлютський район",
      "boundary": "administrative",
      "way_area": "0.570295",
      "wikidata": "Q32419",
      "wikipedia": "ru:Мамлютский район",
      "addr:region": "Северо-Казахстанская область",
      "admin_level": "6",
      "addr:country": "KZ"
    }
  },
  {
    "osm_id": -2830450,
    "boundary": "administrative",
    "admin_level": 6,
    "parents": "-215760,-214665",
    "name": "Kyzylzhar District",
    "local_name": "Кызылжарский район",
    "name_en": "Kyzylzhar District",
    "all_tags": {
      "name": "Кызылжарский район",
      "name:en": "Kyzylzhar District",
      "name:kk": "Қызылжар ауданы",
      "name:ru": "Кызылжарский район",
      "name:uk": "Кизилжарський район",
      "boundary": "administrative",
      "way_area": "0.850647",
      "wikidata": "Q25577",
      "wikipedia": "ru:Кызылжарский район",
      "addr:region": "Северо-Казахстанская область",
      "admin_level": "6",
      "addr:country": "KZ"
    }
  },
  {
    "osm_id": -2830449,
    "boundary": "administrative",
    "admin_level": 6,
    "parents": "-215760,-214665",
    "name": "Zhambyl District",
    "local_name": "Жамбылский район",
    "name_en": "Zhambyl District",
    "all_tags": {
      "name": "Жамбылский район",
      "name:en": "Zhambyl District",
      "name:kk": "Жамбыл ауданы",
      "name:ru": "Жамбылский район",
      "name:uk": "Жамбильський район",
      "boundary": "administrative",
      "way_area": "1.02206",
      "wikidata": "Q35902",
      "wikipedia": "ru:Жамбылский район (Северо-Казахстанская область)",
      "admin_level": "6"
    }
  },
  {
    "osm_id": -2830448,
    "boundary": "administrative",
    "admin_level": 6,
    "parents": "-215760,-214665",
    "name": "Esil District",
    "local_name": "Есильский район",
    "name_en": "Esil District",
    "all_tags": {
      "name": "Есильский район",
      "name:en": "Esil District",
      "name:ru": "Есильский район",
      "name:uk": "Єсільський район",
      "boundary": "administrative",
      "way_area": "0.728635",
      "wikidata": "Q41229",
      "wikipedia": "ru:Есильский район (Северо-Казахстанская область)",
      "admin_level": "6"
    }
  },
  {
    "osm_id": -2830447,
    "boundary": "administrative",
    "admin_level": 6,
    "parents": "-215760,-214665",
    "name": "Akkayin District",
    "local_name": "Аккайынский район",
    "name_en": "Akkayin District",
    "all_tags": {
      "name": "Аккайынский район",
      "name:en": "Akkayin District",
      "name:kk": "Аққайың ауданы",
      "name:ru": "Аккайынский район",
      "name:uk": "Аккайинський район",
      "boundary": "administrative",
      "way_area": "0.656273",
      "wikidata": "Q45705",
      "wikipedia": "ru:Аккайынский район",
      "admin_level": "6"
    }
  },
  {
    "osm_id": -2830446,
    "boundary": "administrative",
    "admin_level": 6,
    "parents": "-215760,-214665",
    "name": "Akzhar District",
    "local_name": "Акжарский район",
    "name_en": "Akzhar District",
    "all_tags": {
      "name": "Акжарский район",
      "name:en": "Akzhar District",
      "name:kk": "Ақжар ауданы",
      "name:ru": "Акжарский район",
      "name:uk": "Акжарський район",
      "boundary": "administrative",
      "way_area": "1.10072",
      "wikidata": "Q45708",
      "wikipedia": "ru:Акжарский район",
      "admin_level": "6",
      "addr:country": "KZ"
    }
  },
  {
    "osm_id": -2830445,
    "boundary": "administrative",
    "admin_level": 6,
    "parents": "-215760,-214665",
    "name": "Aiyrtau District",
    "local_name": "Айыртауский район",
    "name_en": "Aiyrtau District",
    "all_tags": {
      "name": "Айыртауский район",
      "name:en": "Aiyrtau District",
      "name:kk": "Айыртау ауданы",
      "name:ru": "Айыртауский район",
      "name:uk": "Айиртауський район",
      "boundary": "administrative",
      "way_area": "1.29727",
      "wikidata": "Q2029854",
      "wikipedia": "ru:Айыртауский район",
      "admin_level": "6"
    }
  },
  {
    "osm_id": -2465058,
    "boundary": "administrative",
    "admin_level": 4,
    "parents": "-214665",
    "name": "Almaty",
    "local_name": "Алматы",
    "name_en": "Almaty",
    "all_tags": {
      "name": "Алматы",
      "place": "city",
      "name:ca": "Almati",
      "name:de": "Almaty",
      "name:en": "Almaty",
      "name:es": "Almatý",
      "name:et": "Almatõ",
      "name:fr": "Almaty",
      "name:hr": "Almati",
      "name:hu": "Almati",
      "name:it": "Almaty",
      "name:ja": "アルマトイ",
      "name:lt": "Almata",
      "name:lv": "Almati",
      "name:nl": "Almaty",
      "name:oc": "Almaty",
      "name:pl": "Ałmaty",
      "name:pt": "Almaty",
      "name:ro": "Almatî",
      "name:ru": "Алматы",
      "name:tr": "Almatı",
      "name:zh": "阿拉木圖",
      "boundary": "administrative",
      "int_name": "Almaty",
      "old_name": "Verniys Alma-Ata",
      "timezone": "Asia/Almaty",
      "way_area": "0.0779901",
      "wikidata": "Q35493",
      "ISO3166-2": "KZ-ALA",
      "wikipedia": "ru:Алма-Ата",
      "population": "1475400",
      "admin_level": "4",
      "old_name:ru": "Алма-Ата",
      "old_name2:ru": "Верный",
      "old_name3:ru": "Заилийский",
      "population:date": "2013-01-01"
    }
  },
  {
    "osm_id": -2456975,
    "boundary": "administrative",
    "admin_level": 6,
    "parents": "-215776,-214665",
    "name": "Приозёрск Г.А.",
    "local_name": "Приозёрск Г.А.",
    "name_en": null,
    "all_tags": {
      "name": "Приозёрск Г.А.",
      "name:kk": "Приозер Қ.Ә.",
      "name:ru": "Приозёрск Г.А.",
      "name:uk": "Приозерськ державна адміністрація",
      "boundary": "administrative",
      "way_area": "0.00661403",
      "wikidata": "Q1019405",
      "wikipedia": "ru:Приозёрск",
      "addr:region": "Карагандинская область",
      "admin_level": "6",
      "addr:country": "KZ"
    }
  },
  {
    "osm_id": -2313542,
    "boundary": "administrative",
    "admin_level": 6,
    "parents": "-215760,-214665",
    "name": "Petropavlovsk Public Administration",
    "local_name": "Петропавловск Г.А.",
    "name_en": "Petropavlovsk Public Administration",
    "all_tags": {
      "name": "Петропавловск Г.А.",
      "name:en": "Petropavlovsk Public Administration",
      "name:kk": "Петропавл мемлекеттік басқару",
      "name:ru": "Петропавловск Г.А.",
      "name:uk": "Петропавловск державна адміністрація",
      "website": "http://www.petropavl.sko.kz/",
      "boundary": "administrative",
      "way_area": "0.027196",
      "wikidata": "Q488379",
      "wikipedia": "ru:Петропавловск",
      "addr:region": "Северо-Казахстанская область",
      "admin_level": "6",
      "addr:country": "KZ",
      "addr:postcode": "150000"
    }
  },
  {
    "osm_id": -2068946,
    "boundary": "administrative",
    "admin_level": 6,
    "parents": "-1288730,-214665",
    "name": "Рудный Г.А.",
    "local_name": "Рудный Г.А.",
    "name_en": null,
    "all_tags": {
      "name": "Рудный Г.А.",
      "name:kk": "Рудный Қ.Ә.",
      "name:ru": "Рудный Г.А.",
      "name:uk": "Рудний державна адміністрація",
      "boundary": "administrative",
      "way_area": "0.0460072",
      "wikidata": "Q1008853",
      "wikipedia": "ru:Рудный",
      "addr:region": "Костанайская область",
      "admin_level": "6",
      "addr:country": "KZ"
    }
  },
  {
    "osm_id": -2068931,
    "boundary": "administrative",
    "admin_level": 6,
    "parents": "-1288730,-214665",
    "name": "Аркалык Г.А.",
    "local_name": "Аркалык Г.А.",
    "name_en": null,
    "all_tags": {
      "name": "Аркалык Г.А.",
      "name:kk": "Арқалық Қ.Ә.",
      "name:ru": "Аркалык Г.А.",
      "name:uk": "Аркалик державна адміністрація",
      "boundary": "administrative",
      "way_area": "1.95547",
      "wikidata": "Q698941",
      "wikipedia": "de:Arqalyq",
      "addr:region": "Костанайская область",
      "admin_level": "6",
      "addr:country": "KZ"
    }
  },
  {
    "osm_id": -2068896,
    "boundary": "administrative",
    "admin_level": 6,
    "parents": "-1288730,-214665",
    "name": "Наурзумский район",
    "local_name": "Наурзумский район",
    "name_en": null,
    "all_tags": {
      "name": "Наурзумский район",
      "name:kk": "Наурызым ауданы",
      "name:ru": "Наурзумский район",
      "name:uk": "Наурзумський район",
      "boundary": "administrative",
      "way_area": "1.98138",
      "wikidata": "Q1249579",
      "wikipedia": "ru:Наурзумский район",
      "addr:region": "Костанайская область",
      "admin_level": "6",
      "addr:country": "KZ"
    }
  },
  {
    "osm_id": -2068895,
    "boundary": "administrative",
    "admin_level": 6,
    "parents": "-1288730,-214665",
    "name": "Амангельдинский район",
    "local_name": "Амангельдинский район",
    "name_en": null,
    "all_tags": {
      "name": "Амангельдинский район",
      "name:kk": "Амангелді ауданы",
      "name:ru": "Амангельдинский район",
      "name:uk": "Аманґельдинський район",
      "boundary": "administrative",
      "way_area": "2.81244",
      "wikidata": "Q2476619",
      "wikipedia": "ru:Амангельдинский район",
      "addr:region": "Костанайская область",
      "admin_level": "6",
      "addr:country": "KZ"
    }
  },
  {
    "osm_id": -2068838,
    "boundary": "administrative",
    "admin_level": 6,
    "parents": "-1288730,-214665",
    "name": "Аулиекольский район",
    "local_name": "Аулиекольский район",
    "name_en": null,
    "all_tags": {
      "name": "Аулиекольский район",
      "name:kk": "Әулиекөл ауданы",
      "name:ru": "Аулиекольский район",
      "name:uk": "Аулиекольський район",
      "boundary": "administrative",
      "way_area": "1.43531",
      "wikidata": "Q1427082",
      "wikipedia": "ru:Аулиекольский район",
      "addr:region": "Костанайская область",
      "admin_level": "6",
      "addr:country": "KZ"
    }
  },
  {
    "osm_id": -2068229,
    "boundary": "administrative",
    "admin_level": 6,
    "parents": "-1288730,-214665",
    "name": "Костанайский район",
    "local_name": "Костанайский район",
    "name_en": null,
    "all_tags": {
      "name": "Костанайский район",
      "name:kk": "Қостанай ауданы",
      "name:ru": "Костанайский район",
      "name:uk": "Костанайський район",
      "boundary": "administrative",
      "way_area": "0.980865",
      "wikidata": "Q619361",
      "wikipedia": "ru:Костанайский район",
      "addr:region": "Костанайская область",
      "admin_level": "6",
      "addr:country": "KZ"
    }
  },
  {
    "osm_id": -2068177,
    "boundary": "administrative",
    "admin_level": 6,
    "parents": "-1288730,-214665",
    "name": "Алтынсаринский район",
    "local_name": "Алтынсаринский район",
    "name_en": null,
    "all_tags": {
      "name": "Алтынсаринский район",
      "name:kk": "Алтынсарин ауданы",
      "name:ru": "Алтынсаринский район",
      "name:uk": "Алтинсаринський район",
      "boundary": "administrative",
      "way_area": "0.73124",
      "wikidata": "Q2476538",
      "wikipedia": "ru:Алтынсаринский район",
      "addr:region": "Костанайская область",
      "admin_level": "6",
      "addr:country": "KZ"
    }
  },
  {
    "osm_id": -2067946,
    "boundary": "administrative",
    "admin_level": 6,
    "parents": "-1288730,-214665",
    "name": "Zhangeldin District",
    "local_name": "Жангельдинский район",
    "name_en": "Zhangeldin District",
    "all_tags": {
      "name": "Жангельдинский район",
      "name:en": "Zhangeldin District",
      "name:kk": "Жангелдин ауданы",
      "name:ru": "Джангельдинский район",
      "name:uk": "Джанґельдинський район",
      "alt_name": "Джангельдинский район",
      "boundary": "administrative",
      "old_name": "Джангельдинский район",
      "way_area": "4.71204",
      "wikidata": "Q483322",
      "wikipedia": "ru:Джангельдинский район",
      "addr:region": "Костанайская область",
      "admin_level": "6",
      "addr:country": "KZ"
    }
  },
  {
    "osm_id": -2067884,
    "boundary": "administrative",
    "admin_level": 6,
    "parents": "-1288730,-214665",
    "name": "Karasu District",
    "local_name": "Карасуский район",
    "name_en": "Karasu District",
    "all_tags": {
      "name": "Карасуский район",
      "name:en": "Karasu District",
      "name:kk": "Қарасу ауданы",
      "name:ru": "Карасуский район",
      "name:uk": "Карасуський район",
      "boundary": "administrative",
      "way_area": "1.67256",
      "wikidata": "Q1010136",
      "wikipedia": "ru:Карасуский район",
      "addr:region": "Костанайская область",
      "admin_level": "6",
      "addr:country": "KZ"
    }
  },
  {
    "osm_id": -2067816,
    "boundary": "administrative",
    "admin_level": 6,
    "parents": "-1288730,-214665",
    "name": "Сарыкольский район",
    "local_name": "Сарыкольский район",
    "name_en": null,
    "all_tags": {
      "name": "Сарыкольский район",
      "name:kk": "Сарыкөл ауданы",
      "name:ru": "Сарыкольский район",
      "name:uk": "Сарикольський район",
      "boundary": "administrative",
      "way_area": "0.834439",
      "wikidata": "Q1249595",
      "wikipedia": "ru:Сарыкольский район",
      "addr:region": "Костанайская область",
      "admin_level": "6",
      "addr:country": "KZ"
    }
  },
  {
    "osm_id": -2067683,
    "boundary": "administrative",
    "admin_level": 6,
    "parents": "-1288730,-214665",
    "name": "Фёдоровский район",
    "local_name": "Фёдоровский район",
    "name_en": null,
    "all_tags": {
      "name": "Фёдоровский район",
      "name:kk": "Федоров ауданы",
      "name:ru": "Фёдоровский район",
      "name:uk": "Федоровський район",
      "boundary": "administrative",
      "way_area": "0.983966",
      "wikidata": "Q1650873",
      "wikipedia": "ru:Фёдоровский район (Костанайская область)",
      "addr:region": "Костанайская область",
      "admin_level": "6",
      "addr:country": "KZ"
    }
  },
  {
    "osm_id": -2067682,
    "boundary": "administrative",
    "admin_level": 6,
    "parents": "-1288730,-214665",
    "name": "Uzunkol District",
    "local_name": "Узункольский район",
    "name_en": "Uzunkol District",
    "all_tags": {
      "name": "Узункольский район",
      "name:en": "Uzunkol District",
      "name:kk": "Ұзынкөл ауданы",
      "name:ru": "Узункольский район",
      "name:uk": "Узункольський район",
      "boundary": "administrative",
      "way_area": "0.9859",
      "wikidata": "Q964566",
      "wikipedia": "ru:Узункольский район",
      "addr:region": "Костанайская область",
      "admin_level": "6",
      "addr:country": "KZ"
    }
  },
  {
    "osm_id": -2067676,
    "boundary": "administrative",
    "admin_level": 6,
    "parents": "-1288730,-214665",
    "name": "Тарановский район",
    "local_name": "Тарановский район",
    "name_en": null,
    "all_tags": {
      "name": "Тарановский район",
      "name:kk": "Таран ауданы",
      "name:ru": "Тарановский район",
      "name:uk": "Тарановський район",
      "boundary": "administrative",
      "way_area": "1.00979",
      "wikidata": "Q431619",
      "wikipedia": "ru:Тарановский район",
      "addr:region": "Костанайская область",
      "admin_level": "6",
      "addr:country": "KZ"
    }
  },
  {
    "osm_id": -2067675,
    "boundary": "administrative",
    "admin_level": 6,
    "parents": "-1288730,-214665",
    "name": "Мендыкаринский район",
    "local_name": "Мендыкаринский район",
    "name_en": null,
    "all_tags": {
      "name": "Мендыкаринский район",
      "name:kk": "Меңдіқара ауданы",
      "name:ru": "Мендыкаринский район",
      "name:uk": "Мендикаринський район",
      "boundary": "administrative",
      "way_area": "0.897543",
      "wikidata": "Q793969",
      "wikipedia": "ru:Мендыкаринский район",
      "addr:region": "Костанайская область",
      "admin_level": "6",
      "addr:country": "KZ"
    }
  },
  {
    "osm_id": -2067674,
    "boundary": "administrative",
    "admin_level": 6,
    "parents": "-1288730,-214665",
    "name": "Карабалыкский район",
    "local_name": "Карабалыкский район",
    "name_en": null,
    "all_tags": {
      "name": "Карабалыкский район",
      "name:kk": "Қарабалық ауданы",
      "name:ru": "Карабалыкский район",
      "name:uk": "Карабалицький район",
      "boundary": "administrative",
      "way_area": "0.927519",
      "wikidata": "Q1377553",
      "wikipedia": "ru:Карабалыкский район",
      "addr:region": "Костанайская область",
      "admin_level": "6",
      "addr:country": "KZ"
    }
  },
  {
    "osm_id": -2067673,
    "boundary": "administrative",
    "admin_level": 6,
    "parents": "-1288730,-214665",
    "name": "Kamysty District",
    "local_name": "Камыстинский район",
    "name_en": "Kamysty District",
    "all_tags": {
      "name": "Камыстинский район",
      "name:en": "Kamysty District",
      "name:kk": "Қамысты ауданы",
      "name:ru": "Камыстинский район",
      "name:uk": "Камистинський район",
      "boundary": "administrative",
      "way_area": "1.55514",
      "wikidata": "Q703004",
      "wikipedia": "ru:Камыстинский район",
      "addr:region": "Костанайская область",
      "admin_level": "6",
      "addr:country": "KZ"
    }
  },
  {
    "osm_id": -2067672,
    "boundary": "administrative",
    "admin_level": 6,
    "parents": "-1288730,-214665",
    "name": "Денисовский район",
    "local_name": "Денисовский район",
    "name_en": null,
    "all_tags": {
      "name": "Денисовский район",
      "name:kk": "Денисов ауданы",
      "name:ru": "Денисовский район",
      "name:uk": "Денисовський район",
      "boundary": "administrative",
      "way_area": "0.905064",
      "wikidata": "Q1510481",
      "wikipedia": "ru:Денисовский район",
      "addr:region": "Костанайская область",
      "admin_level": "6",
      "addr:country": "KZ"
    }
  },
  {
    "osm_id": -2067328,
    "boundary": "administrative",
    "admin_level": 6,
    "parents": "-1288730,-214665",
    "name": "Житикаринский район",
    "local_name": "Житикаринский район",
    "name_en": null,
    "all_tags": {
      "name": "Житикаринский район",
      "name:kk": "Жітіқара ауданы",
      "name:ru": "Житикаринский район",
      "name:uk": "Житикаринський район",
      "boundary": "administrative",
      "way_area": "0.956077",
      "wikidata": "Q1378355",
      "wikipedia": "ru:Житикаринский район",
      "addr:region": "Костанайская область",
      "admin_level": "6",
      "addr:country": "KZ"
    }
  },
  {
    "osm_id": -1288730,
    "boundary": "administrative",
    "admin_level": 4,
    "parents": "-214665",
    "name": "Kostanay Region",
    "local_name": "Костанайская область",
    "name_en": "Kostanay Region",
    "all_tags": {
      "name": "Костанайская область",
      "name:cs": "Kostanajská oblast",
      "name:de": "Gebiet Qostanai",
      "name:en": "Kostanay Region",
      "name:es": "Provincia de Kostanay",
      "name:fr": "Oblys de Kostanaï",
      "name:ja": "コスタナイ州",
      "name:kk": "Қостанай облысы",
      "name:lt": "Kostanajaus sritis",
      "name:pl": "Obwód kustanajski",
      "name:ru": "Костанайская область",
      "name:uk": "Костанайська область",
      "boundary": "administrative",
      "timezone": "Asia/Qyzylorda",
      "way_area": "25.4475",
      "wikidata": "Q485605",
      "ISO3166-2": "KZ-KUS",
      "wikipedia": "ru:Костанайская область",
      "admin_level": "4",
      "addr:country": "KZ",
      "is_in:country": "Kazakhstan",
      "is_in:continent": "Asia",
      "is_in:country_code": "KZ"
    }
  },
  {
    "osm_id": -222960,
    "boundary": "administrative",
    "admin_level": 6,
    "parents": "-215686,-214665",
    "name": "Karakiya District",
    "local_name": "Каракиянский район",
    "name_en": "Karakiya District",
    "all_tags": {
      "name": "Каракиянский район",
      "name:en": "Karakiya District",
      "name:kk": "Қарақиян ауданы",
      "name:ru": "Каракиянский район",
      "boundary": "administrative",
      "way_area": "7.08476",
      "wikidata": "Q2476548",
      "wikipedia": "ru:Каракиянский район",
      "admin_level": "6"
    }
  },
  {
    "osm_id": -222957,
    "boundary": "administrative",
    "admin_level": 6,
    "parents": "-215686,-214665",
    "name": "Munaily District",
    "local_name": "Мунайлинский район",
    "name_en": "Munaily District",
    "all_tags": {
      "name": "Мунайлинский район",
      "name:en": "Munaily District",
      "name:kk": "Мұнайлы ауданы",
      "name:ru": "Мунайлинский район",
      "boundary": "administrative",
      "way_area": "0.548661",
      "wikidata": "Q720411",
      "wikipedia": "ru:Мунайлинский район",
      "addr:region": "Мангистауская область",
      "admin_level": "6"
    }
  },
  {
    "osm_id": -222955,
    "boundary": "administrative",
    "admin_level": 6,
    "parents": "-215686,-214665",
    "name": "Tupkaragan District",
    "local_name": "Тупкараганский район",
    "name_en": "Tupkaragan District",
    "all_tags": {
      "name": "Тупкараганский район",
      "name:en": "Tupkaragan District",
      "name:kk": "Түпқараған ауданы",
      "name:ru": "Тупкараганский район",
      "boundary": "administrative",
      "way_area": "0.988382",
      "wikidata": "Q720422",
      "wikipedia": "kk:Түпқараған ауданы",
      "addr:region": "Мангистауская область",
      "admin_level": "6",
      "addr:country": "KZ"
    }
  },
  {
    "osm_id": -222948,
    "boundary": "administrative",
    "admin_level": 6,
    "parents": "-215686,-214665",
    "name": "Mangystau District",
    "local_name": "Мангистауский район",
    "name_en": "Mangystau District",
    "all_tags": {
      "name": "Мангистауский район",
      "name:en": "Mangystau District",
      "name:kk": "Маңғыстау ауданы",
      "name:ru": "Мангистауский район",
      "boundary": "administrative",
      "int_name": "Mangystau",
      "way_area": "5.17106",
      "wikidata": "Q2554467",
      "wikipedia": "ru:Мангистауский район",
      "admin_level": "6",
      "addr:country": "KZ"
    }
  },
  {
    "osm_id": -222946,
    "boundary": "administrative",
    "admin_level": 6,
    "parents": "-215686,-214665",
    "name": "Beyneu District",
    "local_name": "Бейнеуский район",
    "name_en": "Beyneu District",
    "all_tags": {
      "name": "Бейнеуский район",
      "name:en": "Beyneu District",
      "name:kk": "Бейнеу ауданы",
      "name:ru": "Бейнеуский район",
      "boundary": "administrative",
      "int_name": "Beyneu",
      "way_area": "4.70618",
      "wikidata": "Q650725",
      "wikipedia": "kk:Бейнеу ауданы",
      "addr:region": "Мангистауская область",
      "admin_level": "6",
      "addr:country": "KZ"
    }
  },
  {
    "osm_id": -215776,
    "boundary": "administrative",
    "admin_level": 4,
    "parents": "-214665",
    "name": "Karaganda Region",
    "local_name": "Карагандинская область",
    "name_en": "Karaganda Region",
    "all_tags": {
      "kato": "350000000",
      "name": "Карагандинская область",
      "name:cs": "Karagandská oblast",
      "name:de": "Gebiet Qaraghandy",
      "name:en": "Karaganda Region",
      "name:es": "Provincia de Karagandá",
      "name:fr": "Oblys de Karaganda",
      "name:ja": "カラガンダ州",
      "name:kk": "Қарағанды облысы",
      "name:lt": "Karagandos sritis",
      "name:pl": "Obwód karagandyjski",
      "name:ru": "Карагандинская область",
      "name:uk": "Караґандинська область",
      "boundary": "administrative",
      "timezone": "Asia/Almaty",
      "way_area": "51.7788",
      "wikidata": "Q485429",
      "ISO3166-2": "KZ-KAR",
      "wikipedia": "ru:Карагандинская область",
      "admin_level": "4",
      "addr:country": "KZ",
      "is_in:country": "Kazakhstan",
      "is_in:continent": "Asia",
      "is_in:country_code": "KZ"
    }
  },
  {
    "osm_id": -215760,
    "boundary": "administrative",
    "admin_level": 4,
    "parents": "-214665",
    "name": "North Kazakhstan Region",
    "local_name": "Северо-Казахстанская область",
    "name_en": "North Kazakhstan Region",
    "all_tags": {
      "name": "Северо-Казахстанская область",
      "name:cs": "Severokazašská oblast",
      "name:de": "Gebiet Nordkasachstan",
      "name:en": "North Kazakhstan Region",
      "name:es": "Provincia de Kazajistán Septentrional",
      "name:fr": "Kazakhstan-Septentrional",
      "name:ja": "北カザフスタン州",
      "name:kk": "Солтүстік Қазақстан облысы",
      "name:lt": "Šiaurės Kazachstano sritis",
      "name:pl": "Obwód północnokazachstański",
      "name:ru": "Северо-Казахстанская область",
      "name:tt": "Төньяк Казакъстан өлкәсе",
      "boundary": "administrative",
      "timezone": "Asia/Almaty",
      "way_area": "13.3815",
      "wikidata": "Q485088",
      "ISO3166-2": "KZ-SEV",
      "wikipedia": "ru:Северо-Казахстанская область",
      "admin_level": "4",
      "is_in:country": "Kazakhstan",
      "is_in:continent": "Asia",
      "is_in:country_code": "KZ"
    }
  },
  {
    "osm_id": -215743,
    "boundary": "administrative",
    "admin_level": 4,
    "parents": "-214665",
    "name": "Akmola Region",
    "local_name": "Акмолинская область",
    "name_en": "Akmola Region",
    "all_tags": {
      "name": "Акмолинская область",
      "name:cs": "Akmolská oblast",
      "name:de": "Gebiet Aqmola",
      "name:en": "Akmola Region",
      "name:es": "Provincia de Akmola",
      "name:fr": "Oblys d'Aqmola",
      "name:ja": "アクモラ州",
      "name:kk": "Ақмола облысы",
      "name:lt": "Akmolos sritis",
      "name:pl": "Obwód akmolski",
      "name:ru": "Акмолинская область",
      "name:uk": "Акмолинська область",
      "boundary": "administrative",
      "timezone": "Asia/Almaty",
      "way_area": "19.0265",
      "wikidata": "Q485056",
      "ISO3166-2": "KZ-AKM",
      "wikipedia": "ru:Акмолинская область",
      "admin_level": "4",
      "addr:country": "KZ",
      "is_in:country": "Kazakhstan",
      "is_in:continent": "Asia",
      "is_in:country_code": "KZ"
    }
  },
  {
    "osm_id": -215739,
    "boundary": "administrative",
    "admin_level": 4,
    "parents": "-214665",
    "name": "Turkistan Region",
    "local_name": "Туркестанская область",
    "name_en": "Turkistan Region",
    "all_tags": {
      "name": "Туркестанская область",
      "name:cs": "Turkestánská oblast",
      "name:de": "Gebiet Türkistan",
      "name:en": "Turkistan Region",
      "name:es": "Provincia de Turquestán",
      "name:fr": "Oblys du Turkestan",
      "name:ja": "南カザフスタン州",
      "name:kk": "Түркістан облысы",
      "name:pl": "Obwód turkiestański",
      "name:ru": "Туркестанская область",
      "alt_name": "Южно-Казахстанская область",
      "boundary": "administrative",
      "old_name": "Южно-Казахстанская область",
      "timezone": "Asia/Almaty",
      "way_area": "12.8803",
      "wikidata": "Q815330",
      "ISO3166-2": "KZ-YUZ",
      "wikipedia": "ru:Туркестанская область",
      "admin_level": "4",
      "old_name:es": "Provincia de Kazajistán Meridional",
      "old_name:fr": "Kazakhstan-Méridional",
      "old_name:kk": "Оңтүстік Қазақстан облысы",
      "old_name:pl": "Obwód południowokazachstański",
      "old_name:ru": "Южно-Казахстанская область",
      "is_in:country": "Kazakhstan",
      "is_in:continent": "Asia",
      "is_in:country_code": "KZ"
    }
  },
  {
    "osm_id": -215727,
    "boundary": "administrative",
    "admin_level": 4,
    "parents": "-214665",
    "name": "Kyzylorda Region",
    "local_name": "Кызылординская область",
    "name_en": "Kyzylorda Region",
    "all_tags": {
      "name": "Кызылординская область",
      "name:cs": "Kyzylordská oblast",
      "name:de": "Gebiet Qysylorda",
      "name:en": "Kyzylorda Region",
      "name:es": "Provincia de Kyzylorda",
      "name:fr": "Oblys de Kyzylorda",
      "name:ja": "クズロルダ州",
      "name:kk": "Қызылорда облысы",
      "name:lt": "Kyzylordos sritis",
      "name:pl": "Obwód kyzyłordyński",
      "name:ru": "Кызылординская область",
      "boundary": "administrative",
      "timezone": "Asia/Qyzylorda",
      "way_area": "25.9796",
      "wikidata": "Q485322",
      "ISO3166-2": "KZ-KZY",
      "wikipedia": "ru:Кызылординская область",
      "admin_level": "4",
      "is_in:country": "Kazakhstan",
      "is_in:continent": "Asia",
      "is_in:country_code": "KZ"
    }
  },
  {
    "osm_id": -215722,
    "boundary": "administrative",
    "admin_level": 4,
    "parents": "-214665",
    "name": "Jambyl Region",
    "local_name": "Жамбылская область",
    "name_en": "Jambyl Region",
    "all_tags": {
      "name": "Жамбылская область",
      "name:cs": "Žambylská oblast",
      "name:de": "Gebiet Schambyl",
      "name:en": "Jambyl Region",
      "name:es": "Provincia de Zhambyl",
      "name:fr": "Oblys de Djamboul",
      "name:ja": "ジャンブール州",
      "name:kk": "Жамбыл облысы",
      "name:pl": "Obwód żambylski",
      "name:ru": "Жамбылская область",
      "boundary": "administrative",
      "timezone": "Asia/Almaty",
      "way_area": "16.2745",
      "wikidata": "Q486657",
      "ISO3166-2": "KZ-ZHA",
      "wikipedia": "ru:Жамбылская область",
      "admin_level": "4",
      "addr:country": "KZ",
      "is_in:country": "Kazakhstan",
      "is_in:continent": "Asia",
      "is_in:country_code": "KZ"
    }
  },
  {
    "osm_id": -215718,
    "boundary": "administrative",
    "admin_level": 4,
    "parents": "-214665",
    "name": "Almaty Region",
    "local_name": "Алматинская область",
    "name_en": "Almaty Region",
    "all_tags": {
      "kato": "190000000",
      "name": "Алматинская область",
      "name:ca": "Província d'Almati",
      "name:cs": "Almatinská oblast",
      "name:de": "Gebiet Almaty",
      "name:en": "Almaty Region",
      "name:es": "Provincia de Almaty",
      "name:fr": "Oblys d'Almaty",
      "name:ja": "アルマトイ州",
      "name:kk": "Алматы облысы",
      "name:lt": "Almatos sritis",
      "name:pl": "Obwód ałmacki",
      "name:ru": "Алматинская область",
      "boundary": "administrative",
      "timezone": "Asia/Almaty",
      "way_area": "25.45",
      "wikidata": "Q186466",
      "ISO3166-2": "KZ-ALM",
      "wikipedia": "ru:Алматинская область",
      "admin_level": "4",
      "is_in:country": "Kazakhstan",
      "is_in:continent": "Asia",
      "is_in:country_code": "KZ"
    }
  },
  {
    "osm_id": -215699,
    "boundary": "administrative",
    "admin_level": 4,
    "parents": "-214665",
    "name": "East Kazakhstan Region",
    "local_name": "Восточно-Казахстанская область",
    "name_en": "East Kazakhstan Region",
    "all_tags": {
      "name": "Восточно-Казахстанская область",
      "name:be": "Усходне-Казахстанская вобласць",
      "name:cs": "Východokazašská oblast",
      "name:de": "Gebiet Ostkasachstan",
      "name:en": "East Kazakhstan Region",
      "name:es": "Provincia de Kazajistán Oriental",
      "name:fr": "Kazakhstan-Oriental",
      "name:ja": "東カザフスタン州",
      "name:kk": "Шығыс Қазақстан облысы",
      "name:pl": "Obwód wschodniokazachstański",
      "name:ru": "Восточно-Казахстанская область",
      "name:uk": "Східно-Казахстанська область",
      "name:zh": "東哈薩克斯坦州",
      "boundary": "administrative",
      "timezone": "Asia/Almaty",
      "way_area": "34.5228",
      "wikidata": "Q36156",
      "ISO3166-2": "KZ-VOS",
      "wikipedia": "ru:Восточно-Казахстанская область",
      "admin_level": "4",
      "addr:country": "KZ",
      "name:kk-Arab": "شىعىس قازاقستان وبلىسى",
      "name:kk-Latn": "Şığıs Qazaqstan oblısı",
      "is_in:country": "Kazakhstan",
      "is_in:continent": "Asia",
      "is_in:country_code": "KZ"
    }
  },
  {
    "osm_id": -215686,
    "boundary": "administrative",
    "admin_level": 4,
    "parents": "-214665",
    "name": "Mangystau Region",
    "local_name": "Мангистауская область",
    "name_en": "Mangystau Region",
    "all_tags": {
      "name": "Мангистауская область",
      "name:cs": "Mangystauská oblast",
      "name:de": "Gebiet Mangghystau",
      "name:en": "Mangystau Region",
      "name:es": "Provincia de Mangystau",
      "name:fr": "Oblys de Manguistaou",
      "name:ja": "マンギスタウ州",
      "name:kk": "Маңғыстау облысы",
      "name:pl": "Obwód mangystauski",
      "name:ru": "Мангистауская область",
      "boundary": "administrative",
      "timezone": "Asia/Aqtau",
      "way_area": "20.9098",
      "wikidata": "Q238931",
      "ISO3166-2": "KZ-MAN",
      "wikipedia": "ru:Мангистауская область",
      "admin_level": "4",
      "addr:country": "KZ",
      "is_in:country": "Kazakhstan",
      "is_in:continent": "Asia",
      "is_in:country_code": "KZ"
    }
  },
  {
    "osm_id": -215684,
    "boundary": "administrative",
    "admin_level": 6,
    "parents": "-215683,-214665",
    "name": "Alga District",
    "local_name": "Алгинский район",
    "name_en": "Alga District",
    "all_tags": {
      "name": "Алгинский район",
      "name:en": "Alga District",
      "name:kk": "Алға ауданы",
      "name:ru": "Алгинский район",
      "name:uk": "Алґинський район",
      "boundary": "administrative",
      "way_area": "0.932317",
      "wikidata": "Q279835",
      "wikipedia": "ru:Алгинский район",
      "addr:region": "Актюбинская область",
      "admin_level": "6",
      "addr:country": "KZ"
    }
  },
  {
    "osm_id": -215683,
    "boundary": "administrative",
    "admin_level": 4,
    "parents": "-214665",
    "name": "Aktobe Region",
    "local_name": "Актюбинская область",
    "name_en": "Aktobe Region",
    "all_tags": {
      "name": "Актюбинская область",
      "name:cs": "Aktobská oblast",
      "name:de": "Gebiet Aqtöbe",
      "name:en": "Aktobe Region",
      "name:es": "Provincia de Aktobe",
      "name:fr": "Oblys d'Aqtöbe",
      "name:ja": "アクトベ州",
      "name:kk": "Ақтөбе облысы",
      "name:lt": "Aktobės sritis",
      "name:pl": "Obwód aktiubiński",
      "name:ru": "Актюбинская область",
      "boundary": "administrative",
      "timezone": "Asia/Aqtobe",
      "way_area": "36.7091",
      "wikidata": "Q485437",
      "ISO3166-2": "KZ-AKT",
      "wikipedia": "ru:Актюбинская область",
      "admin_level": "4",
      "addr:country": "KZ",
      "is_in:country": "Kazakhstan",
      "is_in:continent": "Asia",
      "is_in:country_code": "KZ"
    }
  },
  {
    "osm_id": -215663,
    "boundary": "administrative",
    "admin_level": 6,
    "parents": "-215441,-214665",
    "name": "Bokey Orda District",
    "local_name": "Бокейординский район",
    "name_en": "Bokey Orda District",
    "all_tags": {
      "name": "Бокейординский район",
      "name:en": "Bokey Orda District",
      "name:kk": "Бөкей Орда ауданы",
      "name:ru": "Бокейординский район",
      "name:uk": "Бокейординський район",
      "boundary": "administrative",
      "way_area": "2.31645",
      "wikidata": "Q2736647",
      "wikipedia": "ru:Бокейординский район",
      "addr:region": "Западно-Казахстанская область",
      "admin_level": "6",
      "addr:country": "KZ"
    }
  },
  {
    "osm_id": -215661,
    "boundary": "administrative",
    "admin_level": 6,
    "parents": "-215441,-214665",
    "name": "Karatobe District",
    "local_name": "Каратобинский район",
    "name_en": "Karatobe District",
    "all_tags": {
      "name": "Каратобинский район",
      "name:en": "Karatobe District",
      "name:kk": "Қаратөбе ауданы",
      "name:ru": "Каратобинский район",
      "name:uk": "Каратобинський район",
      "boundary": "administrative",
      "way_area": "1.18473",
      "wikidata": "Q595124",
      "wikipedia": "kk:Қаратөбе ауданы",
      "addr:region": "Западно-Казахстанская область",
      "admin_level": "6",
      "addr:country": "KZ"
    }
  },
  {
    "osm_id": -215659,
    "boundary": "administrative",
    "admin_level": 6,
    "parents": "-215441,-214665",
    "name": "Syrym District",
    "local_name": "Сырымский район",
    "name_en": "Syrym District",
    "all_tags": {
      "name": "Сырымский район",
      "name:en": "Syrym District",
      "name:kk": "Сырым ауданы",
      "name:ru": "Сырымский район",
      "name:uk": "Сиримський район",
      "boundary": "administrative",
      "way_area": "1.58909",
      "wikidata": "Q2736622",
      "wikipedia": "kk:Сырым ауданы",
      "addr:region": "Западно-Казахстанская область",
      "admin_level": "6",
      "addr:country": "KZ"
    }
  },
  {
    "osm_id": -215641,
    "boundary": "administrative",
    "admin_level": 6,
    "parents": "-215441,-214665",
    "name": "Akzhaik District",
    "local_name": "Акжаикский район",
    "name_en": "Akzhaik District",
    "all_tags": {
      "name": "Акжаикский район",
      "name:en": "Akzhaik District",
      "name:kk": "Ақжайық ауданы",
      "name:ru": "Акжаикский район",
      "name:uk": "Акжаїцький район",
      "boundary": "administrative",
      "way_area": "3.11755",
      "wikidata": "Q2550287",
      "wikipedia": "kk:Ақжайық ауданы",
      "addr:region": "Западно-Казахстанская область",
      "admin_level": "6",
      "addr:country": "KZ"
    }
  },
  {
    "osm_id": -215636,
    "boundary": "administrative",
    "admin_level": 6,
    "parents": "-215441,-214665",
    "name": "Kaztal District",
    "local_name": "Казталовский район",
    "name_en": "Kaztal District",
    "all_tags": {
      "name": "Казталовский район",
      "name:en": "Kaztal District",
      "name:kk": "Қазтал ауданы",
      "name:ru": "Казталовский район",
      "name:uk": "Казталовський район",
      "boundary": "administrative",
      "way_area": "2.43416",
      "wikidata": "Q952951",
      "wikipedia": "ru:Казталовский район",
      "addr:region": "Западно-Казахстанская область",
      "admin_level": "6",
      "addr:country": "KZ"
    }
  },
  {
    "osm_id": -215635,
    "boundary": "administrative",
    "admin_level": 6,
    "parents": "-215441,-214665",
    "name": "Shyngyrlau District",
    "local_name": "Чингирлауский район",
    "name_en": "Shyngyrlau District",
    "all_tags": {
      "name": "Чингирлауский район",
      "name:en": "Shyngyrlau District",
      "name:kk": "Шыңғырлау ауданы",
      "name:ru": "Чингирлауский район",
      "name:uk": "Чинґірлауський район",
      "boundary": "administrative",
      "way_area": "0.933964",
      "wikidata": "Q2737280",
      "wikipedia": "kk:Шыңғырлау ауданы",
      "addr:region": "Западно-Казахстанская область",
      "admin_level": "6",
      "addr:country": "KZ"
    }
  },
  {
    "osm_id": -215503,
    "boundary": "administrative",
    "admin_level": 6,
    "parents": "-215441,-214665",
    "name": "Terekti District",
    "local_name": "Теректинский район",
    "name_en": "Terekti District",
    "all_tags": {
      "name": "Теректинский район",
      "name:en": "Terekti District",
      "name:kk": "Теректі ауданы",
      "name:ru": "Теректинский район",
      "name:uk": "Теректинський район",
      "boundary": "administrative",
      "way_area": "1.07438",
      "wikidata": "Q2736634",
      "wikipedia": "ru:Теректинский район",
      "addr:region": "Западно-Казахстанская область",
      "admin_level": "6",
      "addr:country": "KZ"
    }
  },
  {
    "osm_id": -215499,
    "boundary": "administrative",
    "admin_level": 6,
    "parents": "-215441,-214665",
    "name": "Zelenov District",
    "local_name": "Зеленовский район",
    "name_en": "Zelenov District",
    "all_tags": {
      "name": "Зеленовский район",
      "name:en": "Zelenov District",
      "name:kk": "Зеленов ауданы",
      "name:ru": "Зеленовский район",
      "boundary": "administrative",
      "way_area": "0.995309",
      "wikidata": "Q2737304",
      "wikipedia": "kk:Зеленов ауданы",
      "addr:region": "Западно-Казахстанская область",
      "admin_level": "6",
      "addr:country": "KZ"
    }
  },
  {
    "osm_id": -215490,
    "boundary": "administrative",
    "admin_level": 6,
    "parents": "-215441,-214665",
    "name": "Taskala District",
    "local_name": "Таскалинский район",
    "name_en": "Taskala District",
    "all_tags": {
      "name": "Таскалинский район",
      "name:en": "Taskala District",
      "name:kk": "Тасқала ауданы",
      "name:ru": "Таскалинский район",
      "boundary": "administrative",
      "way_area": "1.02838",
      "wikidata": "Q387436",
      "wikipedia": "kk:Тасқала ауданы",
      "addr:region": "Западно-Казахстанская область",
      "admin_level": "6",
      "addr:country": "KZ"
    }
  },
  {
    "osm_id": -215477,
    "boundary": "administrative",
    "admin_level": 6,
    "parents": "-215441,-214665",
    "name": "Borili District",
    "local_name": "Бурлинский район",
    "name_en": "Borili District",
    "all_tags": {
      "name": "Бурлинский район",
      "name:en": "Borili District",
      "name:kk": "Бөрілі ауданы",
      "name:ru": "Бурлинский район",
      "name:uk": "Бурлінський район",
      "boundary": "administrative",
      "way_area": "0.683185",
      "wikidata": "Q2737283",
      "wikipedia": "kk:Бөрлі ауданы",
      "addr:region": "Западно-Казахстанская область",
      "admin_level": "6",
      "addr:country": "KZ"
    }
  },
  {
    "osm_id": -215456,
    "boundary": "administrative",
    "admin_level": 6,
    "parents": "-215441,-214665",
    "name": "Zhanakala District",
    "local_name": "Жангалинский район",
    "name_en": "Zhanakala District",
    "all_tags": {
      "name": "Жангалинский район",
      "name:en": "Zhanakala District",
      "name:kk": "Жаңақала ауданы",
      "name:ru": "Жангалинский район",
      "name:uk": "Жанґалинський район",
      "boundary": "administrative",
      "way_area": "2.53514",
      "wikidata": "Q2736638",
      "wikipedia": "ru:Жангалинский район",
      "addr:region": "Западно-Казахстанская область",
      "admin_level": "6",
      "addr:country": "KZ"
    }
  },
  {
    "osm_id": -215441,
    "boundary": "administrative",
    "admin_level": 4,
    "parents": "-214665",
    "name": "West Kazakhstan Region",
    "local_name": "Западно-Казахстанская область",
    "name_en": "West Kazakhstan Region",
    "all_tags": {
      "name": "Западно-Казахстанская область",
      "name:cs": "Západokazašská oblast",
      "name:de": "Gebiet Westkasachstan",
      "name:en": "West Kazakhstan Region",
      "name:es": "Provincia de Kazajistán Occidental",
      "name:fr": "Kazakhstan-Occidental",
      "name:ja": "西カザフスタン州",
      "name:kk": "Батыс Қазақстан облысы",
      "name:lt": "Vakarų Kazachstano sritis",
      "name:pl": "Obwód południowokazachstański",
      "name:ru": "Западно-Казахстанская область",
      "name:sl": "Zahodni Kazahstan",
      "boundary": "administrative",
      "timezone": "Asia/Oral",
      "way_area": "18.9189",
      "wikidata": "Q486007",
      "ISO3166-2": "KZ-ZAP",
      "wikipedia": "ru:Западно-Казахстанская область",
      "admin_level": "4",
      "addr:country": "KZ",
      "is_in:country": "Kazakhstan",
      "is_in:continent": "Asia",
      "is_in:country_code": "KZ"
    }
  },
  {
    "osm_id": -214840,
    "boundary": "administrative",
    "admin_level": 6,
    "parents": "-214834,-214665",
    "name": "Zhylyoi District",
    "local_name": "Жылыойский район",
    "name_en": "Zhylyoi District",
    "all_tags": {
      "name": "Жылыойский район",
      "name:en": "Zhylyoi District",
      "name:kk": "Жылыой ауданы",
      "name:ru": "Жылыойский район",
      "name:uk": "Жилиойський район",
      "boundary": "administrative",
      "way_area": "3.53211",
      "wikidata": "Q2550349",
      "wikipedia": "ru:Жылыойский район",
      "population": "83521",
      "addr:region": "Атырауская область",
      "admin_level": "6"
    }
  },
  {
    "osm_id": -214839,
    "boundary": "administrative",
    "admin_level": 6,
    "parents": "-214834,-214665",
    "name": "Makhambet District",
    "local_name": "Махамбетский район",
    "name_en": "Makhambet District",
    "all_tags": {
      "name": "Махамбетский район",
      "name:en": "Makhambet District",
      "name:kk": "Махамбет ауданы",
      "name:ru": "Махамбетский район",
      "boundary": "administrative",
      "way_area": "1.07968",
      "wikidata": "Q2556162",
      "wikipedia": "ru:Махамбетский район",
      "population": "29267",
      "addr:region": "Атырауская область",
      "admin_level": "6"
    }
  },
  {
    "osm_id": -214838,
    "boundary": "administrative",
    "admin_level": 6,
    "parents": "-214834,-214665",
    "name": "Makat District",
    "local_name": "Макатский район",
    "name_en": "Makat District",
    "all_tags": {
      "name": "Макатский район",
      "name:en": "Makat District",
      "name:kk": "Мақат ауданы",
      "name:ru": "Макатский район",
      "boundary": "administrative",
      "way_area": "0.551369",
      "wikidata": "Q2550418",
      "wikipedia": "ru:Макатский район",
      "population": "30563",
      "addr:region": "Атырауская область",
      "admin_level": "6",
      "addr:country": "KZ"
    }
  },
  {
    "osm_id": -214837,
    "boundary": "administrative",
    "admin_level": 6,
    "parents": "-214834,-214665",
    "name": "Kyzylkoga District",
    "local_name": "Кзылкогинский район",
    "name_en": "Kyzylkoga District",
    "all_tags": {
      "name": "Кзылкогинский район",
      "name:en": "Kyzylkoga District",
      "name:kk": "Қызылқоға ауданы",
      "name:ru": "Кзылкогинский район",
      "name:uk": "Кзилкоґинський район",
      "boundary": "administrative",
      "way_area": "3.02905",
      "wikidata": "Q2550214",
      "wikipedia": "kk:Қызылқоға ауданы",
      "population": "30649",
      "addr:region": "Атырауская область",
      "admin_level": "6",
      "addr:country": "KZ"
    }
  },
  {
    "osm_id": -214836,
    "boundary": "administrative",
    "admin_level": 6,
    "parents": "-214834,-214665",
    "name": "Isatay District",
    "local_name": "Исатайский район",
    "name_en": "Isatay District",
    "all_tags": {
      "name": "Исатайский район",
      "name:en": "Isatay District",
      "name:kk": "Исатай ауданы",
      "name:ru": "Исатайский район",
      "name:uk": "Ісатайський район",
      "boundary": "administrative",
      "way_area": "1.94058",
      "wikidata": "Q2737292",
      "wikipedia": "ru:Исатайский район",
      "population": "26749",
      "addr:region": "Атырауская область",
      "admin_level": "6",
      "addr:country": "KZ"
    }
  },
  {
    "osm_id": -214835,
    "boundary": "administrative",
    "admin_level": 6,
    "parents": "-214834,-214665",
    "name": "Inder District",
    "local_name": "Индерский район",
    "name_en": "Inder District",
    "all_tags": {
      "name": "Индерский район",
      "name:en": "Inder District",
      "name:kk": "Индер ауданы",
      "name:ru": "Индерский район",
      "name:uk": "Індерський район",
      "boundary": "administrative",
      "way_area": "1.54254",
      "wikidata": "Q2737298",
      "wikipedia": "ru:Индерский район",
      "population": "32057",
      "addr:region": "Атырауская область",
      "admin_level": "6",
      "addr:country": "KZ"
    }
  },
  {
    "osm_id": -214834,
    "boundary": "administrative",
    "admin_level": 4,
    "parents": "-214665",
    "name": "Atyrau Region",
    "local_name": "Атырауская область",
    "name_en": "Atyrau Region",
    "all_tags": {
      "name": "Атырауская область",
      "name:cs": "Atyrauská oblast",
      "name:de": "Gebiet Atyrau",
      "name:en": "Atyrau Region",
      "name:es": "Atyrau",
      "name:fr": "Oblys d'Atyraou",
      "name:ja": "アティラウ州",
      "name:kk": "Атырау облысы",
      "name:lt": "Atyrau sritis",
      "name:pl": "Obwód atyrauski",
      "name:ru": "Атырауская область",
      "boundary": "administrative",
      "int_name": "Atyrau",
      "timezone": "Asia/Aqtau",
      "way_area": "15.0594",
      "wikidata": "Q427658",
      "ISO3166-2": "KZ-ATY",
      "wikipedia": "ru:Атырауская область",
      "population": "645280",
      "admin_level": "4",
      "addr:country": "KZ",
      "is_in:country": "Kazakhstan",
      "is_in:continent": "Asia",
      "is_in:country_code": "KZ"
    }
  },
  {
    "osm_id": -214670,
    "boundary": "administrative",
    "admin_level": 6,
    "parents": "-214834,-214665",
    "name": "Kurmangazy district",
    "local_name": "Курмангазинский район",
    "name_en": "Kurmangazy district",
    "all_tags": {
      "name": "Курмангазинский район",
      "name:en": "Kurmangazy district",
      "name:kk": "Құрманғазы ауданы",
      "name:ru": "Курмангазинский район",
      "name:uk": "Курманґазинський район",
      "boundary": "administrative",
      "way_area": "2.6987",
      "wikidata": "Q2737276",
      "wikipedia": "kk:Құрманғазы ауданы",
      "population": "57357",
      "addr:region": "Атырауская область",
      "admin_level": "6",
      "addr:country": "KZ"
    }
  },
  {
    "osm_id": -214669,
    "boundary": "administrative",
    "admin_level": 6,
    "parents": "-215441,-214665",
    "name": "Zhanybek District",
    "local_name": "Жанибекский район",
    "name_en": "Zhanybek District",
    "all_tags": {
      "name": "Жанибекский район",
      "name:bg": "Жанибекски район",
      "name:el": "Επαρχία Ζανιμπέκ",
      "name:en": "Zhanybek District",
      "name:kk": "Жәнібек ауданы",
      "name:ru": "Жанибекский район",
      "name:uk": "Жанібецький район",
      "boundary": "administrative",
      "way_area": "0.995015",
      "wikidata": "Q2736676",
      "wikipedia": "kk:Жәнібек ауданы",
      "addr:region": "Западно-Казахстанская область",
      "admin_level": "6",
      "addr:country": "KZ"
    }
  }
]
