[
  {
    "osm_id": -12903506,
    "boundary": "administrative",
    "admin_level": 4,
    "parents": "-184843",
    "name": "Keserwan-Jbeil Governorate",
    "local_name": "محافظة كسروان جبيل",
    "name_en": "Keserwan-Jbeil Governorate",
    "all_tags": {
      "name": "محافظة كسروان جبيل",
      "name:ar": "محافظة كسروان جبيل",
      "name:de": "Gouvernement Keserwan-Jbeil",
      "name:en": "Keserwan-Jbeil Governorate",
      "name:fr": "Gouvernorat de Kesrouan-Jbeil",
      "name:ja": "ケセルワン＝ジュベイル県",
      "boundary": "administrative",
      "way_area": "0.0751697",
      "wikidata": "Q56345291",
      "admin_level": "4"
    }
  },
  {
    "osm_id": -7231015,
    "boundary": "administrative",
    "admin_level": 4,
    "parents": "-184843",
    "name": "Baalbek-Hermel Governorate",
    "local_name": "محافظة بعلبك الهرمل",
    "name_en": "Baalbek-Hermel Governorate",
    "all_tags": {
      "name": "محافظة بعلبك الهرمل",
      "name:ar": "محافظة بعلبك الهرمل",
      "name:de": "Gouvernement Baalbek-Hermel",
      "name:en": "Baalbek-Hermel Governorate",
      "name:fr": "Gouvernorat de Baalbek-Hermel",
      "name:he": "מחוז בעלבק - הרמל",
      "boundary": "administrative",
      "way_area": "0.270665",
      "wikidata": "Q787753",
      "ISO3166-2": "LB-BH",
      "wikipedia": "ar:محافظة بعلبك الهرمل",
      "admin_level": "4"
    }
  },
  {
    "osm_id": -7231014,
    "boundary": "administrative",
    "admin_level": 4,
    "parents": "-184843",
    "name": "Akkar Governorate",
    "local_name": "محافظة عكار",
    "name_en": "Akkar Governorate",
    "all_tags": {
      "name": "محافظة عكار",
      "name:ar": "محافظة عكار",
      "name:de": "Gouvernement Akkar",
      "name:en": "Akkar Governorate",
      "name:fr": "Gouvernorat de l'Akkar",
      "name:he": "מחוז עכאר",
      "boundary": "administrative",
      "way_area": "0.0775447",
      "wikidata": "Q556146",
      "ISO3166-2": "LB-AK",
      "wikipedia": "en:Akkar Governorate",
      "admin_level": "4"
    }
  },
  {
    "osm_id": -318309,
    "boundary": "administrative",
    "admin_level": 4,
    "parents": "-184843",
    "name": "Nabatieh Governorate",
    "local_name": "محافظة النبطية",
    "name_en": "Nabatieh Governorate",
    "all_tags": {
      "name": "محافظة النبطية",
      "name:ar": "محافظة النبطية",
      "name:de": "Gouvernement Nabatäa",
      "name:en": "Nabatieh Governorate",
      "name:fr": "Gouvernorat de Nabatieh",
      "name:he": "מחוז נבטייה",
      "name:lt": "Nabatijos muchafaza",
      "name:ru": "провинция Эн-Набатия",
      "boundary": "administrative",
      "way_area": "0.105923",
      "wikidata": "Q458417",
      "ISO3166-2": "LB-NA",
      "wikipedia": "ar:النبطية (محافظة)",
      "admin_level": "4"
    }
  },
  {
    "osm_id": -318236,
    "boundary": "administrative",
    "admin_level": 4,
    "parents": "-184843",
    "name": "South Governorate",
    "local_name": "محافظة الجنوب",
    "name_en": "South Governorate",
    "all_tags": {
      "name": "محافظة الجنوب",
      "name:ar": "محافظة الجنوب",
      "name:de": "Gouvernement Süd-Libanon",
      "name:en": "South Governorate",
      "name:fr": "Gouvernorat du Liban Sud",
      "name:he": "מחוז הדרום",
      "boundary": "administrative",
      "way_area": "0.0897996",
      "wikidata": "Q223643",
      "ISO3166-2": "LB-JA",
      "wikipedia": "ar:محافظة الجنوب (لبنان)",
      "admin_level": "4"
    }
  },
  {
    "osm_id": -318194,
    "boundary": "administrative",
    "admin_level": 4,
    "parents": "-184843",
    "name": "Mount Lebanon Governorate",
    "local_name": "محافظة جبل لبنان",
    "name_en": "Mount Lebanon Governorate",
    "all_tags": {
      "name": "محافظة جبل لبنان",
      "name:ar": "محافظة جبل لبنان",
      "name:de": "Gouvernement Libanonberg",
      "name:en": "Mount Lebanon Governorate",
      "name:fr": "Gouvernorat du Mont Liban",
      "name:he": "מחוז הר לבנון",
      "boundary": "administrative",
      "way_area": "0.116469",
      "wikidata": "Q216945",
      "ISO3166-2": "LB-JL",
      "wikipedia": "ar:جبل لبنان (محافظة)",
      "admin_level": "4"
    }
  },
  {
    "osm_id": -318174,
    "boundary": "administrative",
    "admin_level": 4,
    "parents": "-184843",
    "name": "Beqaa Governorate",
    "local_name": "محافظة البقاع",
    "name_en": "Beqaa Governorate",
    "all_tags": {
      "name": "محافظة البقاع",
      "name:ar": "محافظة البقاع",
      "name:de": "Gouvernement Bekaa",
      "name:en": "Beqaa Governorate",
      "name:fr": "Gouvernorat de la Beqaa",
      "name:he": "מחוז בקאע",
      "name:ru": "провинция Бекаа",
      "boundary": "administrative",
      "way_area": "0.133907",
      "wikidata": "Q319632",
      "ISO3166-2": "LB-BI",
      "wikipedia": "en:Beqaa Governorate",
      "admin_level": "4"
    }
  },
  {
    "osm_id": -318161,
    "boundary": "administrative",
    "admin_level": 4,
    "parents": "-184843",
    "name": "North Governorate",
    "local_name": "محافظة الشمال",
    "name_en": "North Governorate",
    "all_tags": {
      "name": "محافظة الشمال",
      "name:ar": "محافظة الشمال",
      "name:de": "Gouvernement Nord-Libanon",
      "name:en": "North Governorate",
      "name:fr": "Gouvernorat du Liban Nord",
      "name:he": "מחוז הצפון",
      "name:ru": "провинция Северный Ливан",
      "alt_name": "محافظة الشمال",
      "boundary": "administrative",
      "way_area": "0.11953",
      "wikidata": "Q390267",
      "ISO3166-2": "LB-AS",
      "wikipedia": "en:North Governorate",
      "admin_level": "4"
    }
  },
  {
    "osm_id": -318114,
    "boundary": "administrative",
    "admin_level": 5,
    "parents": "-318161,-184843",
    "name": "Koura District",
    "local_name": "قضاء الكورة",
    "name_en": "Koura District",
    "all_tags": {
      "name": "قضاء الكورة",
      "name:ar": "قضاء الكورة",
      "name:de": "Distrikt Koura",
      "name:en": "Koura District",
      "name:fr": "District du Koura",
      "name:he": "נפת כורה",
      "alt_name": "قضاء الكورة",
      "boundary": "administrative",
      "way_area": "0.0170202",
      "wikidata": "Q2414816",
      "wikipedia": "ar:قضاء الكورة",
      "admin_level": "5"
    }
  },
  {
    "osm_id": -317321,
    "boundary": "administrative",
    "admin_level": 5,
    "parents": "-318161,-184843",
    "name": "Miniyeh-Danniyeh District",
    "local_name": "قضاء المنية ضنيّة",
    "name_en": "Miniyeh-Danniyeh District",
    "all_tags": {
      "name": "قضاء المنية ضنيّة",
      "name:ar": "قضاء المنية ضنيّة",
      "name:de": "Distrikt Miniyeh-Danniyeh",
      "name:en": "Miniyeh-Danniyeh District",
      "name:fr": "District de Minieh-Denieh",
      "name:he": "נפת מיניה-ד'נייה",
      "boundary": "administrative",
      "way_area": "0.0389302",
      "wikidata": "Q2621181",
      "wikipedia": "fr:District de Minieh-Denieh",
      "admin_level": "5"
    }
  },
  {
    "osm_id": -317320,
    "boundary": "administrative",
    "admin_level": 5,
    "parents": "-318161,-184843",
    "name": "Zgharta District",
    "local_name": "قضاء زغرتا",
    "name_en": "Zgharta District",
    "all_tags": {
      "name": "قضاء زغرتا",
      "name:ar": "قضاء زغرتا",
      "name:de": "Distrikt Zgharta",
      "name:en": "Zgharta District",
      "name:fr": "District de Zghorta",
      "name:he": "נפת זע'ראתא",
      "alt_name": "قضاء زغرتا",
      "boundary": "administrative",
      "way_area": "0.0177441",
      "wikidata": "Q197116",
      "wikipedia": "ar:قضاء زغرتا",
      "admin_level": "5"
    }
  },
  {
    "osm_id": -317319,
    "boundary": "administrative",
    "admin_level": 5,
    "parents": "-318309,-184843",
    "name": "Hasbaya District",
    "local_name": "قضاء حاصبيا",
    "name_en": "Hasbaya District",
    "all_tags": {
      "name": "قضاء حاصبيا",
      "name:ar": "قضاء حاصبيا",
      "name:de": "Distrikt Hasbaya",
      "name:en": "Hasbaya District",
      "name:fr": "District de Hasbaya",
      "name:he": "נפת חסבייה",
      "name:lt": "Hasbajos rajonas",
      "name:ru": "Хасбайя",
      "alt_name": "قضاء حاصبيا",
      "boundary": "administrative",
      "way_area": "0.0247152",
      "wikidata": "Q2621555",
      "wikipedia": "ar:قضاء حاصبيا",
      "admin_level": "5"
    }
  },
  {
    "osm_id": -317318,
    "boundary": "administrative",
    "admin_level": 5,
    "parents": "-318236,-184843",
    "name": "Jezzine District",
    "local_name": "قضاء جزين",
    "name_en": "Jezzine District",
    "all_tags": {
      "name": "قضاء جزين",
      "name:ar": "قضاء جزين",
      "name:de": "Distrikt Jezzine",
      "name:en": "Jezzine District",
      "name:fr": "District de Jezzine",
      "name:he": "נפת ג'זין",
      "alt_name": "قضاء جزين",
      "boundary": "administrative",
      "way_area": "0.023936",
      "wikidata": "Q2210780",
      "wikipedia": "ar:قضاء جزين",
      "admin_level": "5"
    }
  },
  {
    "osm_id": -317317,
    "boundary": "administrative",
    "admin_level": 5,
    "parents": "-12903506,-184843",
    "name": "Jbeil District",
    "local_name": "قضاء جبيل",
    "name_en": "Jbeil District",
    "all_tags": {
      "name": "قضاء جبيل",
      "name:ar": "قضاء جبيل",
      "name:de": "Distrikt Jbeil",
      "name:en": "Jbeil District",
      "name:fr": "District de Jbeil",
      "name:he": "נפת ג'ביל",
      "boundary": "administrative",
      "way_area": "0.0409747",
      "wikidata": "Q246087",
      "wikipedia": "ar:قضاء جبيل",
      "admin_level": "5"
    }
  },
  {
    "osm_id": -317316,
    "boundary": "administrative",
    "admin_level": 5,
    "parents": "-318161,-184843",
    "name": "Bsharri District",
    "local_name": "قضاء بشرّي",
    "name_en": "Bsharri District",
    "all_tags": {
      "name": "قضاء بشرّي",
      "name:ar": "قضاء بشرّي",
      "name:de": "Distrikt Bischarri",
      "name:en": "Bsharri District",
      "name:fr": "District de Bcharré",
      "name:he": "נפת בשארי",
      "alt_name": "قضاء بشرّي",
      "boundary": "administrative",
      "way_area": "0.0149928",
      "wikidata": "Q2484852",
      "wikipedia": "ar:قضاء بشري",
      "admin_level": "5"
    }
  },
  {
    "osm_id": -317315,
    "boundary": "administrative",
    "admin_level": 5,
    "parents": "-318309,-184843",
    "name": "Nabatieh District",
    "local_name": "قضاء النبطية",
    "name_en": "Nabatieh District",
    "all_tags": {
      "name": "قضاء النبطية",
      "name:ar": "قضاء النبطية",
      "name:de": "Distrikt Nabatäa",
      "name:en": "Nabatieh District",
      "name:fr": "District de Nabatieh",
      "name:he": "נפת נבאטיה",
      "boundary": "administrative",
      "way_area": "0.0296809",
      "wikidata": "Q680602",
      "wikipedia": "ar:قضاء النبطية",
      "admin_level": "5"
    }
  },
  {
    "osm_id": -317307,
    "boundary": "administrative",
    "admin_level": 5,
    "parents": "-318174,-184843",
    "name": "Western Beqaa District",
    "local_name": "قضاء البقاع الغربي",
    "name_en": "Western Beqaa District",
    "all_tags": {
      "name": "قضاء البقاع الغربي",
      "name:ar": "قضاء البقاع الغربي",
      "name:de": "Distrikt West-Bekaa",
      "name:en": "Western Beqaa District",
      "name:fr": "District de la Bekaa occidentale",
      "name:he": "נפת מערב בקאע",
      "name:ru": "Западная Бекаа",
      "alt_name": "قضاء البقاع الغربي",
      "boundary": "administrative",
      "way_area": "0.0438757",
      "wikidata": "Q2621565",
      "wikipedia": "ar:قضاء البقاع الغربي",
      "admin_level": "5"
    }
  },
  {
    "osm_id": -317306,
    "boundary": "administrative",
    "admin_level": 5,
    "parents": "-318309,-184843",
    "name": "Bint Jbeil District",
    "local_name": "قضاء بنت جبيل",
    "name_en": "Bint Jbeil District",
    "all_tags": {
      "name": "قضاء بنت جبيل",
      "name:ar": "قضاء بنت جبيل",
      "name:de": "Distrikt Bint Dschubail",
      "name:en": "Bint Jbeil District",
      "name:fr": "District de Bint-Jbeil",
      "name:he": "נפת בינת ג'ביל",
      "boundary": "administrative",
      "way_area": "0.0260737",
      "wikidata": "Q2360360",
      "wikipedia": "ar:قضاء بنت جبيل",
      "admin_level": "5"
    }
  },
  {
    "osm_id": -317292,
    "boundary": "administrative",
    "admin_level": 5,
    "parents": "-318309,-184843",
    "name": "Marjayoun District",
    "local_name": "قضاء مرجعيون",
    "name_en": "Marjayoun District",
    "all_tags": {
      "name": "قضاء مرجعيون",
      "name:ar": "قضاء مرجعيون",
      "name:de": "Distrikt Mardsch Uyun",
      "name:en": "Marjayoun District",
      "name:fr": "District de Marjayoun",
      "name:he": "נפת מרג'עיון",
      "boundary": "administrative",
      "way_area": "0.0254533",
      "wikidata": "Q2723877",
      "wikipedia": "ar:قضاء مرجعيون",
      "admin_level": "5"
    }
  },
  {
    "osm_id": -317278,
    "boundary": "administrative",
    "admin_level": 5,
    "parents": "-318161,-184843",
    "name": "Tripoli District",
    "local_name": "قضاء طرابلس",
    "name_en": "Tripoli District",
    "all_tags": {
      "name": "قضاء طرابلس",
      "name:ar": "قضاء طرابلس",
      "name:de": "Distrikt Tripoli",
      "name:en": "Tripoli District",
      "name:fr": "District de Tripoli",
      "name:he": "נפת טריפולי",
      "alt_name": "قضاء طرابلس",
      "boundary": "administrative",
      "way_area": "0.00237848",
      "wikidata": "Q2484819",
      "wikipedia": "ar:قضاء طرابلس",
      "admin_level": "5"
    }
  },
  {
    "osm_id": -317277,
    "boundary": "administrative",
    "admin_level": 5,
    "parents": "-318174,-184843",
    "name": "Rashayya District",
    "local_name": "قضاء راشيا",
    "name_en": "Rashayya District",
    "all_tags": {
      "name": "قضاء راشيا",
      "name:ar": "قضاء راشيا",
      "name:de": "Distrikt Rashayya",
      "name:en": "Rashayya District",
      "name:fr": "District de Rashaya",
      "name:he": "נפת ראשיא",
      "name:ru": "Рашайя",
      "alt_name": "قضاء راشيا",
      "boundary": "administrative",
      "way_area": "0.0439736",
      "wikidata": "Q2104948",
      "wikipedia": "ar:قضاء راشيا",
      "admin_level": "5"
    }
  },
  {
    "osm_id": -317271,
    "boundary": "administrative",
    "admin_level": 5,
    "parents": "-7231014,-184843",
    "name": "Akkar District",
    "local_name": "قضاء عكار",
    "name_en": "Akkar District",
    "all_tags": {
      "name": "قضاء عكار",
      "name:ar": "قضاء عكار",
      "name:de": "Distrikt Akkar",
      "name:en": "Akkar District",
      "name:fr": "District de l'Akkar",
      "name:he": "נפת עכאר",
      "name:ru": "Аккар",
      "boundary": "administrative",
      "way_area": "0.0775447",
      "wikidata": "Q419697",
      "wikipedia": "ar:قضاء عكار",
      "admin_level": "5"
    }
  },
  {
    "osm_id": -317263,
    "boundary": "administrative",
    "admin_level": 5,
    "parents": "-318174,-184843",
    "name": "Zahlé District",
    "local_name": "قضاء زحلة",
    "name_en": "Zahlé District",
    "all_tags": {
      "name": "قضاء زحلة",
      "name:ar": "قضاء زحلة",
      "name:de": "Distrikt Zahlé",
      "name:en": "Zahlé District",
      "name:fr": "District de Zahlé",
      "name:he": "נפת זחלה",
      "name:ru": "Захле",
      "boundary": "administrative",
      "way_area": "0.046058",
      "wikidata": "Q2484830",
      "wikipedia": "ar:قضاء زحلة",
      "admin_level": "5"
    }
  },
  {
    "osm_id": -317259,
    "boundary": "administrative",
    "admin_level": 5,
    "parents": "-7231015,-184843",
    "name": "Hermel District",
    "local_name": "قضاء الهرمل",
    "name_en": "Hermel District",
    "all_tags": {
      "name": "قضاء الهرمل",
      "name:ar": "قضاء الهرمل",
      "name:de": "Distrikt Hermel",
      "name:en": "Hermel District",
      "name:fr": "District de Hermel",
      "name:he": "נפת הרמל",
      "name:ru": "Хермель",
      "boundary": "administrative",
      "way_area": "0.0515294",
      "wikidata": "Q2347572",
      "wikipedia": "ar:قضاء الهرمل",
      "admin_level": "5"
    }
  },
  {
    "osm_id": -317257,
    "boundary": "administrative",
    "admin_level": 5,
    "parents": "-7231015,-184843",
    "name": "Baalbek District",
    "local_name": "قضاء بعلبك",
    "name_en": "Baalbek District",
    "all_tags": {
      "name": "قضاء بعلبك",
      "name:ar": "قضاء بعلبك",
      "name:de": "Distrikt Baalbek",
      "name:en": "Baalbek District",
      "name:fr": "District de Baalbek",
      "name:he": "נפת בעלבק",
      "name:ru": "Баальбек",
      "boundary": "administrative",
      "way_area": "0.219136",
      "wikidata": "Q782804",
      "wikipedia": "ar:قضاء بعلبك",
      "admin_level": "5"
    }
  },
  {
    "osm_id": -317251,
    "boundary": "administrative",
    "admin_level": 5,
    "parents": "-12903506,-184843",
    "name": "Keserwan District",
    "local_name": "قضاء كسروان",
    "name_en": "Keserwan District",
    "all_tags": {
      "name": "قضاء كسروان",
      "name:ar": "قضاء كسروان",
      "name:de": "Distrikt Keserwan",
      "name:en": "Keserwan District",
      "name:fr": "District de Kesrouan",
      "name:he": "נפת קסרוואן",
      "boundary": "administrative",
      "way_area": "0.034195",
      "wikidata": "Q246081",
      "wikipedia": "ar:قضاء كسروان",
      "admin_level": "5"
    }
  },
  {
    "osm_id": -317249,
    "boundary": "administrative",
    "admin_level": 5,
    "parents": "-318236,-184843",
    "name": "Sidon District",
    "local_name": "قضاء صيدا",
    "name_en": "Sidon District",
    "all_tags": {
      "name": "قضاء صيدا",
      "name:ar": "قضاء صيدا",
      "name:de": "Distrikt Sidon",
      "name:en": "Sidon District",
      "name:fr": "District de Sidon",
      "name:he": "נפת צידון",
      "boundary": "administrative",
      "way_area": "0.0263844",
      "wikidata": "Q1931173",
      "wikipedia": "ar:قضاء صيدا",
      "admin_level": "5"
    }
  },
  {
    "osm_id": -317246,
    "boundary": "administrative",
    "admin_level": 5,
    "parents": "-318236,-184843",
    "name": "Tyre District",
    "local_name": "قضاء صور",
    "name_en": "Tyre District",
    "all_tags": {
      "name": "قضاء صور",
      "name:ar": "قضاء صور",
      "name:de": "Distrikt Tyros",
      "name:en": "Tyre District",
      "name:fr": "District de Tyr",
      "name:he": "נפת צור",
      "alt_name": "قضاء صور",
      "boundary": "administrative",
      "way_area": "0.0394809",
      "wikidata": "Q2250353",
      "wikipedia": "ar:قضاء صور",
      "admin_level": "5"
    }
  },
  {
    "osm_id": -317244,
    "boundary": "administrative",
    "admin_level": 5,
    "parents": "-318194,-184843",
    "name": "Aley District",
    "local_name": "قضاء عاليه",
    "name_en": "Aley District",
    "all_tags": {
      "name": "قضاء عاليه",
      "name:ar": "قضاء عاليه",
      "name:de": "Distrikt Aley",
      "name:en": "Aley District",
      "name:fr": "District d'Aley",
      "name:he": "נפת עלה",
      "boundary": "administrative",
      "way_area": "0.0263304",
      "wikidata": "Q246077",
      "wikipedia": "ar:قضاء عاليه",
      "admin_level": "5"
    }
  },
  {
    "osm_id": -317243,
    "boundary": "administrative",
    "admin_level": 5,
    "parents": "-318194,-184843",
    "name": "Chouf District",
    "local_name": "قضاء الشوف",
    "name_en": "Chouf District",
    "all_tags": {
      "name": "قضاء الشوف",
      "name:ar": "قضاء الشوف",
      "name:de": "Distrikt Chouf",
      "name:en": "Chouf District",
      "name:fr": "District du Chouf",
      "name:he": "נפת שוף",
      "alt_name": "قضاء الشوف",
      "boundary": "administrative",
      "way_area": "0.0459638",
      "wikidata": "Q246999",
      "wikipedia": "ar:قضاء الشوف",
      "admin_level": "5"
    }
  },
  {
    "osm_id": -317238,
    "boundary": "administrative",
    "admin_level": 5,
    "parents": "-318161,-184843",
    "name": "Batroun District",
    "local_name": "قضاء البترون",
    "name_en": "Batroun District",
    "all_tags": {
      "name": "قضاء البترون",
      "name:ar": "قضاء البترون",
      "name:de": "Distrikt Batrun",
      "name:en": "Batroun District",
      "name:fr": "District de Batroun",
      "name:he": "נפת בתרון",
      "alt_name": "قضاء البترون",
      "boundary": "administrative",
      "way_area": "0.0284647",
      "wikidata": "Q26781",
      "wikipedia": "ar:قضاء البترون",
      "admin_level": "5"
    }
  },
  {
    "osm_id": -317230,
    "boundary": "administrative",
    "admin_level": 5,
    "parents": "-318194,-184843",
    "name": "Matn District",
    "local_name": "قضاء المتن",
    "name_en": "Matn District",
    "all_tags": {
      "name": "قضاء المتن",
      "name:ar": "قضاء المتن",
      "name:de": "Distrikt Metn",
      "name:en": "Matn District",
      "name:fr": "District du Metn",
      "name:he": "נפת מתן",
      "boundary": "administrative",
      "way_area": "0.0254793",
      "wikidata": "Q246074",
      "wikipedia": "ar:قضاء المتن",
      "admin_level": "5"
    }
  },
  {
    "osm_id": -316552,
    "boundary": "administrative",
    "admin_level": 4,
    "parents": "-184843",
    "name": "Beirut Governorate",
    "local_name": "محافظة بيروت",
    "name_en": "Beirut Governorate",
    "all_tags": {
      "name": "محافظة بيروت",
      "name:ar": "محافظة بيروت",
      "name:de": "Gouvernement Beirut",
      "name:en": "Beirut Governorate",
      "name:fa": "استان بیروت",
      "name:fr": "Gouvernorat de Beyrouth",
      "name:he": "מחוז ביירות",
      "name:ru": "Бейрут",
      "name:ur": "محافظہ بیروت",
      "boundary": "administrative",
      "way_area": "0.00209189",
      "wikidata": "Q651688",
      "ISO3166-2": "LB-BA",
      "wikipedia": "ar:بيروت (محافظة)",
      "admin_level": "4"
    }
  },
  {
    "osm_id": -316373,
    "boundary": "administrative",
    "admin_level": 5,
    "parents": "-318194,-184843",
    "name": "Baabda District",
    "local_name": "قضاء بعبدا",
    "name_en": "Baabda District",
    "all_tags": {
      "name": "قضاء بعبدا",
      "name:ar": "قضاء بعبدا",
      "name:de": "Distrikt Baabda",
      "name:en": "Baabda District",
      "name:fr": "District de Baabda",
      "name:he": "נפת בעבדא",
      "boundary": "administrative",
      "way_area": "0.018695",
      "wikidata": "Q211370",
      "wikipedia": "ar:قضاء بعبدا",
      "admin_level": "5"
    }
  }
]
