[
  {
    "osm_id": -5620836,
    "boundary": "administrative",
    "admin_level": 5,
    "parents": "-4630810,-536807",
    "name": "Trincomalee District",
    "local_name": "තිරිකුණාමළය දිස්ත්‍රික්කය",
    "name_en": "Trincomalee District",
    "all_tags": {
      "name": "තිරිකුණාමළය දිස්ත්‍රික්කය",
      "name:en": "Trincomalee District",
      "name:fr": "Trinquemalay",
      "name:ja": "トリンコマリー県",
      "name:ta": "திருகோணமலை மாவட்டம்",
      "name:uk": "Тринкомалі округ",
      "boundary": "administrative",
      "way_area": "0.42973",
      "wikidata": "Q1493318",
      "ISO3166-2": "LK-53",
      "admin_level": "5",
      "alt_name:uk": "Трінкомалі округ"
    }
  },
  {
    "osm_id": -5351796,
    "boundary": "administrative",
    "admin_level": 5,
    "parents": "-4630835,-536807",
    "name": "Nuwara Eliya District",
    "local_name": "நுவரெலியா மாவட்டம்",
    "name_en": "Nuwara Eliya District",
    "all_tags": {
      "name": "நுவரெலியா மாவட்டம்",
      "name:en": "Nuwara Eliya District",
      "name:fr": "Nuwara Eliya",
      "name:ja": "ヌワラ・エリヤ県",
      "name:ta": "நுவரெலியா மாவட்டம்",
      "name:uk": "Нувара-Елія",
      "boundary": "administrative",
      "way_area": "0.141735",
      "wikidata": "Q1583950",
      "ISO3166-2": "LK-23",
      "wikipedia": "en:Nuwara Eliya District",
      "admin_level": "5",
      "name:zh-Hans": "努沃勒埃利耶区",
      "name:zh-Hant": "奴瓦拉埃利雅區"
    }
  },
  {
    "osm_id": -5351795,
    "boundary": "administrative",
    "admin_level": 5,
    "parents": "-4630835,-536807",
    "name": "Matale District",
    "local_name": "මාතලේ දිස්ත්‍රික්කය",
    "name_en": "Matale District",
    "all_tags": {
      "name": "මාතලේ දිස්ත්‍රික්කය",
      "name:en": "Matale District",
      "name:fr": "Matale",
      "name:ja": "マータレー県",
      "name:si": "මාතලේ දිස්ත්‍රික්කය",
      "boundary": "administrative",
      "way_area": "0.169139",
      "wikidata": "Q787421",
      "ISO3166-2": "LK-22",
      "admin_level": "5",
      "name:zh-Hans": "马特莱区",
      "name:zh-Hant": "馬塔爾區"
    }
  },
  {
    "osm_id": -5351794,
    "boundary": "administrative",
    "admin_level": 5,
    "parents": "-4630835,-536807",
    "name": "Kandy District",
    "local_name": "මහනුවර දිස්ත්‍රික්කය",
    "name_en": "Kandy District",
    "all_tags": {
      "name": "මහනුවර දිස්ත්‍රික්කය",
      "name:en": "Kandy District",
      "name:fr": "Kandy",
      "name:ja": "キャンディ県",
      "name:ru": "округ Канди",
      "name:si": "මහනුවර දිස්ත්‍රික්කය",
      "boundary": "administrative",
      "way_area": "0.158251",
      "wikidata": "Q723002",
      "ISO3166-2": "LK-21",
      "admin_level": "5"
    }
  },
  {
    "osm_id": -5351780,
    "boundary": "administrative",
    "admin_level": 5,
    "parents": "-4630838,-536807",
    "name": "Ratnapura District",
    "local_name": "රත්නපුර දිස්ත්‍රික්කය",
    "name_en": "Ratnapura District",
    "all_tags": {
      "name": "රත්නපුර දිස්ත්‍රික්කය",
      "name:en": "Ratnapura District",
      "name:fr": "Ratnapura",
      "name:ja": "ラトゥナプラ県",
      "name:si": "රත්නපුර දිස්ත්‍රික්කය",
      "boundary": "administrative",
      "way_area": "0.269341",
      "wikidata": "Q1587175",
      "ISO3166-2": "LK-91",
      "admin_level": "5",
      "name:zh-Hans": "拉特纳普勒区",
      "name:zh-Hant": "拉特納普勒區"
    }
  },
  {
    "osm_id": -5351779,
    "boundary": "administrative",
    "admin_level": 5,
    "parents": "-4630837,-536807",
    "name": "Puttalam District",
    "local_name": "පුත්තලම් දිස්ත්‍රික්කය",
    "name_en": "Puttalam District",
    "all_tags": {
      "name": "පුත්තලම් දිස්ත්‍රික්කය",
      "name:en": "Puttalam District",
      "name:fr": "Puttalam",
      "name:ja": "プッタラム県",
      "name:si": "පුත්තලම් දිස්ත්‍රික්කය",
      "boundary": "administrative",
      "way_area": "0.595856",
      "wikidata": "Q1665318",
      "ISO3166-2": "LK-62",
      "wikipedia": "si:පුත්තලම පරිපාලන දිස්ත්‍රික්කය",
      "admin_level": "5",
      "name:zh-Hans": "普塔勒姆区",
      "name:zh-Hant": "普塔藍區"
    }
  },
  {
    "osm_id": -5351778,
    "boundary": "administrative",
    "admin_level": 5,
    "parents": "-4630837,-536807",
    "name": "Kurunegala District",
    "local_name": "කුරුණෑගල දිස්ත්‍රික්කය",
    "name_en": "Kurunegala District",
    "all_tags": {
      "name": "කුරුණෑගල දිස්ත්‍රික්කය",
      "name:en": "Kurunegala District",
      "name:fr": "Kurunegala",
      "name:ja": "クルネーガラ県",
      "name:si": "කුරුණෑගල දිස්ත්‍රික්කය",
      "boundary": "administrative",
      "way_area": "0.401623",
      "wikidata": "Q745073",
      "ISO3166-2": "LK-61",
      "admin_level": "5",
      "name:zh-Hans": "库鲁内格勒区",
      "name:zh-Hant": "庫路內加拉區"
    }
  },
  {
    "osm_id": -5351777,
    "boundary": "administrative",
    "admin_level": 5,
    "parents": "-4630838,-536807",
    "name": "Kegalle District",
    "local_name": "කෑගල්ල දිස්ත්‍රික්කය",
    "name_en": "Kegalle District",
    "all_tags": {
      "name": "කෑගල්ල දිස්ත්‍රික්කය",
      "name:de": "Distrikt Kegalle",
      "name:en": "Kegalle District",
      "name:fr": "Kegalle",
      "name:ja": "ケーガッラ県",
      "name:si": "කෑගල්ල දිස්ත්‍රික්කය",
      "boundary": "administrative",
      "way_area": "0.136036",
      "wikidata": "Q1737803",
      "ISO3166-2": "LK-92",
      "admin_level": "5",
      "name:zh-Hans": "凯格勒区",
      "name:zh-Hant": "凱格勒區"
    }
  },
  {
    "osm_id": -5351776,
    "boundary": "administrative",
    "admin_level": 5,
    "parents": "-4630841,-536807",
    "name": "Kalutara District",
    "local_name": "කළුතර දිස්ත්‍රික්කය",
    "name_en": "Kalutara District",
    "all_tags": {
      "name": "කළුතර දිස්ත්‍රික්කය",
      "name:en": "Kalutara District",
      "name:fr": "Kalutara",
      "name:ja": "カルタラ県",
      "name:si": "කළුතර දිස්ත්‍රික්කය",
      "boundary": "administrative",
      "way_area": "0.195569",
      "wikidata": "Q728935",
      "ISO3166-2": "LK-13",
      "admin_level": "5",
      "name:zh-Hans": "卡卢特勒区",
      "name:zh-Hant": "卡盧特勒區"
    }
  },
  {
    "osm_id": -5351775,
    "boundary": "administrative",
    "admin_level": 5,
    "parents": "-4630841,-536807",
    "name": "Gampaha District",
    "local_name": "ගම්පහ දිස්ත්‍රික්කය",
    "name_en": "Gampaha District",
    "all_tags": {
      "name": "ගම්පහ දිස්ත්‍රික්කය",
      "name:de": "Distrik Gampaha",
      "name:en": "Gampaha District",
      "name:fr": "Gampaha",
      "name:ja": "ガンパハ県",
      "name:si": "ගම්පහ දිස්ත්‍රික්කය",
      "name:uk": "Ґампага",
      "boundary": "administrative",
      "way_area": "0.17286",
      "wikidata": "Q206344",
      "ISO3166-2": "LK-12",
      "admin_level": "5",
      "name:zh-Hans": "加姆珀哈区",
      "name:zh-Hant": "加姆珀哈區"
    }
  },
  {
    "osm_id": -5351774,
    "boundary": "administrative",
    "admin_level": 5,
    "parents": "-4630841,-536807",
    "name": "Colombo District",
    "local_name": "කොළඹ දිස්ත්‍රික්කය",
    "name_en": "Colombo District",
    "all_tags": {
      "name": "කොළඹ දිස්ත්‍රික්කය",
      "name:de": "Distrikt Colombo",
      "name:en": "Colombo District",
      "name:fr": "Colombo",
      "name:ja": "コロンボ県",
      "name:ru": "округ Коломбо",
      "name:si": "කොළඹ දිස්ත්‍රික්කය",
      "boundary": "administrative",
      "way_area": "0.121222",
      "wikidata": "Q606287",
      "ISO3166-2": "LK-11",
      "admin_level": "5",
      "name:zh-Hans-CN": "科伦坡区",
      "name:zh-Hans-SG": "哥伦坡区",
      "name:zh-Hant-HK": "科倫坡區",
      "name:zh-Hant-TW": "可倫坡區"
    }
  },
  {
    "osm_id": -5351723,
    "boundary": "administrative",
    "admin_level": 5,
    "parents": "-4630836,-536807",
    "name": "Polonnaruwa District",
    "local_name": "පොළොන්නරුව දිස්ත්‍රික්කය",
    "name_en": "Polonnaruwa District",
    "all_tags": {
      "name": "පොළොන්නරුව දිස්ත්‍රික්කය",
      "name:en": "Polonnaruwa District",
      "name:fr": "Polonnaruwa",
      "name:ja": "ポロンナルワ県",
      "name:si": "පොළොන්නරුව දිස්ත්‍රික්කය",
      "boundary": "administrative",
      "way_area": "0.282083",
      "wikidata": "Q931057",
      "ISO3166-2": "LK-72",
      "admin_level": "5",
      "name:zh-Hans": "波隆纳鲁沃区",
      "name:zh-Hant": "波倫納路瓦區"
    }
  },
  {
    "osm_id": -5351722,
    "boundary": "administrative",
    "admin_level": 5,
    "parents": "-4630840,-536807",
    "name": "Monaragala District",
    "local_name": "මොනරාගල දිස්ත්‍රික්කය",
    "name_en": "Monaragala District",
    "all_tags": {
      "name": "මොනරාගල දිස්ත්‍රික්කය",
      "name:en": "Monaragala District",
      "name:fr": "Moneragala",
      "name:ja": "モナラーガラ県",
      "name:si": "මොනරාගල දිස්ත්‍රික්කය",
      "boundary": "administrative",
      "way_area": "0.471043",
      "wikidata": "Q923420",
      "ISO3166-2": "LK-82",
      "admin_level": "5",
      "name:zh-Hans": "莫讷勒格勒区",
      "name:zh-Hant": "莫訥勒格勒區"
    }
  },
  {
    "osm_id": -5351721,
    "boundary": "administrative",
    "admin_level": 5,
    "parents": "-4630810,-536807",
    "name": "Batticaloa District",
    "local_name": "மட்டக்களப்பு மாவட்டம்",
    "name_en": "Batticaloa District",
    "all_tags": {
      "name": "மட்டக்களப்பு மாவட்டம்",
      "name:en": "Batticaloa District",
      "name:fr": "Batticaloa",
      "name:ja": "バッティカロア県",
      "name:ta": "மட்டக்களப்பு மாவட்டம்",
      "boundary": "administrative",
      "way_area": "0.400405",
      "wikidata": "Q810960",
      "ISO3166-2": "LK-51",
      "admin_level": "5",
      "name:zh-Hans": "拜蒂克洛区",
      "name:zh-Hant": "巴替卡羅亞區"
    }
  },
  {
    "osm_id": -5351720,
    "boundary": "administrative",
    "admin_level": 5,
    "parents": "-4630840,-536807",
    "name": "Badulla District",
    "local_name": "බදුල්ල දිස්ත්‍රික්කය",
    "name_en": "Badulla District",
    "all_tags": {
      "name": "බදුල්ල දිස්ත්‍රික්කය",
      "name:en": "Badulla District",
      "name:fa": "ناحیه بادولا",
      "name:ja": "バドゥッラ県",
      "name:si": "බදුල්ල දිස්ත්‍රික්කය",
      "name:ur": "بادولا ضلع",
      "boundary": "administrative",
      "name:pnb": "ضلع بادولا",
      "way_area": "0.235296",
      "wikidata": "Q799713",
      "ISO3166-2": "LK-81",
      "admin_level": "5",
      "name:zh-Hans": "巴杜勒区",
      "name:zh-Hant": "巴度拉區",
      "wikipedia:ur": "بادولا ضلع"
    }
  },
  {
    "osm_id": -5351719,
    "boundary": "administrative",
    "admin_level": 5,
    "parents": "-4630836,-536807",
    "name": "Anuradhapura District",
    "local_name": "අනුරාධපුර දිස්ත්‍රික්කය",
    "name_en": "Anuradhapura District",
    "all_tags": {
      "name": "අනුරාධපුර දිස්ත්‍රික්කය",
      "name:en": "Anuradhapura District",
      "name:fr": "Anuradhapura",
      "name:ja": "アヌラーダプラ県",
      "name:si": "අනුරාධපුර දිස්ත්‍රික්කය",
      "boundary": "administrative",
      "way_area": "0.591348",
      "wikidata": "Q612614",
      "ISO3166-2": "LK-71",
      "admin_level": "5",
      "name:zh-Hans": "阿努拉德普勒区",
      "name:zh-Hant": "阿奴拉達普勒區"
    }
  },
  {
    "osm_id": -5351718,
    "boundary": "administrative",
    "admin_level": 5,
    "parents": "-4630810,-536807",
    "name": "Ampara District",
    "local_name": "අම්පාර දිස්ත්‍රික්කය",
    "name_en": "Ampara District",
    "all_tags": {
      "name": "අම්පාර දිස්ත්‍රික්කය",
      "name:en": "Ampara District",
      "name:fr": "Ampara",
      "name:ja": "アンパーラ県",
      "name:si": "අම්පාර දිස්ත්‍රික්කය",
      "boundary": "administrative",
      "way_area": "0.593499",
      "wikidata": "Q474395",
      "ISO3166-2": "LK-52",
      "admin_level": "5",
      "name:zh-Hans": "安帕拉区",
      "name:zh-Hant": "安帕來區"
    }
  },
  {
    "osm_id": -5337946,
    "boundary": "administrative",
    "admin_level": 5,
    "parents": "-4630839,-536807",
    "name": "Matara District",
    "local_name": "මාතර දිස්ත්‍රික්කය",
    "name_en": "Matara District",
    "all_tags": {
      "name": "මාතර දිස්ත්‍රික්කය",
      "name:de": "Distrikt Matara",
      "name:en": "Matara District",
      "name:es": "Distrito de Matara",
      "name:fa": "ناحیه ماتارا",
      "name:ja": "マータラ県",
      "name:si": "මාතර දිස්ත්‍රික්කය",
      "name:ur": "ماتارا ضلع",
      "boundary": "administrative",
      "name:pnb": "ضلع مٹارا",
      "way_area": "0.193075",
      "wikidata": "Q1281285",
      "ISO3166-2": "LK-32",
      "admin_level": "5",
      "name:zh-Hans": "马特勒区",
      "name:zh-Hant": "馬塔拉區"
    }
  },
  {
    "osm_id": -5337945,
    "boundary": "administrative",
    "admin_level": 5,
    "parents": "-4630839,-536807",
    "name": "Hambantota District",
    "local_name": "හම්බන්තොට දිස්ත්‍රික්කය",
    "name_en": "Hambantota District",
    "all_tags": {
      "name": "හම්බන්තොට දිස්ත්‍රික්කය",
      "name:en": "Hambantota District",
      "name:fr": "Hambantota",
      "name:ja": "ハンバントタ県",
      "name:si": "හම්බන්තොට දිස්ත්‍රික්කය",
      "boundary": "administrative",
      "way_area": "0.458734",
      "wikidata": "Q723006",
      "ISO3166-2": "LK-33",
      "admin_level": "5",
      "name:zh-Hans": "汉班托特区",
      "name:zh-Hant": "漢班托塔區"
    }
  },
  {
    "osm_id": -5337914,
    "boundary": "administrative",
    "admin_level": 5,
    "parents": "-4630839,-536807",
    "name": "Galle District",
    "local_name": "ගාල්ල දිස්ත්‍රික්කය",
    "name_en": "Galle District",
    "all_tags": {
      "name": "ගාල්ල දිස්ත්‍රික්කය",
      "name:en": "Galle District",
      "name:fr": "Galle",
      "name:ja": "ゴール県",
      "name:si": "ගාල්ල දිස්ත්‍රික්කය",
      "name:uk": "Ґалле",
      "boundary": "administrative",
      "way_area": "0.288274",
      "wikidata": "Q647649",
      "ISO3166-2": "LK-31",
      "admin_level": "5",
      "name:zh-Hans": "加勒区",
      "name:zh-Hant": "加爾區"
    }
  },
  {
    "osm_id": -4630841,
    "boundary": "administrative",
    "admin_level": 4,
    "parents": "-536807",
    "name": "Western Province",
    "local_name": "බස්නාහිර පළාත",
    "name_en": "Western Province",
    "all_tags": {
      "name": "බස්නාහිර පළාත",
      "name:cs": "Západní provincie",
      "name:de": "Westprovinz",
      "name:en": "Western Province",
      "name:es": "Provincia Occidental",
      "name:fr": "Province de l'Ouest",
      "name:it": "Provincia Occidentale",
      "name:ja": "西部州",
      "name:ru": "Западная провинция",
      "name:si": "බස්නාහිර පළාත",
      "name:ta": "மேல் மாகாணம்",
      "name:uk": "Західна провінція",
      "name:zh": "西部省",
      "boundary": "administrative",
      "way_area": "0.489651",
      "wikidata": "Q856686",
      "ISO3166-2": "LK-1",
      "wikipedia": "en:Western Province, Sri Lanka",
      "admin_level": "4",
      "alt_name:en": "Western",
      "name:zh-Hans": "西部省",
      "name:zh-Hant": "西部省"
    }
  },
  {
    "osm_id": -4630840,
    "boundary": "administrative",
    "admin_level": 4,
    "parents": "-536807",
    "name": "Uva Province",
    "local_name": "ඌව පළාත",
    "name_en": "Uva Province",
    "all_tags": {
      "name": "ඌව පළාත",
      "name:cs": "provincie Uva",
      "name:de": "Provinz Uva",
      "name:en": "Uva Province",
      "name:es": "Provincia de Uva",
      "name:fr": "Province d'Uva",
      "name:it": "Provincia di Uva",
      "name:ja": "ウバ州",
      "name:ru": "провинция Ува",
      "name:si": "ඌව පළාත",
      "name:ta": "ஊவா மாகாணம்",
      "boundary": "administrative",
      "way_area": "0.706339",
      "wikidata": "Q876293",
      "ISO3166-2": "LK-8",
      "wikipedia": "en:Uva Province",
      "admin_level": "4",
      "alt_name:en": "Uva",
      "name:zh-Hans": "乌沃省",
      "name:zh-Hant": "烏瓦省",
      "sorting_name:cs": "Uva"
    }
  },
  {
    "osm_id": -4630839,
    "boundary": "administrative",
    "admin_level": 4,
    "parents": "-536807",
    "name": "Southern Province",
    "local_name": "දකුණු පළාත",
    "name_en": "Southern Province",
    "all_tags": {
      "name": "දකුණු පළාත",
      "name:cs": "Jižní provincie",
      "name:de": "Südprovinz",
      "name:en": "Southern Province",
      "name:es": "Provincia del Sur",
      "name:fr": "Province du Sud",
      "name:it": "Provincia Meridionale",
      "name:ja": "南部州",
      "name:pt": "Província do Sul",
      "name:ru": "Южная провинция",
      "name:si": "දකුණු පළාත",
      "name:ta": "தென் மாகாணம்",
      "name:uk": "Південна провінція",
      "name:zh": "南部省",
      "boundary": "administrative",
      "way_area": "0.940084",
      "wikidata": "Q876308",
      "ISO3166-2": "LK-3",
      "wikipedia": "en:Southern Province, Sri Lanka",
      "admin_level": "4",
      "alt_name:en": "Southern",
      "name:zh-Hans": "南部省",
      "name:zh-Hant": "南部省"
    }
  },
  {
    "osm_id": -4630838,
    "boundary": "administrative",
    "admin_level": 4,
    "parents": "-536807",
    "name": "Sabaragamuwa Province",
    "local_name": "සබරගමුව පළාත",
    "name_en": "Sabaragamuwa Province",
    "all_tags": {
      "name": "සබරගමුව පළාත",
      "name:cs": "provincie Sabaragamuwa",
      "name:de": "Provinz Sabaragamuwa",
      "name:en": "Sabaragamuwa Province",
      "name:es": "Provincia Sabaragamuwa",
      "name:fr": "Province de Sabaragamuwa",
      "name:ja": "サバラガムワ州",
      "name:pt": "Província de Sabaragamuwa",
      "name:ru": "провинция Сабарагамува",
      "name:si": "සබරගමුව පළාත",
      "name:ta": "சபரகமுவ மாகாணம்",
      "name:uk": "Сабараґамува провінція",
      "boundary": "administrative",
      "way_area": "0.405376",
      "wikidata": "Q853272",
      "ISO3166-2": "LK-9",
      "wikipedia": "en:Sabaragamuwa Province",
      "admin_level": "4",
      "alt_name:en": "Sabaragamuwa",
      "name:zh-Hans": "萨伯勒格穆沃省",
      "name:zh-Hant": "薩巴拉加穆瓦省",
      "sorting_name:cs": "Sabaragamuwa"
    }
  },
  {
    "osm_id": -4630837,
    "boundary": "administrative",
    "admin_level": 4,
    "parents": "-536807",
    "name": "North Western Province",
    "local_name": "වයඹ පළාත",
    "name_en": "North Western Province",
    "all_tags": {
      "name": "වයඹ පළාත",
      "name:cs": "Severozápadní provincie",
      "name:de": "Nordwestprovinz",
      "name:en": "North Western Province",
      "name:es": "Provincia Noroeste",
      "name:fr": "Province du Nord-Ouest",
      "name:it": "Provincia Nord-Occidentale",
      "name:ja": "北西部州",
      "name:pt": "Província de Noroeste",
      "name:ru": "Северо-Западная провинция",
      "name:si": "වයඹ පළාත",
      "name:ta": "வட மேல் மாகாணம்",
      "name:zh": "西北省",
      "boundary": "administrative",
      "way_area": "0.997478",
      "wikidata": "Q876339",
      "ISO3166-2": "LK-6",
      "wikipedia": "en:North Western Province, Sri Lanka",
      "admin_level": "4",
      "alt_name:en": "North Western",
      "name:zh-Hans": "西北省",
      "name:zh-Hant": "西北省"
    }
  },
  {
    "osm_id": -4630836,
    "boundary": "administrative",
    "admin_level": 4,
    "parents": "-536807",
    "name": "North Central Province",
    "local_name": "උතුරු මැද පළාත",
    "name_en": "North Central Province",
    "all_tags": {
      "name": "උතුරු මැද පළාත",
      "name:cs": "Středoseverní provincie",
      "name:de": "Nord-Zentralprovinz",
      "name:en": "North Central Province",
      "name:es": "Provincia Central del Norte",
      "name:fr": "Province du Centre-Nord",
      "name:it": "Provincia Centro-Settentrionale",
      "name:ja": "北中部州",
      "name:pt": "Província de Centro-Norte",
      "name:ru": "Северо-Центральная провинция",
      "name:si": "උතුරු මැද පළාත",
      "name:ta": "வட மத்திய மாகாணம்",
      "boundary": "administrative",
      "way_area": "0.873431",
      "wikidata": "Q1057124",
      "ISO3166-2": "LK-7",
      "wikipedia": "en:North Central Province, Sri Lanka",
      "admin_level": "4",
      "alt_name:en": "North Central",
      "name:zh-Hans": "中北省",
      "name:zh-Hant": "北中省"
    }
  },
  {
    "osm_id": -4630835,
    "boundary": "administrative",
    "admin_level": 4,
    "parents": "-536807",
    "name": "Central Province",
    "local_name": "මධ්‍යම පළාත",
    "name_en": "Central Province",
    "all_tags": {
      "name": "මධ්‍යම පළාත",
      "name:cs": "Střední provincie",
      "name:de": "Zentralprovinz",
      "name:en": "Central Province",
      "name:es": "Provincia Central",
      "name:fr": "Province du Centre",
      "name:it": "Provincia Centrale",
      "name:ja": "中部州",
      "name:pt": "Província Central",
      "name:ru": "Центральная провинция",
      "name:si": "මධ්‍යම පළාත",
      "name:ta": "மத்திய மாகாணம்",
      "name:uk": "Центральна провінція",
      "name:zh": "中央省",
      "boundary": "administrative",
      "way_area": "0.469125",
      "wikidata": "Q190716",
      "ISO3166-2": "LK-2",
      "wikipedia": "en:Central Province, Sri Lanka",
      "admin_level": "4",
      "alt_name:en": "Central",
      "name:zh-Hans": "中央省",
      "name:zh-Hant": "中央省"
    }
  },
  {
    "osm_id": -4630810,
    "boundary": "administrative",
    "admin_level": 4,
    "parents": "-536807",
    "name": "Eastern Province",
    "local_name": "கிழக்கு மாகாணம்",
    "name_en": "Eastern Province",
    "all_tags": {
      "name": "கிழக்கு மாகாணம்",
      "name:cs": "Východní provincie",
      "name:de": "Ostprovinz",
      "name:en": "Eastern Province",
      "name:es": "Provincia Oriental",
      "name:fr": "Province de l'Est",
      "name:it": "Provincia Orientale",
      "name:ja": "東部州",
      "name:pt": "Província Oriental",
      "name:ru": "Восточная провинция",
      "name:si": "නැගෙනහිර පළාත",
      "name:ta": "கிழக்கு மாகாணம்",
      "boundary": "administrative",
      "way_area": "1.42363",
      "wikidata": "Q1046126",
      "ISO3166-2": "LK-5",
      "wikipedia": "en:Eastern Province, Sri Lanka",
      "admin_level": "4",
      "alt_name:en": "Eastern",
      "name:zh-Hans": "东部省",
      "name:zh-Hant": "東部省"
    }
  },
  {
    "osm_id": -3237349,
    "boundary": "administrative",
    "admin_level": 5,
    "parents": "-3237344,-536807",
    "name": "Vavuniya District",
    "local_name": "வவுனியா மாவட்டம்",
    "name_en": "Vavuniya District",
    "all_tags": {
      "name": "வவுனியா மாவட்டம்",
      "name:en": "Vavuniya District",
      "name:fr": "Vavuniya",
      "name:ja": "バブニヤ県",
      "name:si": "වවුනියා දිස්ත්‍රික්කය",
      "name:ta": "வவுனியா மாவட்டம் (Vavuṉiyā Māvaṭṭam)",
      "boundary": "administrative",
      "way_area": "0.165392",
      "wikidata": "Q527980",
      "ISO3166-2": "LK-44",
      "admin_level": "5",
      "name:zh-Hans": "瓦武尼亚区",
      "name:zh-Hant": "瓦武尼亞區"
    }
  },
  {
    "osm_id": -3237348,
    "boundary": "administrative",
    "admin_level": 5,
    "parents": "-3237344,-536807",
    "name": "Mullaitivu District",
    "local_name": "முல்லைத்தீவு மாவட்டம்",
    "name_en": "Mullaitivu District",
    "all_tags": {
      "name": "முல்லைத்தீவு மாவட்டம்",
      "name:en": "Mullaitivu District",
      "name:fr": "Mullaitivu",
      "name:ja": "ムッライッティーヴー県",
      "name:si": "මුලතිවු දිස්ත්‍රික්කය",
      "name:ta": "முல்லைத்தீவு மாவட்டம்",
      "boundary": "administrative",
      "way_area": "0.336447",
      "wikidata": "Q1587508",
      "ISO3166-2": "LK-45",
      "admin_level": "5",
      "name:zh-Hans": "穆莱蒂武区",
      "name:zh-Hant": "穆萊蒂武區"
    }
  },
  {
    "osm_id": -3237347,
    "boundary": "administrative",
    "admin_level": 5,
    "parents": "-3237344,-536807",
    "name": "Mannar District",
    "local_name": "மன்னார் மாவட்டம்",
    "name_en": "Mannar District",
    "all_tags": {
      "name": "மன்னார் மாவட்டம்",
      "name:en": "Mannar District",
      "name:fr": "Mannar",
      "name:ja": "マンナール県",
      "name:si": "මන්නාරම දිස්ත්‍රික්කය",
      "name:ta": "மன்னார் மாவட்டம் Maṉṉār Māvaṭṭam",
      "boundary": "administrative",
      "way_area": "0.375886",
      "wikidata": "Q178003",
      "ISO3166-2": "LK-43",
      "admin_level": "5",
      "name:zh-Hans": "马纳尔区",
      "name:zh-Hant": "曼納區"
    }
  },
  {
    "osm_id": -3237346,
    "boundary": "administrative",
    "admin_level": 5,
    "parents": "-3237344,-536807",
    "name": "Kilinochchi District",
    "local_name": "கிளிநொச்சி மாவட்டம்",
    "name_en": "Kilinochchi District",
    "all_tags": {
      "name": "கிளிநொச்சி மாவட்டம்",
      "name:en": "Kilinochchi District",
      "name:fr": "Kilinochchi",
      "name:ja": "キリノッチ県",
      "name:si": "කිලිනොච්චි දිස්ත්‍රික්කය",
      "name:ta": "கிளிநொச்சி மாவட்டம்",
      "boundary": "administrative",
      "way_area": "0.281101",
      "wikidata": "Q1584007",
      "ISO3166-2": "LK-42",
      "admin_level": "5",
      "name:zh-Hans": "基利诺奇区",
      "name:zh-Hant": "基里諾奇區"
    }
  },
  {
    "osm_id": -3237345,
    "boundary": "administrative",
    "admin_level": 5,
    "parents": "-3237344,-536807",
    "name": "Jaffna District",
    "local_name": "யாழ்ப்பாணம் மாவட்டம்",
    "name_en": "Jaffna District",
    "all_tags": {
      "name": "யாழ்ப்பாணம் மாவட்டம்",
      "name:en": "Jaffna District",
      "name:fa": "ناحیه جفنا",
      "name:ja": "ジャフナ県",
      "name:si": "යාපනය දිස්ත්‍රික්කය",
      "name:ta": "யாழ்ப்பாணம் மாவட்டம்",
      "name:ur": "جافنا ضلع",
      "boundary": "administrative",
      "name:pnb": "ضلع جفنا",
      "way_area": "0.502477",
      "wikidata": "Q1520182",
      "ISO3166-2": "LK-41",
      "admin_level": "5",
      "name:zh-Hans": "贾夫纳区",
      "name:zh-Hant": "加夫納區",
      "wikipedia:ur": "جافنا ضلع"
    }
  },
  {
    "osm_id": -3237344,
    "boundary": "administrative",
    "admin_level": 4,
    "parents": "-536807",
    "name": "Northern Province",
    "local_name": "வட மாகாணம்",
    "name_en": "Northern Province",
    "all_tags": {
      "name": "வட மாகாணம்",
      "name:ar": "المقاطعة الشمالية",
      "name:bg": "Северна провинция",
      "name:cs": "Severní provincie",
      "name:de": "Nordprovinz",
      "name:en": "Northern Province",
      "name:es": "Provincia Norte",
      "name:fa": "استان شمالی",
      "name:fr": "Province du Nord",
      "name:it": "Provincia Settentrionale",
      "name:ja": "北部州",
      "name:pt": "Província do Norte",
      "name:ru": "Северная провинция",
      "name:si": "උතුරු පළාත",
      "name:ta": "வட மாகாணம்",
      "name:uk": "Північна провінція",
      "name:ur": "شمالی صوبہ، سری لنکا",
      "boundary": "administrative",
      "way_area": "1.6613",
      "wikidata": "Q598745",
      "ISO3166-2": "LK-4",
      "wikipedia": "ta:வட மாகாணம், இலங்கை",
      "admin_level": "4",
      "name:zh-Hans": "北部省",
      "name:zh-Hant": "北部省",
      "wikipedia:ur": "شمالی صوبہ، سری لنکا"
    }
  },
  {
    "osm_id": -2918582,
    "boundary": "administrative",
    "admin_level": 6,
    "parents": "-5351721,-4630810,-536807",
    "name": "Manmunai North DS Division",
    "local_name": "Manmunai North DS Division",
    "name_en": null,
    "all_tags": {
      "name": "Manmunai North DS Division",
      "ds_code": "5118",
      "boundary": "administrative",
      "way_area": "0.00350365",
      "admin_level": "6",
      "is_in:district": "Batticaloa",
      "is_in:province": "Eastern"
    }
  }
]
