[
  {
    "osm_id": -3659532,
    "boundary": "administrative",
    "admin_level": 6,
    "parents": "-2171347",
    "name": "Germany-Luxembourg condominium",
    "local_name": "Condominium Lëtzebuerg-Deutschland",
    "name_en": "Germany-Luxembourg condominium",
    "all_tags": {
      "name": "Condominium Lëtzebuerg-Deutschland",
      "name:de": "Gemeinsames deutsch-luxemburgisches Hoheitsgebiet",
      "name:en": "Germany-Luxembourg condominium",
      "name:fr": "Condominium germano-luxembourgeois",
      "name:lb": "Gemeinsame Lëtzebuergesch-Däitsche Souveränitéitsgebitt",
      "name:lt": "Vokietijos-Liuksemburgo kondominiumas",
      "boundary": "administrative",
      "ref:nuts": "DEZZZ",
      "way_area": "0.00086805",
      "wikidata": "Q1500976",
      "wikipedia": "de:Gemeinschaftliches deutsch-luxemburgisches Hoheitsgebiet",
      "admin_level": "6",
      "alt_name:fr": "Communauté territoriale germano-luxembourgeoise",
      "alt_name:lb": "Däitsch-lëtzebuergesche Kondominium",
      "admin_level:note": "Does not belong to any Gemeinde in DE or commune in LU; see wiki",
      "de:regionalschluessel": "070009999999",
      "de:amtlicher_gemeindeschluessel": "07000999;10942115"
    }
  },
  {
    "osm_id": -1342842,
    "boundary": "administrative",
    "admin_level": 6,
    "parents": "-2171347",
    "name": "Canton Vianden",
    "local_name": "Canton Vianden",
    "name_en": null,
    "all_tags": {
      "name": "Canton Vianden",
      "place": "county",
      "name:de": "Kanton Vianden",
      "name:lt": "Viandeno kantonas",
      "boundary": "administrative",
      "way_area": "0.00982036",
      "wikidata": "Q845600",
      "ISO3166-2": "LU-VD",
      "wikipedia": "lb:Kanton Veianen",
      "admin_level": "6"
    }
  },
  {
    "osm_id": -1115797,
    "boundary": "administrative",
    "admin_level": 6,
    "parents": "-2171347",
    "name": "Canton Wiltz",
    "local_name": "Canton Wiltz",
    "name_en": null,
    "all_tags": {
      "name": "Canton Wiltz",
      "place": "county",
      "name:de": "Kanton Wiltz",
      "name:lt": "Vilco kantonas",
      "name:ru": "кантон Вильц",
      "boundary": "administrative",
      "way_area": "0.0332884",
      "wikidata": "Q550021",
      "ISO3166-2": "LU-WI",
      "wikipedia": "lb:Kanton Wolz",
      "admin_level": "6"
    }
  },
  {
    "osm_id": -1115796,
    "boundary": "administrative",
    "admin_level": 6,
    "parents": "-2171347",
    "name": "Canton Clervaux",
    "local_name": "Canton Clervaux",
    "name_en": null,
    "all_tags": {
      "name": "Canton Clervaux",
      "place": "county",
      "name:de": "Kanton Clerf",
      "name:lt": "Klervo kantonas",
      "name:ru": "кантон Клерво",
      "boundary": "administrative",
      "way_area": "0.0430996",
      "wikidata": "Q691793",
      "ISO3166-2": "LU-CL",
      "wikipedia": "lb:Kanton Klierf",
      "admin_level": "6"
    }
  },
  {
    "osm_id": -1113898,
    "boundary": "administrative",
    "admin_level": 6,
    "parents": "-2171347",
    "name": "Canton Esch-sur-Alzette",
    "local_name": "Canton Esch-sur-Alzette",
    "name_en": null,
    "all_tags": {
      "name": "Canton Esch-sur-Alzette",
      "place": "county",
      "name:de": "Kanton Esch an der Alzette",
      "name:fr": "Canton Esch-sur-Alzette",
      "name:lt": "Ešo kantonas",
      "name:ru": "кантон Эш-сюр-Альзетт",
      "boundary": "administrative",
      "way_area": "0.0302497",
      "wikidata": "Q188283",
      "ISO3166-2": "LU-ES",
      "wikipedia": "lb:Kanton Esch-Uelzecht",
      "admin_level": "6",
      "border_type": "departement"
    }
  },
  {
    "osm_id": -1113683,
    "boundary": "administrative",
    "admin_level": 6,
    "parents": "-2171347",
    "name": "Canton Diekirch",
    "local_name": "Canton Diekirch",
    "name_en": null,
    "all_tags": {
      "name": "Canton Diekirch",
      "place": "county",
      "name:de": "Kanton Diekirch",
      "name:lt": "Dykircho kantonas",
      "boundary": "administrative",
      "way_area": "0.0255946",
      "wikidata": "Q691842",
      "ISO3166-2": "LU-DI",
      "wikipedia": "lb:Kanton Dikrech",
      "admin_level": "6"
    }
  },
  {
    "osm_id": -660245,
    "boundary": "administrative",
    "admin_level": 6,
    "parents": "-2171347",
    "name": "Canton Redange",
    "local_name": "Canton Redange",
    "name_en": null,
    "all_tags": {
      "name": "Canton Redange",
      "place": "county",
      "name:de": "Kanton Redingen",
      "name:lt": "Redanžo kantonas",
      "name:ru": "кантон Реданж",
      "boundary": "administrative",
      "way_area": "0.0336776",
      "wikidata": "Q835980",
      "ISO3166-2": "LU-RD",
      "wikipedia": "lb:Kanton Réiden",
      "admin_level": "6"
    }
  },
  {
    "osm_id": -407824,
    "boundary": "administrative",
    "admin_level": 6,
    "parents": "-2171347",
    "name": "Canton Luxembourg",
    "local_name": "Canton Luxembourg",
    "name_en": null,
    "all_tags": {
      "name": "Canton Luxembourg",
      "place": "county",
      "name:de": "Kanton Luxemburg",
      "name:fr": "Canton Luxembourg",
      "name:lb": "Kanton Lëtzebuerg",
      "name:lt": "Liuksemburgo kantonas",
      "boundary": "administrative",
      "way_area": "0.0297709",
      "wikidata": "Q691741",
      "ISO3166-2": "LU-LU",
      "wikipedia": "lb:Kanton Lëtzebuerg",
      "admin_level": "6"
    }
  },
  {
    "osm_id": -407813,
    "boundary": "administrative",
    "admin_level": 6,
    "parents": "-2171347",
    "name": "Canton Capellen",
    "local_name": "Canton Capellen",
    "name_en": null,
    "all_tags": {
      "name": "Canton Capellen",
      "place": "county",
      "name:de": "Kanton Kapellen",
      "name:lt": "Kapeleno kantonas",
      "name:ru": "кантон Капеллен",
      "boundary": "administrative",
      "way_area": "0.0248999",
      "wikidata": "Q397678",
      "ISO3166-2": "LU-CA",
      "wikipedia": "lb:Kanton Kapellen",
      "admin_level": "6"
    }
  },
  {
    "osm_id": -407810,
    "boundary": "administrative",
    "admin_level": 6,
    "parents": "-2171347",
    "name": "Canton Mersch",
    "local_name": "Canton Mersch",
    "name_en": null,
    "all_tags": {
      "name": "Canton Mersch",
      "place": "county",
      "name:de": "Kanton Mersch",
      "name:lt": "Meršo kantonas",
      "boundary": "administrative",
      "way_area": "0.0279964",
      "wikidata": "Q753917",
      "ISO3166-2": "LU-ME",
      "wikipedia": "lb:Kanton Miersch",
      "admin_level": "6"
    }
  },
  {
    "osm_id": -407799,
    "boundary": "administrative",
    "admin_level": 6,
    "parents": "-2171347",
    "name": "Canton Remich",
    "local_name": "Canton Remich",
    "name_en": null,
    "all_tags": {
      "name": "Canton Remich",
      "place": "county",
      "name:de": "Kanton Remich",
      "name:lt": "Rėmicho kantonas",
      "name:ru": "кантон Ремих",
      "boundary": "administrative",
      "way_area": "0.0158335",
      "wikidata": "Q691781",
      "ISO3166-2": "LU-RM",
      "wikipedia": "lb:Kanton Réimech",
      "admin_level": "6"
    }
  },
  {
    "osm_id": -407796,
    "boundary": "administrative",
    "admin_level": 6,
    "parents": "-2171347",
    "name": "Canton Grevenmacher",
    "local_name": "Canton Grevenmacher",
    "name_en": null,
    "all_tags": {
      "name": "Canton Grevenmacher",
      "place": "county",
      "name:lt": "Grėvenmacherio kantonas",
      "boundary": "administrative",
      "way_area": "0.0263001",
      "wikidata": "Q836002",
      "ISO3166-2": "LU-GR",
      "wikipedia": "lb:Kanton Gréiwemaacher",
      "admin_level": "6"
    }
  },
  {
    "osm_id": -407792,
    "boundary": "administrative",
    "admin_level": 6,
    "parents": "-2171347",
    "name": "Canton Echternach",
    "local_name": "Canton Echternach",
    "name_en": null,
    "all_tags": {
      "name": "Canton Echternach",
      "place": "county",
      "name:de": "Kanton Echternach",
      "name:lt": "Echternacho kantonas",
      "boundary": "administrative",
      "way_area": "0.0231447",
      "wikidata": "Q720221",
      "ISO3166-2": "LU-EC",
      "wikipedia": "lb:Kanton Iechternach",
      "admin_level": "6"
    }
  }
]
