[
  {
    "osm_id": -13047875,
    "boundary": "administrative",
    "admin_level": 6,
    "parents": "-1775823,-72594",
    "name": "Valmieras novads",
    "local_name": "Valmieras novads",
    "name_en": null,
    "all_tags": {
      "name": "Valmieras novads",
      "boundary": "administrative",
      "way_area": "0.444204",
      "wikidata": "Q97233086",
      "ISO3166-2": "LV-113",
      "wikipedia": "lv:Valmieras novads",
      "start_date": "2021-07-01",
      "admin_level": "6"
    }
  },
  {
    "osm_id": -13047882,
    "boundary": "administrative",
    "admin_level": 6,
    "parents": "-1775676,-72594",
    "name": "Talsu novads",
    "local_name": "Talsu novads",
    "name_en": null,
    "all_tags": {
      "name": "Talsu novads",
      "boundary": "administrative",
      "way_area": "0.410314",
      "wikidata": "Q97232890",
      "ISO3166-2": "LV-097",
      "start_date": "2021-07-01",
      "admin_level": "6"
    }
  },
  {
    "osm_id": -13047867,
    "boundary": "administrative",
    "admin_level": 6,
    "parents": "-1775676,-72594",
    "name": "Ventspils novads",
    "local_name": "Ventspils novads",
    "name_en": null,
    "all_tags": {
      "name": "Ventspils novads",
      "boundary": "administrative",
      "way_area": "0.366453",
      "wikidata": "Q1345325",
      "ISO3166-2": "LV-106",
      "start_date": "2021-07-01",
      "admin_level": "6"
    }
  },
  {
    "osm_id": -13047870,
    "boundary": "administrative",
    "admin_level": 6,
    "parents": "-1775821,-72594",
    "name": "Augšdaugavas novads",
    "local_name": "Augšdaugavas novads",
    "name_en": null,
    "all_tags": {
      "name": "Augšdaugavas novads",
      "boundary": "administrative",
      "way_area": "0.362764",
      "wikidata": "Q97230083",
      "ISO3166-2": "LV-111",
      "start_date": "2021-07-01",
      "admin_level": "6"
    }
  },
  {
    "osm_id": -1797378,
    "boundary": "historic",
    "admin_level": 6,
    "parents": "-1775823,-72594",
    "name": "Alūksnes novads",
    "local_name": "Alūksnes novads",
    "name_en": null,
    "all_tags": {
      "name": "Alūksnes novads",
      "name:lt": "Alūksnės savivaldybė",
      "name:lv": "Alūksnes novads",
      "name:ru": "Алуксненский край",
      "boundary": "historic",
      "end_date": "2021-07-01",
      "name:ltg": "Olyuksnys nūvods",
      "way_area": "0.25374",
      "wikidata": "Q3393445",
      "ISO3166-2": "LV-007",
      "wikipedia": "lv:Alūksnes novads",
      "admin_level": "6",
      "historic:boundary": "administrative"
    }
  },
  {
    "osm_id": -1781277,
    "boundary": "historic",
    "admin_level": 6,
    "parents": "-1775823,-72594",
    "name": "Limbažu novads",
    "local_name": "Limbažu novads",
    "name_en": null,
    "all_tags": {
      "name": "Limbažu novads",
      "name:ru": "Лимбажский край",
      "boundary": "historic",
      "end_date": "2021-07-01",
      "way_area": "0.175476",
      "wikidata": "Q1579076",
      "ISO3166-2": "LV-054",
      "wikipedia": "lv:Limbažu novads",
      "admin_level": "6",
      "historic:boundary": "administrative"
    }
  },
  {
    "osm_id": -1797383,
    "boundary": "historic",
    "admin_level": 6,
    "parents": "-1775823,-72594",
    "name": "Burtnieku novads",
    "local_name": "Burtnieku novads",
    "name_en": null,
    "all_tags": {
      "name": "Burtnieku novads",
      "name:lv": "Burtnieku novads",
      "name:ru": "Буртниекский край",
      "boundary": "historic",
      "end_date": "2021-07-01",
      "way_area": "0.105811",
      "wikidata": "Q2079428",
      "ISO3166-2": "LV-019",
      "wikipedia": "lv:Burtnieku novads",
      "admin_level": "6",
      "historic:boundary": "administrative"
    }
  },
  {
    "osm_id": -1797377,
    "boundary": "historic",
    "admin_level": 6,
    "parents": "-1775823,-72594",
    "name": "Alojas novads",
    "local_name": "Alojas novads",
    "name_en": null,
    "all_tags": {
      "name": "Alojas novads",
      "name:ru": "Алойский край",
      "boundary": "historic",
      "end_date": "2021-07-01",
      "way_area": "0.0953321",
      "wikidata": "Q2989420",
      "ISO3166-2": "LV-005",
      "wikipedia": "lv:Alojas novads",
      "admin_level": "6",
      "historic:boundary": "administrative"
    }
  },
  {
    "osm_id": -1781246,
    "boundary": "historic",
    "admin_level": 6,
    "parents": "-1775676,-72594",
    "name": "Engures novads",
    "local_name": "Engures novads",
    "name_en": null,
    "all_tags": {
      "name": "Engures novads",
      "name:de": "Bezirk Angern",
      "name:lt": "Engurės savivaldybė",
      "name:lv": "Engures novads",
      "boundary": "historic",
      "end_date": "2021-07-01",
      "way_area": "0.0586415",
      "wikidata": "Q2079455",
      "ISO3166-2": "LV-029",
      "wikipedia": "lv:Engures novads",
      "admin_level": "6",
      "historic:boundary": "administrative"
    }
  },
  {
    "osm_id": -1806929,
    "boundary": "historic",
    "admin_level": 6,
    "parents": "-1775821,-72594",
    "name": "Dagdas novads",
    "local_name": "Dagdas novads",
    "name_en": null,
    "all_tags": {
      "name": "Dagdas novads",
      "name:lt": "Dagdos savivaldybė",
      "name:lv": "Dagdas novads",
      "name:ru": "Дагдский край",
      "boundary": "historic",
      "end_date": "2021-07-01",
      "name:ltg": "Dagdys nūvods",
      "way_area": "0.137082",
      "wikidata": "Q2361131",
      "ISO3166-2": "LV-024",
      "wikipedia": "lv:Dagdas novads",
      "admin_level": "6",
      "historic:boundary": "administrative"
    }
  },
  {
    "osm_id": -13047856,
    "boundary": "administrative",
    "admin_level": 6,
    "parents": "-1775823,-72594",
    "name": "Alūksnes novads",
    "local_name": "Alūksnes novads",
    "name_en": null,
    "all_tags": {
      "name": "Alūksnes novads",
      "boundary": "administrative",
      "way_area": "0.25374",
      "wikidata": "Q3393445",
      "ISO3166-2": "LV-007",
      "start_date": "2021-07-01",
      "admin_level": "6"
    }
  },
  {
    "osm_id": -1797382,
    "boundary": "historic",
    "admin_level": 6,
    "parents": "-1775821,-72594",
    "name": "Balvu novads",
    "local_name": "Balvu novads",
    "name_en": null,
    "all_tags": {
      "name": "Balvu novads",
      "name:lt": "Balvų savivaldybė",
      "name:lv": "Balvu novads",
      "name:ru": "Балвский край",
      "boundary": "historic",
      "end_date": "2021-07-01",
      "name:ltg": "Bolvu nūvods",
      "way_area": "0.154554",
      "wikidata": "Q2018672",
      "ISO3166-2": "LV-015",
      "wikipedia": "lv:Balvu novads",
      "admin_level": "6",
      "historic:boundary": "administrative"
    }
  },
  {
    "osm_id": -1781250,
    "boundary": "historic",
    "admin_level": 6,
    "parents": "-1775647,-72594",
    "name": "Jelgavas novads",
    "local_name": "Jelgavas novads",
    "name_en": null,
    "all_tags": {
      "name": "Jelgavas novads",
      "name:lt": "Jelgavos savivaldybė",
      "name:lv": "Jelgavas novads",
      "name:pl": "Powiat Jełgawa",
      "boundary": "historic",
      "end_date": "2021-07-01",
      "way_area": "0.192605",
      "wikidata": "Q1579113",
      "ISO3166-2": "LV-041",
      "wikipedia": "lv:Jelgavas novads",
      "admin_level": "6",
      "historic:boundary": "administrative"
    }
  },
  {
    "osm_id": -1811625,
    "boundary": "historic",
    "admin_level": 6,
    "parents": "-1775647,-72594",
    "name": "Jaunjelgavas novads",
    "local_name": "Jaunjelgavas novads",
    "name_en": null,
    "all_tags": {
      "name": "Jaunjelgavas novads",
      "name:pl": "gmina Frydrychsztat",
      "name:ru": "Яунелгавский край",
      "boundary": "historic",
      "end_date": "2021-07-01",
      "way_area": "0.0998717",
      "wikidata": "Q2880128",
      "ISO3166-2": "LV-038",
      "wikipedia": "lv:Jaunjelgavas novads",
      "admin_level": "6",
      "historic:boundary": "administrative"
    }
  },
  {
    "osm_id": -13047872,
    "boundary": "administrative",
    "admin_level": 6,
    "parents": "-1775821,-72594",
    "name": "Ludzas novads",
    "local_name": "Ludzas novads",
    "name_en": null,
    "all_tags": {
      "name": "Ludzas novads",
      "boundary": "administrative",
      "way_area": "0.351845",
      "wikidata": "Q97231943",
      "ISO3166-2": "LV-058",
      "start_date": "2021-07-01",
      "admin_level": "6"
    }
  },
  {
    "osm_id": -1797389,
    "boundary": "historic",
    "admin_level": 6,
    "parents": "-1775821,-72594",
    "name": "Rugāju novads",
    "local_name": "Rugāju novads",
    "name_en": null,
    "all_tags": {
      "name": "Rugāju novads",
      "name:lt": "Rugajų savivaldybė",
      "name:lv": "Rugāju novads",
      "name:ru": "Ругайский край",
      "boundary": "historic",
      "end_date": "2021-07-01",
      "way_area": "0.0760449",
      "wikidata": "Q1837354",
      "ISO3166-2": "LV-082",
      "wikipedia": "lv:Rugāju novads",
      "admin_level": "6",
      "historic:boundary": "administrative"
    }
  },
  {
    "osm_id": -13048686,
    "boundary": "administrative",
    "admin_level": 6,
    "parents": "-1775676,-72594",
    "name": "Ventspils",
    "local_name": "Ventspils",
    "name_en": null,
    "all_tags": {
      "name": "Ventspils",
      "name:be": "Віндава",
      "name:de": "Windau",
      "name:et": "Vindavi",
      "name:lt": "Ventspilis",
      "name:lv": "Ventspils",
      "name:pl": "Windawa",
      "name:ru": "Вентспилс",
      "boundary": "administrative",
      "name:ltg": "Ventspiļs",
      "name:sgs": "Vėntspėlis",
      "way_area": "0.00867756",
      "start_date": "2021-07-01",
      "admin_level": "6",
      "alt_name:be": "Вэнтспілс",
      "old_name:ru": "Виндава"
    }
  },
  {
    "osm_id": -1781255,
    "boundary": "historic",
    "admin_level": 6,
    "parents": "-1775676,-72594",
    "name": "Nīcas novads",
    "local_name": "Nīcas novads",
    "name_en": null,
    "all_tags": {
      "name": "Nīcas novads",
      "name:ru": "Ницский край",
      "boundary": "historic",
      "end_date": "2021-07-01",
      "way_area": "0.050989",
      "wikidata": "Q1950456",
      "ISO3166-2": "LV-066",
      "wikipedia": "lv:Nīcas novads",
      "admin_level": "6",
      "historic:boundary": "administrative"
    }
  },
  {
    "osm_id": -1781247,
    "boundary": "historic",
    "admin_level": 6,
    "parents": "-1775676,-72594",
    "name": "Grobiņas novads",
    "local_name": "Grobiņas novads",
    "name_en": null,
    "all_tags": {
      "name": "Grobiņas novads",
      "name:ru": "Гробинский край",
      "boundary": "historic",
      "end_date": "2021-07-01",
      "way_area": "0.0714053",
      "wikidata": "Q2320320",
      "ISO3166-2": "LV-032",
      "wikipedia": "lv:Grobiņas novads",
      "admin_level": "6",
      "historic:boundary": "administrative"
    }
  },
  {
    "osm_id": -1781257,
    "boundary": "historic",
    "admin_level": 6,
    "parents": "-1775676,-72594",
    "name": "Priekules novads",
    "local_name": "Priekules novads",
    "name_en": null,
    "all_tags": {
      "name": "Priekules novads",
      "name:ja": "プリエクリ",
      "name:ru": "Приекульский край",
      "boundary": "historic",
      "end_date": "2021-07-01",
      "way_area": "0.0756972",
      "wikidata": "Q2304893",
      "ISO3166-2": "LV-074",
      "wikipedia": "lv:Priekules novads",
      "admin_level": "6",
      "historic:boundary": "administrative"
    }
  },
  {
    "osm_id": -13047884,
    "boundary": "administrative",
    "admin_level": 6,
    "parents": "-1775676,-72594",
    "name": "Dienvidkurzemes novads",
    "local_name": "Dienvidkurzemes novads",
    "name_en": null,
    "all_tags": {
      "name": "Dienvidkurzemes novads",
      "boundary": "administrative",
      "way_area": "0.52411",
      "wikidata": "Q97230452",
      "ISO3166-2": "LV-112",
      "start_date": "2021-07-01",
      "admin_level": "6"
    }
  },
  {
    "osm_id": -1781237,
    "boundary": "historic",
    "admin_level": 6,
    "parents": "-1775676,-72594",
    "name": "Aizputes novads",
    "local_name": "Aizputes novads",
    "name_en": null,
    "all_tags": {
      "name": "Aizputes novads",
      "name:ja": "アイズプテ",
      "name:ru": "Айзпутский край",
      "boundary": "historic",
      "end_date": "2021-07-01",
      "way_area": "0.0938673",
      "wikidata": "Q2485015",
      "ISO3166-2": "LV-003",
      "wikipedia": "lv:Aizputes novads",
      "admin_level": "6",
      "historic:boundary": "administrative"
    }
  },
  {
    "osm_id": -1781265,
    "boundary": "historic",
    "admin_level": 6,
    "parents": "-1775676,-72594",
    "name": "Vaiņodes novads",
    "local_name": "Vaiņodes novads",
    "name_en": null,
    "all_tags": {
      "name": "Vaiņodes novads",
      "name:lv": "Vaiņodes novads",
      "name:ru": "Вайнёдский край",
      "boundary": "historic",
      "end_date": "2021-07-01",
      "way_area": "0.0447004",
      "wikidata": "Q511151",
      "ISO3166-2": "LV-100",
      "wikipedia": "lv:Vaiņodes novads",
      "admin_level": "6",
      "historic:boundary": "administrative"
    }
  },
  {
    "osm_id": -13047883,
    "boundary": "administrative",
    "admin_level": 6,
    "parents": "-1775676,-72594",
    "name": "Kuldīgas novads",
    "local_name": "Kuldīgas novads",
    "name_en": null,
    "all_tags": {
      "name": "Kuldīgas novads",
      "boundary": "administrative",
      "way_area": "0.36896",
      "wikidata": "Q97231583",
      "ISO3166-2": "LV-050",
      "start_date": "2021-07-01",
      "admin_level": "6"
    }
  },
  {
    "osm_id": -13047880,
    "boundary": "administrative",
    "admin_level": 6,
    "parents": "-1775676,-72594",
    "name": "Saldus novads",
    "local_name": "Saldus novads",
    "name_en": null,
    "all_tags": {
      "name": "Saldus novads",
      "boundary": "administrative",
      "way_area": "0.31875",
      "wikidata": "Q97232673",
      "ISO3166-2": "LV-088",
      "start_date": "2021-07-01",
      "admin_level": "6"
    }
  },
  {
    "osm_id": -1764649,
    "boundary": "historic",
    "admin_level": 6,
    "parents": "-1775676,-72594",
    "name": "Saldus novads",
    "local_name": "Saldus novads",
    "name_en": null,
    "all_tags": {
      "name": "Saldus novads",
      "name:de": "Bezirk Frauenburg",
      "name:lv": "Saldus novads",
      "name:ru": "Салдусский край",
      "boundary": "historic",
      "end_date": "2021-07-01",
      "way_area": "0.24459",
      "wikidata": "Q2299261",
      "ISO3166-2": "LV-088",
      "wikipedia": "lv:Saldus novads",
      "admin_level": "6",
      "historic:boundary": "administrative"
    }
  },
  {
    "osm_id": -1775676,
    "boundary": "administrative",
    "admin_level": 4,
    "parents": "-72594",
    "name": "Courland",
    "local_name": "Kurzeme",
    "name_en": "Courland",
    "all_tags": {
      "name": "Kurzeme",
      "name:ar": "كورلاند",
      "name:be": "Курляндыя",
      "name:bg": "Курландия",
      "name:ca": "Curlàndia",
      "name:cs": "Kuronsko",
      "name:de": "Kurland",
      "name:en": "Courland",
      "name:es": "Curlandia",
      "name:et": "Kuramaa",
      "name:fi": "Kuurinmaa",
      "name:fr": "Kurzeme",
      "name:it": "Curlandia",
      "name:ja": "クールラント",
      "name:ka": "კურლანდია",
      "name:ko": "쿠를란트",
      "name:lt": "Kuršas",
      "name:lv": "Kurzeme",
      "name:nl": "Koerland",
      "name:pl": "Kurlandia",
      "name:pt": "Curlândia",
      "name:ru": "Курземе",
      "name:sk": "Kurónsko",
      "name:tr": "Kurlandiya",
      "name:zh": "庫爾蘭",
      "boundary": "administrative",
      "way_area": "2.36771",
      "wikidata": "Q185072",
      "wikipedia": "lv:Kurzeme",
      "admin_level": "4",
      "name:be-tarask": "Курляндыя"
    }
  },
  {
    "osm_id": -1781244,
    "boundary": "historic",
    "admin_level": 6,
    "parents": "-1775676,-72594",
    "name": "Dundagas novads",
    "local_name": "Dundagas novads",
    "name_en": null,
    "all_tags": {
      "name": "Dundagas novads",
      "name:de": "Bezirk Dondangen",
      "boundary": "historic",
      "end_date": "2021-07-01",
      "way_area": "0.101485",
      "wikidata": "Q2274832",
      "ISO3166-2": "LV-027",
      "wikipedia": "lv:Dundagas novads",
      "admin_level": "6",
      "historic:boundary": "administrative"
    }
  },
  {
    "osm_id": -1806924,
    "boundary": "historic",
    "admin_level": 6,
    "parents": "-1775647,-72594",
    "name": "Aknīstes novads",
    "local_name": "Aknīstes novads",
    "name_en": null,
    "all_tags": {
      "name": "Aknīstes novads",
      "name:lv": "Aknīstes novads",
      "name:ru": "Акнистский край",
      "boundary": "historic",
      "end_date": "2021-07-01",
      "way_area": "0.0411393",
      "wikidata": "Q865658",
      "ISO3166-2": "LV-004",
      "wikipedia": "lv:Aknīstes novads",
      "admin_level": "6",
      "historic:boundary": "administrative"
    }
  },
  {
    "osm_id": -1806935,
    "boundary": "historic",
    "admin_level": 6,
    "parents": "-1775821,-72594",
    "name": "Ilūkstes novads",
    "local_name": "Ilūkstes novads",
    "name_en": null,
    "all_tags": {
      "name": "Ilūkstes novads",
      "name:lt": "Alūkstos savivaldybė",
      "name:lv": "Ilūkstes novads",
      "name:ru": "Илукстский край",
      "boundary": "historic",
      "end_date": "2021-07-01",
      "way_area": "0.0932274",
      "wikidata": "Q2025473",
      "ISO3166-2": "LV-036",
      "wikipedia": "lv:Ilūkstes novads",
      "admin_level": "6",
      "historic:boundary": "administrative"
    }
  },
  {
    "osm_id": -13047973,
    "boundary": "administrative",
    "admin_level": 6,
    "parents": "-1775821,-72594",
    "name": "Krāslavas novads",
    "local_name": "Krāslavas novads",
    "name_en": null,
    "all_tags": {
      "name": "Krāslavas novads",
      "boundary": "administrative",
      "way_area": "0.329706",
      "wikidata": "Q97231555",
      "ISO3166-2": "LV-047",
      "start_date": "2021-07-01",
      "admin_level": "6"
    }
  },
  {
    "osm_id": -1781241,
    "boundary": "historic",
    "admin_level": 6,
    "parents": "-1775676,-72594",
    "name": "Brocēnu novads",
    "local_name": "Brocēnu novads",
    "name_en": null,
    "all_tags": {
      "name": "Brocēnu novads",
      "name:ru": "Броценский край",
      "boundary": "historic",
      "end_date": "2021-07-01",
      "way_area": "0.07416",
      "wikidata": "Q865717",
      "ISO3166-2": "LV-018",
      "wikipedia": "lv:Brocēnu novads",
      "admin_level": "6",
      "historic:boundary": "administrative"
    }
  },
  {
    "osm_id": -1781248,
    "boundary": "historic",
    "admin_level": 6,
    "parents": "-1775676,-72594",
    "name": "Jaunpils novads",
    "local_name": "Jaunpils novads",
    "name_en": null,
    "all_tags": {
      "name": "Jaunpils novads",
      "boundary": "historic",
      "end_date": "2021-07-01",
      "way_area": "0.0307623",
      "wikidata": "Q2072154",
      "ISO3166-2": "LV-040",
      "wikipedia": "lv:Jaunpils novads",
      "admin_level": "6",
      "historic:boundary": "administrative"
    }
  },
  {
    "osm_id": -1781243,
    "boundary": "historic",
    "admin_level": 6,
    "parents": "-1775647,-72594",
    "name": "Dobeles novads",
    "local_name": "Dobeles novads",
    "name_en": null,
    "all_tags": {
      "name": "Dobeles novads",
      "name:de": "Bezirk Doblen",
      "boundary": "historic",
      "end_date": "2021-07-01",
      "way_area": "0.129951",
      "wikidata": "Q519580",
      "ISO3166-2": "LV-026",
      "wikipedia": "lv:Dobeles novads",
      "admin_level": "6",
      "historic:boundary": "administrative"
    }
  },
  {
    "osm_id": -1764656,
    "boundary": "historic",
    "admin_level": 6,
    "parents": "-1775647,-72594",
    "name": "Tērvetes novads",
    "local_name": "Tērvetes novads",
    "name_en": null,
    "all_tags": {
      "name": "Tērvetes novads",
      "name:lv": "Tērvetes novads",
      "name:ru": "Терветский край",
      "boundary": "historic",
      "end_date": "2021-07-01",
      "way_area": "0.0325757",
      "wikidata": "Q2269685",
      "ISO3166-2": "LV-098",
      "wikipedia": "lv:Tērvetes novads",
      "admin_level": "6",
      "historic:boundary": "administrative"
    }
  },
  {
    "osm_id": -13047878,
    "boundary": "administrative",
    "admin_level": 6,
    "parents": "-1775647,-72594",
    "name": "Jelgavas novads",
    "local_name": "Jelgavas novads",
    "name_en": null,
    "all_tags": {
      "name": "Jelgavas novads",
      "boundary": "administrative",
      "way_area": "0.234471",
      "wikidata": "Q97231093",
      "ISO3166-2": "LV-041",
      "start_date": "2021-07-01",
      "admin_level": "6"
    }
  },
  {
    "osm_id": -1781256,
    "boundary": "historic",
    "admin_level": 6,
    "parents": "-1775647,-72594",
    "name": "Ozolnieku novads",
    "local_name": "Ozolnieku novads",
    "name_en": null,
    "all_tags": {
      "name": "Ozolnieku novads",
      "boundary": "historic",
      "end_date": "2021-07-01",
      "way_area": "0.0418663",
      "wikidata": "Q2304926",
      "ISO3166-2": "LV-069",
      "wikipedia": "lv:Ozolnieku novads",
      "admin_level": "6",
      "historic:boundary": "administrative"
    }
  },
  {
    "osm_id": -13047859,
    "boundary": "administrative",
    "admin_level": 6,
    "parents": "-1775823,-72594",
    "name": "Mārupes novads",
    "local_name": "Mārupes novads",
    "name_en": null,
    "all_tags": {
      "name": "Mārupes novads",
      "boundary": "administrative",
      "way_area": "0.0511583",
      "wikidata": "Q97232200",
      "ISO3166-2": "LV-062",
      "start_date": "2021-07-01",
      "admin_level": "6"
    }
  },
  {
    "osm_id": -1781251,
    "boundary": "historic",
    "admin_level": 6,
    "parents": "-1775676,-72594",
    "name": "Kandavas novads",
    "local_name": "Kandavas novads",
    "name_en": null,
    "all_tags": {
      "name": "Kandavas novads",
      "name:lt": "Kandavos savivaldybė",
      "name:lv": "Kandavas novads",
      "boundary": "historic",
      "end_date": "2021-07-01",
      "way_area": "0.0958646",
      "wikidata": "Q2024643",
      "ISO3166-2": "LV-043",
      "wikipedia": "lv:Kandavas novads",
      "admin_level": "6",
      "historic:boundary": "administrative"
    }
  },
  {
    "osm_id": -1781263,
    "boundary": "historic",
    "admin_level": 6,
    "parents": "-1775676,-72594",
    "name": "Talsu novads",
    "local_name": "Talsu novads",
    "name_en": null,
    "all_tags": {
      "name": "Talsu novads",
      "name:lt": "Talsų savivaldybė",
      "name:lv": "Talsu novads",
      "boundary": "historic",
      "end_date": "2021-07-01",
      "way_area": "0.262477",
      "wikidata": "Q2302964",
      "ISO3166-2": "LV-097",
      "wikipedia": "lv:Talsu novads",
      "admin_level": "6",
      "historic:boundary": "administrative"
    }
  },
  {
    "osm_id": -13047881,
    "boundary": "administrative",
    "admin_level": 6,
    "parents": "-1775676,-72594",
    "name": "Tukuma novads",
    "local_name": "Tukuma novads",
    "name_en": null,
    "all_tags": {
      "name": "Tukuma novads",
      "boundary": "administrative",
      "way_area": "0.361577",
      "wikidata": "Q97232977",
      "ISO3166-2": "LV-099",
      "start_date": "2021-07-01",
      "admin_level": "6"
    }
  },
  {
    "osm_id": -1781264,
    "boundary": "historic",
    "admin_level": 6,
    "parents": "-1775676,-72594",
    "name": "Tukuma novads",
    "local_name": "Tukuma novads",
    "name_en": null,
    "all_tags": {
      "name": "Tukuma novads",
      "name:lt": "Tukumo savivaldybė",
      "name:lv": "Tukuma novads",
      "boundary": "historic",
      "end_date": "2021-07-01",
      "way_area": "0.176308",
      "wikidata": "Q369007",
      "ISO3166-2": "LV-099",
      "wikipedia": "lv:Tukuma novads",
      "admin_level": "6",
      "historic:boundary": "administrative"
    }
  },
  {
    "osm_id": -13048687,
    "boundary": "administrative",
    "admin_level": 6,
    "parents": "-1775823,-72594",
    "name": "Jūrmala",
    "local_name": "Jūrmala",
    "name_en": null,
    "all_tags": {
      "name": "Jūrmala",
      "boundary": "administrative",
      "way_area": "0.0149081",
      "wikidata": "Q178382",
      "start_date": "2021-07-01",
      "admin_level": "6"
    }
  },
  {
    "osm_id": -1781261,
    "boundary": "historic",
    "admin_level": 6,
    "parents": "-1775647,-72594",
    "name": "Rundāles novads",
    "local_name": "Rundāles novads",
    "name_en": null,
    "all_tags": {
      "name": "Rundāles novads",
      "boundary": "historic",
      "end_date": "2021-07-01",
      "way_area": "0.0336655",
      "wikidata": "Q2122124",
      "ISO3166-2": "LV-083",
      "wikipedia": "lv:Rundāles novads",
      "admin_level": "6",
      "historic:boundary": "administrative"
    }
  },
  {
    "osm_id": -13047946,
    "boundary": "administrative",
    "admin_level": 6,
    "parents": "-1775823,-72594",
    "name": "Ķekavas novads",
    "local_name": "Ķekavas novads",
    "name_en": null,
    "all_tags": {
      "name": "Ķekavas novads",
      "boundary": "administrative",
      "way_area": "0.0652392",
      "wikidata": "Q97233440",
      "ISO3166-2": "LV-052",
      "start_date": "2021-07-01",
      "admin_level": "6"
    }
  },
  {
    "osm_id": -1811635,
    "boundary": "historic",
    "admin_level": 6,
    "parents": "-1775647,-72594",
    "name": "Vecumnieku novads",
    "local_name": "Vecumnieku novads",
    "name_en": null,
    "all_tags": {
      "name": "Vecumnieku novads",
      "name:ja": "ヴェツムニエキ",
      "name:lt": "Vecumniekų savivaldybė",
      "name:lv": "Vecumnieku novads",
      "name:ru": "Вецумниекский край",
      "boundary": "historic",
      "end_date": "2021-07-01",
      "way_area": "0.123289",
      "wikidata": "Q2299436",
      "ISO3166-2": "LV-105",
      "wikipedia": "lv:Vecumnieku novads",
      "admin_level": "6",
      "historic:boundary": "administrative"
    }
  },
  {
    "osm_id": -1775647,
    "boundary": "administrative",
    "admin_level": 4,
    "parents": "-72594",
    "name": "Zemgale",
    "local_name": "Zemgale",
    "name_en": "Zemgale",
    "all_tags": {
      "name": "Zemgale",
      "name:be": "Зэмгалэ",
      "name:de": "Semgallen",
      "name:en": "Zemgale",
      "name:es": "Semigalia",
      "name:fr": "Zemgale",
      "name:it": "Semgallia",
      "name:ja": "ゼムガレ",
      "name:lt": "Žiemgala",
      "name:lv": "Zemgale",
      "name:pl": "Semigalia",
      "name:pt": "Semigola",
      "name:ru": "Земгале",
      "name:sv": "Semgallen",
      "name:uk": "Земгале",
      "boundary": "administrative",
      "ref:nuts": "LV009",
      "way_area": "1.83581",
      "wikidata": "Q215389",
      "wikipedia": "lv:Zemgale",
      "ref:nuts:3": "LV009",
      "admin_level": "4",
      "alt_name:ru": "Земгалия",
      "name:be-tarask": "Зэмгалэ"
    }
  },
  {
    "osm_id": -13047866,
    "boundary": "administrative",
    "admin_level": 6,
    "parents": "-1775647,-72594",
    "name": "Ogres novads",
    "local_name": "Ogres novads",
    "name_en": null,
    "all_tags": {
      "name": "Ogres novads",
      "boundary": "administrative",
      "way_area": "0.270263",
      "wikidata": "Q97232220",
      "ISO3166-2": "LV-067",
      "start_date": "2021-07-01",
      "admin_level": "6"
    }
  },
  {
    "osm_id": -13048688,
    "boundary": "administrative",
    "admin_level": 6,
    "parents": "-1775823,-72594",
    "name": "Rīga",
    "local_name": "Rīga",
    "name_en": null,
    "all_tags": {
      "name": "Rīga",
      "boundary": "administrative",
      "way_area": "0.0449062",
      "wikidata": "Q1773",
      "start_date": "2021-07-01",
      "admin_level": "6"
    }
  },
  {
    "osm_id": -13047861,
    "boundary": "administrative",
    "admin_level": 6,
    "parents": "-1775823,-72594",
    "name": "Ādažu novads",
    "local_name": "Ādažu novads",
    "name_en": null,
    "all_tags": {
      "name": "Ādažu novads",
      "name:ru": "Адажский",
      "boundary": "administrative",
      "way_area": "0.0360481",
      "wikidata": "Q97233421",
      "ISO3166-2": "LV-011",
      "start_date": "2021-07-01",
      "admin_level": "6"
    }
  },
  {
    "osm_id": -13047860,
    "boundary": "administrative",
    "admin_level": 6,
    "parents": "-1775823,-72594",
    "name": "Ropažu novads",
    "local_name": "Ropažu novads",
    "name_en": null,
    "all_tags": {
      "name": "Ropažu novads",
      "boundary": "administrative",
      "way_area": "0.0791389",
      "wikidata": "Q97232560",
      "ISO3166-2": "LV-080",
      "start_date": "2021-07-01",
      "admin_level": "6"
    }
  },
  {
    "osm_id": -13047862,
    "boundary": "administrative",
    "admin_level": 6,
    "parents": "-1775823,-72594",
    "name": "Saulkrastu novads",
    "local_name": "Saulkrastu novads",
    "name_en": null,
    "all_tags": {
      "name": "Saulkrastu novads",
      "boundary": "administrative",
      "way_area": "0.0412892",
      "wikidata": "Q97232692",
      "ISO3166-2": "LV-089",
      "start_date": "2021-07-01",
      "admin_level": "6"
    }
  },
  {
    "osm_id": -1797390,
    "boundary": "historic",
    "admin_level": 6,
    "parents": "-1775823,-72594",
    "name": "Rūjienas novads",
    "local_name": "Rūjienas novads",
    "name_en": null,
    "all_tags": {
      "name": "Rūjienas novads",
      "name:ru": "Руйиенский край",
      "boundary": "historic",
      "end_date": "2021-07-01",
      "way_area": "0.0534611",
      "wikidata": "Q2299415",
      "ISO3166-2": "LV-084",
      "wikipedia": "lv:Rūjienas novads",
      "admin_level": "6",
      "historic:boundary": "administrative"
    }
  },
  {
    "osm_id": -1797387,
    "boundary": "historic",
    "admin_level": 6,
    "parents": "-1775823,-72594",
    "name": "Mazsalaca county",
    "local_name": "Mazsalacas novads",
    "name_en": "Mazsalaca county",
    "all_tags": {
      "name": "Mazsalacas novads",
      "name:en": "Mazsalaca county",
      "name:et": "Mazsalaca piirkond",
      "name:ru": "Мазсалацский край",
      "boundary": "historic",
      "end_date": "2021-07-01",
      "way_area": "0.0632227",
      "wikidata": "Q2283334",
      "ISO3166-2": "LV-060",
      "wikipedia": "lv:Mazsalacas novads",
      "admin_level": "6",
      "historic:boundary": "administrative"
    }
  },
  {
    "osm_id": -1811636,
    "boundary": "historic",
    "admin_level": 6,
    "parents": "-1775647,-72594",
    "name": "Viesītes novads",
    "local_name": "Viesītes novads",
    "name_en": null,
    "all_tags": {
      "name": "Viesītes novads",
      "name:lt": "Viesytės savivaldybė",
      "name:lv": "Viesītes novads",
      "name:ru": "Виеситский край",
      "boundary": "historic",
      "end_date": "2021-07-01",
      "way_area": "0.0944675",
      "wikidata": "Q2093996",
      "ISO3166-2": "LV-107",
      "wikipedia": "lv:Viesītes novads",
      "admin_level": "6",
      "historic:boundary": "administrative"
    }
  },
  {
    "osm_id": -13047869,
    "boundary": "administrative",
    "admin_level": 6,
    "parents": "-1775647,-72594",
    "name": "Aizkraukles novads",
    "local_name": "Aizkraukles novads",
    "name_en": null,
    "all_tags": {
      "name": "Aizkraukles novads",
      "boundary": "administrative",
      "way_area": "0.331877",
      "wikidata": "Q97229842",
      "ISO3166-2": "LV-002",
      "start_date": "2021-07-01",
      "admin_level": "6"
    }
  },
  {
    "osm_id": -13047868,
    "boundary": "administrative",
    "admin_level": 6,
    "parents": "-1775647,-72594",
    "name": "Jēkabpils novads",
    "local_name": "Jēkabpils novads",
    "name_en": null,
    "all_tags": {
      "name": "Jēkabpils novads",
      "boundary": "administrative",
      "way_area": "0.435425",
      "wikidata": "Q97231194",
      "ISO3166-2": "LV-042",
      "start_date": "2021-07-01",
      "admin_level": "6"
    }
  },
  {
    "osm_id": -1806937,
    "boundary": "historic",
    "admin_level": 6,
    "parents": "-1775647,-72594",
    "name": "Jēkabpils novads",
    "local_name": "Jēkabpils novads",
    "name_en": null,
    "all_tags": {
      "name": "Jēkabpils novads",
      "name:lt": "Jėkabpilio savivaldybė",
      "name:lv": "Jēkabpils novads",
      "name:ru": "Екабпилсский край",
      "boundary": "historic",
      "end_date": "2021-07-01",
      "way_area": "0.131321",
      "wikidata": "Q1579101",
      "ISO3166-2": "LV-042",
      "wikipedia": "lv:Jēkabpils novads",
      "admin_level": "6",
      "historic:boundary": "administrative"
    }
  },
  {
    "osm_id": -1811632,
    "boundary": "historic",
    "admin_level": 6,
    "parents": "-1775647,-72594",
    "name": "Salas novads",
    "local_name": "Salas novads",
    "name_en": null,
    "all_tags": {
      "name": "Salas novads",
      "name:ru": "Салский край",
      "boundary": "historic",
      "end_date": "2021-07-01",
      "way_area": "0.0462568",
      "wikidata": "Q2375848",
      "ISO3166-2": "LV-085",
      "wikipedia": "lv:Salas novads",
      "admin_level": "6",
      "historic:boundary": "administrative"
    }
  },
  {
    "osm_id": -1811626,
    "boundary": "historic",
    "admin_level": 6,
    "parents": "-1775647,-72594",
    "name": "Kokneses novads",
    "local_name": "Kokneses novads",
    "name_en": null,
    "all_tags": {
      "name": "Kokneses novads",
      "name:ru": "Кокнесский край",
      "boundary": "historic",
      "end_date": "2021-07-01",
      "way_area": "0.052905",
      "wikidata": "Q865682",
      "ISO3166-2": "LV-046",
      "wikipedia": "lv:Kokneses novads",
      "admin_level": "6",
      "historic:boundary": "administrative"
    }
  },
  {
    "osm_id": -1811631,
    "boundary": "historic",
    "admin_level": 6,
    "parents": "-1775647,-72594",
    "name": "Pļaviņu novads",
    "local_name": "Pļaviņu novads",
    "name_en": null,
    "all_tags": {
      "name": "Pļaviņu novads",
      "name:ru": "Плявиньский край",
      "boundary": "historic",
      "end_date": "2021-07-01",
      "way_area": "0.0550772",
      "wikidata": "Q865649",
      "ISO3166-2": "LV-072",
      "wikipedia": "lv:Pļaviņu novads",
      "admin_level": "6",
      "historic:boundary": "administrative"
    }
  },
  {
    "osm_id": -1806956,
    "boundary": "historic",
    "admin_level": 6,
    "parents": "-1775823,-72594",
    "name": "Ērgļu novads",
    "local_name": "Ērgļu novads",
    "name_en": null,
    "all_tags": {
      "name": "Ērgļu novads",
      "name:lv": "Ērgļu novads",
      "name:ru": "Эргльский край",
      "boundary": "historic",
      "end_date": "2021-07-01",
      "way_area": "0.0558841",
      "wikidata": "Q2079406",
      "ISO3166-2": "LV-030",
      "wikipedia": "lv:Ērgļu novads",
      "admin_level": "6",
      "historic:boundary": "administrative"
    }
  },
  {
    "osm_id": -13047865,
    "boundary": "administrative",
    "admin_level": 6,
    "parents": "-1775821,-72594",
    "name": "Līvānu novads",
    "local_name": "Līvānu novads",
    "name_en": null,
    "all_tags": {
      "name": "Līvānu novads",
      "boundary": "administrative",
      "way_area": "0.0904703",
      "wikidata": "Q2277489",
      "ISO3166-2": "LV-056",
      "start_date": "2021-07-01",
      "admin_level": "6"
    }
  },
  {
    "osm_id": -13047863,
    "boundary": "administrative",
    "admin_level": 6,
    "parents": "-1775823,-72594",
    "name": "Madonas novads",
    "local_name": "Madonas novads",
    "name_en": null,
    "all_tags": {
      "name": "Madonas novads",
      "boundary": "administrative",
      "way_area": "0.452936",
      "wikidata": "Q97231990",
      "ISO3166-2": "LV-059",
      "start_date": "2021-07-01",
      "admin_level": "6"
    }
  },
  {
    "osm_id": -1806943,
    "boundary": "historic",
    "admin_level": 6,
    "parents": "-1775823,-72594",
    "name": "Madonas novads",
    "local_name": "Madonas novads",
    "name_en": null,
    "all_tags": {
      "name": "Madonas novads",
      "name:lt": "Maduonos savivaldybė",
      "name:lv": "Madonas novads",
      "name:ru": "Мадонский край",
      "boundary": "historic",
      "end_date": "2021-07-01",
      "name:ltg": "Modyunis nūvods",
      "way_area": "0.31776",
      "wikidata": "Q2198472",
      "ISO3166-2": "LV-059",
      "wikipedia": "lv:Madonas novads",
      "admin_level": "6",
      "historic:boundary": "administrative"
    }
  },
  {
    "osm_id": -1781275,
    "boundary": "historic",
    "admin_level": 6,
    "parents": "-1775823,-72594",
    "name": "Amatas novads",
    "local_name": "Amatas novads",
    "name_en": null,
    "all_tags": {
      "name": "Amatas novads",
      "name:ru": "Аматский край",
      "boundary": "historic",
      "end_date": "2021-07-01",
      "way_area": "0.110522",
      "wikidata": "Q1892063",
      "ISO3166-2": "LV-008",
      "wikipedia": "lv:Amatas novads",
      "admin_level": "6",
      "historic:boundary": "administrative"
    }
  },
  {
    "osm_id": -1806925,
    "boundary": "historic",
    "admin_level": 6,
    "parents": "-1775823,-72594",
    "name": "Beverīnas novads",
    "local_name": "Beverīnas novads",
    "name_en": null,
    "all_tags": {
      "name": "Beverīnas novads",
      "name:lv": "Beverīnas novads",
      "name:ru": "Беверинский край",
      "boundary": "historic",
      "end_date": "2021-07-01",
      "way_area": "0.0450601",
      "wikidata": "Q2018692",
      "ISO3166-2": "LV-017",
      "wikipedia": "lv:Beverīnas novads",
      "admin_level": "6",
      "historic:boundary": "administrative"
    }
  },
  {
    "osm_id": -1797379,
    "boundary": "historic",
    "admin_level": 6,
    "parents": "-1775823,-72594",
    "name": "Apes novads",
    "local_name": "Apes novads",
    "name_en": null,
    "all_tags": {
      "name": "Apes novads",
      "name:lt": "Apės savivaldybė",
      "name:lv": "Apes novads",
      "name:ru": "Апский край",
      "boundary": "historic",
      "end_date": "2021-07-01",
      "way_area": "0.0815649",
      "wikidata": "Q2343837",
      "ISO3166-2": "LV-009",
      "wikipedia": "lv:Apes novads",
      "admin_level": "6",
      "historic:boundary": "administrative"
    }
  },
  {
    "osm_id": -1806948,
    "boundary": "historic",
    "admin_level": 6,
    "parents": "-1775821,-72594",
    "name": "Riebiņu novads",
    "local_name": "Riebiņu novads",
    "name_en": null,
    "all_tags": {
      "name": "Riebiņu novads",
      "name:lt": "Riebinių savivaldybė",
      "name:lv": "Riebiņu novads",
      "name:ru": "Риебиньский край",
      "boundary": "historic",
      "end_date": "2021-07-01",
      "name:ltg": "Ribinišku nūvods",
      "way_area": "0.0915126",
      "wikidata": "Q2106159",
      "ISO3166-2": "LV-078",
      "wikipedia": "lv:Riebiņu novads",
      "admin_level": "6",
      "historic:boundary": "administrative"
    }
  },
  {
    "osm_id": -13048682,
    "boundary": "administrative",
    "admin_level": 6,
    "parents": "-1775821,-72594",
    "name": "Rēzekne",
    "local_name": "Rēzekne",
    "name_en": null,
    "all_tags": {
      "name": "Rēzekne",
      "boundary": "administrative",
      "way_area": "0.00255377",
      "wikidata": "Q180379",
      "start_date": "2021-07-01",
      "admin_level": "6"
    }
  },
  {
    "osm_id": -13047871,
    "boundary": "administrative",
    "admin_level": 6,
    "parents": "-1775821,-72594",
    "name": "Rēzeknes novads",
    "local_name": "Rēzeknes novads",
    "name_en": null,
    "all_tags": {
      "name": "Rēzeknes novads",
      "boundary": "administrative",
      "way_area": "0.40998",
      "wikidata": "Q97232589",
      "ISO3166-2": "LV-077",
      "start_date": "2021-07-01",
      "admin_level": "6"
    }
  },
  {
    "osm_id": -1806949,
    "boundary": "historic",
    "admin_level": 6,
    "parents": "-1775821,-72594",
    "name": "Rēzeknes novads",
    "local_name": "Rēzeknes novads",
    "name_en": null,
    "all_tags": {
      "name": "Rēzeknes novads",
      "name:lt": "Rėzeknės savivaldybė",
      "name:lv": "Rēzeknes novads",
      "name:pl": "powiat Rzeżyca",
      "name:ru": "Резекненский край",
      "boundary": "historic",
      "end_date": "2021-07-01",
      "name:ltg": "Rēzeknis nūvods",
      "way_area": "0.368096",
      "wikidata": "Q1518841",
      "ISO3166-2": "LV-077",
      "wikipedia": "lv:Rēzeknes novads",
      "admin_level": "6",
      "historic:boundary": "administrative"
    }
  },
  {
    "osm_id": -1806940,
    "boundary": "historic",
    "admin_level": 6,
    "parents": "-1775821,-72594",
    "name": "Ludzas novads",
    "local_name": "Ludzas novads",
    "name_en": null,
    "all_tags": {
      "name": "Ludzas novads",
      "name:lt": "Ludzos savivaldybė",
      "name:lv": "Ludzas novads",
      "name:pl": "gmina Lucyn",
      "name:ru": "Лудзенский край",
      "boundary": "historic",
      "end_date": "2021-07-01",
      "name:ltg": "Ludzys nūvods",
      "way_area": "0.14028",
      "wikidata": "Q932445",
      "ISO3166-2": "LV-058",
      "wikipedia": "lv:Ludzas novads",
      "admin_level": "6",
      "historic:boundary": "administrative"
    }
  },
  {
    "osm_id": -1797381,
    "boundary": "historic",
    "admin_level": 6,
    "parents": "-1775821,-72594",
    "name": "Baltinavas novads",
    "local_name": "Baltinavas novads",
    "name_en": null,
    "all_tags": {
      "name": "Baltinavas novads",
      "name:lt": "Baltinavos savivaldybė",
      "name:lv": "Baltinavas novads",
      "name:ru": "Балтинавский край",
      "boundary": "historic",
      "end_date": "2021-07-01",
      "name:ltg": "Baļtinovys nūvods",
      "way_area": "0.0274569",
      "wikidata": "Q2361012",
      "ISO3166-2": "LV-014",
      "wikipedia": "lv:Baltinavas novads",
      "admin_level": "6",
      "historic:boundary": "administrative"
    }
  },
  {
    "osm_id": -13047873,
    "boundary": "administrative",
    "admin_level": 6,
    "parents": "-1775821,-72594",
    "name": "Balvu novads",
    "local_name": "Balvu novads",
    "name_en": null,
    "all_tags": {
      "name": "Balvu novads",
      "boundary": "administrative",
      "way_area": "0.35318",
      "wikidata": "Q97230143",
      "ISO3166-2": "LV-015",
      "start_date": "2021-07-01",
      "admin_level": "6"
    }
  },
  {
    "osm_id": -1797393,
    "boundary": "historic",
    "admin_level": 6,
    "parents": "-1775821,-72594",
    "name": "Viļakas novads",
    "local_name": "Viļakas novads",
    "name_en": null,
    "all_tags": {
      "name": "Viļakas novads",
      "name:ru": "Вилякский край",
      "boundary": "historic",
      "end_date": "2021-07-01",
      "way_area": "0.095125",
      "wikidata": "Q1869075",
      "ISO3166-2": "LV-108",
      "wikipedia": "lv:Viļakas novads",
      "admin_level": "6",
      "historic:boundary": "administrative"
    }
  },
  {
    "osm_id": -1797388,
    "boundary": "historic",
    "admin_level": 6,
    "parents": "-1775823,-72594",
    "name": "Naukšēnu novads",
    "local_name": "Naukšēnu novads",
    "name_en": null,
    "all_tags": {
      "name": "Naukšēnu novads",
      "name:ru": "Наукшенский край",
      "boundary": "historic",
      "end_date": "2021-07-01",
      "way_area": "0.0425186",
      "wikidata": "Q773027",
      "ISO3166-2": "LV-064",
      "wikipedia": "lv:Naukšēnu novads",
      "admin_level": "6",
      "historic:boundary": "administrative"
    }
  },
  {
    "osm_id": -13047854,
    "boundary": "administrative",
    "admin_level": 6,
    "parents": "-1775823,-72594",
    "name": "Valkas novads",
    "local_name": "Valkas novads",
    "name_en": null,
    "all_tags": {
      "name": "Valkas novads",
      "boundary": "administrative",
      "way_area": "0.136926",
      "wikidata": "Q1945263",
      "ISO3166-2": "LV-101",
      "start_date": "2021-07-01",
      "admin_level": "6"
    }
  },
  {
    "osm_id": -1806953,
    "boundary": "historic",
    "admin_level": 6,
    "parents": "-1775821,-72594",
    "name": "Viļānu novads",
    "local_name": "Viļānu novads",
    "name_en": null,
    "all_tags": {
      "name": "Viļānu novads",
      "name:lt": "Vilianų savivaldybė",
      "name:lv": "Viļānu novads",
      "name:ru": "Вилянский край",
      "boundary": "historic",
      "end_date": "2021-07-01",
      "name:ltg": "Viļānu nūvods",
      "way_area": "0.0418848",
      "wikidata": "Q2018681",
      "ISO3166-2": "LV-109",
      "wikipedia": "lv:Viļānu novads",
      "admin_level": "6",
      "historic:boundary": "administrative"
    }
  },
  {
    "osm_id": -1806955,
    "boundary": "historic",
    "admin_level": 6,
    "parents": "-1775821,-72594",
    "name": "Zilupes novads",
    "local_name": "Zilupes novads",
    "name_en": null,
    "all_tags": {
      "name": "Zilupes novads",
      "name:ja": "ズィルペ",
      "name:lt": "Zilupės savivaldybė",
      "name:lv": "Zilupes novads",
      "name:ru": "Зилупский край",
      "boundary": "historic",
      "end_date": "2021-07-01",
      "name:ltg": "Sīnuojis nūvods",
      "way_area": "0.0448064",
      "wikidata": "Q3274762",
      "ISO3166-2": "LV-110",
      "wikipedia": "lv:Zilupes novads",
      "admin_level": "6",
      "historic:boundary": "administrative"
    }
  },
  {
    "osm_id": -1806951,
    "boundary": "historic",
    "admin_level": 6,
    "parents": "-1775823,-72594",
    "name": "Varakļānu novads",
    "local_name": "Varakļānu novads",
    "name_en": null,
    "all_tags": {
      "name": "Varakļānu novads",
      "name:lt": "Varaklianų savivaldybė",
      "name:lv": "Varakļānu novads",
      "name:ru": "Вараклянский край",
      "boundary": "historic",
      "end_date": "2021-07-01",
      "name:ltg": "Varakļuonu nūvods",
      "way_area": "0.0406807",
      "wikidata": "Q432596",
      "ISO3166-2": "LV-102",
      "wikipedia": "lv:Varakļānu novads",
      "admin_level": "6",
      "historic:boundary": "administrative"
    }
  },
  {
    "osm_id": -2019173,
    "boundary": "historic",
    "admin_level": 6,
    "parents": "-1775676,-72594",
    "name": "Ventspils novads",
    "local_name": "Ventspils novads",
    "name_en": null,
    "all_tags": {
      "name": "Ventspils novads",
      "name:ja": "ヴェンツピルス",
      "name:ru": "Вентспилсский край",
      "boundary": "historic",
      "end_date": "2021-07-01",
      "way_area": "0.366453",
      "wikidata": "Q1345325",
      "ISO3166-2": "LV-106",
      "wikipedia": "lv:Ventspils novads",
      "admin_level": "6",
      "historic:boundary": "administrative"
    }
  },
  {
    "osm_id": -13048685,
    "boundary": "administrative",
    "admin_level": 6,
    "parents": "-1775676,-72594",
    "name": "Liepāja",
    "local_name": "Liepāja",
    "name_en": null,
    "all_tags": {
      "name": "Liepāja",
      "boundary": "administrative",
      "way_area": "0.00887037",
      "wikidata": "Q167668",
      "start_date": "2021-07-01",
      "admin_level": "6"
    }
  },
  {
    "osm_id": -1781245,
    "boundary": "historic",
    "admin_level": 6,
    "parents": "-1775676,-72594",
    "name": "Durbes novads",
    "local_name": "Durbes novads",
    "name_en": null,
    "all_tags": {
      "name": "Durbes novads",
      "name:ru": "Дурбский край",
      "boundary": "historic",
      "end_date": "2021-07-01",
      "way_area": "0.0468791",
      "wikidata": "Q1962356",
      "ISO3166-2": "LV-028",
      "wikipedia": "lv:Durbes novads",
      "admin_level": "6",
      "historic:boundary": "administrative"
    }
  },
  {
    "osm_id": -13048683,
    "boundary": "administrative",
    "admin_level": 6,
    "parents": "-1775821,-72594",
    "name": "Daugavpils",
    "local_name": "Daugavpils",
    "name_en": null,
    "all_tags": {
      "name": "Daugavpils",
      "boundary": "administrative",
      "way_area": "0.0103738",
      "start_date": "2021-07-01",
      "admin_level": "6"
    }
  },
  {
    "osm_id": -1806934,
    "boundary": "historic",
    "admin_level": 6,
    "parents": "-1775821,-72594",
    "name": "Daugavpils novads",
    "local_name": "Daugavpils novads",
    "name_en": null,
    "all_tags": {
      "name": "Daugavpils novads",
      "name:de": "Bezirk Dünaburg",
      "name:lt": "Daugpilio savivaldybė",
      "name:lv": "Daugavpils novads",
      "name:pl": "powiat Dyneburski",
      "name:ru": "Даугавпилсский край",
      "boundary": "historic",
      "end_date": "2021-07-01",
      "name:ltg": "Daugpiļs nūvods",
      "way_area": "0.269537",
      "wikidata": "Q960572",
      "ISO3166-2": "LV-025",
      "wikipedia": "lv:Daugavpils novads",
      "admin_level": "6",
      "historic:boundary": "administrative"
    }
  },
  {
    "osm_id": -1806954,
    "boundary": "historic",
    "admin_level": 6,
    "parents": "-1775821,-72594",
    "name": "Vārkavas novads",
    "local_name": "Vārkavas novads",
    "name_en": null,
    "all_tags": {
      "name": "Vārkavas novads",
      "name:lt": "Varkavos savivaldybė",
      "name:lv": "Vārkavas novads",
      "name:ru": "Варкавский край",
      "boundary": "historic",
      "end_date": "2021-07-01",
      "name:ltg": "Vuorkovys nūvods",
      "way_area": "0.041652",
      "wikidata": "Q1023757",
      "ISO3166-2": "LV-103",
      "wikipedia": "lv:Vārkavas novads",
      "admin_level": "6",
      "historic:boundary": "administrative"
    }
  },
  {
    "osm_id": -13048684,
    "boundary": "administrative",
    "admin_level": 6,
    "parents": "-1775647,-72594",
    "name": "Jelgava",
    "local_name": "Jelgava",
    "name_en": null,
    "all_tags": {
      "name": "Jelgava",
      "boundary": "administrative",
      "way_area": "0.00886659",
      "start_date": "2021-07-01",
      "admin_level": "6"
    }
  },
  {
    "osm_id": -13047876,
    "boundary": "administrative",
    "admin_level": 6,
    "parents": "-1775823,-72594",
    "name": "Limbažu novads",
    "local_name": "Limbažu novads",
    "name_en": null,
    "all_tags": {
      "name": "Limbažu novads",
      "boundary": "administrative",
      "way_area": "0.366942",
      "wikidata": "Q97231916",
      "ISO3166-2": "LV-054",
      "start_date": "2021-07-01",
      "admin_level": "6"
    }
  },
  {
    "osm_id": -13047855,
    "boundary": "administrative",
    "admin_level": 6,
    "parents": "-1775823,-72594",
    "name": "Gulbenes novads",
    "local_name": "Gulbenes novads",
    "name_en": null,
    "all_tags": {
      "name": "Gulbenes novads",
      "boundary": "administrative",
      "way_area": "0.278",
      "wikidata": "Q209187",
      "ISO3166-2": "LV-033",
      "start_date": "2021-07-01",
      "admin_level": "6"
    }
  },
  {
    "osm_id": -1797394,
    "boundary": "historic",
    "admin_level": 6,
    "parents": "-1775823,-72594",
    "name": "Gulbenes novads",
    "local_name": "Gulbenes novads",
    "name_en": null,
    "all_tags": {
      "name": "Gulbenes novads",
      "name:ru": "Гулбенский край",
      "boundary": "historic",
      "end_date": "2021-07-01",
      "way_area": "0.278",
      "wikidata": "Q209187",
      "ISO3166-2": "LV-033",
      "wikipedia": "lv:Gulbenes novads",
      "admin_level": "6",
      "historic:boundary": "administrative"
    }
  },
  {
    "osm_id": -13047874,
    "boundary": "administrative",
    "admin_level": 6,
    "parents": "-1775823,-72594",
    "name": "Smiltenes novads",
    "local_name": "Smiltenes novads",
    "name_en": null,
    "all_tags": {
      "name": "Smiltenes novads",
      "boundary": "administrative",
      "way_area": "0.269093",
      "wikidata": "Q97232760",
      "ISO3166-2": "LV-094",
      "start_date": "2021-07-01",
      "admin_level": "6"
    }
  },
  {
    "osm_id": -1806923,
    "boundary": "historic",
    "admin_level": 6,
    "parents": "-1775821,-72594",
    "name": "Aglonas novads",
    "local_name": "Aglonas novads",
    "name_en": null,
    "all_tags": {
      "name": "Aglonas novads",
      "name:lt": "Agluonos savivaldybė",
      "name:lv": "Aglonas novads",
      "name:pl": "powiat Agłoński",
      "name:ru": "Аглонский край",
      "boundary": "historic",
      "end_date": "2021-07-01",
      "name:ltg": "Aglyunys nūvods",
      "way_area": "0.0566582",
      "wikidata": "Q2045300",
      "ISO3166-2": "LV-001",
      "wikipedia": "lv:Aglonas novads",
      "admin_level": "6",
      "historic:boundary": "administrative"
    }
  },
  {
    "osm_id": -1781239,
    "boundary": "historic",
    "admin_level": 6,
    "parents": "-1775647,-72594",
    "name": "Auces novads",
    "local_name": "Auces novads",
    "name_en": null,
    "all_tags": {
      "name": "Auces novads",
      "name:lt": "Aucės savivaldybė",
      "name:lv": "Auces novads",
      "name:ru": "Ауцский край",
      "boundary": "historic",
      "end_date": "2021-07-01",
      "way_area": "0.075366",
      "wikidata": "Q1934932",
      "ISO3166-2": "LV-010",
      "wikipedia": "lv:Auces novads",
      "admin_level": "6",
      "historic:boundary": "administrative"
    }
  },
  {
    "osm_id": -1811621,
    "boundary": "historic",
    "admin_level": 6,
    "parents": "-1775647,-72594",
    "name": "Bauskas novads",
    "local_name": "Bauskas novads",
    "name_en": null,
    "all_tags": {
      "name": "Bauskas novads",
      "name:lt": "Bauskės savivaldybė",
      "name:lv": "Bauskas novads",
      "name:ru": "Бауский край",
      "boundary": "historic",
      "end_date": "2021-07-01",
      "way_area": "0.114392",
      "wikidata": "Q2365998",
      "ISO3166-2": "LV-016",
      "wikipedia": "lv:Bauskas novads",
      "admin_level": "6",
      "historic:boundary": "administrative"
    }
  },
  {
    "osm_id": -13047877,
    "boundary": "administrative",
    "admin_level": 6,
    "parents": "-1775647,-72594",
    "name": "Bauskas novads",
    "local_name": "Bauskas novads",
    "name_en": null,
    "all_tags": {
      "name": "Bauskas novads",
      "boundary": "administrative",
      "way_area": "0.31701",
      "wikidata": "Q97230156",
      "ISO3166-2": "LV-016",
      "start_date": "2021-07-01",
      "admin_level": "6"
    }
  },
  {
    "osm_id": -13047879,
    "boundary": "administrative",
    "admin_level": 6,
    "parents": "-1775647,-72594",
    "name": "Dobeles novads",
    "local_name": "Dobeles novads",
    "name_en": null,
    "all_tags": {
      "name": "Dobeles novads",
      "boundary": "administrative",
      "way_area": "0.237893",
      "wikidata": "Q97230466",
      "ISO3166-2": "LV-026",
      "start_date": "2021-07-01",
      "admin_level": "6"
    }
  },
  {
    "osm_id": -13047857,
    "boundary": "administrative",
    "admin_level": 6,
    "parents": "-1775823,-72594",
    "name": "Cēsu novads",
    "local_name": "Cēsu novads",
    "name_en": null,
    "all_tags": {
      "name": "Cēsu novads",
      "boundary": "administrative",
      "way_area": "0.396335",
      "wikidata": "Q97230394",
      "ISO3166-2": "LV-022",
      "start_date": "2021-07-01",
      "admin_level": "6"
    }
  },
  {
    "osm_id": -1806939,
    "boundary": "historic",
    "admin_level": 6,
    "parents": "-1775647,-72594",
    "name": "Krustpils novads",
    "local_name": "Krustpils novads",
    "name_en": null,
    "all_tags": {
      "name": "Krustpils novads",
      "name:lt": "Krustpilio savivaldybė",
      "name:lv": "Krustpils novads",
      "name:ru": "Крустпилсский край",
      "boundary": "historic",
      "end_date": "2021-07-01",
      "name:ltg": "Krystapiļs nūvods",
      "way_area": "0.118511",
      "wikidata": "Q2277478",
      "ISO3166-2": "LV-049",
      "wikipedia": "lv:Krustpils novads",
      "admin_level": "6",
      "historic:boundary": "administrative"
    }
  },
  {
    "osm_id": -1806950,
    "boundary": "historic",
    "admin_level": 6,
    "parents": "-1775823,-72594",
    "name": "Kocēnu novads",
    "local_name": "Kocēnu novads",
    "name_en": null,
    "all_tags": {
      "name": "Kocēnu novads",
      "name:ru": "Коценский край",
      "boundary": "historic",
      "end_date": "2021-07-01",
      "way_area": "0.0748026",
      "wikidata": "Q2304840",
      "ISO3166-2": "LV-045",
      "wikipedia": "lv:Kocēnu novads",
      "admin_level": "6",
      "historic:boundary": "administrative"
    }
  },
  {
    "osm_id": -1797385,
    "boundary": "historic",
    "admin_level": 6,
    "parents": "-1775821,-72594",
    "name": "Kārsavas novads",
    "local_name": "Kārsavas novads",
    "name_en": null,
    "all_tags": {
      "name": "Kārsavas novads",
      "name:lt": "Karsavos savivaldybė",
      "name:lv": "Kārsavas novads",
      "name:ru": "Карсавский край",
      "boundary": "historic",
      "end_date": "2021-07-01",
      "name:ltg": "Kuorsovys nūvods",
      "way_area": "0.0922811",
      "wikidata": "Q2395952",
      "ISO3166-2": "LV-044",
      "wikipedia": "lv:Kārsavas novads",
      "admin_level": "6",
      "historic:boundary": "administrative"
    }
  },
  {
    "osm_id": -1775821,
    "boundary": "administrative",
    "admin_level": 4,
    "parents": "-72594",
    "name": "Latgale",
    "local_name": "Latgale",
    "name_en": "Latgale",
    "all_tags": {
      "name": "Latgale",
      "name:be": "Латгалія",
      "name:de": "Lettgallen",
      "name:en": "Latgale",
      "name:es": "Letgalia",
      "name:fi": "Latgallia",
      "name:fr": "Latgale",
      "name:it": "Latgallia",
      "name:lt": "Latgala",
      "name:lv": "Latgale",
      "name:pl": "Łatgalia",
      "name:ru": "Латгалия",
      "boundary": "administrative",
      "ref:nuts": "LV005",
      "way_area": "2.11586",
      "wikidata": "Q208113",
      "wikipedia": "lv:Latgale",
      "ref:nuts:3": "LV005",
      "admin_level": "4",
      "name:be-tarask": "Латгалія"
    }
  },
  {
    "osm_id": -1811629,
    "boundary": "historic",
    "admin_level": 6,
    "parents": "-1775647,-72594",
    "name": "Neretas novads",
    "local_name": "Neretas novads",
    "name_en": null,
    "all_tags": {
      "name": "Neretas novads",
      "name:lt": "Neretos savivaldybė",
      "name:lv": "Neretas novads",
      "name:ru": "Неретский край",
      "boundary": "historic",
      "end_date": "2021-07-01",
      "way_area": "0.0936108",
      "wikidata": "Q2161795",
      "ISO3166-2": "LV-065",
      "wikipedia": "lv:Neretas novads",
      "admin_level": "6",
      "historic:boundary": "administrative"
    }
  },
  {
    "osm_id": -13047948,
    "boundary": "administrative",
    "admin_level": 6,
    "parents": "-1775823,-72594",
    "name": "Olaine parish",
    "local_name": "Olaines novads",
    "name_en": "Olaine parish",
    "all_tags": {
      "name": "Olaines novads",
      "name:en": "Olaine parish",
      "boundary": "administrative",
      "way_area": "0.0453575",
      "wikidata": "Q2451375",
      "ISO3166-2": "LV-068",
      "start_date": "2021-07-01",
      "admin_level": "6"
    }
  },
  {
    "osm_id": -1806926,
    "boundary": "historic",
    "admin_level": 6,
    "parents": "-1775821,-72594",
    "name": "Ciblas novads",
    "local_name": "Ciblas novads",
    "name_en": null,
    "all_tags": {
      "name": "Ciblas novads",
      "name:lt": "Ciblos savivaldybė",
      "name:lv": "Ciblas novads",
      "name:ru": "Циблский край",
      "boundary": "historic",
      "end_date": "2021-07-01",
      "name:ltg": "Cyblys nūvods",
      "way_area": "0.0744775",
      "wikidata": "Q1955102",
      "ISO3166-2": "LV-023",
      "wikipedia": "lv:Ciblas novads",
      "admin_level": "6",
      "historic:boundary": "administrative"
    }
  },
  {
    "osm_id": -1806944,
    "boundary": "historic",
    "admin_level": 6,
    "parents": "-1775821,-72594",
    "name": "Preiļu novads",
    "local_name": "Preiļu novads",
    "name_en": null,
    "all_tags": {
      "name": "Preiļu novads",
      "name:lt": "Preilių savivaldybė",
      "name:lv": "Preiļu novads",
      "name:pl": "Powiat Prele",
      "name:ru": "Прейльский край",
      "boundary": "historic",
      "end_date": "2021-07-01",
      "name:ltg": "Preiļu nūvods",
      "way_area": "0.0527673",
      "wikidata": "Q2277469",
      "ISO3166-2": "LV-073",
      "wikipedia": "lv:Preiļu novads",
      "admin_level": "6",
      "historic:boundary": "administrative"
    }
  },
  {
    "osm_id": -1806945,
    "boundary": "historic",
    "admin_level": 6,
    "parents": "-1775823,-72594",
    "name": "Priekuļu novads",
    "local_name": "Priekuļu novads",
    "name_en": null,
    "all_tags": {
      "name": "Priekuļu novads",
      "name:ru": "Приекульский край",
      "boundary": "historic",
      "end_date": "2021-07-01",
      "way_area": "0.0449947",
      "wikidata": "Q2299231",
      "ISO3166-2": "LV-075",
      "wikipedia": "lv:Priekuļu novads",
      "admin_level": "6",
      "historic:boundary": "administrative"
    }
  },
  {
    "osm_id": -13047858,
    "boundary": "administrative",
    "admin_level": 6,
    "parents": "-1775823,-72594",
    "name": "Siguldas novads",
    "local_name": "Siguldas novads",
    "name_en": null,
    "all_tags": {
      "name": "Siguldas novads",
      "boundary": "administrative",
      "way_area": "0.15274",
      "wikidata": "Q97232700",
      "ISO3166-2": "LV-091",
      "start_date": "2021-07-01",
      "admin_level": "6"
    }
  },
  {
    "osm_id": -1797321,
    "boundary": "historic",
    "admin_level": 6,
    "parents": "-1775823,-72594",
    "name": "Salacgrīvas novads",
    "local_name": "Salacgrīvas novads",
    "name_en": null,
    "all_tags": {
      "name": "Salacgrīvas novads",
      "name:lt": "Salacgryvos savivaldybė",
      "name:ru": "Салацгривский край",
      "boundary": "historic",
      "end_date": "2021-07-01",
      "way_area": "0.0961336",
      "wikidata": "Q2251931",
      "ISO3166-2": "LV-086",
      "wikipedia": "lv:Salacgrīvas novads",
      "admin_level": "6",
      "historic:boundary": "administrative"
    }
  },
  {
    "osm_id": -13047972,
    "boundary": "administrative",
    "admin_level": 6,
    "parents": "-1775821,-72594",
    "name": "Preiļu novads",
    "local_name": "Preiļu novads",
    "name_en": null,
    "all_tags": {
      "name": "Preiļu novads",
      "boundary": "administrative",
      "way_area": "0.204986",
      "wikidata": "Q97232413",
      "ISO3166-2": "LV-073",
      "start_date": "2021-07-01",
      "admin_level": "6"
    }
  },
  {
    "osm_id": -1806936,
    "boundary": "historic",
    "admin_level": 6,
    "parents": "-1775823,-72594",
    "name": "Jaunpiebalgas novads",
    "local_name": "Jaunpiebalgas novads",
    "name_en": null,
    "all_tags": {
      "name": "Jaunpiebalgas novads",
      "name:ru": "Яунпиебалгский край",
      "boundary": "historic",
      "end_date": "2021-07-01",
      "way_area": "0.0372711",
      "wikidata": "Q2306846",
      "ISO3166-2": "LV-039",
      "wikipedia": "lv:Jaunpiebalgas novads",
      "admin_level": "6",
      "historic:boundary": "administrative"
    }
  },
  {
    "osm_id": -1797391,
    "boundary": "historic",
    "admin_level": 6,
    "parents": "-1775823,-72594",
    "name": "Strenču novads",
    "local_name": "Strenču novads",
    "name_en": null,
    "all_tags": {
      "name": "Strenču novads",
      "name:ru": "Стренчский край",
      "boundary": "historic",
      "end_date": "2021-07-01",
      "way_area": "0.0564265",
      "wikidata": "Q2299223",
      "ISO3166-2": "LV-096",
      "wikipedia": "lv:Strenču novads",
      "admin_level": "6",
      "historic:boundary": "administrative"
    }
  },
  {
    "osm_id": -1797386,
    "boundary": "historic",
    "admin_level": 6,
    "parents": "-1775823,-72594",
    "name": "Lubānas novads",
    "local_name": "Lubānas novads",
    "name_en": null,
    "all_tags": {
      "name": "Lubānas novads",
      "name:lt": "Lubanos savivaldybė",
      "name:lv": "Lubānas novads",
      "name:ru": "Лубанский край",
      "boundary": "historic",
      "end_date": "2021-07-01",
      "way_area": "0.0511551",
      "wikidata": "Q2072165",
      "ISO3166-2": "LV-057",
      "wikipedia": "lv:Lubānas novads",
      "admin_level": "6",
      "historic:boundary": "administrative"
    }
  },
  {
    "osm_id": -13047864,
    "boundary": "administrative",
    "admin_level": 6,
    "parents": "-1775823,-72594",
    "name": "Varakļānu novads",
    "local_name": "Varakļānu novads",
    "name_en": null,
    "all_tags": {
      "name": "Varakļānu novads",
      "boundary": "administrative",
      "way_area": "0.0406807",
      "wikidata": "Q432596",
      "ISO3166-2": "LV-102",
      "start_date": "2021-07-01",
      "admin_level": "6"
    }
  },
  {
    "osm_id": -1775823,
    "boundary": "administrative",
    "admin_level": 4,
    "parents": "-72594",
    "name": "Vidzeme",
    "local_name": "Vidzeme",
    "name_en": "Vidzeme",
    "all_tags": {
      "name": "Vidzeme",
      "name:be": "Відзэмэ",
      "name:de": "Livland",
      "name:en": "Vidzeme",
      "name:es": "Vidzeme",
      "name:fi": "Vidzeme",
      "name:fr": "Vidzeme",
      "name:lt": "Vidžemė",
      "name:lv": "Vidzeme",
      "name:nl": "Lijfland",
      "name:pl": "Liwonia",
      "name:ru": "Видземе",
      "boundary": "administrative",
      "way_area": "3.18774",
      "wikidata": "Q745303",
      "wikipedia": "lv:Vidzeme",
      "admin_level": "4",
      "name:be-tarask": "Відзэмэ"
    }
  },
  {
    "osm_id": -1781260,
    "boundary": "historic",
    "admin_level": 6,
    "parents": "-1775676,-72594",
    "name": "Rucavas novads",
    "local_name": "Rucavas novads",
    "name_en": null,
    "all_tags": {
      "name": "Rucavas novads",
      "name:lt": "Rucavos savivaldybė",
      "name:lv": "Rucavas novads",
      "name:ru": "Руцавский край",
      "boundary": "historic",
      "end_date": "2021-07-01",
      "way_area": "0.0648703",
      "wikidata": "Q2124995",
      "ISO3166-2": "LV-081",
      "wikipedia": "lv:Rucavas novads",
      "admin_level": "6",
      "historic:boundary": "administrative"
    }
  },
  {
    "osm_id": -1797392,
    "boundary": "historic",
    "admin_level": 6,
    "parents": "-1775823,-72594",
    "name": "Valkas novads",
    "local_name": "Valkas novads",
    "name_en": null,
    "all_tags": {
      "name": "Valkas novads",
      "name:de": "Bezirk Walk",
      "name:ru": "Валкский край",
      "boundary": "historic",
      "end_date": "2021-07-01",
      "way_area": "0.136926",
      "wikidata": "Q1945263",
      "ISO3166-2": "LV-101",
      "wikipedia": "lv:Valkas novads",
      "admin_level": "6",
      "historic:boundary": "administrative"
    }
  },
  {
    "osm_id": -1806952,
    "boundary": "historic",
    "admin_level": 6,
    "parents": "-1775823,-72594",
    "name": "Vecpiebalgas novads",
    "local_name": "Vecpiebalgas novads",
    "name_en": null,
    "all_tags": {
      "name": "Vecpiebalgas novads",
      "name:ru": "Вецпиебалгский край",
      "boundary": "historic",
      "end_date": "2021-07-01",
      "way_area": "0.0803275",
      "wikidata": "Q1920815",
      "ISO3166-2": "LV-104",
      "wikipedia": "lv:Vecpiebalgas novads",
      "admin_level": "6",
      "historic:boundary": "administrative"
    }
  },
  {
    "osm_id": -1806946,
    "boundary": "historic",
    "admin_level": 6,
    "parents": "-1775823,-72594",
    "name": "Pārgaujas novads",
    "local_name": "Pārgaujas novads",
    "name_en": null,
    "all_tags": {
      "name": "Pārgaujas novads",
      "name:ru": "Паргауйский край",
      "boundary": "historic",
      "end_date": "2021-07-01",
      "way_area": "0.0726024",
      "wikidata": "Q2304831",
      "ISO3166-2": "LV-070",
      "wikipedia": "lv:Pārgaujas novads",
      "admin_level": "6",
      "historic:boundary": "administrative"
    }
  },
  {
    "osm_id": -1811627,
    "boundary": "historic",
    "admin_level": 6,
    "parents": "-1775821,-72594",
    "name": "Krāslavas novads",
    "local_name": "Krāslavas novads",
    "name_en": null,
    "all_tags": {
      "name": "Krāslavas novads",
      "name:lt": "Kraslavos savivaldybė",
      "name:lv": "Krāslavas novads",
      "name:pl": "Powiat krasławski",
      "name:ru": "Краславский край",
      "boundary": "historic",
      "end_date": "2021-07-01",
      "name:ltg": "Kruoslovys nūvods",
      "way_area": "0.15502",
      "wikidata": "Q1831695",
      "ISO3166-2": "LV-047",
      "wikipedia": "lv:Krāslavas novads",
      "admin_level": "6",
      "historic:boundary": "administrative"
    }
  },
  {
    "osm_id": -13047947,
    "boundary": "administrative",
    "admin_level": 6,
    "parents": "-1775823,-72594",
    "name": "Salaspils novads",
    "local_name": "Salaspils novads",
    "name_en": null,
    "all_tags": {
      "name": "Salaspils novads",
      "boundary": "administrative",
      "way_area": "0.0180937",
      "wikidata": "Q2140753",
      "ISO3166-2": "LV-087",
      "start_date": "2021-07-01",
      "admin_level": "6"
    }
  },
  {
    "osm_id": -1806957,
    "boundary": "historic",
    "admin_level": 6,
    "parents": "-1775823,-72594",
    "name": "Smiltenes novads",
    "local_name": "Smiltenes novads",
    "name_en": null,
    "all_tags": {
      "name": "Smiltenes novads",
      "name:ru": "Смилтенский край",
      "boundary": "historic",
      "end_date": "2021-07-01",
      "way_area": "0.141505",
      "wikidata": "Q1959984",
      "ISO3166-2": "LV-094",
      "wikipedia": "lv:Smiltenes novads",
      "admin_level": "6",
      "historic:boundary": "administrative"
    }
  }
]
