[
  {
    "osm_id": -3795005,
    "boundary": "administrative",
    "admin_level": 4,
    "parents": "-192758",
    "name": "Murqub",
    "local_name": "محافظة المرقب",
    "name_en": "Murqub",
    "all_tags": {
      "name": "محافظة المرقب",
      "name:ar": "محافظة المرقب",
      "name:de": "Munizip al-Murgub",
      "name:en": "Murqub",
      "name:es": "Al Murgub",
      "name:fa": "استان مرقب",
      "name:fr": "Al Mourqoub",
      "name:it": "Distretto di Al-Murgub",
      "name:pl": "Al-Marakib",
      "name:ru": "Эль-Маргаб",
      "name:uk": "Ель-Маргаб",
      "name:ur": "مرقب ضلع",
      "boundary": "administrative",
      "name:azb": "استان مرقب",
      "old_name": "شعبية المرقب",
      "way_area": "0.647497",
      "wikidata": "Q209778",
      "ISO3166-2": "LY-MB",
      "wikipedia": "ar:شعبية المرقب",
      "admin_level": "4",
      "old_name:ar": "شعبية المرقب",
      "sorting_name": "المرقب",
      "wikipedia:ar": "شعبية المرقب",
      "sorting_name:ar": "المرقب",
      "sorting_name:fa": "مرقب",
      "sorting_name:ur": "مرقب",
      "sorting_name:azb": "مرقب"
    }
  },
  {
    "osm_id": -2060189,
    "boundary": "administrative",
    "admin_level": 4,
    "parents": "-192758",
    "name": "Zawiya",
    "local_name": "الزاوية",
    "name_en": "Zawiya",
    "all_tags": {
      "name": "الزاوية",
      "name:ar": "الزاوية",
      "name:de": "Az-Zawiya",
      "name:en": "Zawiya",
      "name:es": "Zauiya",
      "name:fr": "Az Zaouiyah",
      "name:it": "Zauia",
      "name:pl": "Az-Zawija",
      "name:ru": "Эз-Завия",
      "name:uk": "Ез-Завія",
      "name:ur": "زاویہ",
      "boundary": "administrative",
      "way_area": "0.264095",
      "wikidata": "Q26153",
      "ISO3166-2": "LY-ZA",
      "wikipedia": "ar:شعبية الزاوية",
      "admin_level": "4",
      "official_name": "محافظة الزاوية",
      "official_name:ar": "محافظة الزاوية",
      "official_name:de": "Munizip az-Zawiya",
      "official_name:it": "Distretto di Zauia"
    }
  },
  {
    "osm_id": -2060188,
    "boundary": "administrative",
    "admin_level": 4,
    "parents": "-192758",
    "name": "Wadi al Shatii",
    "local_name": "وادي الشاطئ",
    "name_en": "Wadi al Shatii",
    "all_tags": {
      "name": "وادي الشاطئ",
      "name:ar": "وادي الشاطئ",
      "name:en": "Wadi al Shatii",
      "name:es": "Wadi Al Shatii",
      "name:fr": "Wadi ach Chatii",
      "name:it": "Distretto di Sciati",
      "name:pl": "Wadi asz-Szati",
      "name:ru": "Вади-эш-Шати",
      "name:uk": "Ваді-еш-Шаті",
      "name:ur": "وادی الشاطی",
      "boundary": "administrative",
      "way_area": "9.32595",
      "wikidata": "Q48232",
      "ISO3166-2": "LY-WS",
      "wikipedia": "ar:شعبية وادي الشاطئ",
      "admin_level": "4",
      "official_name": "شعبية وادي الشاطئ",
      "official_name:ar": "شعبية وادي الشاطئ",
      "official_name:de": "Munizip Wadi asch-Schati’",
      "official_name:it": "Distretto di Wadi Al-Shatii"
    }
  },
  {
    "osm_id": -2060187,
    "boundary": "administrative",
    "admin_level": 4,
    "parents": "-192758",
    "name": "Wadi al Hayaa",
    "local_name": "وادي الحياة",
    "name_en": "Wadi al Hayaa",
    "all_tags": {
      "name": "وادي الحياة",
      "name:ar": "وادي الحياة",
      "name:de": "Wadi al-Haya",
      "name:en": "Wadi al Hayaa",
      "name:es": "Wadi Al Hayaa",
      "name:fa": "وادی الحیاه",
      "name:fr": "Wadi al Hayaat",
      "name:it": "Wadi Al-Hayaa",
      "name:pl": "Wadi al-Hajat",
      "name:ru": "Вади-эль-Хаят",
      "name:uk": "Ваді-ель-Хаят",
      "name:ur": "وادی الحیاہ",
      "boundary": "administrative",
      "way_area": "2.9526",
      "wikidata": "Q48233",
      "ISO3166-2": "LY-WD",
      "wikipedia": "ar:شعبية وادي الحياة",
      "admin_level": "4",
      "official_name": "شعبية وادي الحياة",
      "official_name:ar": "شعبية وادي الحياة",
      "official_name:de": "Munizip Wadi al-Haya",
      "official_name:fa": "استان وادی الحیاه",
      "official_name:it": "Wadi Al-Hayaa",
      "official_name:ur": "وادی الحیاہ ضلع"
    }
  },
  {
    "osm_id": -2060186,
    "boundary": "administrative",
    "admin_level": 4,
    "parents": "-192758",
    "name": "Tripoli",
    "local_name": "طرابلس",
    "name_en": "Tripoli",
    "all_tags": {
      "name": "طرابلس",
      "name:ar": "طرابلس",
      "name:de": "Tripolis",
      "name:en": "Tripoli",
      "name:es": "Trípoli",
      "name:fa": "طرابلس",
      "name:fr": "Tripoli",
      "name:it": "Tripoli",
      "name:ks": "طرابلس",
      "name:pl": "Trypolis",
      "name:ru": "Тарабулус",
      "name:ug": "ترىپولى",
      "name:uk": "Тарабулус",
      "name:ur": "طرابلس",
      "boundary": "administrative",
      "way_area": "0.216548",
      "wikidata": "Q32837",
      "ISO3166-2": "LY-TB",
      "wikipedia": "ar:بلدية طرابلس",
      "admin_level": "4",
      "official_name": "بلدية طرابلس",
      "official_name:ar": "بلدية طرابلس",
      "official_name:de": "Munizip Tripolis",
      "official_name:it": "Distretto di Tripoli",
      "official_name:ur": "طرابلس ضلع"
    }
  },
  {
    "osm_id": -2060185,
    "boundary": "administrative",
    "admin_level": 4,
    "parents": "-192758",
    "name": "Sirte",
    "local_name": "سرت",
    "name_en": "Sirte",
    "all_tags": {
      "name": "سرت",
      "name:ar": "سرت",
      "name:de": "Surt",
      "name:en": "Sirte",
      "name:es": "Sirte",
      "name:fa": "سرت",
      "name:fr": "Syrte",
      "name:it": "Sirte",
      "name:ks": "سرت",
      "name:pl": "Syrta",
      "name:ru": "Сирт",
      "name:uk": "Сирт",
      "name:ur": "سرت",
      "boundary": "administrative",
      "name:azb": "سرت",
      "name:kab": "سرت",
      "way_area": "11.8821",
      "wikidata": "Q26417",
      "ISO3166-2": "LY-SR",
      "wikipedia": "ar:شعبية سرت",
      "admin_level": "4",
      "official_name": "محافظة سرت",
      "official_name:ar": "محافظة سرت",
      "official_name:de": "Munizip Surt",
      "official_name:fa": "استان سرت",
      "official_name:it": "Distretto di Sirte",
      "official_name:ur": "سرت ضلع",
      "official_name:azb": "استان سرت"
    }
  },
  {
    "osm_id": -2060184,
    "boundary": "administrative",
    "admin_level": 4,
    "parents": "-192758",
    "name": "Sabha",
    "local_name": "سبها",
    "name_en": "Sabha",
    "all_tags": {
      "name": "سبها",
      "name:ar": "سبها",
      "name:de": "Sabha",
      "name:en": "Sabha",
      "name:es": "Sabha",
      "name:fa": "سبها",
      "name:fr": "Sabha",
      "name:it": "Seba",
      "name:pl": "Sabha",
      "name:ru": "Сабха",
      "name:uk": "Сабха",
      "name:ur": "سبها",
      "alt_name": "شعبية سبها",
      "boundary": "administrative",
      "name:azb": "سبها",
      "name:ota": "سبها",
      "way_area": "1.5468",
      "wikidata": "Q26132",
      "ISO3166-2": "LY-SB",
      "wikipedia": "ar:شعبية سبها",
      "admin_level": "4",
      "alt_name:ar": "شعبية سبها",
      "wikipedia:ar": "شعبية سبها",
      "official_name": "محافظة سبها",
      "official_name:ar": "محافظة سبها",
      "official_name:de": "Munizip Sabha",
      "official_name:fa": "استان سبها",
      "official_name:it": "Distretto di Seba",
      "official_name:ur": "سبھا ضلع"
    }
  },
  {
    "osm_id": -2060183,
    "boundary": "administrative",
    "admin_level": 4,
    "parents": "-192758",
    "name": "Nuqat al Khams",
    "local_name": "النقاط الخمس",
    "name_en": "Nuqat al Khams",
    "all_tags": {
      "name": "النقاط الخمس",
      "name:ar": "النقاط الخمس",
      "name:de": "Munizip an-Nuqat al-Chams",
      "name:en": "Nuqat al Khams",
      "name:es": "An Nuqat al Khams",
      "name:fr": "An Nouqat al Khams",
      "name:it": "Distretto di Al-Nuqat Al-Khams",
      "name:pl": "An-Nukat al-Chams",
      "name:ru": "Эн-Нугат-эль-Хумс",
      "name:uk": "Ен-Нугат ель-Хумс",
      "boundary": "administrative",
      "way_area": "0.810781",
      "wikidata": "Q26161",
      "ISO3166-2": "LY-NQ",
      "wikipedia": "ar:شعبية النقاط الخمس",
      "admin_level": "4",
      "official_name": "شعبية النقاط الخمس",
      "official_name:ar": "شعبية النقاط الخمس"
    }
  },
  {
    "osm_id": -2060182,
    "boundary": "administrative",
    "admin_level": 4,
    "parents": "-192758",
    "name": "Nalut",
    "local_name": "نالوت",
    "name_en": "Nalut",
    "all_tags": {
      "name": "نالوت",
      "name:ar": "نالوت",
      "name:de": "Nalut",
      "name:en": "Nalut",
      "name:es": "Nalut",
      "name:fa": "نالوت",
      "name:fr": "Nalout",
      "name:ks": "نالوت",
      "name:pl": "Nalut",
      "name:ru": "Налут",
      "name:uk": "Налут",
      "name:ur": "نالوت",
      "boundary": "administrative",
      "way_area": "6.09541",
      "wikidata": "Q27659",
      "ISO3166-2": "LY-NL",
      "wikipedia": "ar:شعبية نالوت",
      "admin_level": "4",
      "official_name": "شعبية نالوت",
      "official_name:ar": "شعبية نالوت",
      "official_name:de": "Munizip Nalut",
      "official_name:es": "Distrito de Nalut",
      "official_name:it": "Distretto di Nalut"
    }
  },
  {
    "osm_id": -2060181,
    "boundary": "administrative",
    "admin_level": 4,
    "parents": "-192758",
    "name": "Murzuq",
    "local_name": "مرزق",
    "name_en": "Murzuq",
    "all_tags": {
      "name": "مرزق",
      "name:ar": "مرزق",
      "name:de": "Munizip Murzuq",
      "name:en": "Murzuq",
      "name:es": "Murzuk",
      "name:fr": "Mourzouq",
      "name:it": "Distretto di Murzuch",
      "name:pl": "Marzuk",
      "name:ru": "Марзук",
      "name:uk": "Марзук",
      "boundary": "administrative",
      "int_name": "Murzuq",
      "way_area": "24.9457",
      "wikidata": "Q48239",
      "ISO3166-2": "LY-MQ",
      "wikipedia": "en:Murzuq District",
      "admin_level": "4"
    }
  },
  {
    "osm_id": -2060180,
    "boundary": "administrative",
    "admin_level": 4,
    "parents": "-192758",
    "name": "Bani Walid",
    "local_name": "محافظة مصراتة",
    "name_en": "Bani Walid",
    "all_tags": {
      "name": "محافظة مصراتة",
      "name:ar": "محافظة مصراتة",
      "name:de": "Munizip Bani walid",
      "name:en": "Bani Walid",
      "name:fa": "استان مصراته",
      "name:fr": "Misrata",
      "name:it": "Distretto di Beni Uild",
      "name:pl": "Bani Walid",
      "name:ru": "Мисурата",
      "name:uk": "Місурата",
      "name:ur": "مصراتہ ضلع",
      "boundary": "administrative",
      "int_name": "Bani Walid",
      "name:azb": "استان میصراته",
      "old_name": "شعبية مصراتة",
      "way_area": "4.60385",
      "wikidata": "Q32845",
      "ISO3166-2": "LY-MI",
      "wikipedia": "ar:شعبية مصراتة",
      "admin_level": "4",
      "old_name:ar": "شعبية مصراتة",
      "sorting_name": "بني وليد",
      "wikipedia:ar": "شعبية مصراتة",
      "sorting_name:ar": "بني وليد",
      "sorting_name:fa": "مصراته",
      "sorting_name:ur": "مصراتہ",
      "sorting_name:azb": "میصراته"
    }
  },
  {
    "osm_id": -2060179,
    "boundary": "administrative",
    "admin_level": 4,
    "parents": "-192758",
    "name": "Marj",
    "local_name": "المرج",
    "name_en": "Marj",
    "all_tags": {
      "name": "المرج",
      "name:ar": "المرج",
      "name:de": "Munizip al-Mardsch",
      "name:en": "Marj",
      "name:es": "Al Marj",
      "name:fr": "Al Marj",
      "name:it": "Distretto di Barce",
      "name:pl": "Al-Mardż",
      "name:ru": "Эль-Мардж",
      "name:uk": "Ель-Мардж",
      "boundary": "administrative",
      "int_name": "Marj",
      "way_area": "1.21807",
      "wikidata": "Q26023",
      "ISO3166-2": "LY-MJ",
      "wikipedia": "en:Marj District",
      "admin_level": "4",
      "alt_name:it": "Distretto di Al-Marj"
    }
  },
  {
    "osm_id": -2060178,
    "boundary": "administrative",
    "admin_level": 4,
    "parents": "-192758",
    "name": "Kufra",
    "local_name": "الكفرة",
    "name_en": "Kufra",
    "all_tags": {
      "name": "الكفرة",
      "name:ar": "الكفرة",
      "name:de": "Al-Kufra",
      "name:en": "Kufra",
      "name:es": "Al Kufrah",
      "name:fa": "کفره",
      "name:fr": "Al-Koufrah",
      "name:it": "Cufra",
      "name:pl": "Al-Kufra",
      "name:ru": "Эль-Куфра",
      "name:uk": "Ель-Куфра",
      "name:ur": "کفرہ",
      "boundary": "administrative",
      "int_name": "Kufra",
      "way_area": "37.18",
      "wikidata": "Q48200",
      "ISO3166-2": "LY-KF",
      "wikipedia": "ar:بلدية الكفرة",
      "admin_level": "4",
      "official_name": "بلدية الكفرة",
      "official_name:ar": "بلدية الكفرة",
      "official_name:de": "Munizip al-Kufra",
      "official_name:fa": "استان کفره",
      "official_name:it": "Distretto di Cufra",
      "official_name:ur": "کفرہ ضلع"
    }
  },
  {
    "osm_id": -2060177,
    "boundary": "administrative",
    "admin_level": 4,
    "parents": "-192758",
    "name": "District of Al-Jufra",
    "local_name": "شعبية الجفرة",
    "name_en": "District of Al-Jufra",
    "all_tags": {
      "name": "شعبية الجفرة",
      "name:ar": "شعبية الجفرة",
      "name:be": "Муніцыпалітэт Эль-Джуфра",
      "name:de": "Munizip Al-Dschufra",
      "name:en": "District of Al-Jufra",
      "name:es": "Distrito de Algufra",
      "name:fa": "استان جفره",
      "name:fr": "Al Djoufrah",
      "name:it": "Distretto di Giofra",
      "name:pl": "Gmina Al-Dżufra",
      "name:ru": "Эль-Джуфра",
      "name:uk": "Ель-Джуфра",
      "name:ur": "جفرہ ضلع",
      "boundary": "administrative",
      "way_area": "10.6314",
      "wikidata": "Q48247",
      "ISO3166-2": "LY-JU",
      "wikipedia": "ar:شعبية الجفرة",
      "admin_level": "4",
      "sorting_name": "الجفرة",
      "sorting_name:ar": "الجفرة",
      "sorting_name:de": "Al-Dschufra",
      "sorting_name:es": "Algufra",
      "sorting_name:pl": "Al-Dżufra",
      "sorting_name:ur": "جفرہ",
      "sorting_name:azb": "جفره"
    }
  },
  {
    "osm_id": -2060176,
    "boundary": "administrative",
    "admin_level": 4,
    "parents": "-192758",
    "name": "Jafara",
    "local_name": "الجفارة",
    "name_en": "Jafara",
    "all_tags": {
      "name": "الجفارة",
      "name:ar": "الجفارة",
      "name:de": "al-Dschifara",
      "name:en": "Jafara",
      "name:es": "Al Jfara",
      "name:fr": "Al Djfara",
      "name:it": "Gefara",
      "name:pl": "Al-Dżifara",
      "name:ru": "Эль-Джифара",
      "name:uk": "Ель-Джифара",
      "boundary": "administrative",
      "way_area": "0.245113",
      "wikidata": "Q329060",
      "ISO3166-2": "LY-JI",
      "wikipedia": "ar:شعبية الجفارة",
      "admin_level": "4",
      "official_name": "محافظة الجفارة",
      "official_name:ar": "محافظة الجفارة",
      "official_name:de": "Munizip al-Dschifara",
      "official_name:it": "Distretto di Gefara"
    }
  },
  {
    "osm_id": -2060175,
    "boundary": "administrative",
    "admin_level": 4,
    "parents": "-192758",
    "name": "Jabal al Gharbi",
    "local_name": "الجبل الغربي",
    "name_en": "Jabal al Gharbi",
    "all_tags": {
      "name": "الجبل الغربي",
      "name:ar": "الجبل الغربي",
      "name:de": "Munizip al-Dschabal al-Gharbi",
      "name:en": "Jabal al Gharbi",
      "name:es": "Al Jabal al Gharbi",
      "name:fr": "Al Djabal al Gharbi",
      "name:it": "Distretto di Gebel Garbi",
      "name:pl": "Al-Dżabal al-Gharbi",
      "name:ru": "Эль-Джабал-эль-Гарби",
      "name:uk": "Ель-Джабал ель-Гарбі",
      "boundary": "administrative",
      "int_name": "Jabal al Gharbi",
      "way_area": "7.20497",
      "wikidata": "Q25632",
      "ISO3166-2": "LY-JG",
      "wikipedia": "en:Jabal al Gharbi District",
      "admin_level": "4"
    }
  },
  {
    "osm_id": -2060174,
    "boundary": "administrative",
    "admin_level": 4,
    "parents": "-192758",
    "name": "Jabal al Akhdar",
    "local_name": "الجبل الأخضر",
    "name_en": "Jabal al Akhdar",
    "all_tags": {
      "name": "الجبل الأخضر",
      "name:ar": "الجبل الأخضر",
      "name:de": "Munizip al-Dschabal al-Achdar",
      "name:en": "Jabal al Akhdar",
      "name:es": "Al Jabal al Akhdar",
      "name:fr": "Al Jabal al Akhdar",
      "name:it": "Distretto di Al-Jabal Al-Akhdar",
      "name:pl": "Al-Dżabal al-Achdar",
      "name:ru": "Эль-Джебал-Эль-Ахдар",
      "name:uk": "Ель-Джебал Ель-Ахдар",
      "boundary": "administrative",
      "int_name": "Jabal al Akhdar",
      "way_area": "0.93642",
      "wikidata": "Q32841",
      "ISO3166-2": "LY-JA",
      "wikipedia": "en:Jabal al Akhdar",
      "admin_level": "4"
    }
  },
  {
    "osm_id": -2060173,
    "boundary": "administrative",
    "admin_level": 4,
    "parents": "-192758",
    "name": "Ghat",
    "local_name": "غات",
    "name_en": "Ghat",
    "all_tags": {
      "name": "غات",
      "name:ar": "غات",
      "name:de": "Munizip Ghat",
      "name:en": "Ghat",
      "name:es": "Ghat",
      "name:fa": "غات",
      "name:fr": "Ghat",
      "name:it": "Distretto di Gat",
      "name:nl": "Ghat",
      "name:pl": "Ghat",
      "name:ru": "Гат",
      "name:uk": "Гат",
      "name:ur": "غات",
      "boundary": "administrative",
      "int_name": "Ghat",
      "name:azb": "غات",
      "way_area": "4.54132",
      "wikidata": "Q48236",
      "ISO3166-2": "LY-GT",
      "wikipedia": "ar:شعبية غات",
      "admin_level": "4",
      "official_name": "شعبية غات",
      "official_name:ar": "شعبية غات"
    }
  },
  {
    "osm_id": -2060172,
    "boundary": "administrative",
    "admin_level": 4,
    "parents": "-192758",
    "name": "Derna",
    "local_name": "درنة",
    "name_en": "Derna",
    "all_tags": {
      "name": "درنة",
      "name:ar": "درنة",
      "name:de": "Munizip Darna",
      "name:en": "Derna",
      "name:es": "Derna",
      "name:fa": "درنه",
      "name:fr": "Darnah",
      "name:it": "Distretto di Derna",
      "name:ks": "درنہ",
      "name:pl": "Darna",
      "name:ru": "Дерна",
      "name:uk": "Дерна",
      "name:ur": "درنہ",
      "boundary": "administrative",
      "name:azb": "درنه",
      "name:ota": "درنه",
      "name:pnb": "درنہ",
      "way_area": "2.42223",
      "wikidata": "Q26124",
      "ISO3166-2": "LY-DR",
      "wikipedia": "ar:بلدية درنة",
      "admin_level": "4",
      "wikipedia:ar": "بلدية درنة",
      "official_name": "بلدية درنة",
      "official_name:ar": "بلدية درنة"
    }
  },
  {
    "osm_id": -2060171,
    "boundary": "administrative",
    "admin_level": 4,
    "parents": "-192758",
    "name": "Butnan",
    "local_name": "البطنان",
    "name_en": "Butnan",
    "all_tags": {
      "name": "البطنان",
      "name:ar": "البطنان",
      "name:de": "Al-Butnan",
      "name:en": "Butnan",
      "name:es": "Al Butnan",
      "name:fa": "بطنان",
      "name:fr": "Al Boutnan",
      "name:it": "Al-Butnan",
      "name:pl": "Al-Butnan",
      "name:ru": "Эль-Бутнан",
      "name:uk": "Ель-Бутнан",
      "name:ur": "بطنان",
      "boundary": "administrative",
      "way_area": "7.9092",
      "wikidata": "Q25931",
      "ISO3166-2": "LY-BU",
      "wikipedia": "ar:شعبية البطنان",
      "admin_level": "4",
      "official_name": "شعبية البطنان",
      "official_name:ar": "شعبية البطنان",
      "official_name:de": "Munizip al-Butnan",
      "official_name:fa": "استان بطنان",
      "official_name:it": "Distretto di Al-Butnan",
      "official_name:ur": "بطنان ضلع"
    }
  },
  {
    "osm_id": -2060170,
    "boundary": "administrative",
    "admin_level": 4,
    "parents": "-192758",
    "name": "Benghazi",
    "local_name": "بنغازي",
    "name_en": "Benghazi",
    "all_tags": {
      "name": "بنغازي",
      "name:ar": "بنغازي",
      "name:de": "Munizip Bengasi",
      "name:en": "Benghazi",
      "name:es": "Bengasi",
      "name:fr": "Benghazi",
      "name:it": "Distretto di Bengasi",
      "name:pl": "Bengazi",
      "name:ru": "Бенгази",
      "name:uk": "Бенгазі",
      "boundary": "administrative",
      "int_name": "Benghazi",
      "way_area": "2.79281",
      "wikidata": "Q33507",
      "ISO3166-2": "LY-BA",
      "wikipedia": "ar:شعبية بنغازي",
      "admin_level": "4"
    }
  },
  {
    "osm_id": -2060169,
    "boundary": "administrative",
    "admin_level": 4,
    "parents": "-192758",
    "name": "Al Wahat",
    "local_name": "الواحات",
    "name_en": "Al Wahat",
    "all_tags": {
      "name": "الواحات",
      "name:ar": "الواحات",
      "name:de": "Al-Wahat",
      "name:en": "Al Wahat",
      "name:es": "Al Wahat",
      "name:fa": "واحات",
      "name:fr": "Al Wahat",
      "name:it": "Al-Wahat",
      "name:pl": "Al-Wahat",
      "name:ru": "Эль-Вахат",
      "name:uk": "Ель-Вахат",
      "name:ur": "الواحات",
      "boundary": "administrative",
      "way_area": "19.1986",
      "wikidata": "Q26000",
      "ISO3166-2": "LY-WA",
      "wikipedia": "ar:شعبية الواحات",
      "admin_level": "4",
      "official_name": "شعبية الواحات",
      "official_name:ar": "شعبية الواحات",
      "official_name:de": "Munizip al-Wahat",
      "official_name:fa": "استان واحات",
      "official_name:it": "Distretto di Al-Wahat",
      "official_name:ur": "الواحات ضلع"
    }
  }
]
