[
  {
    "osm_id": -9581354,
    "boundary": "administrative",
    "admin_level": 4,
    "parents": "-65335,-58974",
    "name": "Bender Municipality",
    "local_name": "Municipiul Bender",
    "name_en": "Bender Municipality",
    "all_tags": {
      "ref": "BD",
      "name": "Municipiul Bender",
      "name:de": "Munizip Bender",
      "name:en": "Bender Municipality",
      "name:mo": "Municipiul Bender",
      "name:ru": "Муниципий Бендеры",
      "name:uk": "Муніципій Бендер",
      "boundary": "administrative",
      "way_area": "0.00431372",
      "wikidata": "Q18088065",
      "ISO3166-2": "MD-BD",
      "admin_level": "4"
    }
  },
  {
    "osm_id": -7446674,
    "boundary": "administrative",
    "admin_level": 6,
    "parents": "-58985,-58974",
    "name": "Ungheni",
    "local_name": "Ungheni",
    "name_en": "Ungheni",
    "all_tags": {
      "name": "Ungheni",
      "name:bg": "Унге́н",
      "name:de": "Ungheni",
      "name:en": "Ungheni",
      "name:es": "Ungheni",
      "name:fi": "Ungheni",
      "name:fr": "Ungheni",
      "name:pt": "Ungheni",
      "name:ro": "Ungheni",
      "name:ru": "Унгены",
      "name:zh": "溫格內",
      "boundary": "administrative",
      "int_name": "Ungheni",
      "nat_name": "Ungheni",
      "way_area": "0.00194366",
      "full_name": "Municipiul Ungheni",
      "admin_level": "6",
      "is_in:country": "Moldova;MD"
    }
  },
  {
    "osm_id": -7103068,
    "boundary": "administrative",
    "admin_level": 5,
    "parents": "-1699032,-58974",
    "name": "Vulcănești District",
    "local_name": "Raionul Vulcănești / Valkaneş dolayı / Вулканештский район",
    "name_en": "Vulcănești District",
    "all_tags": {
      "name": "Raionul Vulcănești / Valkaneş dolayı / Вулканештский район",
      "name:de": "Rajon Vulcănești",
      "name:en": "Vulcănești District",
      "name:pl": "Rejon Wułkanieszty",
      "name:ru": "Вулканештский район",
      "boundary": "administrative",
      "name:gag": "Valkaneş dolayı",
      "way_area": "0.0384282",
      "wikidata": "Q12739059",
      "wikipedia": "ro:Raionul Vulcănești",
      "admin_level": "5"
    }
  },
  {
    "osm_id": -5636983,
    "boundary": "administrative",
    "admin_level": 6,
    "parents": "-1692172,-58974",
    "name": "Orhei",
    "local_name": "Orhei",
    "name_en": null,
    "all_tags": {
      "name": "Orhei",
      "place": "city",
      "name:de": "Orhei",
      "name:es": "Orhei",
      "name:fr": "Orhei",
      "name:he": "אורחיי",
      "name:it": "Orhei",
      "name:pl": "Orgiejów",
      "name:ro": "Orhei",
      "name:ru": "Орхей",
      "name:uk": "Оргі́їв",
      "name:zh": "奧爾海伊",
      "website": "http://www.orhei.md",
      "boundary": "administrative",
      "way_area": "0.00235734",
      "wikidata": "Q423258",
      "full_name": "Municipiul Orhei",
      "wikipedia": "ro:Orhei",
      "admin_level": "6",
      "alt_name:ru": "Оргеев",
      "name:prefix": "Municipiul",
      "addr:country": "MD",
      "is_in:country": "Moldova;MD"
    }
  },
  {
    "osm_id": -2607033,
    "boundary": "administrative",
    "admin_level": 4,
    "parents": "-65335,-58974",
    "name": "Administrative-Territorial Units from the Left Bank of the Dniester",
    "local_name": "Unitățile administrativ-teritoriale din stînga Nistrului",
    "name_en": "Administrative-Territorial Units from the Left Bank of the Dniester",
    "all_tags": {
      "ref": "SN",
      "name": "Unitățile administrativ-teritoriale din stînga Nistrului",
      "place": "region",
      "name:de": "Administrativ-territoriale Einheiten des linken Ufers des Dnjestr",
      "name:en": "Administrative-Territorial Units from the Left Bank of the Dniester",
      "name:mo": "Unitățile administrativ-teritoriale din stînga Nistrului",
      "name:ro": "Unitățile administrativ-teritoriale din stânga Nistrului",
      "name:ru": "Административно-территориальные единицы левобережья Днестра",
      "name:uk": "Адміністративно-територіальні одиниці лівобережжя Дністра",
      "alt_name": "Transnistria;Stînga Nistrului",
      "boundary": "administrative",
      "way_area": "0.398564",
      "wikidata": "Q648767",
      "ISO3166-2": "MD-SN",
      "wikipedia": "en:Transnistria autonomous territorial unit",
      "short_name": "UATSN",
      "admin_level": "4",
      "official_name": "Unitățile administrativ-teritoriale din stînga Nistrului",
      "official_name:en": "Administrative-Territorial Units from the Left Bank of the Dniester",
      "official_name:mo": "Unitățile administrativ-teritoriale din stînga Nistrului",
      "official_name:ro": "Unitățile administrativ-teritoriale din stânga Nistrului",
      "official_name:ru": "Административно-территориальные единицы левобережья Днестра",
      "official_name:uk": "Адміністративно-територіальні одиниці лівобережжя Дністра",
      "official_name:mok": "Унитэциле административ-териториале дин стынга Ниструлуй"
    }
  },
  {
    "osm_id": -1706979,
    "boundary": "administrative",
    "admin_level": 5,
    "parents": "-1699032,-58974",
    "name": "Ceadîr-Lunga District",
    "local_name": "Raionul Ceadîr-Lunga / Çadır dolayı / Чадыр-Лунгский район",
    "name_en": "Ceadîr-Lunga District",
    "all_tags": {
      "name": "Raionul Ceadîr-Lunga / Çadır dolayı / Чадыр-Лунгский район",
      "name:de": "Rajon Ceadîr-Lunga",
      "name:en": "Ceadîr-Lunga District",
      "name:pl": "Rejon Czadyr-Łunga",
      "name:ru": "Чадыр-Лунгский район",
      "boundary": "administrative",
      "name:gag": "Çadır dolayı",
      "way_area": "0.0768089",
      "wikidata": "Q19689880",
      "wikipedia": "ro:Raionul Ceadîr-Lunga",
      "admin_level": "5"
    }
  },
  {
    "osm_id": -1706978,
    "boundary": "administrative",
    "admin_level": 5,
    "parents": "-1699032,-58974",
    "name": "Comrat District",
    "local_name": "Raionul Comrat / Komrat dolayı / Комратский район",
    "name_en": "Comrat District",
    "all_tags": {
      "ref": "CO",
      "name": "Raionul Comrat / Komrat dolayı / Комратский район",
      "name:de": "Rajon Comrat",
      "name:en": "Comrat District",
      "name:mo": "Raionul Comrat",
      "name:pl": "Rejon Komrat",
      "name:ro": "Raionul Comrat",
      "name:ru": "Комратский район",
      "boundary": "administrative",
      "name:gag": "Komrat dolayı",
      "way_area": "0.0995165",
      "wikidata": "Q19689878",
      "wikipedia": "ro:Raionul Comrat",
      "admin_level": "5"
    }
  },
  {
    "osm_id": -1702219,
    "boundary": "administrative",
    "admin_level": 5,
    "parents": "-2607033,-65335,-58974",
    "name": "Tiraspol City Council",
    "local_name": "Советул орэшенеск Тираспол / Тираспольский городской совет / Тираспольська міська рада",
    "name_en": "Tiraspol City Council",
    "all_tags": {
      "name": "Советул орэшенеск Тираспол / Тираспольский городской совет / Тираспольська міська рада",
      "name:de": "Stadtkreis Tiraspol",
      "name:en": "Tiraspol City Council",
      "name:hy": "Տիրասպոլ",
      "name:ka": "ტირასპოლი",
      "name:md": "Советул орэшенеск Тираспол",
      "name:ro": "Sovetul orășenesc Tiraspol",
      "name:ru": "Тираспольский городской совет",
      "name:uk": "Тираспольська міська рада",
      "name:zh": "蒂拉斯波尔",
      "boundary": "administrative",
      "int_name": "Tiraspol",
      "way_area": "0.00582323",
      "wikidata": "Q16706183",
      "wikipedia": "ro:Raionul Tiraspol",
      "population": "157917",
      "short_name": "Тирасполь",
      "admin_level": "5",
      "short_name:de": "Tiraspol",
      "short_name:en": "Tiraspol",
      "short_name:md": "Тираспол",
      "short_name:ro": "Tiraspol",
      "short_name:ru": "Тирасполь",
      "short_name:uk": "Тирасполь"
    }
  },
  {
    "osm_id": -1702218,
    "boundary": "administrative",
    "admin_level": 5,
    "parents": "-65335,-58974",
    "name": "Slobdzeya District",
    "local_name": "Районул Слобозиа / Слободзейский район / Слободзейський район",
    "name_en": "Slobdzeya District",
    "all_tags": {
      "name": "Районул Слобозиа / Слободзейский район / Слободзейський район",
      "name:be": "Слабадзейскі раён",
      "name:cs": "Slobodzejský rajon",
      "name:de": "Rajon Slobodseja",
      "name:en": "Slobdzeya District",
      "name:md": "Районул Слобозиа",
      "name:pl": "Rejon Slobozia",
      "name:ro": "Raionul Slobozia",
      "name:ru": "Слободзейский район ПМР",
      "name:uk": "Слободзейський район",
      "website": "http://slobadmin.ru",
      "boundary": "administrative",
      "way_area": "0.108615",
      "wikidata": "Q511474",
      "wikipedia": "en:Slobozia District",
      "admin_level": "5"
    }
  },
  {
    "osm_id": -1702217,
    "boundary": "administrative",
    "admin_level": 5,
    "parents": "-2607033,-65335,-58974",
    "name": "Rybnitsa District",
    "local_name": "Районул Рыбница / Рыбницкий район / Рибницький район",
    "name_en": "Rybnitsa District",
    "all_tags": {
      "name": "Районул Рыбница / Рыбницкий район / Рибницький район",
      "name:be": "Рыбніцкі раён",
      "name:de": "Rajon Rybniza",
      "name:en": "Rybnitsa District",
      "name:it": "Distretto di Rybnitsa",
      "name:md": "Районул Рыбница",
      "name:pl": "Rejon Rybnica",
      "name:ro": "Raionul Rîbnița",
      "name:ru": "Рыбницкий район ПМР",
      "name:tr": "Rybnitsa rayonu",
      "name:uk": "Рибницький район",
      "website": "http://www.rybnitsa.org",
      "boundary": "administrative",
      "way_area": "0.10505",
      "wikidata": "Q1949891",
      "wikipedia": "en:Rîbnița District",
      "admin_level": "5"
    }
  },
  {
    "osm_id": -1702216,
    "boundary": "administrative",
    "admin_level": 5,
    "parents": "-2607033,-65335,-58974",
    "name": "Camenca District",
    "local_name": "Районул Каменка / Каменский район / Кам'янський район",
    "name_en": "Camenca District",
    "all_tags": {
      "name": "Районул Каменка / Каменский район / Кам'янський район",
      "name:de": "Rajon Kamenka",
      "name:en": "Camenca District",
      "name:md": "Районул Каменка",
      "name:mo": "Raionul Camenca",
      "name:pl": "Rejon Kamionka",
      "name:ro": "Raionul Camenca",
      "name:ru": "Каменский район ПМР",
      "name:uk": "Кам'янський район",
      "website": "http://www.camenca.org",
      "boundary": "administrative",
      "way_area": "0.0515877",
      "wikidata": "Q2003188",
      "wikipedia": "en:Camenca District",
      "admin_level": "5"
    }
  },
  {
    "osm_id": -1702215,
    "boundary": "administrative",
    "admin_level": 5,
    "parents": "-65335,-58974",
    "name": "Dubasari District (Transnistria)",
    "local_name": "Районул Дубэсарь / Дубоссарский район / Дубоссарський район",
    "name_en": "Dubasari District (Transnistria)",
    "all_tags": {
      "name": "Районул Дубэсарь / Дубоссарский район / Дубоссарський район",
      "name:de": "Rajon Dubossary (Transnistrien)",
      "name:en": "Dubasari District (Transnistria)",
      "name:md": "Районул Дубэсарь (РМН)",
      "name:pl": "rejon dubosarski (Naddniestrze)",
      "name:ro": "Raionul Dubăsari (RMN)",
      "name:ru": "Дубоссарский район (ПМР)",
      "name:uk": "Дубоссарський район (ПМР)",
      "website": "http://www.dubossary.ru",
      "boundary": "administrative",
      "way_area": "0.0451488",
      "wikidata": "Q2627106",
      "wikipedia": "ro:Raionul Dubăsari (RSS Moldovenească)",
      "admin_level": "5"
    }
  },
  {
    "osm_id": -1702214,
    "boundary": "administrative",
    "admin_level": 5,
    "parents": "-2607033,-65335,-58974",
    "name": "Grigoriopol District",
    "local_name": "Районул Григориопол / Григориопольский район / Григоріопольський район",
    "name_en": "Grigoriopol District",
    "all_tags": {
      "name": "Районул Григориопол / Григориопольский район / Григоріопольський район",
      "name:be": "Грыгарыёпальскі раён",
      "name:cs": "Grigoriopolský rajon",
      "name:de": "Rajon Grigoriopol",
      "name:en": "Grigoriopol District",
      "name:hy": "Գրիգորիոպոլի շրջան",
      "name:it": "Distretto di Grigoriopol",
      "name:lt": "Grigoriopolio rajonas",
      "name:md": "Районул Григориопол",
      "name:mo": "Raionul Grigoriopol",
      "name:pl": "Rejon Grigoriopol",
      "name:ro": "Raionul Grigoriopol (RMN)",
      "name:ru": "Григориопольский район ПМР",
      "name:tr": "Grigoriopol rayonu",
      "name:uk": "Григоріопольський район ПМР",
      "boundary": "administrative",
      "way_area": "0.09692",
      "wikidata": "Q2072484",
      "wikipedia": "en:Grigoriopol District",
      "admin_level": "5"
    }
  },
  {
    "osm_id": -1699034,
    "boundary": "administrative",
    "admin_level": 4,
    "parents": "-58974",
    "name": "Cahul District",
    "local_name": "Raionul Cahul",
    "name_en": "Cahul District",
    "all_tags": {
      "ref": "CH",
      "name": "Raionul Cahul",
      "place": "district",
      "name:de": "Rajon Cahul",
      "name:en": "Cahul District",
      "name:fr": "Raion de Cahul",
      "name:mo": "Raionul Cahul",
      "name:ro": "Raionul Cahul",
      "name:ru": "Кагульский район",
      "name:uk": "Кагульський район",
      "boundary": "administrative",
      "way_area": "0.179053",
      "wikidata": "Q2128882",
      "ISO3166-2": "MD-CA",
      "wikipedia": "en:Cahul District",
      "admin_level": "4"
    }
  },
  {
    "osm_id": -1699033,
    "boundary": "administrative",
    "admin_level": 4,
    "parents": "-58974",
    "name": "Taraclia District",
    "local_name": "Raionul Taraclia",
    "name_en": "Taraclia District",
    "all_tags": {
      "ref": "TR",
      "name": "Raionul Taraclia",
      "place": "district",
      "name:bg": "Тараклийски район",
      "name:de": "Rajon Taraclia",
      "name:en": "Taraclia District",
      "name:md": "Районул Тараклия",
      "name:mo": "Raionul Taraclia",
      "name:ro": "Raionul Taraclia",
      "name:ru": "Тараклийский район",
      "name:uk": "Тараклійський район",
      "boundary": "administrative",
      "name:gag": "Taraklı dolayı",
      "way_area": "0.0782832",
      "wikidata": "Q865884",
      "ISO3166-2": "MD-TA",
      "wikipedia": "en:Taraclia District",
      "admin_level": "4"
    }
  },
  {
    "osm_id": -1699032,
    "boundary": "administrative",
    "admin_level": 4,
    "parents": "-58974",
    "name": "Gagauzia",
    "local_name": "Găgăuzia / Gagauziya / Гагаузия",
    "name_en": "Gagauzia",
    "all_tags": {
      "ref": "GE",
      "name": "Găgăuzia / Gagauziya / Гагаузия",
      "place": "region",
      "name:af": "Gagausië",
      "name:ar": "غاغاوزيا",
      "name:az": "Qaqauziya",
      "name:be": "Гагаузія",
      "name:bg": "Гагаузия",
      "name:ca": "Gagaúsia",
      "name:ce": "Гагаузи",
      "name:cs": "Gagauzsko",
      "name:cv": "Гагаузи",
      "name:de": "Gagausien",
      "name:el": "Γκαγκαουζία",
      "name:en": "Gagauzia",
      "name:eo": "Gagaŭzio",
      "name:es": "Gagauzia",
      "name:et": "Gagauusia",
      "name:fa": "گاگائوزیا",
      "name:fi": "Gagauzia",
      "name:fr": "Gagaouzie",
      "name:he": "גגאוזיה",
      "name:id": "Gagauzia",
      "name:is": "Gagásía",
      "name:it": "Gagauzia",
      "name:ja": "ガガウズ自治区",
      "name:ka": "გაგაუზია",
      "name:kk": "Гәгәузия",
      "name:ko": "가가우지아",
      "name:lt": "Gagaūzija",
      "name:md": "Гэгэузия",
      "name:mn": "Гагауз нутаг",
      "name:mo": "Găgăuzia",
      "name:nl": "Gagaoezië",
      "name:os": "Гагаузи",
      "name:pl": "Gagauzja",
      "name:pt": "Gagaúzia",
      "name:ro": "Găgăuzia",
      "name:ru": "Гагаузия",
      "name:sh": "Gagauzija",
      "name:sr": "Гагаузија",
      "name:sv": "Gagauzien",
      "name:tr": "Gagavuzya",
      "name:uk": "Гагаузія",
      "name:zh": "加告茲",
      "boundary": "administrative",
      "name:azb": "قاقاووزیا",
      "name:gag": "Gagauz Yeri",
      "name:hsb": "Gagauska",
      "name:xmf": "გაგაუზია",
      "way_area": "0.214754",
      "wikidata": "Q164819",
      "ISO3166-2": "MD-GA",
      "wikipedia": "en:Gagauzia",
      "admin_level": "4",
      "alt_name:gag": "Gagauz Yeri",
      "official_name": "UTA Găgăuzia",
      "is_in:continent": "Europe",
      "official_name:pl": "Terytorium Autonomiczne Gagauzji",
      "is_in:country_code": "MD"
    }
  },
  {
    "osm_id": -1699023,
    "boundary": "administrative",
    "admin_level": 4,
    "parents": "-58974",
    "name": "Leova District",
    "local_name": "Raionul Leova",
    "name_en": "Leova District",
    "all_tags": {
      "ref": "LV",
      "name": "Raionul Leova",
      "place": "district",
      "name:de": "Rajon Leova",
      "name:en": "Leova District",
      "name:mo": "Raionul Leova",
      "name:ro": "Raionul Leova",
      "name:ru": "Леовский район",
      "name:uk": "Леовський район",
      "boundary": "administrative",
      "way_area": "0.0896887",
      "wikidata": "Q1826662",
      "ISO3166-2": "MD-LE",
      "wikipedia": "en:Leova District",
      "admin_level": "4"
    }
  },
  {
    "osm_id": -1699022,
    "boundary": "administrative",
    "admin_level": 4,
    "parents": "-58974",
    "name": "Cantemir District",
    "local_name": "Raionul Cantemir",
    "name_en": "Cantemir District",
    "all_tags": {
      "ref": "CT",
      "name": "Raionul Cantemir",
      "place": "district",
      "name:bg": "Кантемирски район",
      "name:de": "Rajon Cantemir",
      "name:en": "Cantemir District",
      "name:mo": "Raionul Cantemir",
      "name:ro": "Raionul Cantemir",
      "name:ru": "Кантемирский район",
      "name:uk": "Кантемірський район",
      "boundary": "administrative",
      "way_area": "0.101371",
      "wikidata": "Q684183",
      "ISO3166-2": "MD-CT",
      "wikipedia": "en:Cantemir District",
      "admin_level": "4"
    }
  },
  {
    "osm_id": -1693908,
    "boundary": "administrative",
    "admin_level": 4,
    "parents": "-58974",
    "name": "Rîșcani District",
    "local_name": "Raionul Rîșcani",
    "name_en": "Rîșcani District",
    "all_tags": {
      "ref": "RS",
      "name": "Raionul Rîșcani",
      "place": "district",
      "name:de": "Rajon Rîșcani",
      "name:en": "Rîșcani District",
      "name:ru": "Рышканский район",
      "name:uk": "Ришканський район",
      "alt_name": "Raionul Râșcani",
      "boundary": "administrative",
      "way_area": "0.113029",
      "wikidata": "Q611656",
      "ISO3166-2": "MD-RI",
      "wikipedia": "en:Rîșcani District",
      "admin_level": "4"
    }
  },
  {
    "osm_id": -1693907,
    "boundary": "administrative",
    "admin_level": 4,
    "parents": "-58974",
    "name": "Drochia District",
    "local_name": "Raionul Drochia",
    "name_en": "Drochia District",
    "all_tags": {
      "ref": "DR",
      "name": "Raionul Drochia",
      "place": "district",
      "name:de": "Rajon Drochia",
      "name:en": "Drochia District",
      "name:ru": "Дрокиевский район",
      "name:uk": "Дрокійський район",
      "boundary": "administrative",
      "way_area": "0.120748",
      "wikidata": "Q865594",
      "ISO3166-2": "MD-DR",
      "wikipedia": "en:Drochia District",
      "admin_level": "4"
    }
  },
  {
    "osm_id": -1693874,
    "boundary": "administrative",
    "admin_level": 4,
    "parents": "-58974",
    "name": "Glodeni District",
    "local_name": "Raionul Glodeni",
    "name_en": "Glodeni District",
    "all_tags": {
      "ref": "GL",
      "name": "Raionul Glodeni",
      "place": "district",
      "name:de": "Rajon Glodeni",
      "name:en": "Glodeni District",
      "name:ru": "Глодянский район",
      "name:uk": "Глоденський район",
      "boundary": "administrative",
      "way_area": "0.0906478",
      "wikidata": "Q860716",
      "ISO3166-2": "MD-GL",
      "wikipedia": "en:Glodeni District",
      "admin_level": "4"
    }
  },
  {
    "osm_id": -1693561,
    "boundary": "administrative",
    "admin_level": 4,
    "parents": "-58974",
    "name": "Șoldănești District",
    "local_name": "Raionul Șoldănești",
    "name_en": "Șoldănești District",
    "all_tags": {
      "ref": "SD",
      "name": "Raionul Șoldănești",
      "place": "district",
      "name:de": "Rajon Șoldănești",
      "name:en": "Șoldănești District",
      "name:md": "Районул Шолдэнешть",
      "name:mo": "Raionul Șoldănești",
      "name:ro": "Raionul Șoldănești",
      "name:ru": "Шолданештский район",
      "name:uk": "Шолданештський район",
      "boundary": "administrative",
      "way_area": "0.0716608",
      "wikidata": "Q865639",
      "ISO3166-2": "MD-SD",
      "wikipedia": "en:Șoldănești District",
      "admin_level": "4"
    }
  },
  {
    "osm_id": -1693560,
    "boundary": "administrative",
    "admin_level": 4,
    "parents": "-58974",
    "name": "Florești District",
    "local_name": "Raionul Florești",
    "name_en": "Florești District",
    "all_tags": {
      "ref": "FR",
      "name": "Raionul Florești",
      "place": "district",
      "name:de": "Rajon Florești",
      "name:en": "Florești District",
      "name:ru": "Флорештский район",
      "name:uk": "Флорештський район",
      "boundary": "administrative",
      "way_area": "0.133451",
      "wikidata": "Q865726",
      "ISO3166-2": "MD-FL",
      "wikipedia": "en:Florești District",
      "admin_level": "4"
    }
  },
  {
    "osm_id": -1693523,
    "boundary": "administrative",
    "admin_level": 4,
    "parents": "-58974",
    "name": "Soroca District",
    "local_name": "Raionul Soroca",
    "name_en": "Soroca District",
    "all_tags": {
      "ref": "SR",
      "name": "Raionul Soroca",
      "place": "district",
      "name:bg": "Сорокски район",
      "name:de": "Rajon Soroca",
      "name:en": "Soroca District",
      "name:pl": "Rejon Soroca",
      "name:ru": "Сорокский район",
      "name:uk": "Сороцький район",
      "boundary": "administrative",
      "way_area": "0.125738",
      "wikidata": "Q2129022",
      "ISO3166-2": "MD-SO",
      "wikipedia": "en:Soroca District",
      "admin_level": "4"
    }
  },
  {
    "osm_id": -1692172,
    "boundary": "administrative",
    "admin_level": 4,
    "parents": "-58974",
    "name": "Orhei District",
    "local_name": "Raionul Orhei",
    "name_en": "Orhei District",
    "all_tags": {
      "ref": "OR",
      "name": "Raionul Orhei",
      "place": "district",
      "name:de": "Rajon Orhei",
      "name:en": "Orhei District",
      "name:mo": "Raionul Orhei",
      "name:ro": "Raionul Orhei",
      "name:ru": "Оргеевский район",
      "name:uk": "Оргіївський район",
      "boundary": "administrative",
      "way_area": "0.145947",
      "wikidata": "Q2112462",
      "ISO3166-2": "MD-OR",
      "wikipedia": "en:Orhei District",
      "admin_level": "4"
    }
  },
  {
    "osm_id": -1692126,
    "boundary": "administrative",
    "admin_level": 4,
    "parents": "-58974",
    "name": "Criuleni District",
    "local_name": "Raionul Criuleni",
    "name_en": "Criuleni District",
    "all_tags": {
      "ref": "CR",
      "name": "Raionul Criuleni",
      "place": "district",
      "name:de": "Rajon Criuleni",
      "name:en": "Criuleni District",
      "name:mo": "Raionul Criuleni",
      "name:ro": "Raionul Criuleni",
      "name:ru": "Криулянский район",
      "name:uk": "Кріуленський район",
      "boundary": "administrative",
      "way_area": "0.0813099",
      "wikidata": "Q2128862",
      "ISO3166-2": "MD-CR",
      "wikipedia": "en:Criuleni District",
      "admin_level": "4"
    }
  },
  {
    "osm_id": -1692123,
    "boundary": "administrative",
    "admin_level": 4,
    "parents": "-58974",
    "name": "Dubăsari District",
    "local_name": "Raionul Dubăsari",
    "name_en": "Dubăsari District",
    "all_tags": {
      "ref": "DB",
      "name": "Raionul Dubăsari",
      "place": "district",
      "name:de": "Rajon Dubăsari",
      "name:en": "Dubăsari District",
      "name:md": "Районул Дубэсарь",
      "name:mo": "Raionul Dubăsari",
      "name:pl": "rejon dubosarski",
      "name:ro": "Raionul Dubăsari",
      "name:ru": "Дубоссарский район",
      "name:uk": "Дубесарський район",
      "boundary": "administrative",
      "way_area": "0.0389688",
      "wikidata": "Q878278",
      "ISO3166-2": "MD-DU",
      "wikipedia": "en:Dubăsari District",
      "admin_level": "4"
    }
  },
  {
    "osm_id": -1692078,
    "boundary": "administrative",
    "admin_level": 4,
    "parents": "-58974",
    "name": "Anenii Noi District",
    "local_name": "Raionul Anenii Noi",
    "name_en": "Anenii Noi District",
    "all_tags": {
      "ref": "AN",
      "name": "Raionul Anenii Noi",
      "place": "district",
      "name:bg": "Новоаненски район",
      "name:de": "Rajon Anenii Noi",
      "name:en": "Anenii Noi District",
      "name:mo": "Raionul Anenii Noi",
      "name:ro": "Raionul Anenii Noi",
      "name:ru": "Новоаненский район",
      "name:uk": "Аненій-Нойський район",
      "boundary": "administrative",
      "old_name": "Raionul Bulboaca",
      "way_area": "0.10504",
      "wikidata": "Q769224",
      "ISO3166-2": "MD-AN",
      "wikipedia": "en:Anenii Noi District",
      "admin_level": "4",
      "old_name:ru": "Бульбокский район"
    }
  },
  {
    "osm_id": -1691801,
    "boundary": "administrative",
    "admin_level": 4,
    "parents": "-58974",
    "name": "Chișinău Municipality",
    "local_name": "Municipiul Chișinău",
    "name_en": "Chișinău Municipality",
    "all_tags": {
      "ref": "CU",
      "name": "Municipiul Chișinău",
      "place": "municipality",
      "name:de": "Munizip Kischinau",
      "name:en": "Chișinău Municipality",
      "name:fr": "Municipalité de Chișinău",
      "name:mo": "Municipiul Chișinău",
      "name:ro": "Municipiul Chișinău",
      "name:ru": "Муниципалитет Кишинёв",
      "name:uk": "Муніципій Кишинів",
      "boundary": "administrative",
      "way_area": "0.0680635",
      "wikidata": "Q17176229",
      "ISO3166-2": "MD-CU",
      "wikipedia": "ro:Municipiul Chișinău",
      "admin_level": "4",
      "alt_name:en": "Municipality of Chisinau"
    }
  },
  {
    "osm_id": -1691800,
    "boundary": "administrative",
    "admin_level": 4,
    "parents": "-58974",
    "name": "Ialoveni District",
    "local_name": "Raionul Ialoveni",
    "name_en": "Ialoveni District",
    "all_tags": {
      "ref": "IL",
      "name": "Raionul Ialoveni",
      "place": "district",
      "name:de": "Rajon Ialoveni",
      "name:en": "Ialoveni District",
      "name:mo": "Raionul Ialoveni",
      "name:ro": "Raionul Ialoveni",
      "name:ru": "Яловенский район",
      "name:uk": "Яловенський район",
      "boundary": "administrative",
      "way_area": "0.0924136",
      "wikidata": "Q2128964",
      "ISO3166-2": "MD-IA",
      "wikipedia": "en:Ialoveni District",
      "admin_level": "4"
    }
  },
  {
    "osm_id": -1435790,
    "boundary": "administrative",
    "admin_level": 4,
    "parents": "-58974",
    "name": "Rezina District",
    "local_name": "Raionul Rezina",
    "name_en": "Rezina District",
    "all_tags": {
      "ref": "RZ",
      "name": "Raionul Rezina",
      "place": "district",
      "name:de": "Rajon Rezina",
      "name:en": "Rezina District",
      "name:mo": "Raionul Rezina",
      "name:ro": "Raionul Rezina",
      "name:ru": "Резинский район",
      "name:uk": "Резинський район",
      "boundary": "administrative",
      "way_area": "0.0744071",
      "wikidata": "Q878317",
      "ISO3166-2": "MD-RE",
      "wikipedia": "en:Rezina District",
      "admin_level": "4"
    }
  },
  {
    "osm_id": -1211126,
    "boundary": "administrative",
    "admin_level": 4,
    "parents": "-58974",
    "name": "Cimișlia District",
    "local_name": "Raionul Cimișlia",
    "name_en": "Cimișlia District",
    "all_tags": {
      "ref": "CM",
      "name": "Raionul Cimișlia",
      "place": "district",
      "name:de": "Rajon Cimișlia",
      "name:en": "Cimișlia District",
      "name:mo": "Raionul Cimișlia",
      "name:ro": "Raionul Cimișlia",
      "name:ru": "Чимишлийский район",
      "name:uk": "Чимішлійський район",
      "boundary": "administrative",
      "way_area": "0.108323",
      "wikidata": "Q286646",
      "ISO3166-2": "MD-CM",
      "wikipedia": "en:Cimișlia District",
      "admin_level": "4"
    }
  },
  {
    "osm_id": -1104136,
    "boundary": "administrative",
    "admin_level": 4,
    "parents": "-58974",
    "name": "Basarabeasca District",
    "local_name": "Raionul Basarabeasca",
    "name_en": "Basarabeasca District",
    "all_tags": {
      "ref": "BS",
      "name": "Raionul Basarabeasca",
      "place": "district",
      "name:bg": "Бесарабски район",
      "name:de": "Rajon Basarabeasca",
      "name:en": "Basarabeasca District",
      "name:mo": "Raionul Basarabeasca",
      "name:ro": "Raionul Basarabeasca",
      "name:ru": "Бессарабский район",
      "name:uk": "Бессарабський район",
      "website": "http://www.basarabeasca.md/",
      "boundary": "administrative",
      "way_area": "0.0345875",
      "wikidata": "Q1980044",
      "ISO3166-2": "MD-BS",
      "wikipedia": "en:Basarabeasca District",
      "admin_level": "4"
    }
  },
  {
    "osm_id": -944727,
    "boundary": "administrative",
    "admin_level": 5,
    "parents": "-65335,-58974",
    "name": "Bender City Council",
    "local_name": "Советул орэшенеск Бендер / Бендерский городской совет / Бендерська міська рада",
    "name_en": "Bender City Council",
    "all_tags": {
      "name": "Советул орэшенеск Бендер / Бендерский городской совет / Бендерська міська рада",
      "place": "municipality",
      "name:de": "Stadtkreis Bendery",
      "name:en": "Bender City Council",
      "name:md": "Советул орэшенеск Бендер",
      "name:pl": "Rada miejska Bendery",
      "name:ro": "Sovetul orășenesc Bender",
      "name:ru": "Бендерский городской совет",
      "name:uk": "Бендерська міська рада",
      "alt_name": "Бендеры",
      "boundary": "administrative",
      "way_area": "0.00844535",
      "wikidata": "Q192176",
      "wikipedia": "ru:Бендеры",
      "admin_level": "5",
      "alt_name:en": "Bendery",
      "old_name:ro": "Tighina"
    }
  },
  {
    "osm_id": -85827,
    "boundary": "administrative",
    "admin_level": 4,
    "parents": "-58974",
    "name": "Strășeni District",
    "local_name": "Raionul Strășeni",
    "name_en": "Strășeni District",
    "all_tags": {
      "ref": "ST",
      "name": "Raionul Strășeni",
      "place": "district",
      "name:de": "Rajon Strășeni",
      "name:en": "Strășeni District",
      "name:mo": "Raionul Strășeni",
      "name:ro": "Raionul Strășeni",
      "name:ru": "Страшенский район",
      "name:uk": "Страшенський район",
      "boundary": "administrative",
      "way_area": "0.0866965",
      "wikidata": "Q878308",
      "ISO3166-2": "MD-ST",
      "wikipedia": "en:Strășeni District",
      "admin_level": "4"
    }
  },
  {
    "osm_id": -65344,
    "boundary": "administrative",
    "admin_level": 4,
    "parents": "-58974",
    "name": "Ștefan Vodă District",
    "local_name": "Raionul Ștefan Vodă",
    "name_en": "Ștefan Vodă District",
    "all_tags": {
      "ref": "SV",
      "name": "Raionul Ștefan Vodă",
      "place": "district",
      "name:bg": "Щтефанводски район",
      "name:de": "Rajon Ștefan Vodă",
      "name:en": "Ștefan Vodă District",
      "name:mo": "Raionul Ștefan Vodă",
      "name:ro": "Raionul Ștefan Vodă",
      "name:ru": "Штефан-Водский район",
      "name:uk": "Штефан-Водський район",
      "boundary": "administrative",
      "old_name": "Raionul Suvorov",
      "way_area": "0.117106",
      "wikidata": "Q2129061",
      "ISO3166-2": "MD-SV",
      "wikipedia": "ro:Raionul Ștefan Vodă",
      "admin_level": "4",
      "old_name:ru": "Суворовский Район",
      "old_name:uk": "Суворовський район"
    }
  },
  {
    "osm_id": -65343,
    "boundary": "administrative",
    "admin_level": 4,
    "parents": "-58974",
    "name": "Căușeni District",
    "local_name": "Raionul Căușeni",
    "name_en": "Căușeni District",
    "all_tags": {
      "ref": "CS",
      "name": "Raionul Căușeni",
      "place": "district",
      "name:de": "Rajon Căușeni",
      "name:en": "Căușeni District",
      "name:md": "Районул Кэушень",
      "name:mo": "Raionul Căușeni",
      "name:ro": "Raionul Căușeni",
      "name:ru": "Каушанский район",
      "name:uk": "Каушенський район",
      "boundary": "administrative",
      "way_area": "0.154526",
      "wikidata": "Q2128869",
      "ISO3166-2": "MD-CS",
      "wikipedia": "en:Căușeni District",
      "admin_level": "4"
    }
  },
  {
    "osm_id": -59007,
    "boundary": "administrative",
    "admin_level": 4,
    "parents": "-58974",
    "name": "Dondușeni District",
    "local_name": "Raionul Dondușeni",
    "name_en": "Dondușeni District",
    "all_tags": {
      "ref": "DN",
      "name": "Raionul Dondușeni",
      "place": "district",
      "name:de": "Rajon Dondușeni",
      "name:en": "Dondușeni District",
      "name:ru": "Дондюшанский район",
      "name:uk": "Дондушенський район",
      "boundary": "administrative",
      "way_area": "0.0779577",
      "wikidata": "Q1061128",
      "ISO3166-2": "MD-DO",
      "wikipedia": "en:Dondușeni District",
      "admin_level": "4"
    }
  },
  {
    "osm_id": -59005,
    "boundary": "administrative",
    "admin_level": 4,
    "parents": "-58974",
    "name": "Ocnița District",
    "local_name": "Raionul Ocnița",
    "name_en": "Ocnița District",
    "all_tags": {
      "ref": "OC",
      "name": "Raionul Ocnița",
      "place": "district",
      "name:bg": "Окницки район",
      "name:ca": "Districte d'Ocnița",
      "name:de": "Rajon Ocnița",
      "name:en": "Ocnița District",
      "name:es": "Distrito de Ocnița",
      "name:fr": "Raion d'Ocnița",
      "name:ka": "ოკნიცის რაიონი",
      "name:ko": "오크니차 구",
      "name:lt": "Oknicos rajonas",
      "name:pl": "Rejon Ocnița",
      "name:pt": "Ocniţa",
      "name:ru": "Окницкий район",
      "name:uk": "Окницький район",
      "name:ur": "اوکنیتسا ضلع",
      "name:zh": "奧克尼察區",
      "boundary": "administrative",
      "way_area": "0.0728014",
      "wikidata": "Q266444",
      "ISO3166-2": "MD-OC",
      "wikipedia": "en:Ocnița District",
      "admin_level": "4"
    }
  },
  {
    "osm_id": -59002,
    "boundary": "administrative",
    "admin_level": 4,
    "parents": "-58974",
    "name": "Briceni District",
    "local_name": "Raionul Briceni",
    "name_en": "Briceni District",
    "all_tags": {
      "ref": "BR",
      "name": "Raionul Briceni",
      "place": "district",
      "name:de": "Rajon Briceni",
      "name:en": "Briceni District",
      "name:pl": "Rejon Briceni",
      "name:ru": "Бричанский район",
      "name:uk": "Бричанський район",
      "boundary": "administrative",
      "way_area": "0.099291",
      "wikidata": "Q753795",
      "ISO3166-2": "MD-BR",
      "wikipedia": "en:Briceni District",
      "admin_level": "4"
    }
  },
  {
    "osm_id": -59000,
    "boundary": "administrative",
    "admin_level": 4,
    "parents": "-58974",
    "name": "Edineț District",
    "local_name": "Raionul Edineț",
    "name_en": "Edineț District",
    "all_tags": {
      "ref": "ED",
      "name": "Raionul Edineț",
      "place": "district",
      "name:de": "Rajon Edineț",
      "name:en": "Edineț District",
      "name:ru": "Единецкий район",
      "name:uk": "Єдинецький район",
      "boundary": "administrative",
      "way_area": "0.112493",
      "wikidata": "Q878290",
      "ISO3166-2": "MD-ED",
      "wikipedia": "en:Edineț District",
      "admin_level": "4"
    }
  },
  {
    "osm_id": -58996,
    "boundary": "administrative",
    "admin_level": 4,
    "parents": "-58974",
    "name": "Sîngerei District",
    "local_name": "Raionul Sîngerei",
    "name_en": "Sîngerei District",
    "all_tags": {
      "ref": "SN",
      "name": "Raionul Sîngerei",
      "place": "district",
      "name:de": "Rajon Sîngerei",
      "name:en": "Sîngerei District",
      "name:ru": "Сынжерейский район",
      "name:uk": "Синжерейський район",
      "alt_name": "Raionul Sângerei",
      "boundary": "administrative",
      "way_area": "0.123198",
      "wikidata": "Q1796621",
      "ISO3166-2": "MD-SI",
      "wikipedia": "en:Sîngerei District",
      "admin_level": "4"
    }
  },
  {
    "osm_id": -58993,
    "boundary": "administrative",
    "admin_level": 4,
    "parents": "-58974",
    "name": "Telenești District",
    "local_name": "Raionul Telenești",
    "name_en": "Telenești District",
    "all_tags": {
      "ref": "TL",
      "name": "Raionul Telenești",
      "place": "district",
      "name:de": "Rajon Telenești",
      "name:en": "Telenești District",
      "name:mo": "Raionul Telenești",
      "name:ro": "Raionul Telenești",
      "name:ru": "Теленештский район",
      "name:uk": "Теленештський район",
      "boundary": "administrative",
      "way_area": "0.101472",
      "wikidata": "Q2129025",
      "ISO3166-2": "MD-TE",
      "wikipedia": "en:Telenești District",
      "admin_level": "4"
    }
  },
  {
    "osm_id": -58991,
    "boundary": "administrative",
    "admin_level": 4,
    "parents": "-58974",
    "name": "Hîncești District",
    "local_name": "Raionul Hîncești",
    "name_en": "Hîncești District",
    "all_tags": {
      "ref": "HN",
      "name": "Raionul Hîncești",
      "place": "district",
      "name:de": "Rajon Hîncești",
      "name:en": "Hîncești District",
      "name:mo": "Raionul Hîncești",
      "name:ro": "Raionul Hîncești",
      "name:ru": "Хынчештский район",
      "name:uk": "Гинчештський район",
      "boundary": "administrative",
      "old_name": "Raionul Kotovsk",
      "way_area": "0.173555",
      "wikidata": "Q878297",
      "ISO3166-2": "MD-HI",
      "wikipedia": "en:Hîncești District",
      "admin_level": "4"
    }
  },
  {
    "osm_id": -58990,
    "boundary": "administrative",
    "admin_level": 4,
    "parents": "-58974",
    "name": "Nisporeni District",
    "local_name": "Raionul Nisporeni",
    "name_en": "Nisporeni District",
    "all_tags": {
      "ref": "NS",
      "name": "Raionul Nisporeni",
      "place": "district",
      "name:de": "Rajon Nisporeni",
      "name:en": "Nisporeni District",
      "name:mo": "Raionul Nisporeni",
      "name:ro": "Raionul Nisporeni",
      "name:ru": "Ниспоренский район",
      "name:uk": "Ніспоренський район",
      "boundary": "administrative",
      "way_area": "0.0744517",
      "wikidata": "Q878266",
      "ISO3166-2": "MD-NI",
      "wikipedia": "en:Nisporeni District",
      "admin_level": "4"
    }
  },
  {
    "osm_id": -58988,
    "boundary": "administrative",
    "admin_level": 4,
    "parents": "-58974",
    "name": "Calarași District",
    "local_name": "Raionul Călărași",
    "name_en": "Calarași District",
    "all_tags": {
      "ref": "CL",
      "name": "Raionul Călărași",
      "place": "district",
      "name:de": "Rajon Călărași",
      "name:en": "Calarași District",
      "name:mo": "Raionul Călărași",
      "name:ro": "Raionul Călărași",
      "name:ru": "Каларашский район",
      "name:uk": "Калараський район",
      "boundary": "administrative",
      "way_area": "0.0894674",
      "wikidata": "Q2128868",
      "ISO3166-2": "MD-CL",
      "wikipedia": "en:Călărași District",
      "admin_level": "4"
    }
  },
  {
    "osm_id": -58985,
    "boundary": "administrative",
    "admin_level": 4,
    "parents": "-58974",
    "name": "Ungheni District",
    "local_name": "Raionul Ungheni",
    "name_en": "Ungheni District",
    "all_tags": {
      "ref": "UN",
      "name": "Raionul Ungheni",
      "place": "district",
      "name:bg": "Унгенски район",
      "name:de": "Rajon Ungheni",
      "name:en": "Ungheni District",
      "name:mo": "Raionul Ungheni",
      "name:ro": "Raionul Ungheni",
      "name:ru": "Унгенский район",
      "name:uk": "Унгенський район",
      "boundary": "administrative",
      "way_area": "0.129004",
      "wikidata": "Q854443",
      "ISO3166-2": "MD-UN",
      "wikipedia": "en:Ungheni District",
      "admin_level": "4"
    }
  },
  {
    "osm_id": -58984,
    "boundary": "administrative",
    "admin_level": 4,
    "parents": "-58974",
    "name": "Fălești District",
    "local_name": "Raionul Fălești",
    "name_en": "Fălești District",
    "all_tags": {
      "ref": "FL",
      "flag": "https://upload.wikimedia.org/wikipedia/commons/a/a6/Rajon_F%C4%83le%C8%99ti_Flag.gif",
      "name": "Raionul Fălești",
      "place": "district",
      "name:de": "Rajon Fălești",
      "name:en": "Fălești District",
      "name:ru": "Фалештский район",
      "name:uk": "Фалештський район",
      "boundary": "administrative",
      "way_area": "0.128234",
      "wikidata": "Q878375",
      "ISO3166-2": "MD-FA",
      "wikipedia": "en:Fălești District",
      "admin_level": "4"
    }
  },
  {
    "osm_id": -58983,
    "boundary": "administrative",
    "admin_level": 4,
    "parents": "-58974",
    "name": "Bălți Municipality",
    "local_name": "Municipiul Bălți",
    "name_en": "Bălți Municipality",
    "all_tags": {
      "ref": "BL",
      "name": "Municipiul Bălți",
      "place": "municipality",
      "name:de": "Munizip Bălți",
      "name:en": "Bălți Municipality",
      "name:ru": "Муниципий Бэлць",
      "name:uk": "Муніципій Бєльці",
      "boundary": "administrative",
      "way_area": "0.00954334",
      "wikidata": "Q37801",
      "ISO3166-2": "MD-BA",
      "wikipedia": "en:Bălți",
      "admin_level": "4",
      "alt_name:ru": "Муниципий Бельцы"
    }
  }
]
