[
  {
    "osm_id": -10141812,
    "boundary": "administrative",
    "admin_level": 6,
    "parents": "-53296",
    "name": "Tuzi Municipality",
    "local_name": "Opština Tuzi",
    "name_en": "Tuzi Municipality",
    "all_tags": {
      "name": "Opština Tuzi",
      "name:de": "Gemeinde Tuzi",
      "name:en": "Tuzi Municipality",
      "name:fr": "Municipalité de Tuzi",
      "name:hr": "Općina Tuzi",
      "name:sq": "Komuna e Tuzit",
      "name:sr": "Општина Тузи",
      "boundary": "administrative",
      "way_area": "0.0266681",
      "wikidata": "Q12750439",
      "ISO3166-2": "ME-24",
      "population": "11420",
      "admin_level": "6",
      "name:sr-Latn": "Opština Tuzi"
    }
  },
  {
    "osm_id": -7463938,
    "boundary": "administrative",
    "admin_level": 6,
    "parents": "-53296",
    "name": "Petnjica Municipality",
    "local_name": "Opština Petnjica",
    "name_en": "Petnjica Municipality",
    "all_tags": {
      "name": "Opština Petnjica",
      "capital": "6",
      "name:bg": "Община Петница",
      "name:bs": "Općina Petnjica",
      "name:cs": "Občina Petnjica",
      "name:de": "Gemeinde Petnjica",
      "name:en": "Petnjica Municipality",
      "name:es": "Municipio de Petnjica",
      "name:fr": "Municipalité de Petnjica",
      "name:hr": "Općina Petnjica",
      "name:mk": "Општина Петница",
      "name:ro": "Comuna Petnjica",
      "name:ru": "Община Петница",
      "name:sh": "Opština Petnjica",
      "name:sk": "Obec Petnjica",
      "name:sl": "Občina Petnjica",
      "name:sq": "Komuna e Petnjica",
      "name:sr": "Општина Петњица",
      "boundary": "administrative",
      "way_area": "0.0165563",
      "wikidata": "Q15630696",
      "ISO3166-2": "ME-23",
      "admin_level": "6",
      "name:sr-Latn": "Opština Petnjica"
    }
  },
  {
    "osm_id": -7460668,
    "boundary": "administrative",
    "admin_level": 6,
    "parents": "-53296",
    "name": "Gusinje Municipality",
    "local_name": "Opština Gusinje",
    "name_en": "Gusinje Municipality",
    "all_tags": {
      "name": "Opština Gusinje",
      "capital": "6",
      "name:bg": "Община Гусине",
      "name:bs": "Općina Gusinje",
      "name:cs": "Občina Gusinje",
      "name:de": "Gemeinde Gusinje",
      "name:en": "Gusinje Municipality",
      "name:es": "Municipio de Gusinje",
      "name:fr": "Municipalité de Gusinje",
      "name:hr": "Općina Gusinje",
      "name:mk": "Општина Гусине",
      "name:ro": "Comuna Gusinje",
      "name:ru": "Община Гусине",
      "name:sh": "Opština Gusinje",
      "name:sk": "Obec Gusinje",
      "name:sl": "Občina Gusinje",
      "name:sq": "Komuna e Gucisë",
      "name:sr": "Општина Гусиње",
      "boundary": "administrative",
      "way_area": "0.0168896",
      "wikidata": "Q16085370",
      "ISO3166-2": "ME-22",
      "admin_level": "6",
      "name:sr-Latn": "Opština Gusinje"
    }
  },
  {
    "osm_id": -2319540,
    "boundary": "administrative",
    "admin_level": 6,
    "parents": "-53296",
    "name": "Žabljak Municipality",
    "local_name": "Opština Žabljak",
    "name_en": "Žabljak Municipality",
    "all_tags": {
      "name": "Opština Žabljak",
      "name:bg": "Община Жабляк",
      "name:bs": "Općina Žabljak",
      "name:cs": "Občina Žabljak",
      "name:de": "Gemeinde Žabljak",
      "name:en": "Žabljak Municipality",
      "name:es": "Municipio de Žabljak",
      "name:fr": "Municipalité de Žabljak",
      "name:hr": "Općina Žabljak",
      "name:mk": "Општина Жабляк",
      "name:ro": "Comuna Žabljak",
      "name:ru": "Община Жабляк",
      "name:sh": "Opština Žabljak",
      "name:sk": "Obec Žabljak",
      "name:sl": "Občina Žabljak",
      "name:sq": "Komuna e Zhabljakut",
      "name:sr": "Општина Жабљак",
      "boundary": "administrative",
      "way_area": "0.0487093",
      "wikidata": "Q3304454",
      "ISO3166-2": "ME-21",
      "admin_level": "6",
      "name:sr-Latn": "Opština Žabljak"
    }
  },
  {
    "osm_id": -2319539,
    "boundary": "administrative",
    "admin_level": 6,
    "parents": "-53296",
    "name": "Šavnik Municipality",
    "local_name": "Opština Šavnik",
    "name_en": "Šavnik Municipality",
    "all_tags": {
      "name": "Opština Šavnik",
      "capital": "6",
      "name:bg": "Община Шавник",
      "name:bs": "Općina Šavnik",
      "name:cs": "Občina Šavnik",
      "name:de": "Gemeinde Šavnik",
      "name:en": "Šavnik Municipality",
      "name:es": "Municipio de Šavnik",
      "name:fr": "Municipalité de Šavnik",
      "name:hr": "Općina Šavnik",
      "name:mk": "Општина Шавник",
      "name:ro": "Comuna Šavnik",
      "name:ru": "Община Шавник",
      "name:sh": "Opština Šavnik",
      "name:sk": "Obec Šavnik",
      "name:sl": "Občina Šavnik",
      "name:sq": "Komuna e Šavnik",
      "name:sr": "Општина Шавник",
      "boundary": "administrative",
      "way_area": "0.058407",
      "wikidata": "Q13365880",
      "ISO3166-2": "ME-18",
      "admin_level": "6",
      "name:sr-Latn": "Opština Šavnik"
    }
  },
  {
    "osm_id": -2319538,
    "boundary": "administrative",
    "admin_level": 6,
    "parents": "-53296",
    "name": "Ulcinj Municipality",
    "local_name": "Opština Ulcinj",
    "name_en": "Ulcinj Municipality",
    "all_tags": {
      "name": "Opština Ulcinj",
      "name:bg": "Община Ульцинь",
      "name:bs": "Općina Ulcinj",
      "name:cs": "Občina Ulcinj",
      "name:de": "Gemeinde Ulcinj",
      "name:en": "Ulcinj Municipality",
      "name:es": "Municipio de Ulcinj",
      "name:fr": "Municipalité d'Ulcinj",
      "name:hr": "Općina Ulcinj",
      "name:it": "Dulcigno",
      "name:lt": "Ulcinio savivaldybė",
      "name:mk": "Општина Улцињ",
      "name:ro": "Comuna Ulcinj",
      "name:ru": "Община Ульцинь",
      "name:sh": "Opština Ulcinj",
      "name:sk": "Obec Ulcinj",
      "name:sl": "Občina Ulcinj",
      "name:sq": "Komuna e Ulqinit",
      "name:sr": "Општина Улцињ",
      "boundary": "administrative",
      "way_area": "0.0281355",
      "wikidata": "Q3305169",
      "ISO3166-2": "ME-20",
      "admin_level": "6",
      "name:sr-Latn": "Opština Ulcinj"
    }
  },
  {
    "osm_id": -2319537,
    "boundary": "administrative",
    "admin_level": 6,
    "parents": "-53296",
    "name": "Tivat Municipality",
    "local_name": "Opština Tivat",
    "name_en": "Tivat Municipality",
    "all_tags": {
      "name": "Opština Tivat",
      "name:bg": "Община Тиват",
      "name:bs": "Općina Tivat",
      "name:cs": "Občina Tivat",
      "name:de": "Gemeinde Tivat",
      "name:en": "Tivat Municipality",
      "name:es": "Municipio de Tivat",
      "name:fr": "Municipalité de Tivat",
      "name:hr": "Općina Tivat",
      "name:it": "Comune di Teodo",
      "name:mk": "Општина Тиват",
      "name:ro": "Comuna Tivat",
      "name:ru": "Община Тиват",
      "name:sh": "Opština Tivat",
      "name:sk": "Obec Tivat",
      "name:sl": "Občina Tivat",
      "name:sq": "Komuna e Tivat",
      "name:sr": "Општина Тиват",
      "boundary": "administrative",
      "way_area": "0.00505981",
      "wikidata": "Q3738564",
      "ISO3166-2": "ME-19",
      "population": "14031",
      "admin_level": "6",
      "name:sr-Latn": "Opština Tivat"
    }
  },
  {
    "osm_id": -2319536,
    "boundary": "administrative",
    "admin_level": 6,
    "parents": "-53296",
    "name": "Plužine Municipality",
    "local_name": "Opština Plužine",
    "name_en": "Plužine Municipality",
    "all_tags": {
      "name": "Opština Plužine",
      "capital": "6",
      "name:bg": "Община Плужине",
      "name:bs": "Općina Plužine",
      "name:cs": "Občina Plužine",
      "name:de": "Gemeinde Plužine",
      "name:en": "Plužine Municipality",
      "name:es": "Municipio de Plužine",
      "name:fr": "Municipalité de Plužine",
      "name:hr": "Općina Plužine",
      "name:mk": "Општина Плужине",
      "name:ro": "Comuna Plužine",
      "name:ru": "Община Плужине",
      "name:sh": "Opština Plužine",
      "name:sk": "Obec Plužine",
      "name:sl": "Občina Plužine",
      "name:sq": "Komuna e Plužine",
      "name:sr": "Општина Плужине",
      "boundary": "administrative",
      "way_area": "0.0967982",
      "wikidata": "Q4864476",
      "ISO3166-2": "ME-15",
      "admin_level": "6",
      "name:sr-Latn": "Opština Plužine"
    }
  },
  {
    "osm_id": -2319535,
    "boundary": "administrative",
    "admin_level": 6,
    "parents": "-53296",
    "name": "Pljevlja Municipality",
    "local_name": "Opština Pljevlja",
    "name_en": "Pljevlja Municipality",
    "all_tags": {
      "name": "Opština Pljevlja",
      "capital": "6",
      "name:bg": "Община Плевля",
      "name:bs": "Općina Pljevlja",
      "name:cs": "Občina Pljevlja",
      "name:de": "Gemeinde Pljevlja",
      "name:en": "Pljevlja Municipality",
      "name:es": "Municipio de Pljevlja",
      "name:fr": "Municipalité de Pljevlja",
      "name:hr": "Općina Pljevlja",
      "name:mk": "Општина Плевля",
      "name:ro": "Comuna Pljevlja",
      "name:ru": "Община Плевля",
      "name:sh": "Opština Pljevlja",
      "name:sk": "Obec Pljevlja",
      "name:sl": "Občina Pljevlja",
      "name:sq": "Komuna e Pljevlja",
      "name:sr": "Општина Пљевља",
      "boundary": "administrative",
      "way_area": "0.152035",
      "wikidata": "Q3299950",
      "ISO3166-2": "ME-14",
      "wikipedia": "sr:Општина Пљевља",
      "admin_level": "6",
      "name:sr-Latn": "Opština Pljevlja"
    }
  },
  {
    "osm_id": -2319534,
    "boundary": "administrative",
    "admin_level": 6,
    "parents": "-53296",
    "name": "Nikšić Municipality",
    "local_name": "Opština Nikšić",
    "name_en": "Nikšić Municipality",
    "all_tags": {
      "name": "Opština Nikšić",
      "capital": "6",
      "name:bg": "Община Никшич",
      "name:bs": "Općina Nikšić",
      "name:cs": "Občina Nikšić",
      "name:de": "Gemeinde Nikšić",
      "name:en": "Nikšić Municipality",
      "name:es": "Municipio de Nikšić",
      "name:fr": "Municipalité de Nikšić",
      "name:hr": "Općina Nikšić",
      "name:lt": "Nikšičiaus savivaldybė",
      "name:mk": "Општина Никшич",
      "name:ro": "Comuna Nikšić",
      "name:ru": "Община Никшич",
      "name:sh": "Opština Nikšić",
      "name:sk": "Obec Nikšić",
      "name:sl": "Občina Nikšić",
      "name:sq": "Komuna e Nikšić",
      "name:sr": "Општина Никшић",
      "boundary": "administrative",
      "way_area": "0.221812",
      "wikidata": "Q4865016",
      "ISO3166-2": "ME-12",
      "admin_level": "6",
      "name:sr-Latn": "Opština Nikšić"
    }
  },
  {
    "osm_id": -2319533,
    "boundary": "administrative",
    "admin_level": 6,
    "parents": "-53296",
    "name": "Mojkovac Municipality",
    "local_name": "Opština Mojkovac",
    "name_en": "Mojkovac Municipality",
    "all_tags": {
      "name": "Opština Mojkovac",
      "capital": "6",
      "name:bg": "Община Мойковац",
      "name:bs": "Općina Mojkovac",
      "name:cs": "Občina Mojkovac",
      "name:de": "Gemeinde Mojkovac",
      "name:en": "Mojkovac Municipality",
      "name:es": "Municipio de Mojkovac",
      "name:fr": "Municipalité de Mojkovac",
      "name:hr": "Općina Mojkovac",
      "name:mk": "Општина Мойковац",
      "name:ro": "Comuna Mojkovac",
      "name:ru": "Община Мойковац",
      "name:sh": "Opština Mojkovac",
      "name:sk": "Obec Mojkovac",
      "name:sl": "Občina Mojkovac",
      "name:sq": "Komuna e Mojkovac",
      "name:sr": "Општина Мојковац",
      "boundary": "administrative",
      "way_area": "0.0391532",
      "wikidata": "Q3299782",
      "ISO3166-2": "ME-11",
      "admin_level": "6",
      "name:sr-Latn": "Opština Mojkovac"
    }
  },
  {
    "osm_id": -2319532,
    "boundary": "administrative",
    "admin_level": 6,
    "parents": "-53296",
    "name": "Kotor Municipality",
    "local_name": "Opština Kotor",
    "name_en": "Kotor Municipality",
    "all_tags": {
      "name": "Opština Kotor",
      "name:bg": "Община Котор",
      "name:bs": "Općina Kotor",
      "name:cs": "Občina Kotor",
      "name:de": "Gemeinde Kotor",
      "name:en": "Kotor Municipality",
      "name:es": "Municipio de Kotor",
      "name:fr": "Municipalité de Kotor",
      "name:hr": "Općina Kotor",
      "name:it": "Comune di Cattaro",
      "name:mk": "Општина Котор",
      "name:ro": "Comuna Kotor",
      "name:ru": "Община Котор",
      "name:sh": "Opština Kotor",
      "name:sk": "Obec Kotor",
      "name:sl": "Občina Kotor",
      "name:sq": "Komuna e Kotor",
      "name:sr": "Општина Котор",
      "boundary": "administrative",
      "way_area": "0.035605",
      "wikidata": "Q4856305",
      "ISO3166-2": "ME-10",
      "population": "22601",
      "admin_level": "6",
      "name:sr-Latn": "Opština Kotor"
    }
  },
  {
    "osm_id": -2319531,
    "boundary": "administrative",
    "admin_level": 6,
    "parents": "-53296",
    "name": "Kolašin Municipality",
    "local_name": "Opština Kolašin",
    "name_en": "Kolašin Municipality",
    "all_tags": {
      "name": "Opština Kolašin",
      "capital": "6",
      "name:bg": "Община Колашин",
      "name:bs": "Općina Kolašin",
      "name:cs": "Občina Kolašin",
      "name:de": "Gemeinde Kolašin",
      "name:en": "Kolašin Municipality",
      "name:es": "Municipio de Kolašin",
      "name:fr": "Municipalité de Kolašin",
      "name:hr": "Općina Kolašin",
      "name:mk": "Општина Колашин",
      "name:ro": "Comuna Kolašin",
      "name:ru": "Община Колашин",
      "name:sh": "Opština Kolašin",
      "name:sk": "Obec Kolašin",
      "name:sl": "Občina Kolašin",
      "name:sq": "Komuna e Kolašin",
      "name:sr": "Општина Колашин",
      "boundary": "administrative",
      "way_area": "0.0974432",
      "wikidata": "Q3303233",
      "ISO3166-2": "ME-09",
      "admin_level": "6",
      "name:sr-Latn": "Opština Kolašin"
    }
  },
  {
    "osm_id": -2319530,
    "boundary": "administrative",
    "admin_level": 6,
    "parents": "-53296",
    "name": "Danilovgrad Municipality",
    "local_name": "Opština Danilovgrad",
    "name_en": "Danilovgrad Municipality",
    "all_tags": {
      "name": "Opština Danilovgrad",
      "capital": "6",
      "name:bg": "Община Даниловград",
      "name:bs": "Općina Danilovgrad",
      "name:cs": "Občina Danilovgrad",
      "name:de": "Gemeinde Danilovgrad",
      "name:en": "Danilovgrad Municipality",
      "name:es": "Municipio de Danilovgrad",
      "name:fr": "Municipalité de Danilovgrad",
      "name:hr": "Općina Danilovgrad",
      "name:lt": "Danilovgrado savivaldybė",
      "name:mk": "Општина Даниловград",
      "name:ro": "Comuna Danilovgrad",
      "name:ru": "Община Даниловград",
      "name:sh": "Opština Danilovgrad",
      "name:sk": "Obec Danilovgrad",
      "name:sl": "Občina Danilovgrad",
      "name:sq": "Komuna e Danilovgrad",
      "name:sr": "Општина Даниловград",
      "boundary": "administrative",
      "way_area": "0.0578291",
      "wikidata": "Q3741507",
      "ISO3166-2": "ME-07",
      "admin_level": "6",
      "name:sr-Latn": "Opština Danilovgrad"
    }
  },
  {
    "osm_id": -2319529,
    "boundary": "administrative",
    "admin_level": 6,
    "parents": "-53296",
    "name": "Old Royal Capital Cetinje",
    "local_name": "Prijestolnica Cetinje",
    "name_en": "Old Royal Capital Cetinje",
    "all_tags": {
      "name": "Prijestolnica Cetinje",
      "name:bg": "Община Цетине",
      "name:bs": "Općina Cetinje",
      "name:cs": "Občina Cetinje",
      "name:de": "Gemeinde Cetinje",
      "name:en": "Old Royal Capital Cetinje",
      "name:es": "Municipio de Cetinje",
      "name:fr": "Municipalité de Cetinje",
      "name:hr": "Prijestolnica Cetinje",
      "name:it": "Comune di Cettigne",
      "name:mk": "Престолнина Цетиње",
      "name:ro": "Comuna Cetinje",
      "name:ru": "Община Цетине",
      "name:sh": "Prijestolnica Cetinje",
      "name:sk": "Obec Cetinje",
      "name:sl": "Občina Cetinje",
      "name:sq": "Komuna e Cetinje",
      "name:sr": "Пријестолница Цетиње",
      "boundary": "administrative",
      "old_name": "Opština Cetinje",
      "way_area": "0.0942754",
      "wikidata": "Q3305075",
      "ISO3166-2": "ME-06",
      "admin_level": "6",
      "old_name:en": "Cetinje Municipality",
      "old_name:hr": "Općina Cetinje",
      "old_name:mk": "Општина Цетине",
      "old_name:sr": "Општина Цетиње",
      "name:sr-Latn": "Prijestolnica Cetinje"
    }
  },
  {
    "osm_id": -2319528,
    "boundary": "administrative",
    "admin_level": 6,
    "parents": "-53296",
    "name": "Budva Municipality",
    "local_name": "Opština Budva",
    "name_en": "Budva Municipality",
    "all_tags": {
      "name": "Opština Budva",
      "name:bg": "Община Будва",
      "name:bs": "Općina Budva",
      "name:cs": "Občina Budva",
      "name:de": "Gemeinde Budva",
      "name:en": "Budva Municipality",
      "name:es": "Municipio de Budva",
      "name:fr": "Municipalité de Budva",
      "name:hr": "Općina Budva",
      "name:it": "Budua",
      "name:mk": "Општина Будва",
      "name:ro": "Comuna Budva",
      "name:ru": "Община Будва",
      "name:sh": "Opština Budva",
      "name:sk": "Obec Budva",
      "name:sl": "Občina Budva",
      "name:sq": "Komuna e Budva",
      "name:sr": "Општина Будва",
      "boundary": "administrative",
      "way_area": "0.0133571",
      "wikidata": "Q3739214",
      "ISO3166-2": "ME-05",
      "population": "19218",
      "admin_level": "6",
      "name:sr-Latn": "Opština Budva"
    }
  },
  {
    "osm_id": -2319527,
    "boundary": "administrative",
    "admin_level": 6,
    "parents": "-53296",
    "name": "Bijelo Polje Municipality",
    "local_name": "Opština Bijelo Polje",
    "name_en": "Bijelo Polje Municipality",
    "all_tags": {
      "name": "Opština Bijelo Polje",
      "name:bg": "Община Бијело Поље",
      "name:bs": "Općina Bijelo Polje",
      "name:cs": "Občina Bijelo Polje",
      "name:de": "Gemeinde Bijelo Polje",
      "name:en": "Bijelo Polje Municipality",
      "name:es": "Municipio de Bijelo Polje",
      "name:fr": "Municipalité de Bijelo Polje",
      "name:hr": "Općina Bijelo Polje",
      "name:mk": "Општина Бијело Поље",
      "name:ro": "Comuna Bijelo Polje",
      "name:ru": "Община Биело-Поле",
      "name:sh": "Opština Bijelo Polje",
      "name:sk": "Obec Bijelo Polje",
      "name:sl": "Občina Bijelo Polje",
      "name:sq": "Komuna e Bijelo Polje",
      "name:sr": "Општина Бијело Поље",
      "boundary": "administrative",
      "way_area": "0.105624",
      "wikidata": "Q4086488",
      "ISO3166-2": "ME-04",
      "wikipedia": "sr:Општина Бијело Поље",
      "population": "46676",
      "admin_level": "6",
      "name:sr-Latn": "Opština Bijelo Polje"
    }
  },
  {
    "osm_id": -2319526,
    "boundary": "administrative",
    "admin_level": 6,
    "parents": "-53296",
    "name": "Bar Municipality",
    "local_name": "Opština Bar",
    "name_en": "Bar Municipality",
    "all_tags": {
      "name": "Opština Bar",
      "name:bg": "Община Бар",
      "name:bs": "Općina Bar",
      "name:cs": "Občina Bar",
      "name:de": "Gemeinde Bar",
      "name:en": "Bar Municipality",
      "name:es": "Municipio de Bar",
      "name:fr": "Municipalité de Bar",
      "name:hr": "Općina Bar",
      "name:it": "Comune di Antivari",
      "name:mk": "Општина Бар",
      "name:ro": "Comuna Bar",
      "name:ru": "Община Бар",
      "name:sh": "Opština Bar",
      "name:sk": "Obec Bar",
      "name:sl": "Občina Bar",
      "name:sq": "Komuna e Tivari",
      "name:sr": "Општина Бар",
      "boundary": "administrative",
      "way_area": "0.0551032",
      "wikidata": "Q2604068",
      "ISO3166-2": "ME-02",
      "admin_level": "6",
      "name:sr-Latn": "Opština Bar"
    }
  },
  {
    "osm_id": -2319360,
    "boundary": "administrative",
    "admin_level": 6,
    "parents": "-53296",
    "name": "Podgorica Capital City",
    "local_name": "Glavni grad Podgorica",
    "name_en": "Podgorica Capital City",
    "all_tags": {
      "name": "Glavni grad Podgorica",
      "name:bg": "Община Подгорица",
      "name:bs": "Glavni grad Podgorica",
      "name:cs": "Občina Podgorica",
      "name:de": "Gemeinde Podgorica",
      "name:en": "Podgorica Capital City",
      "name:es": "Municipio de Podgorica",
      "name:fr": "Municipalité de Podgorica",
      "name:hr": "Glavni grad Podgorica",
      "name:it": "Comune di Podgorica",
      "name:mk": "Главен град Подгорица",
      "name:ro": "Comuna Podgorica",
      "name:ru": "Община Подгорица",
      "name:sh": "Glavni grad Podgorica",
      "name:sk": "Obec Podgorica",
      "name:sl": "Občina Podgorica",
      "name:sq": "Komuna e Podgorica",
      "name:sr": "Главни град Подгорица",
      "boundary": "administrative",
      "old_name": "Opština Podgorica",
      "way_area": "0.121632",
      "ISO3166-2": "ME-16",
      "admin_level": "6",
      "old_name:en": "Podgorica Municipality",
      "old_name:mk": "Општина Подгорица",
      "old_name:sr": "Општина Подгорица",
      "name:sr-Latn": "Glavni grad Podgorica",
      "old_name:sr-Latn": "Opština Podgorica"
    }
  },
  {
    "osm_id": -2319359,
    "boundary": "administrative",
    "admin_level": 6,
    "parents": "-53296",
    "name": "Berane Municipality",
    "local_name": "Opština Berane",
    "name_en": "Berane Municipality",
    "all_tags": {
      "name": "Opština Berane",
      "capital": "6",
      "name:bg": "Община Беране",
      "name:bs": "Općina Berane",
      "name:cs": "Občina Berane",
      "name:de": "Gemeinde Berane",
      "name:en": "Berane Municipality",
      "name:es": "Municipio de Berane",
      "name:fr": "Municipalité de Berane",
      "name:hr": "Općina Berane",
      "name:mk": "Општина Беране",
      "name:ro": "Comuna Berane",
      "name:ru": "Община Беране",
      "name:sh": "Opština Berane",
      "name:sk": "Obec Berane",
      "name:sl": "Občina Berane",
      "name:sq": "Komuna e Berane",
      "name:sr": "Општина Беране",
      "boundary": "administrative",
      "way_area": "0.0619685",
      "wikidata": "Q4853794",
      "ISO3166-2": "ME-03",
      "admin_level": "6",
      "name:sr-Latn": "Opština Berane"
    }
  },
  {
    "osm_id": -2319358,
    "boundary": "administrative",
    "admin_level": 6,
    "parents": "-53296",
    "name": "Andrijevica Municipality",
    "local_name": "Opština Andrijevica",
    "name_en": "Andrijevica Municipality",
    "all_tags": {
      "name": "Opština Andrijevica",
      "capital": "6",
      "name:bg": "Община Андриевица",
      "name:bs": "Općina Andrijevica",
      "name:cs": "Občina Andrijevica",
      "name:de": "Gemeinde Andrijevica",
      "name:en": "Andrijevica Municipality",
      "name:es": "Municipio de Andrijevica",
      "name:fr": "Municipalité d'Andrijevica",
      "name:hr": "Općina Andrijevica",
      "name:mk": "Општина Андриевица",
      "name:ro": "Comuna Andrijevica",
      "name:ru": "Община Андриевица",
      "name:sh": "Opština Andrijevica",
      "name:sk": "Obec Andrijevica",
      "name:sl": "Občina Andrijevica",
      "name:sq": "Komuna e Andrijevica",
      "name:sr": "Општина Андријевица",
      "boundary": "administrative",
      "way_area": "0.0370443",
      "wikidata": "Q2384773",
      "ISO3166-2": "ME-01",
      "admin_level": "6",
      "name:sr-Latn": "Opština Andrijevica"
    }
  },
  {
    "osm_id": -2317936,
    "boundary": "administrative",
    "admin_level": 6,
    "parents": "-53296",
    "name": "Rožaje Municipality",
    "local_name": "Opština Rožaje",
    "name_en": "Rožaje Municipality",
    "all_tags": {
      "name": "Opština Rožaje",
      "capital": "6",
      "name:bg": "Община Рожае",
      "name:bs": "Općina Rožaje",
      "name:cs": "Občina Rožaje",
      "name:de": "Gemeinde Rožaje",
      "name:en": "Rožaje Municipality",
      "name:es": "Municipio de Rožaje",
      "name:fr": "Municipalité de Rožaje",
      "name:hr": "Općina Rožaje",
      "name:mk": "Општина Рожае",
      "name:ro": "Comuna Rožaje",
      "name:ru": "Община Рожае",
      "name:sh": "Opština Rožaje",
      "name:sk": "Obec Rožaje",
      "name:sl": "Občina Rožaje",
      "name:sq": "Komuna e Rožaje",
      "name:sr": "Општина Рожаје",
      "boundary": "administrative",
      "way_area": "0.0504227",
      "wikidata": "Q3296677",
      "ISO3166-2": "ME-17",
      "wikipedia": "sr:Општина Рожаје",
      "admin_level": "6",
      "name:sr-Latn": "Opština Rožaje"
    }
  },
  {
    "osm_id": -2317882,
    "boundary": "administrative",
    "admin_level": 6,
    "parents": "-53296",
    "name": "Plav Municipality",
    "local_name": "Opština Plav",
    "name_en": "Plav Municipality",
    "all_tags": {
      "name": "Opština Plav",
      "name:bg": "Община Плав",
      "name:bs": "Općina Plav",
      "name:cs": "Občina Plav",
      "name:de": "Gemeinde Plav",
      "name:en": "Plav Municipality",
      "name:es": "Municipio de Plav",
      "name:fr": "Municipalité de Plav",
      "name:hr": "Općina Plav",
      "name:lt": "Plavo opština",
      "name:mk": "Општина Плав",
      "name:ro": "Comuna Plav",
      "name:ru": "Община Плав",
      "name:sh": "Opština Plav",
      "name:sk": "Obec Plav",
      "name:sl": "Občina Plav",
      "name:sq": "Komuna e Plav",
      "name:sr": "Општина Плав",
      "boundary": "administrative",
      "way_area": "0.0359565",
      "wikidata": "Q4859821",
      "ISO3166-2": "ME-13",
      "admin_level": "6",
      "name:sr-Latn": "Opština Plav"
    }
  },
  {
    "osm_id": -2187901,
    "boundary": "administrative",
    "admin_level": 6,
    "parents": "-53296",
    "name": "Herceg Novi Municipality",
    "local_name": "Opština Herceg Novi",
    "name_en": "Herceg Novi Municipality",
    "all_tags": {
      "name": "Opština Herceg Novi",
      "name:bg": "Община Херцег Нови",
      "name:bs": "Općina Herceg Novi",
      "name:cs": "Občina Herceg Novi",
      "name:de": "Gemeinde Herceg Novi",
      "name:en": "Herceg Novi Municipality",
      "name:es": "Municipio de Herceg Novi",
      "name:fr": "Municipalité de Herceg Novi",
      "name:hr": "Općina Herceg Novi",
      "name:lt": "Herceg Novio savivaldybė",
      "name:mk": "Општина Херцег Нови",
      "name:ro": "Comuna Herceg Novi",
      "name:ru": "Община Херцег-Нови",
      "name:sh": "Opština Herceg Novi",
      "name:sk": "Obec Herceg Novi",
      "name:sl": "Občina Herceg Novi",
      "name:sq": "Komuna e Herceg Novit",
      "name:sr": "Општина Херцег Нови",
      "boundary": "administrative",
      "way_area": "0.0255224",
      "wikidata": "Q3317366",
      "ISO3166-2": "ME-08",
      "wikipedia": "en:Herceg Novi Municipality",
      "population": "30864",
      "admin_level": "6",
      "name:sr-Latn": "Opština Herceg Novi"
    }
  }
]
