[
  {
    "osm_id": -7240960,
    "boundary": "region",
    "admin_level": 4,
    "parents": "-571771",
    "name": "Ratak Chain",
    "local_name": "Ratak",
    "name_en": "Ratak Chain",
    "all_tags": {
      "name": "Ratak",
      "name:de": "Ratak-Kette",
      "name:en": "Ratak Chain",
      "name:es": "Cadena Ratak",
      "name:fr": "Chaîne de Ratak",
      "name:it": "Isole Ratak",
      "name:mh": "Ratak",
      "name:pt": "Cadeia Ratak",
      "name:sv": "Ratakgruppen",
      "boundary": "region",
      "way_area": "7.69899",
      "wikidata": "Q700048",
      "ISO3166-2": "MH-T",
      "admin_level": "4"
    }
  },
  {
    "osm_id": -7240959,
    "boundary": "region",
    "admin_level": 4,
    "parents": "-571771",
    "name": "Ralik Chain",
    "local_name": "Rālik",
    "name_en": "Ralik Chain",
    "all_tags": {
      "name": "Rālik",
      "name:de": "Ralik-Kette",
      "name:en": "Ralik Chain",
      "name:es": "Cadena Ralik",
      "name:fr": "Chaîne de Ralik",
      "name:it": "Isole Ralik",
      "name:mh": "Rālik",
      "name:pt": "Cadeia Ralik",
      "name:sv": "Ralikgruppen",
      "boundary": "region",
      "way_area": "10.9473",
      "wikidata": "Q697840",
      "ISO3166-2": "MH-L",
      "admin_level": "4"
    }
  }
]
