[
  {
    "osm_id": -2572701,
    "boundary": "administrative",
    "admin_level": 4,
    "parents": "-53293",
    "name": "Pelagonia Region",
    "local_name": "Пелагониски СР",
    "name_en": "Pelagonia Region",
    "all_tags": {
      "name": "Пелагониски СР",
      "name:de": "Region Pelagonien",
      "name:el": "Περιφέρεια Πελαγονίας",
      "name:en": "Pelagonia Region",
      "name:es": "Región de Pelagonia",
      "name:fr": "Pélagonie",
      "name:pl": "Region Pelagonijski",
      "name:ru": "Пелагонийский регион",
      "boundary": "administrative",
      "int_name": "Pelagoniski Region",
      "way_area": "0.530095",
      "wikidata": "Q1461478",
      "admin_level": "4"
    }
  },
  {
    "osm_id": -2572311,
    "boundary": "administrative",
    "admin_level": 4,
    "parents": "-53293",
    "name": "Vardar Region",
    "local_name": "Вардарски СР",
    "name_en": "Vardar Region",
    "all_tags": {
      "name": "Вардарски СР",
      "name:de": "Region Vardar",
      "name:el": "Περιφέρεια Βαρδάρη",
      "name:en": "Vardar Region",
      "name:es": "Región de Vardar",
      "name:fr": "Région du Vardar",
      "name:pl": "Region Wardarski",
      "name:ru": "Вардарский регион",
      "boundary": "administrative",
      "int_name": "Vardarski Region",
      "way_area": "0.435876",
      "wikidata": "Q743691",
      "admin_level": "4"
    }
  },
  {
    "osm_id": -2572240,
    "boundary": "administrative",
    "admin_level": 4,
    "parents": "-53293",
    "name": "Southeastern Region",
    "local_name": "Југоисточен СР",
    "name_en": "Southeastern Region",
    "all_tags": {
      "name": "Југоисточен СР",
      "name:ar": "الاقليم الاحصائي الجنوب شرقي",
      "name:de": "Region Südosten",
      "name:el": "Νοτιοανατολική Περιφέρεια",
      "name:en": "Southeastern Region",
      "name:es": "Región del Sudeste",
      "name:fr": "Région du Sud-Est",
      "name:pl": "Region Południowo-wschodni",
      "name:ru": "Юго-Восточный регион",
      "boundary": "administrative",
      "int_name": "Jugoistočen Region",
      "way_area": "0.298004",
      "wikidata": "Q2077037",
      "admin_level": "4"
    }
  },
  {
    "osm_id": -2573888,
    "boundary": "administrative",
    "admin_level": 4,
    "parents": "-53293",
    "name": "Southwestern Region",
    "local_name": "Југозападен СР",
    "name_en": "Southwestern Region",
    "all_tags": {
      "name": "Југозападен СР",
      "name:de": "Region Südwesten",
      "name:el": "Νοτιοδυτική Περιφέρεια",
      "name:en": "Southwestern Region",
      "name:es": "Región del Sudoeste",
      "name:fr": "Région du Sud-Ouest",
      "name:pl": "Region Południowo-zachodni",
      "name:ru": "Юго-Западный регион",
      "name:sq": "Rajoni Jugperëndimor",
      "boundary": "administrative",
      "int_name": "Jugozapaden Region",
      "way_area": "0.388472",
      "wikidata": "Q1415305",
      "admin_level": "4",
      "name:zh-Hans": "西南大区",
      "name:zh-Hant": "西南大區"
    }
  },
  {
    "osm_id": -2460455,
    "boundary": "administrative",
    "admin_level": 4,
    "parents": "-53293",
    "name": "Skopje Region",
    "local_name": "Скопски СР",
    "name_en": "Skopje Region",
    "all_tags": {
      "name": "Скопски СР",
      "name:ar": "مقاطعة إسكوبية",
      "name:de": "Region Skopje",
      "name:en": "Skopje Region",
      "name:es": "Región de Skopje",
      "name:fr": "Région de Skopje",
      "name:pl": "Region Skopijski",
      "name:ru": "Скопский регион",
      "name:sq": "Rajoni Shkup",
      "boundary": "administrative",
      "int_name": "Skopski Region",
      "way_area": "0.196972",
      "wikidata": "Q21115",
      "admin_level": "4",
      "is_in:continent": "Europe",
      "is_in:country_code": "MK"
    }
  },
  {
    "osm_id": -2570958,
    "boundary": "administrative",
    "admin_level": 4,
    "parents": "-53293",
    "name": "Northeastern Region",
    "local_name": "Североисточен СР",
    "name_en": "Northeastern Region",
    "all_tags": {
      "name": "Североисточен СР",
      "name:de": "Region Nordosten",
      "name:el": "Βορειοανατολική Περιφέρεια",
      "name:en": "Northeastern Region",
      "name:es": "Región del Noreste",
      "name:fr": "Région du Nord-Est",
      "name:pl": "Region Północno-Wschodni",
      "name:ru": "Северо-Восточный регион",
      "name:sq": "Rajoni Verilindor",
      "boundary": "administrative",
      "int_name": "Severoistočen Region",
      "way_area": "0.251791",
      "wikidata": "Q2077026",
      "admin_level": "4",
      "is_in:continent": "Europe",
      "is_in:country_code": "MK"
    }
  },
  {
    "osm_id": -2572069,
    "boundary": "administrative",
    "admin_level": 4,
    "parents": "-53293",
    "name": "Eastern Region",
    "local_name": "Источен СР",
    "name_en": "Eastern Region",
    "all_tags": {
      "name": "Источен СР",
      "name:de": "Region Osten",
      "name:el": "Ανατολική Περιφέρεια",
      "name:en": "Eastern Region",
      "name:es": "Región del Este",
      "name:fr": "Région de l'Est",
      "name:pl": "Region Wschodni",
      "name:ru": "Восточный регион",
      "boundary": "administrative",
      "int_name": "Istočen Region",
      "way_area": "0.38318",
      "wikidata": "Q1465731",
      "admin_level": "4",
      "is_in:continent": "Europe",
      "is_in:country_code": "MK"
    }
  },
  {
    "osm_id": -2439740,
    "boundary": "administrative",
    "admin_level": 6,
    "parents": "-2460455,-53293",
    "name": "City of Skopje",
    "local_name": "Град Скопје",
    "name_en": "City of Skopje",
    "all_tags": {
      "name": "Град Скопје",
      "name:ar": "مدينة إسكوبية",
      "name:en": "City of Skopje",
      "name:fi": "Skopjen kaupunki",
      "name:vi": "Thành phố Skopje",
      "boundary": "administrative",
      "way_area": "0.0621949",
      "wikidata": "Q2575820",
      "ISO3166-2": "MK-85",
      "admin_level": "6",
      "alt_name:vi": "Thành phố Xcốp-pi-ê"
    }
  },
  {
    "osm_id": -2573935,
    "boundary": "administrative",
    "admin_level": 4,
    "parents": "-53293",
    "name": "Polog Region",
    "local_name": "Полошки СР",
    "name_en": "Polog Region",
    "all_tags": {
      "name": "Полошки СР",
      "name:de": "Region Polog",
      "name:en": "Polog Region",
      "name:es": "Región de Polog",
      "name:fr": "Région de Polog",
      "name:pl": "Region Połoski",
      "name:ru": "Положский регион",
      "name:sq": "Rajoni Pollog",
      "boundary": "administrative",
      "int_name": "Pološki Region",
      "way_area": "0.26306",
      "wikidata": "Q1587956",
      "admin_level": "4",
      "is_in:continent": "Europe",
      "is_in:country_code": "MK"
    }
  }
]
