[
  {
    "osm_id": -12558577,
    "boundary": "administrative",
    "admin_level": 4,
    "parents": "-192785",
    "name": "Taoudénit",
    "local_name": "Taoudénit",
    "name_en": null,
    "all_tags": {
      "name": "Taoudénit",
      "boundary": "administrative",
      "way_area": "35.5257",
      "wikidata": "Q2424657",
      "ISO3166-2": "ML-10",
      "wikipedia": "en:Taoudénit Region",
      "admin_level": "4",
      "border_type": "region",
      "admin_type:ML": "région",
      "official_name": "Région de Taoudénit"
    }
  },
  {
    "osm_id": -3544925,
    "boundary": "administrative",
    "admin_level": 6,
    "parents": "-2105525,-192785",
    "name": "Bamako",
    "local_name": "Bamako",
    "name_en": "Bamako",
    "all_tags": {
      "name": "Bamako",
      "name:am": "ባማኮ",
      "name:ar": "باماكو",
      "name:be": "Бамако",
      "name:bg": "Бамако",
      "name:bm": "Bamakɔ",
      "name:bo": "བ་མ་ཀོ།",
      "name:cv": "Бамако",
      "name:de": "Bamako",
      "name:el": "Μπαμάκο",
      "name:en": "Bamako",
      "name:eo": "Bamako",
      "name:fa": "باماکو",
      "name:fr": "Bamako",
      "name:gl": "Bamaco",
      "name:he": "במקו",
      "name:hi": "बमाको",
      "name:hu": "Bamako",
      "name:hy": "Բամակո",
      "name:is": "Bamakó",
      "name:ja": "バマコ",
      "name:ka": "ბამაკო",
      "name:ko": "바마코",
      "name:ky": "Бамако",
      "name:lt": "Bamakas",
      "name:mk": "Бамако",
      "name:mr": "बमाको",
      "name:os": "Бамако",
      "name:pl": "Bamako",
      "name:ru": "Бамако",
      "name:sr": "Бамако",
      "name:sv": "Bamako",
      "name:ta": "பமாக்கோ",
      "name:tg": "Бамако",
      "name:th": "บามาโก",
      "name:uk": "Бамако",
      "name:ur": "بماکو",
      "name:zh": "巴馬科",
      "boundary": "administrative",
      "name:arc": "ܒܡܩܘ",
      "name:ckb": "باماکۆ",
      "name:kab": "Bamaku",
      "name:mrj": "Бамако",
      "name:pnb": "بماکو",
      "name:udm": "Бамако",
      "way_area": "0.0207031",
      "wikidata": "Q3703",
      "wikipedia": "fr:Bamako",
      "admin_level": "6",
      "border_type": "cercle",
      "admin_type:ML": "district",
      "official_name": "District de Bamako",
      "name:be-tarask": "Бамака"
    }
  },
  {
    "osm_id": -3085050,
    "boundary": "administrative",
    "admin_level": 6,
    "parents": "-2096901,-192785",
    "name": "Tominian Cercle",
    "local_name": "Cercle de Tominian",
    "name_en": "Tominian Cercle",
    "all_tags": {
      "name": "Cercle de Tominian",
      "name:en": "Tominian Cercle",
      "name:fr": "Cercle de Tominian",
      "boundary": "administrative",
      "way_area": "0.564284",
      "admin_level": "6",
      "admin_type:ML": "cercle"
    }
  },
  {
    "osm_id": -3085049,
    "boundary": "administrative",
    "admin_level": 6,
    "parents": "-2096901,-192785",
    "name": "Ségou Cercle",
    "local_name": "Cercle de Ségou",
    "name_en": "Ségou Cercle",
    "all_tags": {
      "name": "Cercle de Ségou",
      "name:ar": "دائرة سيغو",
      "name:en": "Ségou Cercle",
      "name:fr": "Cercle de Ségou",
      "boundary": "administrative",
      "way_area": "1.31568",
      "wikidata": "Q2064200",
      "wikipedia": "fr:Cercle de Ségou",
      "admin_level": "6",
      "admin_type:ML": "cercle"
    }
  },
  {
    "osm_id": -3085048,
    "boundary": "administrative",
    "admin_level": 6,
    "parents": "-2096901,-192785",
    "name": "San Cercle",
    "local_name": "Cercle de San",
    "name_en": "San Cercle",
    "all_tags": {
      "name": "Cercle de San",
      "name:ar": "الدائرة سان",
      "name:en": "San Cercle",
      "name:fr": "Cercle de San",
      "boundary": "administrative",
      "way_area": "0.516378",
      "admin_level": "6",
      "admin_type:ML": "cercle"
    }
  },
  {
    "osm_id": -3085047,
    "boundary": "administrative",
    "admin_level": 6,
    "parents": "-2096901,-192785",
    "name": "Niono Cercle",
    "local_name": "Cercle de Niono",
    "name_en": "Niono Cercle",
    "all_tags": {
      "name": "Cercle de Niono",
      "name:ar": "الدائرة نيونو",
      "name:en": "Niono Cercle",
      "name:fr": "Cercle de Niono",
      "boundary": "administrative",
      "way_area": "1.34166",
      "admin_level": "6",
      "admin_type:ML": "cercle"
    }
  },
  {
    "osm_id": -3085046,
    "boundary": "administrative",
    "admin_level": 6,
    "parents": "-2096901,-192785",
    "name": "Macina Cercle",
    "local_name": "Cercle de Macina",
    "name_en": "Macina Cercle",
    "all_tags": {
      "name": "Cercle de Macina",
      "name:en": "Macina Cercle",
      "name:fr": "Cercle de Macina",
      "boundary": "administrative",
      "way_area": "0.544251",
      "admin_level": "6",
      "admin_type:ML": "cercle"
    }
  },
  {
    "osm_id": -3085045,
    "boundary": "administrative",
    "admin_level": 6,
    "parents": "-2096901,-192785",
    "name": "Bla Cercle",
    "local_name": "Cercle de Bla",
    "name_en": "Bla Cercle",
    "all_tags": {
      "name": "Cercle de Bla",
      "name:ar": "الدائرة بلا",
      "name:en": "Bla Cercle",
      "name:fr": "Cercle de Bla",
      "boundary": "administrative",
      "way_area": "0.515146",
      "admin_level": "6",
      "admin_type:ML": "cercle"
    }
  },
  {
    "osm_id": -3085044,
    "boundary": "administrative",
    "admin_level": 6,
    "parents": "-2096901,-192785",
    "name": "Baraouéli Cercle",
    "local_name": "Cercle de Baraouéli",
    "name_en": "Baraouéli Cercle",
    "all_tags": {
      "name": "Cercle de Baraouéli",
      "name:en": "Baraouéli Cercle",
      "name:fr": "Cercle de Baraouéli",
      "boundary": "administrative",
      "way_area": "0.369772",
      "admin_level": "6",
      "admin_type:ML": "cercle"
    }
  },
  {
    "osm_id": -3084285,
    "boundary": "administrative",
    "admin_level": 6,
    "parents": "-2096899,-192785",
    "name": "Youwarou Cercle",
    "local_name": "Cercle de Youwarou",
    "name_en": "Youwarou Cercle",
    "all_tags": {
      "name": "Cercle de Youwarou",
      "name:en": "Youwarou Cercle",
      "name:fr": "Cercle de Youwarou",
      "boundary": "administrative",
      "way_area": "0.659625",
      "wikidata": "Q1816412",
      "wikipedia": "fr:Cercle de Youwarou",
      "admin_level": "6",
      "border_type": "cercle"
    }
  },
  {
    "osm_id": -3084284,
    "boundary": "administrative",
    "admin_level": 6,
    "parents": "-2096899,-192785",
    "name": "Tenenkou Cercle",
    "local_name": "Cercle de Tenenkou",
    "name_en": "Tenenkou Cercle",
    "all_tags": {
      "name": "Cercle de Tenenkou",
      "name:ar": "الدائرة تينيكو",
      "name:en": "Tenenkou Cercle",
      "name:fr": "Cercle de Tenenkou",
      "boundary": "administrative",
      "way_area": "1.01643",
      "wikidata": "Q2064101",
      "wikipedia": "fr:Cercle de Ténenkou",
      "admin_level": "6",
      "border_type": "cercle"
    }
  },
  {
    "osm_id": -3084283,
    "boundary": "administrative",
    "admin_level": 6,
    "parents": "-2096899,-192785",
    "name": "Mopti Cercle",
    "local_name": "Cercle de Mopti",
    "name_en": "Mopti Cercle",
    "all_tags": {
      "name": "Cercle de Mopti",
      "name:ar": "الدائرة موبتي",
      "name:en": "Mopti Cercle",
      "name:fr": "Cercle de Mopti",
      "boundary": "administrative",
      "way_area": "0.599681",
      "wikidata": "Q1816378",
      "wikipedia": "fr:Cercle de Mopti",
      "admin_level": "6",
      "border_type": "cercle"
    }
  },
  {
    "osm_id": -3084282,
    "boundary": "administrative",
    "admin_level": 6,
    "parents": "-2096899,-192785",
    "name": "Koro Cercle",
    "local_name": "Cercle de Koro",
    "name_en": "Koro Cercle",
    "all_tags": {
      "name": "Cercle de Koro",
      "name:ar": "الدائرة كيتا كورو",
      "name:en": "Koro Cercle",
      "name:fr": "Cercle de Koro",
      "boundary": "administrative",
      "way_area": "0.894918",
      "wikidata": "Q1783463",
      "wikipedia": "fr:Cercle de Koro",
      "admin_level": "6",
      "border_type": "cercle"
    }
  },
  {
    "osm_id": -3084281,
    "boundary": "administrative",
    "admin_level": 6,
    "parents": "-2096899,-192785",
    "name": "Djenné Cercle",
    "local_name": "Cercle de Djenné",
    "name_en": "Djenné Cercle",
    "all_tags": {
      "name": "Cercle de Djenné",
      "name:en": "Djenné Cercle",
      "name:fr": "Cercle de Djenné",
      "boundary": "administrative",
      "way_area": "0.38624",
      "wikidata": "Q374553",
      "wikipedia": "fr:Cercle de Djenné",
      "admin_level": "6",
      "border_type": "cercle"
    }
  },
  {
    "osm_id": -3084280,
    "boundary": "administrative",
    "admin_level": 6,
    "parents": "-2096899,-192785",
    "name": "Douentza Cercle",
    "local_name": "Cercle de Douentza",
    "name_en": "Douentza Cercle",
    "all_tags": {
      "name": "Cercle de Douentza",
      "name:en": "Douentza Cercle",
      "name:fr": "Cercle de Douentza",
      "boundary": "administrative",
      "way_area": "2.09797",
      "wikidata": "Q940936",
      "wikipedia": "fr:Cercle de Douentza",
      "admin_level": "6",
      "border_type": "cercle"
    }
  },
  {
    "osm_id": -3084279,
    "boundary": "administrative",
    "admin_level": 6,
    "parents": "-2096899,-192785",
    "name": "Bankass Cercle",
    "local_name": "Cercle de Bankass",
    "name_en": "Bankass Cercle",
    "all_tags": {
      "name": "Cercle de Bankass",
      "name:ar": "دائرة بانكاس",
      "name:en": "Bankass Cercle",
      "name:fr": "Cercle de Bankass",
      "boundary": "administrative",
      "way_area": "0.522429",
      "wikidata": "Q806721",
      "wikipedia": "fr:Cercle de Bankass",
      "admin_level": "6",
      "border_type": "cercle"
    }
  },
  {
    "osm_id": -3084278,
    "boundary": "administrative",
    "admin_level": 6,
    "parents": "-2096899,-192785",
    "name": "Bandiagara Cercle",
    "local_name": "Cercle de Bandiagara",
    "name_en": "Bandiagara Cercle",
    "all_tags": {
      "name": "Cercle de Bandiagara",
      "name:ar": "دائرة باندياغارا",
      "name:en": "Bandiagara Cercle",
      "name:fr": "Cercle de Bandiagara",
      "boundary": "administrative",
      "way_area": "0.669705",
      "wikidata": "Q806313",
      "wikipedia": "fr:Cercle de Bandiagara",
      "admin_level": "6",
      "border_type": "cercle"
    }
  },
  {
    "osm_id": -3083946,
    "boundary": "administrative",
    "admin_level": 6,
    "parents": "-2096900,-192785",
    "name": "Yorosso Cercle",
    "local_name": "Cercle de Yorosso",
    "name_en": "Yorosso Cercle",
    "all_tags": {
      "name": "Cercle de Yorosso",
      "name:ar": "الدائرة يوروسو",
      "name:en": "Yorosso Cercle",
      "name:fr": "Cercle de Yorosso",
      "boundary": "administrative",
      "way_area": "0.38682",
      "admin_level": "6",
      "admin_type:ML": "cercle"
    }
  },
  {
    "osm_id": -3083945,
    "boundary": "administrative",
    "admin_level": 6,
    "parents": "-2096900,-192785",
    "name": "Yanfolila Cercle",
    "local_name": "Cercle de Yanfolila",
    "name_en": "Yanfolila Cercle",
    "all_tags": {
      "name": "Cercle de Yanfolila",
      "name:ar": "الدائرة يانفوليلا",
      "name:en": "Yanfolila Cercle",
      "name:fr": "Cercle de Yanfolila",
      "boundary": "administrative",
      "way_area": "0.763411",
      "admin_level": "6",
      "admin_type:ML": "cercle"
    }
  },
  {
    "osm_id": -3083944,
    "boundary": "administrative",
    "admin_level": 6,
    "parents": "-2096900,-192785",
    "name": "Sikasso Cercle",
    "local_name": "Cercle de Sikasso",
    "name_en": "Sikasso Cercle",
    "all_tags": {
      "name": "Cercle de Sikasso",
      "name:ar": "الدائرة سيكاسو",
      "name:en": "Sikasso Cercle",
      "name:fr": "Cercle de Sikasso",
      "boundary": "administrative",
      "way_area": "1.27594",
      "admin_level": "6",
      "admin_type:ML": "cercle"
    }
  },
  {
    "osm_id": -3083943,
    "boundary": "administrative",
    "admin_level": 6,
    "parents": "-2096900,-192785",
    "name": "Koutiala Cercle",
    "local_name": "Cercle de Koutiala",
    "name_en": "Koutiala Cercle",
    "all_tags": {
      "name": "Cercle de Koutiala",
      "name:en": "Koutiala Cercle",
      "name:fr": "Cercle de Koutiala",
      "boundary": "administrative",
      "way_area": "0.776142",
      "admin_level": "6",
      "admin_type:ML": "cercle"
    }
  },
  {
    "osm_id": -3083942,
    "boundary": "administrative",
    "admin_level": 6,
    "parents": "-2096900,-192785",
    "name": "Kolondiéba Cercle",
    "local_name": "Cercle de Kolondiéba",
    "name_en": "Kolondiéba Cercle",
    "all_tags": {
      "name": "Cercle de Kolondiéba",
      "name:ar": "الدائرة كولونديبا",
      "name:en": "Kolondiéba Cercle",
      "name:fr": "Cercle de Kolondiéba",
      "boundary": "administrative",
      "way_area": "0.658494",
      "admin_level": "6",
      "admin_type:ML": "cercle"
    }
  },
  {
    "osm_id": -3083941,
    "boundary": "administrative",
    "admin_level": 6,
    "parents": "-2096900,-192785",
    "name": "Kadiolo Cercle",
    "local_name": "Cercle de Kadiolo",
    "name_en": "Kadiolo Cercle",
    "all_tags": {
      "name": "Cercle de Kadiolo",
      "name:ar": "الدائرة كاديولو",
      "name:en": "Kadiolo Cercle",
      "name:fr": "Cercle de Kadiolo",
      "boundary": "administrative",
      "way_area": "0.442676",
      "admin_level": "6",
      "admin_type:ML": "cercle"
    }
  },
  {
    "osm_id": -3083940,
    "boundary": "administrative",
    "admin_level": 6,
    "parents": "-2096900,-192785",
    "name": "Bougouni Cercle",
    "local_name": "Cercle de Bougouni",
    "name_en": "Bougouni Cercle",
    "all_tags": {
      "name": "Cercle de Bougouni",
      "name:en": "Bougouni Cercle",
      "name:fr": "Cercle de Bougouni",
      "boundary": "administrative",
      "way_area": "1.62332",
      "wikidata": "Q895013",
      "wikipedia": "en:Bougouni Cercle",
      "admin_level": "6",
      "admin_type:ML": "cercle"
    }
  },
  {
    "osm_id": -3083895,
    "boundary": "administrative",
    "admin_level": 6,
    "parents": "-2096898,-192785",
    "name": "Nara Cercle",
    "local_name": "Cercle de Nara",
    "name_en": "Nara Cercle",
    "all_tags": {
      "name": "Cercle de Nara",
      "name:ar": "دائرة نارا",
      "name:en": "Nara Cercle",
      "name:fr": "Cercle de Nara",
      "boundary": "administrative",
      "way_area": "2.63587",
      "admin_level": "6"
    }
  },
  {
    "osm_id": -3083894,
    "boundary": "administrative",
    "admin_level": 6,
    "parents": "-2096898,-192785",
    "name": "Koulikoro Cercle",
    "local_name": "Cercle de Koulikoro",
    "name_en": "Koulikoro Cercle",
    "all_tags": {
      "name": "Cercle de Koulikoro",
      "name:en": "Koulikoro Cercle",
      "name:fr": "Cercle de Koulikoro",
      "boundary": "administrative",
      "way_area": "0.495759",
      "admin_level": "6"
    }
  },
  {
    "osm_id": -3083893,
    "boundary": "administrative",
    "admin_level": 6,
    "parents": "-2096898,-192785",
    "name": "Kolokani Cercle",
    "local_name": "Cercle de Kolokani",
    "name_en": "Kolokani Cercle",
    "all_tags": {
      "name": "Cercle de Kolokani",
      "name:en": "Kolokani Cercle",
      "name:fr": "Cercle de Kolokani",
      "boundary": "administrative",
      "way_area": "0.982542",
      "admin_level": "6"
    }
  },
  {
    "osm_id": -3083892,
    "boundary": "administrative",
    "admin_level": 6,
    "parents": "-2096898,-192785",
    "name": "Kati Cercle",
    "local_name": "Cercle de Kati",
    "name_en": "Kati Cercle",
    "all_tags": {
      "name": "Cercle de Kati",
      "name:ar": "الدائرة كاتي",
      "name:en": "Kati Cercle",
      "name:fr": "Cercle de Kati",
      "boundary": "administrative",
      "way_area": "1.37536",
      "admin_level": "6"
    }
  },
  {
    "osm_id": -3083891,
    "boundary": "administrative",
    "admin_level": 6,
    "parents": "-2096898,-192785",
    "name": "Kangaba Cercle",
    "local_name": "Cercle de Kangaba",
    "name_en": "Kangaba Cercle",
    "all_tags": {
      "name": "Cercle de Kangaba",
      "name:ar": "الدائرة كانكابا",
      "name:en": "Kangaba Cercle",
      "name:fr": "Cercle de Kangaba",
      "boundary": "administrative",
      "way_area": "0.395172",
      "admin_level": "6"
    }
  },
  {
    "osm_id": -3083890,
    "boundary": "administrative",
    "admin_level": 6,
    "parents": "-2096898,-192785",
    "name": "Dioïla Cercle",
    "local_name": "Cercle de Dioïla",
    "name_en": "Dioïla Cercle",
    "all_tags": {
      "name": "Cercle de Dioïla",
      "name:en": "Dioïla Cercle",
      "name:fr": "Cercle de Dioïla",
      "boundary": "administrative",
      "way_area": "1.04587",
      "wikidata": "Q1227118",
      "wikipedia": "en:Dioïla Cercle",
      "admin_level": "6"
    }
  },
  {
    "osm_id": -3083889,
    "boundary": "administrative",
    "admin_level": 6,
    "parents": "-2096898,-192785",
    "name": "Banamba Cercle",
    "local_name": "Cercle de Banamba",
    "name_en": "Banamba Cercle",
    "all_tags": {
      "name": "Cercle de Banamba",
      "name:en": "Banamba Cercle",
      "name:fr": "Cercle de Banamba",
      "boundary": "administrative",
      "way_area": "0.636753",
      "admin_level": "6"
    }
  },
  {
    "osm_id": -3083710,
    "boundary": "administrative",
    "admin_level": 6,
    "parents": "-2096896,-192785",
    "name": "Yélimané Cercle",
    "local_name": "Yélimané",
    "name_en": "Yélimané Cercle",
    "all_tags": {
      "name": "Yélimané",
      "name:ar": "الدائرة يليماني",
      "name:en": "Yélimané Cercle",
      "name:fr": "Cercle de Yélimané",
      "boundary": "administrative",
      "way_area": "0.477299",
      "wikidata": "Q944313",
      "wikipedia": "fr:Cercle de Yélimané",
      "admin_level": "6",
      "admin_type:ML": "cercle"
    }
  },
  {
    "osm_id": -3083709,
    "boundary": "administrative",
    "admin_level": 6,
    "parents": "-2096896,-192785",
    "name": "Nioro Cercle",
    "local_name": "Nioro",
    "name_en": "Nioro Cercle",
    "all_tags": {
      "name": "Nioro",
      "name:ar": "الدائرة نيورو",
      "name:en": "Nioro Cercle",
      "name:fr": "Cercle de Nioro",
      "boundary": "administrative",
      "way_area": "0.880564",
      "wikidata": "Q743538",
      "wikipedia": "fr:Cercle de Nioro du Sahel",
      "admin_level": "6",
      "admin_type:ML": "cercle"
    }
  },
  {
    "osm_id": -3083708,
    "boundary": "administrative",
    "admin_level": 6,
    "parents": "-2096896,-192785",
    "name": "Kéniéba",
    "local_name": "Kéniéba",
    "name_en": null,
    "all_tags": {
      "name": "Kéniéba",
      "name:ar": "دائرة كينييبا",
      "name:fr": "Kéniéba Cercle",
      "boundary": "administrative",
      "way_area": "1.24874",
      "wikidata": "Q1537779",
      "wikipedia": "fr:Cercle de Kéniéba",
      "admin_level": "6",
      "admin_type:ML": "cercle"
    }
  },
  {
    "osm_id": -3083707,
    "boundary": "administrative",
    "admin_level": 6,
    "parents": "-2096896,-192785",
    "name": "Kita Cercle",
    "local_name": "Kita",
    "name_en": "Kita Cercle",
    "all_tags": {
      "name": "Kita",
      "name:ar": "الدائرة كيتا",
      "name:en": "Kita Cercle",
      "name:fr": "Cercle de Kita",
      "boundary": "administrative",
      "way_area": "2.96866",
      "wikidata": "Q1247547",
      "wikipedia": "fr:Cercle de Kita",
      "admin_level": "6",
      "admin_type:ML": "cercle"
    }
  },
  {
    "osm_id": -3083706,
    "boundary": "administrative",
    "admin_level": 6,
    "parents": "-2096896,-192785",
    "name": "Kayes Cercle",
    "local_name": "Kayes",
    "name_en": "Kayes Cercle",
    "all_tags": {
      "name": "Kayes",
      "name:ar": "الدائرة كايس",
      "name:en": "Kayes Cercle",
      "name:fr": "Cercle de Kayes",
      "boundary": "administrative",
      "way_area": "1.90114",
      "wikidata": "Q1538145",
      "wikipedia": "fr:Cercle de Kayes",
      "admin_level": "6",
      "admin_type:ML": "cercle"
    }
  },
  {
    "osm_id": -3083705,
    "boundary": "administrative",
    "admin_level": 6,
    "parents": "-2096896,-192785",
    "name": "Diéma Cercle",
    "local_name": "Diéma",
    "name_en": "Diéma Cercle",
    "all_tags": {
      "name": "Diéma",
      "name:ar": "الدائرة دييما",
      "name:en": "Diéma Cercle",
      "name:fr": "Cercle de Diéma",
      "boundary": "administrative",
      "way_area": "1.07402",
      "wikidata": "Q1231874",
      "wikipedia": "fr:Cercle de Diéma",
      "admin_level": "6",
      "admin_type:ML": "cercle"
    }
  },
  {
    "osm_id": -3083704,
    "boundary": "administrative",
    "admin_level": 6,
    "parents": "-2096896,-192785",
    "name": "Bafoulabé Cercle",
    "local_name": "Bafoulabé",
    "name_en": "Bafoulabé Cercle",
    "all_tags": {
      "name": "Bafoulabé",
      "name:en": "Bafoulabé Cercle",
      "name:fr": "Cercle de Bafoulabé",
      "boundary": "administrative",
      "way_area": "1.66448",
      "wikidata": "Q648765",
      "wikipedia": "fr:Cercle de Bafoulabé",
      "admin_level": "6",
      "admin_type:ML": "cercle"
    }
  },
  {
    "osm_id": -3079414,
    "boundary": "administrative",
    "admin_level": 6,
    "parents": "-2096902,-192785",
    "name": "Gourma-Rharous Cercle",
    "local_name": "Cercle Gourma-Rharous",
    "name_en": "Gourma-Rharous Cercle",
    "all_tags": {
      "name": "Cercle Gourma-Rharous",
      "name:ar": "دائرة قرما غاروس",
      "name:en": "Gourma-Rharous Cercle",
      "name:fr": "Cercle de Gourma-Rharous",
      "boundary": "administrative",
      "way_area": "3.60346",
      "admin_level": "6"
    }
  },
  {
    "osm_id": -3079413,
    "boundary": "administrative",
    "admin_level": 6,
    "parents": "-192785",
    "name": "Tombouctou Cercle",
    "local_name": "Cercle de Tombouctou",
    "name_en": "Tombouctou Cercle",
    "all_tags": {
      "name": "Cercle de Tombouctou",
      "name:ar": "دائرة تمبكتو",
      "name:en": "Tombouctou Cercle",
      "name:fr": "Cercle de Tombouctou",
      "boundary": "administrative",
      "way_area": "28.6841",
      "admin_level": "6"
    }
  },
  {
    "osm_id": -3079412,
    "boundary": "administrative",
    "admin_level": 6,
    "parents": "-2096902,-192785",
    "name": "Niafounké Cercle",
    "local_name": "Cercle de Niafounké",
    "name_en": "Niafounké Cercle",
    "all_tags": {
      "name": "Cercle de Niafounké",
      "name:ar": "ولاية نيافونكي",
      "name:en": "Niafounké Cercle",
      "name:fr": "Cercle de Niafounké",
      "boundary": "administrative",
      "way_area": "0.830101",
      "admin_level": "6"
    }
  },
  {
    "osm_id": -3079411,
    "boundary": "administrative",
    "admin_level": 6,
    "parents": "-192785",
    "name": "Goundam Cercle",
    "local_name": "Cercle de Goundam",
    "name_en": "Goundam Cercle",
    "all_tags": {
      "name": "Cercle de Goundam",
      "name:ar": "دائرة غوندام",
      "name:en": "Goundam Cercle",
      "name:fr": "Cercle de Goundam",
      "boundary": "administrative",
      "way_area": "9.96557",
      "admin_level": "6"
    }
  },
  {
    "osm_id": -3079410,
    "boundary": "administrative",
    "admin_level": 6,
    "parents": "-2096902,-192785",
    "name": "Diré Cercle",
    "local_name": "Cercle de Diré",
    "name_en": "Diré Cercle",
    "all_tags": {
      "name": "Cercle de Diré",
      "name:en": "Diré Cercle",
      "name:fr": "Cercle de Diré",
      "boundary": "administrative",
      "way_area": "0.19403",
      "admin_level": "6"
    }
  },
  {
    "osm_id": -3079153,
    "boundary": "administrative",
    "admin_level": 4,
    "parents": "-192785",
    "name": "Ménaka",
    "local_name": "Ménaka",
    "name_en": "Ménaka",
    "all_tags": {
      "name": "Ménaka",
      "name:ar": "دائرة ميناكا",
      "name:en": "Ménaka",
      "name:fr": "Ménaka",
      "boundary": "administrative",
      "way_area": "7.00991",
      "wikidata": "Q3455550",
      "ISO3166-2": "ML-9",
      "wikipedia": "fr:Région de Ménaka",
      "admin_level": "4",
      "official_name": "Région de Ménaka"
    }
  },
  {
    "osm_id": -3079152,
    "boundary": "administrative",
    "admin_level": 6,
    "parents": "-2096895,-192785",
    "name": "Gao Cercle",
    "local_name": "Cercle de Gao",
    "name_en": "Gao Cercle",
    "all_tags": {
      "name": "Cercle de Gao",
      "name:ar": "الدائرة غاو",
      "name:en": "Gao Cercle",
      "name:fr": "Cercle de Gao",
      "boundary": "administrative",
      "way_area": "2.52102",
      "admin_level": "6"
    }
  },
  {
    "osm_id": -3079151,
    "boundary": "administrative",
    "admin_level": 6,
    "parents": "-2096895,-192785",
    "name": "Bourem Cercle",
    "local_name": "Cercle de Bourem",
    "name_en": "Bourem Cercle",
    "all_tags": {
      "name": "Cercle de Bourem",
      "name:en": "Bourem Cercle",
      "name:fr": "Cercle de Bourem",
      "boundary": "administrative",
      "way_area": "3.52602",
      "admin_level": "6"
    }
  },
  {
    "osm_id": -3079150,
    "boundary": "administrative",
    "admin_level": 6,
    "parents": "-2096895,-192785",
    "name": "Ansongo Cercle",
    "local_name": "Cercle d'Ansongo",
    "name_en": "Ansongo Cercle",
    "all_tags": {
      "name": "Cercle d'Ansongo",
      "name:ar": "دائرة أنسنكو",
      "name:en": "Ansongo Cercle",
      "name:fr": "Cercle d'Ansongo",
      "boundary": "administrative",
      "way_area": "2.04518",
      "admin_level": "6"
    }
  },
  {
    "osm_id": -3078994,
    "boundary": "administrative",
    "admin_level": 6,
    "parents": "-2096897,-192785",
    "name": "Tin-Essako Cercle",
    "local_name": "Cercle de Tin-Essako",
    "name_en": "Tin-Essako Cercle",
    "all_tags": {
      "name": "Cercle de Tin-Essako",
      "name:ar": "دائرة تين إساكو",
      "name:en": "Tin-Essako Cercle",
      "name:fr": "Cercle de Tin-Essako",
      "boundary": "administrative",
      "way_area": "2.46374",
      "admin_level": "6",
      "admin_type:ML": "cercle",
      "short_name:ar": "تين إساكو"
    }
  },
  {
    "osm_id": -3078993,
    "boundary": "administrative",
    "admin_level": 6,
    "parents": "-2096897,-192785",
    "name": "Tessalit Cercle",
    "local_name": "Cercle de Tessalit",
    "name_en": "Tessalit Cercle",
    "all_tags": {
      "name": "Cercle de Tessalit",
      "name:ar": "ولاية تساليت",
      "name:en": "Tessalit Cercle",
      "name:fr": "Cercle de Tessalit",
      "boundary": "administrative",
      "way_area": "6.75881",
      "admin_level": "6",
      "admin_type:ML": "cercle"
    }
  },
  {
    "osm_id": -3078992,
    "boundary": "administrative",
    "admin_level": 6,
    "parents": "-2096897,-192785",
    "name": "Kidal Cercle",
    "local_name": "Cercle de Kidal",
    "name_en": "Kidal Cercle",
    "all_tags": {
      "name": "Cercle de Kidal",
      "name:ar": "دائرة كيدال",
      "name:en": "Kidal Cercle",
      "name:fa": "دایره کیدال",
      "name:fr": "Cercle de Kidal",
      "boundary": "administrative",
      "way_area": "1.34797",
      "wikidata": "Q668196",
      "wikipedia": "fr:Cercle de Kidal",
      "admin_level": "6",
      "admin_type:ML": "cercle"
    }
  },
  {
    "osm_id": -3078991,
    "boundary": "administrative",
    "admin_level": 6,
    "parents": "-2096897,-192785",
    "name": "Abeïbara Cercle",
    "local_name": "Cercle d'Abeïbara",
    "name_en": "Abeïbara Cercle",
    "all_tags": {
      "name": "Cercle d'Abeïbara",
      "name:ar": "دائرة أبيبارا",
      "name:en": "Abeïbara Cercle",
      "name:fr": "Cercle d'Abeïbara",
      "boundary": "administrative",
      "way_area": "1.96911",
      "admin_level": "6",
      "admin_type:ML": "cercle"
    }
  },
  {
    "osm_id": -2105525,
    "boundary": "administrative",
    "admin_level": 4,
    "parents": "-192785",
    "name": "Bamako",
    "local_name": "Bamako",
    "name_en": "Bamako",
    "all_tags": {
      "name": "Bamako",
      "name:am": "ባማኮ",
      "name:ar": "باماكو",
      "name:be": "Бамако",
      "name:bg": "Бамако",
      "name:bm": "Bamakɔ",
      "name:bo": "བ་མ་ཀོ།",
      "name:cv": "Бамако",
      "name:de": "Bamako",
      "name:el": "Μπαμάκο",
      "name:en": "Bamako",
      "name:eo": "Bamako",
      "name:fa": "باماکو",
      "name:fr": "Bamako",
      "name:gl": "Bamaco",
      "name:he": "במקו",
      "name:hi": "बमाको",
      "name:hu": "Bamako",
      "name:hy": "Բամակո",
      "name:is": "Bamakó",
      "name:ja": "バマコ",
      "name:ka": "ბამაკო",
      "name:ko": "바마코",
      "name:ky": "Бамако",
      "name:lt": "Bamakas",
      "name:mk": "Бамако",
      "name:mr": "बमाको",
      "name:os": "Бамако",
      "name:pl": "Bamako",
      "name:ru": "Бамако",
      "name:sr": "Бамако",
      "name:sv": "Bamako",
      "name:ta": "பமாக்கோ",
      "name:tg": "Бамако",
      "name:th": "บามาโก",
      "name:uk": "Бамако",
      "name:ur": "بماکو",
      "name:zh": "巴馬科",
      "boundary": "administrative",
      "name:arc": "ܒܡܩܘ",
      "name:ckb": "باماکۆ",
      "name:kab": "Bamaku",
      "name:mrj": "Бамако",
      "name:pnb": "بماکو",
      "name:udm": "Бамако",
      "way_area": "0.0207031",
      "wikidata": "Q3703",
      "ISO3166-2": "ML-BKO",
      "wikipedia": "fr:Bamako",
      "admin_level": "4",
      "admin_type:ML": "district",
      "official_name": "District de Bamako",
      "name:be-tarask": "Бамака"
    }
  },
  {
    "osm_id": -2096902,
    "boundary": "administrative",
    "admin_level": 4,
    "parents": "-192785",
    "name": "Timbuktu",
    "local_name": "Tombouctou",
    "name_en": "Timbuktu",
    "all_tags": {
      "name": "Tombouctou",
      "name:ar": "تمبكتو",
      "name:ca": "Timbuctú",
      "name:cs": "Timbuktu",
      "name:de": "Timbuktu",
      "name:en": "Timbuktu",
      "name:es": "Tombuctú",
      "name:fr": "Tombouctou",
      "name:hi": "टिम्बकटू",
      "name:kn": "ಟಿಂಬಕ್ಟೂ",
      "name:lt": "Timbuktu",
      "name:nl": "Timboektoe",
      "name:ru": "Тимбукту",
      "name:uk": "Тімбукту",
      "name:zh": "廷巴克图",
      "boundary": "administrative",
      "name:ssa": "Tumbutu",
      "name:tmh": "Tin-Buktu",
      "way_area": "7.75155",
      "wikidata": "Q339462",
      "ISO3166-2": "ML-6",
      "wikipedia": "fr:Région de Tombouctou",
      "population": "54400",
      "admin_level": "4",
      "admin_type:ML": "région",
      "official_name": "Région de Tombouctou"
    }
  },
  {
    "osm_id": -2096901,
    "boundary": "administrative",
    "admin_level": 4,
    "parents": "-192785",
    "name": "Ségou",
    "local_name": "Ségou",
    "name_en": null,
    "all_tags": {
      "name": "Ségou",
      "name:ar": "سيغو",
      "name:fr": "Ségou",
      "name:ru": "Сегу",
      "name:ur": "سیگو",
      "boundary": "administrative",
      "name:azb": "سقو",
      "way_area": "5.16717",
      "wikidata": "Q656845",
      "ISO3166-2": "ML-4",
      "wikipedia": "fr:Région de Ségou",
      "population": "2336255",
      "admin_level": "4",
      "admin_type:ML": "région",
      "official_name": "Région de Ségou",
      "official_name:fr": "Région de Ségou"
    }
  },
  {
    "osm_id": -2096900,
    "boundary": "administrative",
    "admin_level": 4,
    "parents": "-192785",
    "name": "Sikasso",
    "local_name": "Sikasso",
    "name_en": "Sikasso",
    "all_tags": {
      "name": "Sikasso",
      "name:ar": "سيكاسو",
      "name:en": "Sikasso",
      "name:fr": "Sikasso",
      "name:ru": "Сикасо",
      "boundary": "administrative",
      "way_area": "5.9268",
      "wikidata": "Q461298",
      "ISO3166-2": "ML-3",
      "wikipedia": "fr:Région de Sikasso",
      "population": "2625919",
      "admin_level": "4",
      "admin_type:ML": "région",
      "official_name": "Région de Sikasso"
    }
  },
  {
    "osm_id": -2096899,
    "boundary": "administrative",
    "admin_level": 4,
    "parents": "-192785",
    "name": "Mopti",
    "local_name": "Mopti",
    "name_en": "Mopti",
    "all_tags": {
      "name": "Mopti",
      "name:ar": "موبتي",
      "name:en": "Mopti",
      "name:fr": "Mopti",
      "name:ru": "Мопти",
      "boundary": "administrative",
      "way_area": "6.84699",
      "wikidata": "Q214155",
      "ISO3166-2": "ML-5",
      "wikipedia": "fr:Région de Mopti",
      "population": "2037330",
      "admin_level": "4",
      "admin_type:ML": "région",
      "official_name": "Région de Mopti"
    }
  },
  {
    "osm_id": -2096898,
    "boundary": "administrative",
    "admin_level": 4,
    "parents": "-192785",
    "name": "Koulikoro",
    "local_name": "Koulikoro",
    "name_en": "Koulikoro",
    "all_tags": {
      "name": "Koulikoro",
      "name:ar": "كوليكورو",
      "name:en": "Koulikoro",
      "name:fr": "Koulikoro",
      "name:ru": "Куликоро",
      "name:uk": "Кулікоро",
      "boundary": "administrative",
      "way_area": "7.56733",
      "wikidata": "Q287789",
      "ISO3166-2": "ML-2",
      "wikipedia": "fr:Région de Koulikoro",
      "population": "2418305",
      "admin_level": "4",
      "admin_type:ML": "région",
      "official_name": "Région de Koulikoro"
    }
  },
  {
    "osm_id": -2096897,
    "boundary": "administrative",
    "admin_level": 4,
    "parents": "-192785",
    "name": "Kidal",
    "local_name": "Kidal",
    "name_en": "Kidal",
    "all_tags": {
      "name": "Kidal",
      "name:ar": "كيدال",
      "name:en": "Kidal",
      "name:fa": "کیدال",
      "name:fr": "Kidal",
      "name:ru": "Кидаль",
      "name:ur": "کڈال",
      "boundary": "administrative",
      "name:azb": "کیدال",
      "way_area": "12.5396",
      "wikidata": "Q338988",
      "ISO3166-2": "ML-8",
      "wikipedia": "fr:Région de Kidal",
      "population": "67638",
      "admin_level": "4",
      "admin_type:ML": "région",
      "official_name": "Région de Kidal",
      "official_name:ar": "منطقة كيدال",
      "official_name:fr": "Région de Kidal"
    }
  },
  {
    "osm_id": -2096896,
    "boundary": "administrative",
    "admin_level": 4,
    "parents": "-192785",
    "name": "Kayes",
    "local_name": "Kayes",
    "name_en": "Kayes",
    "all_tags": {
      "name": "Kayes",
      "name:ar": "كايس",
      "name:en": "Kayes",
      "name:fr": "Kayes",
      "name:ru": "Каес",
      "boundary": "administrative",
      "name:snk": "Xaayi",
      "way_area": "10.2149",
      "wikidata": "Q332113",
      "ISO3166-2": "ML-1",
      "wikipedia": "fr:Région de Kayes",
      "population": "1996812",
      "admin_level": "4",
      "admin_type:ML": "région",
      "official_name": "Région de Kayes"
    }
  },
  {
    "osm_id": -2096895,
    "boundary": "administrative",
    "admin_level": 4,
    "parents": "-192785",
    "name": "Gao",
    "local_name": "Gao",
    "name_en": "Gao",
    "all_tags": {
      "name": "Gao",
      "name:ar": "غاو",
      "name:en": "Gao",
      "name:fr": "Gao",
      "name:hu": "Gao",
      "name:ru": "Гао",
      "boundary": "administrative",
      "way_area": "8.09222",
      "wikidata": "Q332392",
      "ISO3166-2": "ML-7",
      "wikipedia": "fr:Région de Gao",
      "population": "544120",
      "admin_level": "4",
      "admin_type:ML": "région",
      "official_name": "Région de Gao"
    }
  }
]
