[
  {
    "osm_id": -7308140,
    "boundary": "administrative",
    "admin_level": 6,
    "parents": "-269886,-161033",
    "name": "Herlen",
    "local_name": "Хэрлэн",
    "name_en": "Herlen",
    "all_tags": {
      "name": "Хэрлэн",
      "name:de": "Kherlen",
      "name:en": "Herlen",
      "name:ru": "Хэрлэн",
      "boundary": "administrative",
      "way_area": "0.0331917",
      "admin_level": "6"
    }
  },
  {
    "osm_id": -7307122,
    "boundary": "administrative",
    "admin_level": 6,
    "parents": "-269874,-161033",
    "name": "Baruun-Urt",
    "local_name": "Баруун-Урт",
    "name_en": "Baruun-Urt",
    "all_tags": {
      "name": "Баруун-Урт",
      "name:en": "Baruun-Urt",
      "name:ru": "Баруун-Урт",
      "boundary": "administrative",
      "way_area": "0.00448608",
      "admin_level": "6"
    }
  },
  {
    "osm_id": -7305550,
    "boundary": "administrative",
    "admin_level": 6,
    "parents": "-270072,-161033",
    "name": "Khatgal",
    "local_name": "Алаг-Эрдэнэ",
    "name_en": "Khatgal",
    "all_tags": {
      "name": "Алаг-Эрдэнэ",
      "name:de": "Alag-Erdene",
      "name:en": "Khatgal",
      "boundary": "administrative",
      "way_area": "0.584583",
      "admin_level": "6"
    }
  },
  {
    "osm_id": -7305549,
    "boundary": "administrative",
    "admin_level": 6,
    "parents": "-270072,-161033",
    "name": "Arbulag",
    "local_name": "Арбулаг",
    "name_en": "Arbulag",
    "all_tags": {
      "name": "Арбулаг",
      "name:de": "Arbulag",
      "name:en": "Arbulag",
      "boundary": "administrative",
      "way_area": "0.478522",
      "admin_level": "6"
    }
  },
  {
    "osm_id": -7305548,
    "boundary": "administrative",
    "admin_level": 6,
    "parents": "-270072,-161033",
    "name": "Bayanzurh",
    "local_name": "Баянзүрх",
    "name_en": "Bayanzurh",
    "all_tags": {
      "name": "Баянзүрх",
      "name:de": "Bayanzürkh",
      "name:en": "Bayanzurh",
      "name:ru": "Баянзурх",
      "boundary": "administrative",
      "way_area": "0.522967",
      "admin_level": "6"
    }
  },
  {
    "osm_id": -7305547,
    "boundary": "administrative",
    "admin_level": 6,
    "parents": "-270072,-161033",
    "name": "Burentogtoh",
    "local_name": "Бүрэнтогтох",
    "name_en": "Burentogtoh",
    "all_tags": {
      "name": "Бүрэнтогтох",
      "name:de": "Bürentogtokh",
      "name:en": "Burentogtoh",
      "name:ru": "Бурэнтогтох",
      "boundary": "administrative",
      "way_area": "0.477163",
      "admin_level": "6"
    }
  },
  {
    "osm_id": -7305546,
    "boundary": "administrative",
    "admin_level": 6,
    "parents": "-270072,-161033",
    "name": "Chandmani-Ondor",
    "local_name": "Чандмань-Өндөр",
    "name_en": "Chandmani-Ondor",
    "all_tags": {
      "name": "Чандмань-Өндөр",
      "name:de": "Chandmani-Öndör",
      "name:en": "Chandmani-Ondor",
      "name:ru": "Чандмань-Ундер",
      "boundary": "administrative",
      "way_area": "0.588906",
      "admin_level": "6"
    }
  },
  {
    "osm_id": -7305545,
    "boundary": "administrative",
    "admin_level": 6,
    "parents": "-270072,-161033",
    "name": "Erdenebulgan",
    "local_name": "Эрдэнэбулган",
    "name_en": "Erdenebulgan",
    "all_tags": {
      "name": "Эрдэнэбулган",
      "name:de": "Erdenebulgan",
      "name:en": "Erdenebulgan",
      "boundary": "administrative",
      "way_area": "0.627065",
      "admin_level": "6"
    }
  },
  {
    "osm_id": -7305544,
    "boundary": "administrative",
    "admin_level": 6,
    "parents": "-270072,-161033",
    "name": "Galt",
    "local_name": "Галт",
    "name_en": "Galt",
    "all_tags": {
      "name": "Галт",
      "name:de": "Galt",
      "name:en": "Galt",
      "boundary": "administrative",
      "way_area": "0.428883",
      "admin_level": "6"
    }
  },
  {
    "osm_id": -7305543,
    "boundary": "administrative",
    "admin_level": 6,
    "parents": "-270072,-161033",
    "name": "Hanh",
    "local_name": "Ханх",
    "name_en": "Hanh",
    "all_tags": {
      "name": "Ханх",
      "name:de": "Khankh",
      "name:en": "Hanh",
      "boundary": "administrative",
      "way_area": "0.664613",
      "wikidata": "Q2607700",
      "admin_level": "6"
    }
  },
  {
    "osm_id": -7305542,
    "boundary": "administrative",
    "admin_level": 6,
    "parents": "-270072,-161033",
    "name": "Hatgal",
    "local_name": "Хатгал",
    "name_en": "Hatgal",
    "all_tags": {
      "name": "Хатгал",
      "name:de": "Khatgal",
      "name:en": "Hatgal",
      "boundary": "administrative",
      "way_area": "0.00729638",
      "admin_level": "6"
    }
  },
  {
    "osm_id": -7305541,
    "boundary": "administrative",
    "admin_level": 6,
    "parents": "-270072,-161033",
    "name": "Ih-Uul",
    "local_name": "Их-Уул",
    "name_en": "Ih-Uul",
    "all_tags": {
      "name": "Их-Уул",
      "name:de": "Ikh-Uul",
      "name:en": "Ih-Uul",
      "boundary": "administrative",
      "way_area": "0.240821",
      "admin_level": "6"
    }
  },
  {
    "osm_id": -7305540,
    "boundary": "administrative",
    "admin_level": 6,
    "parents": "-270072,-161033",
    "name": "Jargalant",
    "local_name": "Жаргалант",
    "name_en": "Jargalant",
    "all_tags": {
      "name": "Жаргалант",
      "name:de": "Jargalant",
      "name:en": "Jargalant",
      "name:uk": "Жарґалант",
      "boundary": "administrative",
      "way_area": "0.326512",
      "admin_level": "6"
    }
  },
  {
    "osm_id": -7305539,
    "boundary": "administrative",
    "admin_level": 6,
    "parents": "-270072,-161033",
    "name": "Moron",
    "local_name": "Мөрөн",
    "name_en": "Moron",
    "all_tags": {
      "name": "Мөрөн",
      "name:de": "Mörön",
      "name:en": "Moron",
      "name:ru": "Мурэн",
      "boundary": "administrative",
      "way_area": "0.0257097",
      "admin_level": "6"
    }
  },
  {
    "osm_id": -7305538,
    "boundary": "administrative",
    "admin_level": 6,
    "parents": "-270072,-161033",
    "name": "Rashaant",
    "local_name": "Рашаант",
    "name_en": "Rashaant",
    "all_tags": {
      "name": "Рашаант",
      "name:de": "Rashaant",
      "name:en": "Rashaant",
      "boundary": "administrative",
      "way_area": "0.260957",
      "admin_level": "6"
    }
  },
  {
    "osm_id": -7305537,
    "boundary": "administrative",
    "admin_level": 6,
    "parents": "-270072,-161033",
    "name": "Renchinlhumbe",
    "local_name": "Рэнчинлхүмбэ",
    "name_en": "Renchinlhumbe",
    "all_tags": {
      "name": "Рэнчинлхүмбэ",
      "name:de": "Renchinlkhümbe",
      "name:en": "Renchinlhumbe",
      "name:ru": "Рэнчинлхумбэ",
      "boundary": "administrative",
      "way_area": "1.07502",
      "admin_level": "6"
    }
  },
  {
    "osm_id": -7305536,
    "boundary": "administrative",
    "admin_level": 6,
    "parents": "-270072,-161033",
    "name": "Shine-Ider",
    "local_name": "Шинэ-Идэр",
    "name_en": "Shine-Ider",
    "all_tags": {
      "name": "Шинэ-Идэр",
      "name:de": "Shine-Ider",
      "name:en": "Shine-Ider",
      "boundary": "administrative",
      "way_area": "0.259223",
      "admin_level": "6"
    }
  },
  {
    "osm_id": -7305535,
    "boundary": "administrative",
    "admin_level": 6,
    "parents": "-270072,-161033",
    "name": "Tarialan",
    "local_name": "Тариалан",
    "name_en": "Tarialan",
    "all_tags": {
      "name": "Тариалан",
      "name:de": "Tarialan",
      "name:en": "Tarialan",
      "boundary": "administrative",
      "way_area": "0.429577",
      "admin_level": "6"
    }
  },
  {
    "osm_id": -7305534,
    "boundary": "administrative",
    "admin_level": 6,
    "parents": "-270072,-161033",
    "name": "Tomorbulag",
    "local_name": "Төмөрбулаг",
    "name_en": "Tomorbulag",
    "all_tags": {
      "name": "Төмөрбулаг",
      "name:de": "Tömörbulag",
      "name:en": "Tomorbulag",
      "name:ru": "Тумербулаг",
      "boundary": "administrative",
      "way_area": "0.317567",
      "admin_level": "6"
    }
  },
  {
    "osm_id": -7305533,
    "boundary": "administrative",
    "admin_level": 6,
    "parents": "-270072,-161033",
    "name": "Tosontsengel",
    "local_name": "Тосонцэнгэл",
    "name_en": "Tosontsengel",
    "all_tags": {
      "name": "Тосонцэнгэл",
      "name:de": "Tosontsengel",
      "name:en": "Tosontsengel",
      "boundary": "administrative",
      "way_area": "0.249763",
      "admin_level": "6"
    }
  },
  {
    "osm_id": -7305532,
    "boundary": "administrative",
    "admin_level": 6,
    "parents": "-270072,-161033",
    "name": "Tsagaan-Uul",
    "local_name": "Цагаан-Уул",
    "name_en": "Tsagaan-Uul",
    "all_tags": {
      "name": "Цагаан-Уул",
      "name:de": "Tsagaan-Uul",
      "name:en": "Tsagaan-Uul",
      "boundary": "administrative",
      "way_area": "0.775846",
      "admin_level": "6"
    }
  },
  {
    "osm_id": -7305531,
    "boundary": "administrative",
    "admin_level": 6,
    "parents": "-270072,-161033",
    "name": "Tsagaannuur",
    "local_name": "Цагааннуур",
    "name_en": "Tsagaannuur",
    "all_tags": {
      "name": "Цагааннуур",
      "name:de": "Tsagaannuur",
      "name:en": "Tsagaannuur",
      "boundary": "administrative",
      "way_area": "0.737229",
      "admin_level": "6"
    }
  },
  {
    "osm_id": -7305530,
    "boundary": "administrative",
    "admin_level": 6,
    "parents": "-270072,-161033",
    "name": "Tsagaan-Uur",
    "local_name": "Цагаан-Үүр",
    "name_en": "Tsagaan-Uur",
    "all_tags": {
      "name": "Цагаан-Үүр",
      "name:de": "Tsagaan-Üür",
      "name:en": "Tsagaan-Uur",
      "name:ru": "Цагаан-Уурэ",
      "boundary": "administrative",
      "way_area": "1.12457",
      "admin_level": "6"
    }
  },
  {
    "osm_id": -7305529,
    "boundary": "administrative",
    "admin_level": 6,
    "parents": "-270072,-161033",
    "name": "Tsetserleg",
    "local_name": "Цэцэрлэг",
    "name_en": "Tsetserleg",
    "all_tags": {
      "name": "Цэцэрлэг",
      "name:de": "Tsetserleg",
      "name:en": "Tsetserleg",
      "boundary": "administrative",
      "way_area": "0.936064",
      "admin_level": "6"
    }
  },
  {
    "osm_id": -7305528,
    "boundary": "administrative",
    "admin_level": 6,
    "parents": "-270072,-161033",
    "name": "Tunel",
    "local_name": "Түнэл",
    "name_en": "Tunel",
    "all_tags": {
      "name": "Түнэл",
      "name:de": "Tünel",
      "name:en": "Tunel",
      "name:ru": "Тунэл",
      "boundary": "administrative",
      "way_area": "0.445219",
      "admin_level": "6"
    }
  },
  {
    "osm_id": -7305527,
    "boundary": "administrative",
    "admin_level": 6,
    "parents": "-270072,-161033",
    "name": "Ulaan-Uul",
    "local_name": "Улаан-Уул",
    "name_en": "Ulaan-Uul",
    "all_tags": {
      "name": "Улаан-Уул",
      "name:de": "Ulaan-Uul",
      "name:en": "Ulaan-Uul",
      "boundary": "administrative",
      "way_area": "1.28138",
      "admin_level": "6"
    }
  },
  {
    "osm_id": -7305297,
    "boundary": "administrative",
    "admin_level": 6,
    "parents": "-270059,-161033",
    "name": "Baruunturuun",
    "local_name": "Баруунтуруун",
    "name_en": "Baruunturuun",
    "all_tags": {
      "name": "Баруунтуруун",
      "name:de": "Baruunturuun",
      "name:en": "Baruunturuun",
      "boundary": "administrative",
      "way_area": "0.432804",
      "admin_level": "6"
    }
  },
  {
    "osm_id": -7305296,
    "boundary": "administrative",
    "admin_level": 6,
    "parents": "-270059,-161033",
    "name": "Bohmoron",
    "local_name": "Бөхмөрөн",
    "name_en": "Bohmoron",
    "all_tags": {
      "name": "Бөхмөрөн",
      "name:de": "Bökhmörön",
      "name:en": "Bohmoron",
      "name:ru": "Бухемурен",
      "boundary": "administrative",
      "way_area": "0.444113",
      "admin_level": "6"
    }
  },
  {
    "osm_id": -7305295,
    "boundary": "administrative",
    "admin_level": 6,
    "parents": "-270059,-161033",
    "name": "Davst",
    "local_name": "Давст",
    "name_en": "Davst",
    "all_tags": {
      "name": "Давст",
      "name:de": "Davst",
      "name:en": "Davst",
      "boundary": "administrative",
      "way_area": "0.465855",
      "admin_level": "6"
    }
  },
  {
    "osm_id": -7305294,
    "boundary": "administrative",
    "admin_level": 6,
    "parents": "-270059,-161033",
    "name": "Hovd",
    "local_name": "Ховд",
    "name_en": "Hovd",
    "all_tags": {
      "name": "Ховд",
      "name:ar": "هوفد",
      "name:de": "Khovd",
      "name:en": "Hovd",
      "boundary": "administrative",
      "way_area": "0.348732",
      "admin_level": "6"
    }
  },
  {
    "osm_id": -7305293,
    "boundary": "administrative",
    "admin_level": 6,
    "parents": "-270059,-161033",
    "name": "Hyargas",
    "local_name": "Хяргас",
    "name_en": "Hyargas",
    "all_tags": {
      "name": "Хяргас",
      "name:de": "Khyargas",
      "name:en": "Hyargas",
      "boundary": "administrative",
      "way_area": "0.447156",
      "admin_level": "6"
    }
  },
  {
    "osm_id": -7305292,
    "boundary": "administrative",
    "admin_level": 6,
    "parents": "-270059,-161033",
    "name": "Malchin",
    "local_name": "Малчин",
    "name_en": "Malchin",
    "all_tags": {
      "name": "Малчин",
      "name:de": "Malchin",
      "name:en": "Malchin",
      "boundary": "administrative",
      "way_area": "0.5453",
      "admin_level": "6"
    }
  },
  {
    "osm_id": -7305291,
    "boundary": "administrative",
    "admin_level": 6,
    "parents": "-270059,-161033",
    "name": "Naranbulag",
    "local_name": "Наранбулаг",
    "name_en": "Naranbulag",
    "all_tags": {
      "name": "Наранбулаг",
      "name:de": "Naranbulag",
      "name:en": "Naranbulag",
      "boundary": "administrative",
      "way_area": "0.669898",
      "admin_level": "6"
    }
  },
  {
    "osm_id": -7305290,
    "boundary": "administrative",
    "admin_level": 6,
    "parents": "-270059,-161033",
    "name": "Olgii",
    "local_name": "Өлгий",
    "name_en": "Olgii",
    "all_tags": {
      "name": "Өлгий",
      "name:de": "Ölgii",
      "name:en": "Olgii",
      "name:ru": "Улгий",
      "boundary": "administrative",
      "way_area": "0.332989",
      "admin_level": "6"
    }
  },
  {
    "osm_id": -7305289,
    "boundary": "administrative",
    "admin_level": 6,
    "parents": "-270059,-161033",
    "name": "Omnogovi",
    "local_name": "Өмнөговь",
    "name_en": "Omnogovi",
    "all_tags": {
      "name": "Өмнөговь",
      "name:de": "Ömnögovi",
      "name:en": "Omnogovi",
      "name:ru": "Умнеговь",
      "boundary": "administrative",
      "way_area": "0.391111",
      "admin_level": "6"
    }
  },
  {
    "osm_id": -7305288,
    "boundary": "administrative",
    "admin_level": 6,
    "parents": "-270059,-161033",
    "name": "Ondorhangai",
    "local_name": "Өндөрхангай",
    "name_en": "Ondorhangai",
    "all_tags": {
      "name": "Өндөрхангай",
      "name:de": "Öndörkhangai",
      "name:en": "Ondorhangai",
      "name:ru": "Ундерхангай",
      "boundary": "administrative",
      "way_area": "0.558583",
      "admin_level": "6"
    }
  },
  {
    "osm_id": -7305287,
    "boundary": "administrative",
    "admin_level": 6,
    "parents": "-270059,-161033",
    "name": "Sagil",
    "local_name": "Сагил",
    "name_en": "Sagil",
    "all_tags": {
      "name": "Сагил",
      "name:de": "Sagil",
      "name:en": "Sagil",
      "boundary": "administrative",
      "way_area": "0.50576",
      "admin_level": "6"
    }
  },
  {
    "osm_id": -7305286,
    "boundary": "administrative",
    "admin_level": 6,
    "parents": "-270059,-161033",
    "name": "Tarialin",
    "local_name": "Тариалан",
    "name_en": "Tarialin",
    "all_tags": {
      "name": "Тариалан",
      "name:de": "Tarialan",
      "name:en": "Tarialin",
      "boundary": "administrative",
      "way_area": "0.318468",
      "admin_level": "6"
    }
  },
  {
    "osm_id": -7305285,
    "boundary": "administrative",
    "admin_level": 6,
    "parents": "-270059,-161033",
    "name": "Tes",
    "local_name": "Тэс",
    "name_en": "Tes",
    "all_tags": {
      "name": "Тэс",
      "name:de": "Tes",
      "name:en": "Tes",
      "boundary": "administrative",
      "way_area": "0.623692",
      "admin_level": "6"
    }
  },
  {
    "osm_id": -7305284,
    "boundary": "administrative",
    "admin_level": 6,
    "parents": "-270059,-161033",
    "name": "Tsagaanhairhan",
    "local_name": "Цагаанхайрхан",
    "name_en": "Tsagaanhairhan",
    "all_tags": {
      "name": "Цагаанхайрхан",
      "name:de": "Tsagaanhairhan",
      "name:en": "Tsagaanhairhan",
      "boundary": "administrative",
      "way_area": "0.494825",
      "admin_level": "6"
    }
  },
  {
    "osm_id": -7305283,
    "boundary": "administrative",
    "admin_level": 6,
    "parents": "-270059,-161033",
    "name": "Turgen",
    "local_name": "Түргэн",
    "name_en": "Turgen",
    "all_tags": {
      "name": "Түргэн",
      "name:de": "Türgen",
      "name:en": "Turgen",
      "name:ru": "Тургэн",
      "boundary": "administrative",
      "way_area": "0.242999",
      "admin_level": "6"
    }
  },
  {
    "osm_id": -7305282,
    "boundary": "administrative",
    "admin_level": 6,
    "parents": "-270059,-161033",
    "name": "Ulaangom",
    "local_name": "Улаангом",
    "name_en": "Ulaangom",
    "all_tags": {
      "name": "Улаангом",
      "name:de": "Ulaangom",
      "name:en": "Ulaangom",
      "boundary": "administrative",
      "way_area": "0.339267",
      "admin_level": "6"
    }
  },
  {
    "osm_id": -7305281,
    "boundary": "administrative",
    "admin_level": 6,
    "parents": "-270059,-161033",
    "name": "Zavhan",
    "local_name": "Завхан",
    "name_en": "Zavhan",
    "all_tags": {
      "name": "Завхан",
      "name:de": "Zavkhan",
      "name:en": "Zavhan",
      "boundary": "administrative",
      "way_area": "0.759457",
      "admin_level": "6"
    }
  },
  {
    "osm_id": -7305280,
    "boundary": "administrative",
    "admin_level": 6,
    "parents": "-270059,-161033",
    "name": "Zuungovi",
    "local_name": "Зүүнговь",
    "name_en": "Zuungovi",
    "all_tags": {
      "name": "Зүүнговь",
      "name:de": "Züüngovi",
      "name:en": "Zuungovi",
      "name:ru": "Зуунэговь",
      "boundary": "administrative",
      "way_area": "0.46112",
      "admin_level": "6"
    }
  },
  {
    "osm_id": -7305279,
    "boundary": "administrative",
    "admin_level": 6,
    "parents": "-270059,-161033",
    "name": "Zuunhangai",
    "local_name": "Зүүнхангай",
    "name_en": "Zuunhangai",
    "all_tags": {
      "name": "Зүүнхангай",
      "name:de": "Züünkhangai",
      "name:en": "Zuunhangai",
      "name:ru": "Зуунхангай",
      "boundary": "administrative",
      "way_area": "0.301506",
      "admin_level": "6"
    }
  },
  {
    "osm_id": -7305014,
    "boundary": "administrative",
    "admin_level": 6,
    "parents": "-3382266,-161033",
    "name": "Altansogts",
    "local_name": "Алтанцөгц",
    "name_en": "Altansogts",
    "all_tags": {
      "name": "Алтанцөгц",
      "name:de": "Altantsögts",
      "name:en": "Altansogts",
      "name:ru": "Алтанцугц",
      "boundary": "administrative",
      "way_area": "0.243436",
      "admin_level": "6"
    }
  },
  {
    "osm_id": -7305013,
    "boundary": "administrative",
    "admin_level": 6,
    "parents": "-3382266,-161033",
    "name": "Altai",
    "local_name": "Алтай",
    "name_en": "Altai",
    "all_tags": {
      "name": "Алтай",
      "name:de": "Altai",
      "name:en": "Altai",
      "boundary": "administrative",
      "way_area": "0.370436",
      "admin_level": "6"
    }
  },
  {
    "osm_id": -7305012,
    "boundary": "administrative",
    "admin_level": 6,
    "parents": "-3382266,-161033",
    "name": "Bayannuur",
    "local_name": "Баяннуур",
    "name_en": "Bayannuur",
    "all_tags": {
      "name": "Баяннуур",
      "name:de": "Bayannuur",
      "name:en": "Bayannuur",
      "boundary": "administrative",
      "way_area": "0.288158",
      "admin_level": "6"
    }
  },
  {
    "osm_id": -7305011,
    "boundary": "administrative",
    "admin_level": 6,
    "parents": "-3382266,-161033",
    "name": "Bugat",
    "local_name": "Бугат",
    "name_en": "Bugat",
    "all_tags": {
      "name": "Бугат",
      "name:de": "Bugat",
      "name:en": "Bugat",
      "name:pl": "Bugat",
      "name:uk": "Буґат сомон",
      "boundary": "administrative",
      "way_area": "0.233787",
      "wikidata": "Q2093479",
      "wikipedia": "mn:Бугат сум (Баян-Өлгий)",
      "admin_level": "6"
    }
  },
  {
    "osm_id": -7305010,
    "boundary": "administrative",
    "admin_level": 6,
    "parents": "-3382266,-161033",
    "name": "Bulgan",
    "local_name": "Булган",
    "name_en": "Bulgan",
    "all_tags": {
      "name": "Булган",
      "name:de": "Bulgan",
      "name:en": "Bulgan",
      "boundary": "administrative",
      "way_area": "0.571051",
      "admin_level": "6"
    }
  },
  {
    "osm_id": -7305009,
    "boundary": "administrative",
    "admin_level": 6,
    "parents": "-3382266,-161033",
    "name": "Buyant",
    "local_name": "Буянт",
    "name_en": "Buyant",
    "all_tags": {
      "name": "Буянт",
      "name:de": "Buyant",
      "name:en": "Buyant",
      "boundary": "administrative",
      "way_area": "0.222509",
      "admin_level": "6"
    }
  },
  {
    "osm_id": -7305008,
    "boundary": "administrative",
    "admin_level": 6,
    "parents": "-3382266,-161033",
    "name": "Deluun",
    "local_name": "Дэлүүн",
    "name_en": "Deluun",
    "all_tags": {
      "name": "Дэлүүн",
      "name:de": "Delüün",
      "name:en": "Deluun",
      "name:ru": "Дэлуун",
      "boundary": "administrative",
      "way_area": "0.686075",
      "admin_level": "6"
    }
  },
  {
    "osm_id": -7305007,
    "boundary": "administrative",
    "admin_level": 6,
    "parents": "-3382266,-161033",
    "name": "Nogoonnuur",
    "local_name": "Ногооннуур",
    "name_en": "Nogoonnuur",
    "all_tags": {
      "name": "Ногооннуур",
      "name:de": "Nogoonnuur",
      "name:en": "Nogoonnuur",
      "boundary": "administrative",
      "way_area": "0.504961",
      "admin_level": "6"
    }
  },
  {
    "osm_id": -7305006,
    "boundary": "administrative",
    "admin_level": 6,
    "parents": "-3382266,-161033",
    "name": "Olgii",
    "local_name": "Өлгий",
    "name_en": "Olgii",
    "all_tags": {
      "name": "Өлгий",
      "name:de": "Ölgii",
      "name:en": "Olgii",
      "name:pl": "Olgii",
      "name:ru": "Улгий",
      "boundary": "administrative",
      "way_area": "0.0147161",
      "admin_level": "6"
    }
  },
  {
    "osm_id": -7305005,
    "boundary": "administrative",
    "admin_level": 6,
    "parents": "-3382266,-161033",
    "name": "Sagsai",
    "local_name": "Сагсай",
    "name_en": "Sagsai",
    "all_tags": {
      "name": "Сагсай",
      "name:de": "Sagsai",
      "name:en": "Sagsai",
      "name:pl": "Sagsai",
      "boundary": "administrative",
      "way_area": "0.412167",
      "admin_level": "6"
    }
  },
  {
    "osm_id": -7305004,
    "boundary": "administrative",
    "admin_level": 6,
    "parents": "-3382266,-161033",
    "name": "Tolbo",
    "local_name": "Толбо",
    "name_en": "Tolbo",
    "all_tags": {
      "name": "Толбо",
      "name:de": "Tolbo",
      "name:en": "Tolbo",
      "boundary": "administrative",
      "way_area": "0.402862",
      "admin_level": "6"
    }
  },
  {
    "osm_id": -7305003,
    "boundary": "administrative",
    "admin_level": 6,
    "parents": "-3382266,-161033",
    "name": "Tsagaannuur",
    "local_name": "Цагааннуур",
    "name_en": "Tsagaannuur",
    "all_tags": {
      "name": "Цагааннуур",
      "name:de": "Tsagaannuur",
      "name:en": "Tsagaannuur",
      "name:pl": "Tsagaannuur",
      "boundary": "administrative",
      "way_area": "0.174413",
      "admin_level": "6"
    }
  },
  {
    "osm_id": -7305002,
    "boundary": "administrative",
    "admin_level": 6,
    "parents": "-3382266,-161033",
    "name": "Tsengel",
    "local_name": "Цэнгэл",
    "name_en": "Tsengel",
    "all_tags": {
      "name": "Цэнгэл",
      "name:de": "Tsengel",
      "name:en": "Tsengel",
      "boundary": "administrative",
      "way_area": "0.775255",
      "admin_level": "6"
    }
  },
  {
    "osm_id": -7305001,
    "boundary": "administrative",
    "admin_level": 6,
    "parents": "-3382266,-161033",
    "name": "Ulaanhus",
    "local_name": "Улаанхус",
    "name_en": "Ulaanhus",
    "all_tags": {
      "name": "Улаанхус",
      "name:de": "Ulaankhus",
      "name:en": "Ulaanhus",
      "name:pl": "Ulaanhus",
      "boundary": "administrative",
      "way_area": "0.711748",
      "admin_level": "6"
    }
  },
  {
    "osm_id": -7304951,
    "boundary": "administrative",
    "admin_level": 6,
    "parents": "-270055,-161033",
    "name": "Altai",
    "local_name": "Алтай",
    "name_en": "Altai",
    "all_tags": {
      "name": "Алтай",
      "name:de": "Altai",
      "name:en": "Altai",
      "boundary": "administrative",
      "way_area": "1.50759",
      "admin_level": "6"
    }
  },
  {
    "osm_id": -7304950,
    "boundary": "administrative",
    "admin_level": 6,
    "parents": "-270055,-161033",
    "name": "Bulgan",
    "local_name": "Булган",
    "name_en": "Bulgan",
    "all_tags": {
      "name": "Булган",
      "name:de": "Bulgan",
      "name:en": "Bulgan",
      "boundary": "administrative",
      "way_area": "0.942001",
      "admin_level": "6"
    }
  },
  {
    "osm_id": -7304949,
    "boundary": "administrative",
    "admin_level": 6,
    "parents": "-270055,-161033",
    "name": "Buyant",
    "local_name": "Буянт",
    "name_en": "Buyant",
    "all_tags": {
      "name": "Буянт",
      "name:de": "Buyant",
      "name:en": "Buyant",
      "boundary": "administrative",
      "way_area": "0.39872",
      "admin_level": "6"
    }
  },
  {
    "osm_id": -7304948,
    "boundary": "administrative",
    "admin_level": 6,
    "parents": "-270055,-161033",
    "name": "Chandmani",
    "local_name": "Чандмань",
    "name_en": "Chandmani",
    "all_tags": {
      "name": "Чандмань",
      "name:de": "Chandmani",
      "name:en": "Chandmani",
      "boundary": "administrative",
      "way_area": "0.639855",
      "admin_level": "6"
    }
  },
  {
    "osm_id": -7304947,
    "boundary": "administrative",
    "admin_level": 6,
    "parents": "-270055,-161033",
    "name": "Dariv",
    "local_name": "Дарви",
    "name_en": "Dariv",
    "all_tags": {
      "name": "Дарви",
      "name:de": "Darvi",
      "name:en": "Dariv",
      "boundary": "administrative",
      "way_area": "0.620835",
      "admin_level": "6"
    }
  },
  {
    "osm_id": -7304946,
    "boundary": "administrative",
    "admin_level": 6,
    "parents": "-270055,-161033",
    "name": "Dorgon",
    "local_name": "Дөргөн",
    "name_en": "Dorgon",
    "all_tags": {
      "name": "Дөргөн",
      "name:de": "Dörgön",
      "name:en": "Dorgon",
      "name:ru": "Дерген",
      "boundary": "administrative",
      "way_area": "0.63199",
      "wikidata": "Q3300878",
      "admin_level": "6"
    }
  },
  {
    "osm_id": -7304945,
    "boundary": "administrative",
    "admin_level": 6,
    "parents": "-270055,-161033",
    "name": "Duut",
    "local_name": "Дуут",
    "name_en": "Duut",
    "all_tags": {
      "name": "Дуут",
      "name:de": "Duut",
      "name:en": "Duut",
      "boundary": "administrative",
      "way_area": "0.248604",
      "admin_level": "6"
    }
  },
  {
    "osm_id": -7304944,
    "boundary": "administrative",
    "admin_level": 6,
    "parents": "-270055,-161033",
    "name": "Erdeneburen",
    "local_name": "Эрдэнэбүрэн",
    "name_en": "Erdeneburen",
    "all_tags": {
      "name": "Эрдэнэбүрэн",
      "name:de": "Erdenebüren",
      "name:en": "Erdeneburen",
      "name:ru": "Эрдэнэбурэн",
      "boundary": "administrative",
      "way_area": "0.31368",
      "admin_level": "6"
    }
  },
  {
    "osm_id": -7304943,
    "boundary": "administrative",
    "admin_level": 6,
    "parents": "-270055,-161033",
    "name": "Hovd",
    "local_name": "Ховд",
    "name_en": "Hovd",
    "all_tags": {
      "name": "Ховд",
      "name:ar": "هوفد",
      "name:de": "Khovd",
      "name:en": "Hovd",
      "boundary": "administrative",
      "way_area": "0.300197",
      "admin_level": "6"
    }
  },
  {
    "osm_id": -7304942,
    "boundary": "administrative",
    "admin_level": 6,
    "parents": "-270055,-161033",
    "name": "Mankhan",
    "local_name": "Манхан",
    "name_en": "Mankhan",
    "all_tags": {
      "name": "Манхан",
      "name:de": "Mankhan",
      "name:en": "Mankhan",
      "boundary": "administrative",
      "way_area": "0.550986",
      "admin_level": "6"
    }
  },
  {
    "osm_id": -7304941,
    "boundary": "administrative",
    "admin_level": 6,
    "parents": "-270055,-161033",
    "name": "Monhhairhan",
    "local_name": "Мөнххайрхан",
    "name_en": "Monhhairhan",
    "all_tags": {
      "name": "Мөнххайрхан",
      "name:de": "Mönkhkhairkhan",
      "name:en": "Monhhairhan",
      "name:ru": "Мёнххайрхан",
      "boundary": "administrative",
      "way_area": "0.301057",
      "admin_level": "6"
    }
  },
  {
    "osm_id": -7304940,
    "boundary": "administrative",
    "admin_level": 6,
    "parents": "-270055,-161033",
    "name": "Most",
    "local_name": "Мөст",
    "name_en": "Most",
    "all_tags": {
      "name": "Мөст",
      "name:de": "Möst",
      "name:en": "Most",
      "name:ru": "Мёст",
      "boundary": "administrative",
      "way_area": "0.475886",
      "admin_level": "6"
    }
  },
  {
    "osm_id": -7304939,
    "boundary": "administrative",
    "admin_level": 6,
    "parents": "-270055,-161033",
    "name": "Myangad",
    "local_name": "Мянгад",
    "name_en": "Myangad",
    "all_tags": {
      "name": "Мянгад",
      "name:de": "Myangad",
      "name:en": "Myangad",
      "boundary": "administrative",
      "way_area": "0.414959",
      "admin_level": "6"
    }
  },
  {
    "osm_id": -7304938,
    "boundary": "administrative",
    "admin_level": 6,
    "parents": "-270055,-161033",
    "name": "Tsetseg",
    "local_name": "Цэцэг",
    "name_en": "Tsetseg",
    "all_tags": {
      "name": "Цэцэг",
      "name:de": "Tsetseg",
      "name:en": "Tsetseg",
      "boundary": "administrative",
      "way_area": "0.404299",
      "admin_level": "6"
    }
  },
  {
    "osm_id": -7304937,
    "boundary": "administrative",
    "admin_level": 6,
    "parents": "-270055,-161033",
    "name": "Uyench",
    "local_name": "Үенч",
    "name_en": "Uyench",
    "all_tags": {
      "name": "Үенч",
      "name:de": "Üyench",
      "name:en": "Uyench",
      "name:ru": "Уенч",
      "boundary": "administrative",
      "way_area": "0.906335",
      "admin_level": "6"
    }
  },
  {
    "osm_id": -7304936,
    "boundary": "administrative",
    "admin_level": 6,
    "parents": "-270055,-161033",
    "name": "Zereg",
    "local_name": "Зэрэг",
    "name_en": "Zereg",
    "all_tags": {
      "name": "Зэрэг",
      "name:de": "Zereg",
      "name:en": "Zereg",
      "boundary": "administrative",
      "way_area": "0.282375",
      "admin_level": "6"
    }
  },
  {
    "osm_id": -7304935,
    "boundary": "administrative",
    "admin_level": 6,
    "parents": "-270055,-161033",
    "name": "Jargalant",
    "local_name": "Жаргалант",
    "name_en": "Jargalant",
    "all_tags": {
      "name": "Жаргалант",
      "name:de": "Jargalant",
      "name:en": "Jargalant",
      "name:uk": "Жарґалант",
      "boundary": "administrative",
      "way_area": "0.0131979",
      "admin_level": "6"
    }
  },
  {
    "osm_id": -7304921,
    "boundary": "administrative",
    "admin_level": 6,
    "parents": "-4074177,-161033",
    "name": "Aldarhaan",
    "local_name": "Алдархаан",
    "name_en": "Aldarhaan",
    "all_tags": {
      "name": "Алдархаан",
      "name:de": "Aldarkhaan",
      "name:en": "Aldarhaan",
      "boundary": "administrative",
      "way_area": "0.876121",
      "admin_level": "6"
    }
  },
  {
    "osm_id": -7304920,
    "boundary": "administrative",
    "admin_level": 6,
    "parents": "-4074177,-161033",
    "name": "Asgat",
    "local_name": "Асгат",
    "name_en": "Asgat",
    "all_tags": {
      "name": "Асгат",
      "name:de": "Asgat",
      "name:en": "Asgat",
      "boundary": "administrative",
      "way_area": "0.0692243",
      "admin_level": "6"
    }
  },
  {
    "osm_id": -7304919,
    "boundary": "administrative",
    "admin_level": 6,
    "parents": "-4074177,-161033",
    "name": "Byanhairhan",
    "local_name": "Баянхайрхан",
    "name_en": "Byanhairhan",
    "all_tags": {
      "name": "Баянхайрхан",
      "name:de": "Bayankhairkhan",
      "name:en": "Byanhairhan",
      "boundary": "administrative",
      "way_area": "0.31456",
      "admin_level": "6"
    }
  },
  {
    "osm_id": -7304918,
    "boundary": "administrative",
    "admin_level": 6,
    "parents": "-4074177,-161033",
    "name": "Bayan-Tes",
    "local_name": "Баянтэс",
    "name_en": "Bayan-Tes",
    "all_tags": {
      "name": "Баянтэс",
      "name:de": "Bayantes",
      "name:en": "Bayan-Tes",
      "boundary": "administrative",
      "way_area": "0.608145",
      "admin_level": "6"
    }
  },
  {
    "osm_id": -7304917,
    "boundary": "administrative",
    "admin_level": 6,
    "parents": "-4074177,-161033",
    "name": "Dorvoljin",
    "local_name": "Дөрвөлжин",
    "name_en": "Dorvoljin",
    "all_tags": {
      "name": "Дөрвөлжин",
      "name:de": "Dörvöljin",
      "name:en": "Dorvoljin",
      "name:ru": "Дурвелжин",
      "boundary": "administrative",
      "way_area": "0.836447",
      "admin_level": "6"
    }
  },
  {
    "osm_id": -7304916,
    "boundary": "administrative",
    "admin_level": 6,
    "parents": "-4074177,-161033",
    "name": "Erdenehairhan",
    "local_name": "Эрдэнэхайрхан",
    "name_en": "Erdenehairhan",
    "all_tags": {
      "name": "Эрдэнэхайрхан",
      "name:de": "Erdenekhairkhan",
      "name:en": "Erdenehairhan",
      "boundary": "administrative",
      "way_area": "0.544234",
      "admin_level": "6"
    }
  },
  {
    "osm_id": -7304915,
    "boundary": "administrative",
    "admin_level": 6,
    "parents": "-4074177,-161033",
    "name": "Ider",
    "local_name": "Идэр",
    "name_en": "Ider",
    "all_tags": {
      "name": "Идэр",
      "name:de": "Ider",
      "name:en": "Ider",
      "boundary": "administrative",
      "way_area": "0.449681",
      "admin_level": "6"
    }
  },
  {
    "osm_id": -7304914,
    "boundary": "administrative",
    "admin_level": 6,
    "parents": "-4074177,-161033",
    "name": "Ih-Uul",
    "local_name": "Их-Уул",
    "name_en": "Ih-Uul",
    "all_tags": {
      "name": "Их-Уул",
      "name:de": "Ikh-Uul",
      "name:en": "Ih-Uul",
      "boundary": "administrative",
      "way_area": "0.45932",
      "admin_level": "6"
    }
  },
  {
    "osm_id": -7304913,
    "boundary": "administrative",
    "admin_level": 6,
    "parents": "-4074177,-161033",
    "name": "Nomrog",
    "local_name": "Нөмрөг",
    "name_en": "Nomrog",
    "all_tags": {
      "name": "Нөмрөг",
      "name:de": "Nömrög",
      "name:en": "Nomrog",
      "name:ru": "Нумрег",
      "boundary": "administrative",
      "way_area": "0.376925",
      "admin_level": "6"
    }
  },
  {
    "osm_id": -7304912,
    "boundary": "administrative",
    "admin_level": 6,
    "parents": "-4074177,-161033",
    "name": "Otgon",
    "local_name": "Отгон",
    "name_en": "Otgon",
    "all_tags": {
      "name": "Отгон",
      "name:de": "Otgon",
      "name:en": "Otgon",
      "boundary": "administrative",
      "way_area": "0.654841",
      "admin_level": "6"
    }
  },
  {
    "osm_id": -7304911,
    "boundary": "administrative",
    "admin_level": 6,
    "parents": "-4074177,-161033",
    "name": "Santmargats",
    "local_name": "Сантмаргац",
    "name_en": "Santmargats",
    "all_tags": {
      "name": "Сантмаргац",
      "name:de": "Santmargats",
      "name:en": "Santmargats",
      "boundary": "administrative",
      "way_area": "0.287859",
      "admin_level": "6"
    }
  },
  {
    "osm_id": -7304910,
    "boundary": "administrative",
    "admin_level": 6,
    "parents": "-4074177,-161033",
    "name": "Shiluustei",
    "local_name": "Шилүүстэй",
    "name_en": "Shiluustei",
    "all_tags": {
      "name": "Шилүүстэй",
      "name:de": "Shilüüstei",
      "name:en": "Shiluustei",
      "name:ru": "Шилуустэй",
      "boundary": "administrative",
      "way_area": "0.334192",
      "admin_level": "6"
    }
  },
  {
    "osm_id": -7304909,
    "boundary": "administrative",
    "admin_level": 6,
    "parents": "-4074177,-161033",
    "name": "Songino",
    "local_name": "Сонгино",
    "name_en": "Songino",
    "all_tags": {
      "name": "Сонгино",
      "name:de": "Songino",
      "name:en": "Songino",
      "boundary": "administrative",
      "way_area": "0.311755",
      "admin_level": "6"
    }
  },
  {
    "osm_id": -7304908,
    "boundary": "administrative",
    "admin_level": 6,
    "parents": "-4074177,-161033",
    "name": "Telmen",
    "local_name": "Тэлмэн",
    "name_en": "Telmen",
    "all_tags": {
      "name": "Тэлмэн",
      "name:de": "Telmen",
      "name:en": "Telmen",
      "boundary": "administrative",
      "way_area": "0.435449",
      "admin_level": "6"
    }
  },
  {
    "osm_id": -7304907,
    "boundary": "administrative",
    "admin_level": 6,
    "parents": "-4074177,-161033",
    "name": "Tes",
    "local_name": "Тэс",
    "name_en": "Tes",
    "all_tags": {
      "name": "Тэс",
      "name:de": "Tes",
      "name:en": "Tes",
      "boundary": "administrative",
      "way_area": "0.111633",
      "admin_level": "6"
    }
  },
  {
    "osm_id": -7304906,
    "boundary": "administrative",
    "admin_level": 6,
    "parents": "-4074177,-161033",
    "name": "Tosontsengel",
    "local_name": "Тосонцэнгэл",
    "name_en": "Tosontsengel",
    "all_tags": {
      "name": "Тосонцэнгэл",
      "name:de": "Tosontsengel",
      "name:en": "Tosontsengel",
      "boundary": "administrative",
      "way_area": "0.631593",
      "admin_level": "6"
    }
  },
  {
    "osm_id": -7304905,
    "boundary": "administrative",
    "admin_level": 6,
    "parents": "-4074177,-161033",
    "name": "Tsagaanchuluut",
    "local_name": "Цагаанчулуут",
    "name_en": "Tsagaanchuluut",
    "all_tags": {
      "name": "Цагаанчулуут",
      "name:de": "Tsagaanchuluut",
      "name:en": "Tsagaanchuluut",
      "boundary": "administrative",
      "way_area": "0.30693",
      "admin_level": "6"
    }
  },
  {
    "osm_id": -7304904,
    "boundary": "administrative",
    "admin_level": 6,
    "parents": "-4074177,-161033",
    "name": "Tsagaanhairhan",
    "local_name": "Цагаанхайрхан",
    "name_en": "Tsagaanhairhan",
    "all_tags": {
      "name": "Цагаанхайрхан",
      "name:de": "Tsagaankhairkhan",
      "name:en": "Tsagaanhairhan",
      "boundary": "administrative",
      "way_area": "0.281036",
      "admin_level": "6"
    }
  },
  {
    "osm_id": -7304903,
    "boundary": "administrative",
    "admin_level": 6,
    "parents": "-4074177,-161033",
    "name": "Tsetsen-Uul",
    "local_name": "Цэцэн-Уул",
    "name_en": "Tsetsen-Uul",
    "all_tags": {
      "name": "Цэцэн-Уул",
      "name:de": "Tsetsen-Uul",
      "name:en": "Tsetsen-Uul",
      "boundary": "administrative",
      "way_area": "0.286338",
      "admin_level": "6"
    }
  },
  {
    "osm_id": -7304902,
    "boundary": "administrative",
    "admin_level": 6,
    "parents": "-4074177,-161033",
    "name": "Tudevtei",
    "local_name": "Түдэвтэй",
    "name_en": "Tudevtei",
    "all_tags": {
      "name": "Түдэвтэй",
      "name:de": "Tüdevtei",
      "name:en": "Tudevtei",
      "name:ru": "Тудэвтэй",
      "boundary": "administrative",
      "way_area": "0.33798",
      "admin_level": "6"
    }
  },
  {
    "osm_id": -7304901,
    "boundary": "administrative",
    "admin_level": 6,
    "parents": "-4074177,-161033",
    "name": "Urgamal",
    "local_name": "Ургамал",
    "name_en": "Urgamal",
    "all_tags": {
      "name": "Ургамал",
      "name:de": "Urgamal",
      "name:en": "Urgamal",
      "boundary": "administrative",
      "way_area": "0.475183",
      "admin_level": "6"
    }
  },
  {
    "osm_id": -7304900,
    "boundary": "administrative",
    "admin_level": 6,
    "parents": "-4074177,-161033",
    "name": "Yaruu",
    "local_name": "Яруу",
    "name_en": "Yaruu",
    "all_tags": {
      "name": "Яруу",
      "name:de": "Yaruu",
      "name:en": "Yaruu",
      "boundary": "administrative",
      "way_area": "0.583097",
      "admin_level": "6"
    }
  },
  {
    "osm_id": -7304899,
    "boundary": "administrative",
    "admin_level": 6,
    "parents": "-4074177,-161033",
    "name": "Zavhanmandal",
    "local_name": "Завханмандал",
    "name_en": "Zavhanmandal",
    "all_tags": {
      "name": "Завханмандал",
      "name:de": "Zavkhanmandal",
      "name:en": "Zavhanmandal",
      "boundary": "administrative",
      "way_area": "0.396765",
      "admin_level": "6"
    }
  },
  {
    "osm_id": -7304798,
    "boundary": "administrative",
    "admin_level": 6,
    "parents": "-270054,-161033",
    "name": "Altai",
    "local_name": "Алтай",
    "name_en": "Altai",
    "all_tags": {
      "name": "Алтай",
      "name:de": "Altai",
      "name:en": "Altai",
      "boundary": "administrative",
      "way_area": "2.27928",
      "admin_level": "6"
    }
  },
  {
    "osm_id": -7304797,
    "boundary": "administrative",
    "admin_level": 6,
    "parents": "-270054,-161033",
    "name": "Bayan-Uul",
    "local_name": "Баян-Уул",
    "name_en": "Bayan-Uul",
    "all_tags": {
      "name": "Баян-Уул",
      "name:de": "Bayan-Uul",
      "name:en": "Bayan-Uul",
      "boundary": "administrative",
      "way_area": "0.690365",
      "admin_level": "6"
    }
  },
  {
    "osm_id": -7304796,
    "boundary": "administrative",
    "admin_level": 6,
    "parents": "-270054,-161033",
    "name": "Biger",
    "local_name": "Бигэр",
    "name_en": "Biger",
    "all_tags": {
      "name": "Бигэр",
      "name:de": "Biger",
      "name:en": "Biger",
      "boundary": "administrative",
      "way_area": "0.431006",
      "admin_level": "6"
    }
  },
  {
    "osm_id": -7304795,
    "boundary": "administrative",
    "admin_level": 6,
    "parents": "-270054,-161033",
    "name": "Bugat",
    "local_name": "Бугат",
    "name_en": "Bugat",
    "all_tags": {
      "name": "Бугат",
      "name:de": "Bugat",
      "name:en": "Bugat",
      "name:uk": "Буґат сомон",
      "boundary": "administrative",
      "way_area": "1.14118",
      "wikidata": "Q2353218",
      "wikipedia": "mn:Бугат (сомон, Говь-Алтай)",
      "admin_level": "6"
    }
  },
  {
    "osm_id": -7304794,
    "boundary": "administrative",
    "admin_level": 6,
    "parents": "-270054,-161033",
    "name": "Chandmani",
    "local_name": "Чандмань",
    "name_en": "Chandmani",
    "all_tags": {
      "name": "Чандмань",
      "name:de": "Chandmani",
      "name:en": "Chandmani",
      "boundary": "administrative",
      "way_area": "0.536237",
      "admin_level": "6"
    }
  },
  {
    "osm_id": -7304793,
    "boundary": "administrative",
    "admin_level": 6,
    "parents": "-270054,-161033",
    "name": "Dariv",
    "local_name": "Дарви",
    "name_en": "Dariv",
    "all_tags": {
      "name": "Дарви",
      "name:de": "Darvi",
      "name:en": "Dariv",
      "name:ru": "Дарви",
      "boundary": "administrative",
      "way_area": "0.416162",
      "admin_level": "6"
    }
  },
  {
    "osm_id": -7304792,
    "boundary": "administrative",
    "admin_level": 6,
    "parents": "-270054,-161033",
    "name": "Delger",
    "local_name": "Дэлгэр",
    "name_en": "Delger",
    "all_tags": {
      "name": "Дэлгэр",
      "name:de": "Delger",
      "name:en": "Delger",
      "boundary": "administrative",
      "way_area": "0.77048",
      "admin_level": "6"
    }
  },
  {
    "osm_id": -7304791,
    "boundary": "administrative",
    "admin_level": 6,
    "parents": "-270054,-161033",
    "name": "Erdene",
    "local_name": "Эрдэнэ",
    "name_en": "Erdene",
    "all_tags": {
      "name": "Эрдэнэ",
      "name:de": "Erdene",
      "name:en": "Erdene",
      "boundary": "administrative",
      "way_area": "2.81372",
      "admin_level": "6"
    }
  },
  {
    "osm_id": -7304790,
    "boundary": "administrative",
    "admin_level": 6,
    "parents": "-270054,-161033",
    "name": "Haliun",
    "local_name": "Халиун",
    "name_en": "Haliun",
    "all_tags": {
      "name": "Халиун",
      "name:de": "Khaliun",
      "name:en": "Haliun",
      "boundary": "administrative",
      "way_area": "0.601397",
      "admin_level": "6"
    }
  },
  {
    "osm_id": -7304789,
    "boundary": "administrative",
    "admin_level": 6,
    "parents": "-270054,-161033",
    "name": "Hohmorit",
    "local_name": "Хөх морьт",
    "name_en": "Hohmorit",
    "all_tags": {
      "name": "Хөх морьт",
      "name:de": "Khökh morit",
      "name:en": "Hohmorit",
      "name:ru": "Хухеморьт",
      "boundary": "administrative",
      "way_area": "0.746656",
      "admin_level": "6"
    }
  },
  {
    "osm_id": -7304788,
    "boundary": "administrative",
    "admin_level": 6,
    "parents": "-270054,-161033",
    "name": "Jargalan",
    "local_name": "Жаргалан",
    "name_en": "Jargalan",
    "all_tags": {
      "name": "Жаргалан",
      "name:de": "Jargalan",
      "name:en": "Jargalan",
      "boundary": "administrative",
      "way_area": "0.436079",
      "admin_level": "6"
    }
  },
  {
    "osm_id": -7304787,
    "boundary": "administrative",
    "admin_level": 6,
    "parents": "-270054,-161033",
    "name": "Sharga",
    "local_name": "Шарга",
    "name_en": "Sharga",
    "all_tags": {
      "name": "Шарга",
      "name:de": "Sharga",
      "name:en": "Sharga",
      "boundary": "administrative",
      "way_area": "0.670558",
      "admin_level": "6"
    }
  },
  {
    "osm_id": -7304786,
    "boundary": "administrative",
    "admin_level": 6,
    "parents": "-270054,-161033",
    "name": "Taishir",
    "local_name": "Тайшир",
    "name_en": "Taishir",
    "all_tags": {
      "name": "Тайшир",
      "name:de": "Taishir",
      "name:en": "Taishir",
      "boundary": "administrative",
      "way_area": "0.425794",
      "wikidata": "Q3404091",
      "admin_level": "6"
    }
  },
  {
    "osm_id": -7304785,
    "boundary": "administrative",
    "admin_level": 6,
    "parents": "-270054,-161033",
    "name": "Togrog",
    "local_name": "Төгрөг",
    "name_en": "Togrog",
    "all_tags": {
      "name": "Төгрөг",
      "name:de": "Tögrög",
      "name:en": "Togrog",
      "name:ru": "Тугрег",
      "boundary": "administrative",
      "way_area": "0.622292",
      "admin_level": "6"
    }
  },
  {
    "osm_id": -7304784,
    "boundary": "administrative",
    "admin_level": 6,
    "parents": "-270054,-161033",
    "name": "Tonhil",
    "local_name": "Тонхил",
    "name_en": "Tonhil",
    "all_tags": {
      "name": "Тонхил",
      "name:de": "Tonkhil",
      "name:en": "Tonhil",
      "name:ru": "Тонхил",
      "boundary": "administrative",
      "way_area": "0.876245",
      "admin_level": "6"
    }
  },
  {
    "osm_id": -7304783,
    "boundary": "administrative",
    "admin_level": 6,
    "parents": "-270054,-161033",
    "name": "Tseel",
    "local_name": "Цээл",
    "name_en": "Tseel",
    "all_tags": {
      "name": "Цээл",
      "name:de": "Tseel",
      "name:en": "Tseel",
      "boundary": "administrative",
      "way_area": "0.647908",
      "admin_level": "6"
    }
  },
  {
    "osm_id": -7304782,
    "boundary": "administrative",
    "admin_level": 6,
    "parents": "-270054,-161033",
    "name": "Tsogt",
    "local_name": "Цогт",
    "name_en": "Tsogt",
    "all_tags": {
      "name": "Цогт",
      "name:de": "Tsogt",
      "name:en": "Tsogt",
      "boundary": "administrative",
      "way_area": "1.88404",
      "admin_level": "6"
    }
  },
  {
    "osm_id": -7304781,
    "boundary": "administrative",
    "admin_level": 6,
    "parents": "-270054,-161033",
    "name": "Esonbulag",
    "local_name": "Есөнбулаг",
    "name_en": "Esonbulag",
    "all_tags": {
      "name": "Есөнбулаг",
      "name:de": "Yesönbulag",
      "name:en": "Esonbulag",
      "name:ru": "Есенбулаг",
      "boundary": "administrative",
      "way_area": "0.285736",
      "admin_level": "6"
    }
  },
  {
    "osm_id": -7304761,
    "boundary": "administrative",
    "admin_level": 6,
    "parents": "-270052,-161033",
    "name": "Baatsagaan",
    "local_name": "Баацагаан",
    "name_en": "Baatsagaan",
    "all_tags": {
      "name": "Баацагаан",
      "name:de": "Baatsagaan",
      "name:en": "Baatsagaan",
      "boundary": "administrative",
      "way_area": "0.885339",
      "admin_level": "6"
    }
  },
  {
    "osm_id": -7304760,
    "boundary": "administrative",
    "admin_level": 6,
    "parents": "-270052,-161033",
    "name": "Bayan-Ondor",
    "local_name": "Баян-Өндөр",
    "name_en": "Bayan-Ondor",
    "all_tags": {
      "name": "Баян-Өндөр",
      "name:de": "Bayan-Öndör",
      "name:en": "Bayan-Ondor",
      "name:ru": "Баян-Ундэр",
      "boundary": "administrative",
      "way_area": "1.89731",
      "admin_level": "6"
    }
  },
  {
    "osm_id": -7304759,
    "boundary": "administrative",
    "admin_level": 6,
    "parents": "-270052,-161033",
    "name": "Bayan-Ovoo",
    "local_name": "Баян-Овоо",
    "name_en": "Bayan-Ovoo",
    "all_tags": {
      "name": "Баян-Овоо",
      "name:de": "Bayan-Ovoo",
      "name:en": "Bayan-Ovoo",
      "boundary": "administrative",
      "way_area": "0.377447",
      "admin_level": "6"
    }
  },
  {
    "osm_id": -7304758,
    "boundary": "administrative",
    "admin_level": 6,
    "parents": "-270052,-161033",
    "name": "Bayanbulag",
    "local_name": "Баянбулаг",
    "name_en": "Bayanbulag",
    "all_tags": {
      "name": "Баянбулаг",
      "name:de": "Bayanbulag",
      "name:en": "Bayanbulag",
      "boundary": "administrative",
      "way_area": "0.322039",
      "admin_level": "6"
    }
  },
  {
    "osm_id": -7304757,
    "boundary": "administrative",
    "admin_level": 6,
    "parents": "-270052,-161033",
    "name": "Bayangovi",
    "local_name": "Баянговь",
    "name_en": "Bayangovi",
    "all_tags": {
      "name": "Баянговь",
      "name:de": "Bayangovi",
      "name:en": "Bayangovi",
      "boundary": "administrative",
      "way_area": "0.557175",
      "admin_level": "6"
    }
  },
  {
    "osm_id": -7304756,
    "boundary": "administrative",
    "admin_level": 6,
    "parents": "-270052,-161033",
    "name": "Bayanhongor",
    "local_name": "Баянхонгор",
    "name_en": "Bayanhongor",
    "all_tags": {
      "name": "Баянхонгор",
      "name:de": "Bayankhongor",
      "name:en": "Bayanhongor",
      "boundary": "administrative",
      "way_area": "0.0150153",
      "admin_level": "6"
    }
  },
  {
    "osm_id": -7304755,
    "boundary": "administrative",
    "admin_level": 6,
    "parents": "-270052,-161033",
    "name": "Bayanlig",
    "local_name": "Баянлиг",
    "name_en": "Bayanlig",
    "all_tags": {
      "name": "Баянлиг",
      "name:de": "Bayanlig",
      "name:en": "Bayanlig",
      "boundary": "administrative",
      "way_area": "1.36269",
      "admin_level": "6"
    }
  },
  {
    "osm_id": -7304754,
    "boundary": "administrative",
    "admin_level": 6,
    "parents": "-270052,-161033",
    "name": "Bayansagaan",
    "local_name": "Баацагаан",
    "name_en": "Bayansagaan",
    "all_tags": {
      "name": "Баацагаан",
      "name:de": "Bayantsagaan",
      "name:en": "Bayansagaan",
      "boundary": "administrative",
      "way_area": "0.626217",
      "admin_level": "6"
    }
  },
  {
    "osm_id": -7304753,
    "boundary": "administrative",
    "admin_level": 6,
    "parents": "-270052,-161033",
    "name": "Bogd",
    "local_name": "Богд",
    "name_en": "Bogd",
    "all_tags": {
      "name": "Богд",
      "name:de": "Bogd",
      "name:en": "Bogd",
      "boundary": "administrative",
      "way_area": "0.47349",
      "admin_level": "6"
    }
  },
  {
    "osm_id": -7304752,
    "boundary": "administrative",
    "admin_level": 6,
    "parents": "-270052,-161033",
    "name": "Бөмбөгөр",
    "local_name": "Бөмбөгөр",
    "name_en": null,
    "all_tags": {
      "name": "Бөмбөгөр",
      "name:de": "Bömbögör",
      "name:ru": "Бумбегер",
      "boundary": "administrative",
      "way_area": "0.347228",
      "admin_level": "6"
    }
  },
  {
    "osm_id": -7304751,
    "boundary": "administrative",
    "admin_level": 6,
    "parents": "-270052,-161033",
    "name": "Buutsagaan",
    "local_name": "Бууцагаан",
    "name_en": "Buutsagaan",
    "all_tags": {
      "name": "Бууцагаан",
      "name:de": "Buutsagaan",
      "name:en": "Buutsagaan",
      "boundary": "administrative",
      "way_area": "0.609008",
      "admin_level": "6"
    }
  },
  {
    "osm_id": -7304750,
    "boundary": "administrative",
    "admin_level": 6,
    "parents": "-270052,-161033",
    "name": "Erdenetsogt",
    "local_name": "Эрдэнэцогт",
    "name_en": "Erdenetsogt",
    "all_tags": {
      "name": "Эрдэнэцогт",
      "name:de": "Erdenetsogt",
      "name:en": "Erdenetsogt",
      "boundary": "administrative",
      "way_area": "0.472121",
      "admin_level": "6"
    }
  },
  {
    "osm_id": -7304749,
    "boundary": "administrative",
    "admin_level": 6,
    "parents": "-270052,-161033",
    "name": "Galuut",
    "local_name": "Галуут",
    "name_en": "Galuut",
    "all_tags": {
      "name": "Галуут",
      "name:de": "Galuut",
      "name:en": "Galuut",
      "boundary": "administrative",
      "way_area": "0.593372",
      "admin_level": "6"
    }
  },
  {
    "osm_id": -7304748,
    "boundary": "administrative",
    "admin_level": 6,
    "parents": "-270052,-161033",
    "name": "Gurvanbulag",
    "local_name": "Гурванбулаг",
    "name_en": "Gurvanbulag",
    "all_tags": {
      "name": "Гурванбулаг",
      "name:de": "Gurvanbulag",
      "name:en": "Gurvanbulag",
      "boundary": "administrative",
      "way_area": "0.507111",
      "admin_level": "6"
    }
  },
  {
    "osm_id": -7304747,
    "boundary": "administrative",
    "admin_level": 6,
    "parents": "-270052,-161033",
    "name": "Jargalant",
    "local_name": "Жаргалант",
    "name_en": "Jargalant",
    "all_tags": {
      "name": "Жаргалант",
      "name:de": "Jargalant",
      "name:en": "Jargalant",
      "name:uk": "Жарґалант",
      "boundary": "administrative",
      "way_area": "0.552692",
      "admin_level": "6"
    }
  },
  {
    "osm_id": -7304746,
    "boundary": "administrative",
    "admin_level": 6,
    "parents": "-270052,-161033",
    "name": "Jinst",
    "local_name": "Жинст",
    "name_en": "Jinst",
    "all_tags": {
      "name": "Жинст",
      "name:de": "Jinst",
      "name:en": "Jinst",
      "boundary": "administrative",
      "way_area": "0.589119",
      "admin_level": "6"
    }
  },
  {
    "osm_id": -7304745,
    "boundary": "administrative",
    "admin_level": 6,
    "parents": "-270052,-161033",
    "name": "Hureemaral",
    "local_name": "Хүрээмарал",
    "name_en": "Hureemaral",
    "all_tags": {
      "name": "Хүрээмарал",
      "name:de": "Khüreemaral",
      "name:en": "Hureemaral",
      "name:ru": "Хурээмарал",
      "boundary": "administrative",
      "way_area": "0.469481",
      "admin_level": "6"
    }
  },
  {
    "osm_id": -7304744,
    "boundary": "administrative",
    "admin_level": 6,
    "parents": "-270052,-161033",
    "name": "Ölziit",
    "local_name": "Өлзийт",
    "name_en": "Ölziit",
    "all_tags": {
      "name": "Өлзийт",
      "name:de": "Ölziit",
      "name:en": "Ölziit",
      "name:ru": "Улзийт",
      "boundary": "administrative",
      "way_area": "0.467435",
      "admin_level": "6"
    }
  },
  {
    "osm_id": -7304743,
    "boundary": "administrative",
    "admin_level": 6,
    "parents": "-270052,-161033",
    "name": "Shinejinst",
    "local_name": "Шинэжинст",
    "name_en": "Shinejinst",
    "all_tags": {
      "name": "Шинэжинст",
      "name:de": "Shinejinst",
      "name:en": "Shinejinst",
      "boundary": "administrative",
      "way_area": "1.83259",
      "admin_level": "6"
    }
  },
  {
    "osm_id": -7304742,
    "boundary": "administrative",
    "admin_level": 6,
    "parents": "-270052,-161033",
    "name": "Zag",
    "local_name": "Заг",
    "name_en": "Zag",
    "all_tags": {
      "name": "Заг",
      "name:de": "Zag",
      "name:en": "Zag",
      "boundary": "administrative",
      "way_area": "0.315311",
      "admin_level": "6"
    }
  },
  {
    "osm_id": -7304698,
    "boundary": "administrative",
    "admin_level": 6,
    "parents": "-269886,-161033",
    "name": "Bayan-Uul",
    "local_name": "Баян-Уул",
    "name_en": "Bayan-Uul",
    "all_tags": {
      "name": "Баян-Уул",
      "name:de": "Bayan-Uul",
      "name:en": "Bayan-Uul",
      "boundary": "administrative",
      "way_area": "0.661251",
      "admin_level": "6"
    }
  },
  {
    "osm_id": -7304697,
    "boundary": "administrative",
    "admin_level": 6,
    "parents": "-269886,-161033",
    "name": "Bayandun",
    "local_name": "Баяндун",
    "name_en": "Bayandun",
    "all_tags": {
      "name": "Баяндун",
      "name:de": "Bayandun",
      "name:en": "Bayandun",
      "boundary": "administrative",
      "way_area": "0.7611",
      "admin_level": "6"
    }
  },
  {
    "osm_id": -7304696,
    "boundary": "administrative",
    "admin_level": 6,
    "parents": "-269886,-161033",
    "name": "Bayantumen",
    "local_name": "Баянтүмэн",
    "name_en": "Bayantumen",
    "all_tags": {
      "name": "Баянтүмэн",
      "name:de": "Bayantümen",
      "name:en": "Bayantumen",
      "name:ru": "Баянтумэн",
      "boundary": "administrative",
      "way_area": "1.02688",
      "admin_level": "6"
    }
  },
  {
    "osm_id": -7304695,
    "boundary": "administrative",
    "admin_level": 6,
    "parents": "-269886,-161033",
    "name": "Bulgan",
    "local_name": "Булган",
    "name_en": "Bulgan",
    "all_tags": {
      "name": "Булган",
      "name:ar": "بولغان",
      "name:de": "Bulgan",
      "name:en": "Bulgan",
      "boundary": "administrative",
      "way_area": "0.88689",
      "admin_level": "6",
      "alt_name:ar": "بولجان"
    }
  },
  {
    "osm_id": -7304693,
    "boundary": "administrative",
    "admin_level": 6,
    "parents": "-269886,-161033",
    "name": "Chuluunhoroot",
    "local_name": "Чулуунхороот",
    "name_en": "Chuluunhoroot",
    "all_tags": {
      "name": "Чулуунхороот",
      "name:de": "Chulunkhoroot",
      "name:en": "Chuluunhoroot",
      "boundary": "administrative",
      "way_area": "0.829294",
      "admin_level": "6"
    }
  },
  {
    "osm_id": -7304692,
    "boundary": "administrative",
    "admin_level": 6,
    "parents": "-269886,-161033",
    "name": "Dashbalbar",
    "local_name": "Дашбалбар",
    "name_en": "Dashbalbar",
    "all_tags": {
      "name": "Дашбалбар",
      "name:de": "Dashbalbar",
      "name:en": "Dashbalbar",
      "boundary": "administrative",
      "way_area": "1.12414",
      "admin_level": "6"
    }
  },
  {
    "osm_id": -7304691,
    "boundary": "administrative",
    "admin_level": 6,
    "parents": "-269886,-161033",
    "name": "Gurvanzagal",
    "local_name": "Гурванзагал",
    "name_en": "Gurvanzagal",
    "all_tags": {
      "name": "Гурванзагал",
      "name:de": "Gurvanzagal",
      "name:en": "Gurvanzagal",
      "boundary": "administrative",
      "way_area": "0.644106",
      "admin_level": "6"
    }
  },
  {
    "osm_id": -7304690,
    "boundary": "administrative",
    "admin_level": 6,
    "parents": "-269886,-161033",
    "name": "Halhgol",
    "local_name": "Халхгол",
    "name_en": "Halhgol",
    "all_tags": {
      "name": "Халхгол",
      "name:de": "Khalkhgol",
      "name:en": "Halhgol",
      "boundary": "administrative",
      "way_area": "3.32168",
      "admin_level": "6"
    }
  },
  {
    "osm_id": -7304689,
    "boundary": "administrative",
    "admin_level": 6,
    "parents": "-269886,-161033",
    "name": "Choibalsan",
    "local_name": "Чойбалсан",
    "name_en": "Choibalsan",
    "all_tags": {
      "name": "Чойбалсан",
      "name:de": "Choibalsan",
      "name:en": "Choibalsan",
      "boundary": "administrative",
      "way_area": "1.22325",
      "admin_level": "6"
    }
  },
  {
    "osm_id": -7304688,
    "boundary": "administrative",
    "admin_level": 6,
    "parents": "-269886,-161033",
    "name": "Holonbuir",
    "local_name": "Хөлөнбуйр",
    "name_en": "Holonbuir",
    "all_tags": {
      "name": "Хөлөнбуйр",
      "name:de": "Khölönbuir",
      "name:en": "Holonbuir",
      "name:ru": "Хуленбуйр",
      "boundary": "administrative",
      "way_area": "0.487964",
      "admin_level": "6"
    }
  },
  {
    "osm_id": -7304687,
    "boundary": "administrative",
    "admin_level": 6,
    "parents": "-269886,-161033",
    "name": "Matad",
    "local_name": "Матад",
    "name_en": "Matad",
    "all_tags": {
      "name": "Матад",
      "name:de": "Matad",
      "name:en": "Matad",
      "boundary": "administrative",
      "way_area": "2.81157",
      "admin_level": "6"
    }
  },
  {
    "osm_id": -7304686,
    "boundary": "administrative",
    "admin_level": 6,
    "parents": "-269886,-161033",
    "name": "Sergelen",
    "local_name": "Сэргэлэн",
    "name_en": "Sergelen",
    "all_tags": {
      "name": "Сэргэлэн",
      "name:de": "Sergelen",
      "name:en": "Sergelen",
      "boundary": "administrative",
      "way_area": "0.487868",
      "admin_level": "6"
    }
  },
  {
    "osm_id": -7304685,
    "boundary": "administrative",
    "admin_level": 6,
    "parents": "-269886,-161033",
    "name": "Tsagaan-Ovoo",
    "local_name": "Цагаан-Овоо",
    "name_en": "Tsagaan-Ovoo",
    "all_tags": {
      "name": "Цагаан-Овоо",
      "name:de": "Tsagaan-Ovoo",
      "name:en": "Tsagaan-Ovoo",
      "boundary": "administrative",
      "way_area": "0.78365",
      "admin_level": "6"
    }
  },
  {
    "osm_id": -7304620,
    "boundary": "administrative",
    "admin_level": 6,
    "parents": "-270050,-161033",
    "name": "Altanshiree",
    "local_name": "Алтанширээ",
    "name_en": "Altanshiree",
    "all_tags": {
      "name": "Алтанширээ",
      "name:de": "Altanshiree",
      "name:en": "Altanshiree",
      "boundary": "administrative",
      "way_area": "0.825991",
      "admin_level": "6"
    }
  },
  {
    "osm_id": -7304619,
    "boundary": "administrative",
    "admin_level": 6,
    "parents": "-270050,-161033",
    "name": "Airag",
    "local_name": "Айраг",
    "name_en": "Airag",
    "all_tags": {
      "name": "Айраг",
      "name:de": "Airag",
      "name:en": "Airag",
      "boundary": "administrative",
      "way_area": "0.822862",
      "admin_level": "6"
    }
  },
  {
    "osm_id": -7304618,
    "boundary": "administrative",
    "admin_level": 6,
    "parents": "-270050,-161033",
    "name": "Dalanjargalan",
    "local_name": "Даланжаргалан",
    "name_en": "Dalanjargalan",
    "all_tags": {
      "name": "Даланжаргалан",
      "name:de": "Dalanjargalan",
      "name:en": "Dalanjargalan",
      "boundary": "administrative",
      "way_area": "0.429777",
      "admin_level": "6"
    }
  },
  {
    "osm_id": -7304617,
    "boundary": "administrative",
    "admin_level": 6,
    "parents": "-270050,-161033",
    "name": "Delgereh",
    "local_name": "Дэлгэрэх",
    "name_en": "Delgereh",
    "all_tags": {
      "name": "Дэлгэрэх",
      "name:de": "Delgerekh",
      "name:en": "Delgereh",
      "boundary": "administrative",
      "way_area": "0.528489",
      "admin_level": "6"
    }
  },
  {
    "osm_id": -7304616,
    "boundary": "administrative",
    "admin_level": 6,
    "parents": "-270050,-161033",
    "name": "Erdene",
    "local_name": "Эрдэнэ",
    "name_en": "Erdene",
    "all_tags": {
      "name": "Эрдэнэ",
      "name:de": "Erdene",
      "name:en": "Erdene",
      "name:zh": "额尔德尼县",
      "boundary": "administrative",
      "way_area": "1.13379",
      "admin_level": "6"
    }
  },
  {
    "osm_id": -7304615,
    "boundary": "administrative",
    "admin_level": 6,
    "parents": "-270050,-161033",
    "name": "Hatanbulag",
    "local_name": "Хатанбулаг",
    "name_en": "Hatanbulag",
    "all_tags": {
      "name": "Хатанбулаг",
      "name:de": "Khatanbulag",
      "name:en": "Hatanbulag",
      "boundary": "administrative",
      "way_area": "2.15181",
      "wikidata": "Q27714384",
      "admin_level": "6"
    }
  },
  {
    "osm_id": -7304614,
    "boundary": "administrative",
    "admin_level": 6,
    "parents": "-270050,-161033",
    "name": "Хөвсгөл",
    "local_name": "Хөвсгөл",
    "name_en": null,
    "all_tags": {
      "name": "Хөвсгөл",
      "name:de": "Khövsgöl",
      "name:ru": "Хувсгел",
      "boundary": "administrative",
      "way_area": "0.972251",
      "admin_level": "6"
    }
  },
  {
    "osm_id": -7304613,
    "boundary": "administrative",
    "admin_level": 6,
    "parents": "-270050,-161033",
    "name": "Ihhet",
    "local_name": "Иххэт",
    "name_en": "Ihhet",
    "all_tags": {
      "name": "Иххэт",
      "name:de": "Ikhkhet",
      "name:en": "Ihhet",
      "boundary": "administrative",
      "way_area": "0.462644",
      "admin_level": "6"
    }
  },
  {
    "osm_id": -7304612,
    "boundary": "administrative",
    "admin_level": 6,
    "parents": "-270050,-161033",
    "name": "Mandah",
    "local_name": "Мандах",
    "name_en": "Mandah",
    "all_tags": {
      "name": "Мандах",
      "name:de": "Mandakh",
      "name:en": "Mandah",
      "boundary": "administrative",
      "way_area": "1.37988",
      "wikidata": "Q3396693",
      "admin_level": "6"
    }
  },
  {
    "osm_id": -7304611,
    "boundary": "administrative",
    "admin_level": 6,
    "parents": "-270050,-161033",
    "name": "Orgon",
    "local_name": "Өргөн",
    "name_en": "Orgon",
    "all_tags": {
      "name": "Өргөн",
      "name:de": "Örgön",
      "name:en": "Orgon",
      "name:ru": "Урген",
      "name:zh": "额尔根县",
      "boundary": "administrative",
      "way_area": "0.982057",
      "admin_level": "6"
    }
  },
  {
    "osm_id": -7304610,
    "boundary": "administrative",
    "admin_level": 6,
    "parents": "-270050,-161033",
    "name": "Saihandulaan",
    "local_name": "Сайхандулаан",
    "name_en": "Saihandulaan",
    "all_tags": {
      "name": "Сайхандулаан",
      "name:de": "Saikhandulaan",
      "name:en": "Saihandulaan",
      "boundary": "administrative",
      "way_area": "1.06838",
      "admin_level": "6"
    }
  },
  {
    "osm_id": -7304609,
    "boundary": "administrative",
    "admin_level": 6,
    "parents": "-270050,-161033",
    "name": "Saynshand",
    "local_name": "Сайншанд",
    "name_en": "Saynshand",
    "all_tags": {
      "name": "Сайншанд",
      "name:de": "Sainshand",
      "name:en": "Saynshand",
      "boundary": "administrative",
      "way_area": "0.273451",
      "admin_level": "6"
    }
  },
  {
    "osm_id": -7304608,
    "boundary": "administrative",
    "admin_level": 6,
    "parents": "-270050,-161033",
    "name": "Ulaanbadrah",
    "local_name": "Улаанбадрах",
    "name_en": "Ulaanbadrah",
    "all_tags": {
      "name": "Улаанбадрах",
      "name:de": "Ulaanbadrakh",
      "name:en": "Ulaanbadrah",
      "boundary": "administrative",
      "way_area": "1.34563",
      "admin_level": "6"
    }
  },
  {
    "osm_id": -7304607,
    "boundary": "administrative",
    "admin_level": 6,
    "parents": "-270050,-161033",
    "name": "Zammyn-uud",
    "local_name": "Замын-Үүд",
    "name_en": "Zammyn-uud",
    "all_tags": {
      "name": "Замын-Үүд",
      "name:de": "Zamyn-Üüd",
      "name:en": "Zammyn-uud",
      "name:ru": "Замын-Уудэ",
      "name:zh": "扎门乌德特区",
      "boundary": "administrative",
      "way_area": "0.0602777",
      "admin_level": "6"
    }
  },
  {
    "osm_id": -7304592,
    "boundary": "administrative",
    "admin_level": 6,
    "parents": "-269874,-161033",
    "name": "Asgat",
    "local_name": "Асгат",
    "name_en": "Asgat",
    "all_tags": {
      "name": "Асгат",
      "name:de": "Asgat",
      "name:en": "Asgat",
      "boundary": "administrative",
      "way_area": "0.786086",
      "admin_level": "6"
    }
  },
  {
    "osm_id": -7304591,
    "boundary": "administrative",
    "admin_level": 6,
    "parents": "-269874,-161033",
    "name": "Suhbaatar",
    "local_name": "Сүхбаатар",
    "name_en": "Suhbaatar",
    "all_tags": {
      "name": "Сүхбаатар",
      "name:ar": "سوخباتار",
      "name:de": "Sükhbaatar",
      "name:en": "Suhbaatar",
      "name:ru": "Сухэ-Батор",
      "boundary": "administrative",
      "way_area": "1.46478",
      "admin_level": "6"
    }
  },
  {
    "osm_id": -7304590,
    "boundary": "administrative",
    "admin_level": 6,
    "parents": "-269874,-161033",
    "name": "Bayandelger",
    "local_name": "Баяндэлгэр",
    "name_en": "Bayandelger",
    "all_tags": {
      "name": "Баяндэлгэр",
      "name:de": "Bayandelger",
      "name:en": "Bayandelger",
      "boundary": "administrative",
      "way_area": "0.888887",
      "admin_level": "6"
    }
  },
  {
    "osm_id": -7304589,
    "boundary": "administrative",
    "admin_level": 6,
    "parents": "-269874,-161033",
    "name": "Dariganga",
    "local_name": "Дарьганга",
    "name_en": "Dariganga",
    "all_tags": {
      "name": "Дарьганга",
      "name:de": "Dariganga",
      "name:en": "Dariganga",
      "boundary": "administrative",
      "way_area": "0.544216",
      "admin_level": "6"
    }
  },
  {
    "osm_id": -7304588,
    "boundary": "administrative",
    "admin_level": 6,
    "parents": "-269874,-161033",
    "name": "Erdenetsagaan",
    "local_name": "Эрдэнэцагаан",
    "name_en": "Erdenetsagaan",
    "all_tags": {
      "name": "Эрдэнэцагаан",
      "name:de": "Erdenetsagaan",
      "name:en": "Erdenetsagaan",
      "boundary": "administrative",
      "way_area": "1.92605",
      "admin_level": "6"
    }
  },
  {
    "osm_id": -7304587,
    "boundary": "administrative",
    "admin_level": 6,
    "parents": "-269874,-161033",
    "name": "Halzan",
    "local_name": "Халзан",
    "name_en": "Halzan",
    "all_tags": {
      "name": "Халзан",
      "name:de": "Khalzan",
      "name:en": "Halzan",
      "boundary": "administrative",
      "way_area": "0.480504",
      "admin_level": "6"
    }
  },
  {
    "osm_id": -7304586,
    "boundary": "administrative",
    "admin_level": 6,
    "parents": "-269874,-161033",
    "name": "Airag",
    "local_name": "Айраг",
    "name_en": "Airag",
    "all_tags": {
      "name": "Айраг",
      "name:de": "Airag",
      "name:en": "Airag",
      "boundary": "administrative",
      "way_area": "0.860262",
      "admin_level": "6"
    }
  },
  {
    "osm_id": -7304585,
    "boundary": "administrative",
    "admin_level": 6,
    "parents": "-269874,-161033",
    "name": "Naran",
    "local_name": "Наран",
    "name_en": "Naran",
    "all_tags": {
      "name": "Наран",
      "name:de": "Naran",
      "name:en": "Naran",
      "boundary": "administrative",
      "way_area": "0.381733",
      "admin_level": "6"
    }
  },
  {
    "osm_id": -7304584,
    "boundary": "administrative",
    "admin_level": 6,
    "parents": "-269874,-161033",
    "name": "Ongon",
    "local_name": "Онгон",
    "name_en": "Ongon",
    "all_tags": {
      "name": "Онгон",
      "name:de": "Ongon",
      "name:en": "Ongon",
      "boundary": "administrative",
      "way_area": "0.842529",
      "admin_level": "6"
    }
  },
  {
    "osm_id": -7304583,
    "boundary": "administrative",
    "admin_level": 6,
    "parents": "-269874,-161033",
    "name": "Tuvshinshiree",
    "local_name": "Түвшинширээ",
    "name_en": "Tuvshinshiree",
    "all_tags": {
      "name": "Түвшинширээ",
      "name:de": "Tüvshinshiree",
      "name:en": "Tuvshinshiree",
      "name:ru": "Тувшинширээ",
      "boundary": "administrative",
      "way_area": "0.533376",
      "admin_level": "6"
    }
  },
  {
    "osm_id": -7304582,
    "boundary": "administrative",
    "admin_level": 6,
    "parents": "-269874,-161033",
    "name": "Tumentsogt",
    "local_name": "Түмэнцогт",
    "name_en": "Tumentsogt",
    "all_tags": {
      "name": "Түмэнцогт",
      "name:de": "Tümentsogt",
      "name:en": "Tumentsogt",
      "name:ru": "Тумэнцогт",
      "boundary": "administrative",
      "way_area": "0.275659",
      "admin_level": "6"
    }
  },
  {
    "osm_id": -7304581,
    "boundary": "administrative",
    "admin_level": 6,
    "parents": "-269874,-161033",
    "name": "Uulbayan",
    "local_name": "Уулбаян",
    "name_en": "Uulbayan",
    "all_tags": {
      "name": "Уулбаян",
      "name:de": "Uulbayan",
      "name:en": "Uulbayan",
      "boundary": "administrative",
      "way_area": "0.568156",
      "admin_level": "6"
    }
  },
  {
    "osm_id": -7304546,
    "boundary": "administrative",
    "admin_level": 6,
    "parents": "-269885,-161033",
    "name": "Batnorov",
    "local_name": "Батноров",
    "name_en": "Batnorov",
    "all_tags": {
      "name": "Батноров",
      "name:de": "Batnorov",
      "name:en": "Batnorov",
      "boundary": "administrative",
      "way_area": "0.599145",
      "admin_level": "6"
    }
  },
  {
    "osm_id": -7304545,
    "boundary": "administrative",
    "admin_level": 6,
    "parents": "-269885,-161033",
    "name": "Batshireet",
    "local_name": "Батширээт",
    "name_en": "Batshireet",
    "all_tags": {
      "name": "Батширээт",
      "name:de": "Batshireet",
      "name:en": "Batshireet",
      "boundary": "administrative",
      "way_area": "0.857159",
      "admin_level": "6"
    }
  },
  {
    "osm_id": -7304544,
    "boundary": "administrative",
    "admin_level": 6,
    "parents": "-269885,-161033",
    "name": "Bayan-Adraga",
    "local_name": "Баян-Адарга",
    "name_en": "Bayan-Adraga",
    "all_tags": {
      "name": "Баян-Адарга",
      "name:de": "Bayan-Adarga",
      "name:en": "Bayan-Adraga",
      "boundary": "administrative",
      "way_area": "0.340108",
      "admin_level": "6"
    }
  },
  {
    "osm_id": -7304543,
    "boundary": "administrative",
    "admin_level": 6,
    "parents": "-269885,-161033",
    "name": "Bayankhutag",
    "local_name": "Баянхутаг",
    "name_en": "Bayankhutag",
    "all_tags": {
      "name": "Баянхутаг",
      "name:de": "Bayankhutag",
      "name:en": "Bayankhutag",
      "boundary": "administrative",
      "way_area": "0.731978",
      "admin_level": "6"
    }
  },
  {
    "osm_id": -7304542,
    "boundary": "administrative",
    "admin_level": 6,
    "parents": "-269885,-161033",
    "name": "Bayanmonh",
    "local_name": "Баянмөнх",
    "name_en": "Bayanmonh",
    "all_tags": {
      "name": "Баянмөнх",
      "name:de": "Bayanmönkh",
      "name:en": "Bayanmonh",
      "name:ru": "Баянмунхе",
      "boundary": "administrative",
      "way_area": "0.293177",
      "admin_level": "6"
    }
  },
  {
    "osm_id": -7304541,
    "boundary": "administrative",
    "admin_level": 6,
    "parents": "-269885,-161033",
    "name": "Bayan-Ovoo",
    "local_name": "Баян-Овоо",
    "name_en": "Bayan-Ovoo",
    "all_tags": {
      "name": "Баян-Овоо",
      "name:de": "Bayan-Ovoo",
      "name:en": "Bayan-Ovoo",
      "boundary": "administrative",
      "way_area": "0.402509",
      "admin_level": "6"
    }
  },
  {
    "osm_id": -7304540,
    "boundary": "administrative",
    "admin_level": 6,
    "parents": "-269885,-161033",
    "name": "Binder",
    "local_name": "Биндэр",
    "name_en": "Binder",
    "all_tags": {
      "name": "Биндэр",
      "name:de": "Binder",
      "name:en": "Binder",
      "boundary": "administrative",
      "way_area": "0.723498",
      "admin_level": "6"
    }
  },
  {
    "osm_id": -7304539,
    "boundary": "administrative",
    "admin_level": 6,
    "parents": "-269885,-161033",
    "name": "Dadal",
    "local_name": "Дадал",
    "name_en": "Dadal",
    "all_tags": {
      "name": "Дадал",
      "name:de": "Dadal",
      "name:en": "Dadal",
      "boundary": "administrative",
      "way_area": "0.583805",
      "admin_level": "6"
    }
  },
  {
    "osm_id": -7304538,
    "boundary": "administrative",
    "admin_level": 6,
    "parents": "-269885,-161033",
    "name": "Darhan",
    "local_name": "Дархан",
    "name_en": "Darhan",
    "all_tags": {
      "name": "Дархан",
      "name:de": "Darkhan",
      "name:en": "Darhan",
      "boundary": "administrative",
      "way_area": "0.562753",
      "admin_level": "6"
    }
  },
  {
    "osm_id": -7304537,
    "boundary": "administrative",
    "admin_level": 6,
    "parents": "-269885,-161033",
    "name": "Delgerhaan",
    "local_name": "Дэлгэрхаан",
    "name_en": "Delgerhaan",
    "all_tags": {
      "name": "Дэлгэрхаан",
      "name:de": "Delgerkhaan",
      "name:en": "Delgerhaan",
      "boundary": "administrative",
      "way_area": "0.363398",
      "admin_level": "6"
    }
  },
  {
    "osm_id": -7304536,
    "boundary": "administrative",
    "admin_level": 6,
    "parents": "-269885,-161033",
    "name": "Galshir",
    "local_name": "Галшар",
    "name_en": "Galshir",
    "all_tags": {
      "name": "Галшар",
      "name:de": "Galshar",
      "name:en": "Galshir",
      "boundary": "administrative",
      "way_area": "0.766145",
      "admin_level": "6"
    }
  },
  {
    "osm_id": -7304535,
    "boundary": "administrative",
    "admin_level": 6,
    "parents": "-269885,-161033",
    "name": "Jargalthaan",
    "local_name": "Жаргалтхаан",
    "name_en": "Jargalthaan",
    "all_tags": {
      "name": "Жаргалтхаан",
      "name:de": "Jargaltkhaan",
      "name:en": "Jargalthaan",
      "name:uk": "Жарґалтхаан",
      "boundary": "administrative",
      "way_area": "0.360378",
      "admin_level": "6"
    }
  },
  {
    "osm_id": -7304534,
    "boundary": "administrative",
    "admin_level": 6,
    "parents": "-269885,-161033",
    "name": "Moron",
    "local_name": "Мөрөн",
    "name_en": "Moron",
    "all_tags": {
      "name": "Мөрөн",
      "name:de": "Mörön",
      "name:en": "Moron",
      "name:ru": "Мурэн",
      "boundary": "administrative",
      "way_area": "0.274721",
      "admin_level": "6"
    }
  },
  {
    "osm_id": -7304533,
    "boundary": "administrative",
    "admin_level": 6,
    "parents": "-269885,-161033",
    "name": "Norovlin",
    "local_name": "Норовлин",
    "name_en": "Norovlin",
    "all_tags": {
      "name": "Норовлин",
      "name:de": "Norovlin",
      "name:en": "Norovlin",
      "boundary": "administrative",
      "way_area": "0.645382",
      "admin_level": "6"
    }
  },
  {
    "osm_id": -7304532,
    "boundary": "administrative",
    "admin_level": 6,
    "parents": "-269885,-161033",
    "name": "Omnodelger",
    "local_name": "Өмнөдэлгэр",
    "name_en": "Omnodelger",
    "all_tags": {
      "name": "Өмнөдэлгэр",
      "name:de": "Ömöndelger",
      "name:en": "Omnodelger",
      "name:ru": "Умнедэлгэр",
      "boundary": "administrative",
      "way_area": "1.31002",
      "admin_level": "6"
    }
  },
  {
    "osm_id": -7304531,
    "boundary": "administrative",
    "admin_level": 6,
    "parents": "-269885,-161033",
    "name": "Tsenhermandal",
    "local_name": "Цэнхэрмандал",
    "name_en": "Tsenhermandal",
    "all_tags": {
      "name": "Цэнхэрмандал",
      "name:de": "Tsenkhermandal",
      "name:en": "Tsenhermandal",
      "boundary": "administrative",
      "way_area": "0.437344",
      "admin_level": "6"
    }
  },
  {
    "osm_id": -7304530,
    "boundary": "administrative",
    "admin_level": 6,
    "parents": "-269885,-161033",
    "name": "Herlen",
    "local_name": "Хэрлэн",
    "name_en": "Herlen",
    "all_tags": {
      "name": "Хэрлэн",
      "name:de": "Kherlen",
      "name:en": "Herlen",
      "boundary": "administrative",
      "way_area": "0.52833",
      "admin_level": "6"
    }
  },
  {
    "osm_id": -7302713,
    "boundary": "administrative",
    "admin_level": 6,
    "parents": "-270089,-161033",
    "name": "Altanbulag",
    "local_name": "Алтанбулаг",
    "name_en": "Altanbulag",
    "all_tags": {
      "name": "Алтанбулаг",
      "name:de": "Altanbulag",
      "name:en": "Altanbulag",
      "boundary": "administrative",
      "way_area": "0.332733",
      "admin_level": "6"
    }
  },
  {
    "osm_id": -7302712,
    "boundary": "administrative",
    "admin_level": 6,
    "parents": "-270089,-161033",
    "name": "Baruunburen",
    "local_name": "Баруунбүрэн",
    "name_en": "Baruunburen",
    "all_tags": {
      "name": "Баруунбүрэн",
      "name:de": "Baruunbüren",
      "name:en": "Baruunburen",
      "name:ru": "Баруунбурэн",
      "boundary": "administrative",
      "way_area": "0.360646",
      "admin_level": "6"
    }
  },
  {
    "osm_id": -7302711,
    "boundary": "administrative",
    "admin_level": 6,
    "parents": "-270089,-161033",
    "name": "Bayangol",
    "local_name": "Баянгол",
    "name_en": "Bayangol",
    "all_tags": {
      "name": "Баянгол",
      "name:de": "Bayangol",
      "name:en": "Bayangol",
      "boundary": "administrative",
      "way_area": "0.244394",
      "admin_level": "6"
    }
  },
  {
    "osm_id": -7302710,
    "boundary": "administrative",
    "admin_level": 6,
    "parents": "-270089,-161033",
    "name": "Javhlant",
    "local_name": "Жавхлант",
    "name_en": "Javhlant",
    "all_tags": {
      "name": "Жавхлант",
      "name:de": "Javkhlant",
      "name:en": "Javhlant",
      "boundary": "administrative",
      "way_area": "0.145837",
      "admin_level": "6"
    }
  },
  {
    "osm_id": -7302709,
    "boundary": "administrative",
    "admin_level": 6,
    "parents": "-270089,-161033",
    "name": "Huder",
    "local_name": "Хүдэр",
    "name_en": "Huder",
    "all_tags": {
      "name": "Хүдэр",
      "name:de": "Khüder",
      "name:en": "Huder",
      "name:ru": "Хүдэр",
      "boundary": "administrative",
      "way_area": "0.336183",
      "admin_level": "6"
    }
  },
  {
    "osm_id": -7302708,
    "boundary": "administrative",
    "admin_level": 6,
    "parents": "-270089,-161033",
    "name": "Huzhaat",
    "local_name": "Хушаат",
    "name_en": "Huzhaat",
    "all_tags": {
      "name": "Хушаат",
      "name:de": "Khushaat",
      "name:en": "Huzhaat",
      "boundary": "administrative",
      "way_area": "0.274421",
      "admin_level": "6"
    }
  },
  {
    "osm_id": -7302707,
    "boundary": "administrative",
    "admin_level": 6,
    "parents": "-270089,-161033",
    "name": "Mandal",
    "local_name": "Мандал",
    "name_en": "Mandal",
    "all_tags": {
      "name": "Мандал",
      "name:de": "Mandal",
      "name:en": "Mandal",
      "boundary": "administrative",
      "way_area": "0.55487",
      "admin_level": "6"
    }
  },
  {
    "osm_id": -7302706,
    "boundary": "administrative",
    "admin_level": 6,
    "parents": "-270089,-161033",
    "name": "Orgon",
    "local_name": "Орхон",
    "name_en": "Orgon",
    "all_tags": {
      "name": "Орхон",
      "name:de": "Orkhon",
      "name:en": "Orgon",
      "boundary": "administrative",
      "way_area": "0.158604",
      "admin_level": "6"
    }
  },
  {
    "osm_id": -7302705,
    "boundary": "administrative",
    "admin_level": 6,
    "parents": "-270089,-161033",
    "name": "Orhontuul",
    "local_name": "Орхонтуул",
    "name_en": "Orhontuul",
    "all_tags": {
      "name": "Орхонтуул",
      "name:de": "Orkhontuul",
      "name:en": "Orhontuul",
      "boundary": "administrative",
      "way_area": "0.357661",
      "admin_level": "6"
    }
  },
  {
    "osm_id": -7302704,
    "boundary": "administrative",
    "admin_level": 6,
    "parents": "-270089,-161033",
    "name": "Sant",
    "local_name": "Сант",
    "name_en": "Sant",
    "all_tags": {
      "name": "Сант",
      "name:de": "Sant",
      "name:en": "Sant",
      "boundary": "administrative",
      "way_area": "0.159785",
      "admin_level": "6"
    }
  },
  {
    "osm_id": -7302702,
    "boundary": "administrative",
    "admin_level": 6,
    "parents": "-270089,-161033",
    "name": "Saihan",
    "local_name": "Сайхан",
    "name_en": "Saihan",
    "all_tags": {
      "name": "Сайхан",
      "name:ar": "سيكهن",
      "name:de": "Saykhan",
      "name:en": "Saihan",
      "boundary": "administrative",
      "way_area": "0.174971",
      "admin_level": "6"
    }
  },
  {
    "osm_id": -7302701,
    "boundary": "administrative",
    "admin_level": 6,
    "parents": "-270089,-161033",
    "name": "Shaamar",
    "local_name": "Шаамар",
    "name_en": "Shaamar",
    "all_tags": {
      "name": "Шаамар",
      "name:de": "Shaamar",
      "name:en": "Shaamar",
      "boundary": "administrative",
      "way_area": "0.084567",
      "admin_level": "6"
    }
  },
  {
    "osm_id": -7302700,
    "boundary": "administrative",
    "admin_level": 6,
    "parents": "-270089,-161033",
    "name": "Tsagaannuur",
    "local_name": "Цагааннуур",
    "name_en": "Tsagaannuur",
    "all_tags": {
      "name": "Цагааннуур",
      "name:de": "Tsagaannuur",
      "name:en": "Tsagaannuur",
      "boundary": "administrative",
      "way_area": "0.451608",
      "admin_level": "6"
    }
  },
  {
    "osm_id": -7302699,
    "boundary": "administrative",
    "admin_level": 6,
    "parents": "-270089,-161033",
    "name": "Tushig",
    "local_name": "Түшиг",
    "name_en": "Tushig",
    "all_tags": {
      "name": "Түшиг",
      "name:de": "Tüshig",
      "name:en": "Tushig",
      "name:ru": "Тушиг",
      "boundary": "administrative",
      "way_area": "0.348041",
      "admin_level": "6"
    }
  },
  {
    "osm_id": -7302698,
    "boundary": "administrative",
    "admin_level": 6,
    "parents": "-270089,-161033",
    "name": "Yeroo",
    "local_name": "Ерөө",
    "name_en": "Yeroo",
    "all_tags": {
      "name": "Ерөө",
      "name:de": "Yeröö",
      "name:en": "Yeroo",
      "name:ru": "Ерее",
      "boundary": "administrative",
      "way_area": "1.07121",
      "admin_level": "6"
    }
  },
  {
    "osm_id": -7302697,
    "boundary": "administrative",
    "admin_level": 6,
    "parents": "-270089,-161033",
    "name": "Zuunburen",
    "local_name": "Зүүнбүрэн",
    "name_en": "Zuunburen",
    "all_tags": {
      "name": "Зүүнбүрэн",
      "name:de": "Züünbüren",
      "name:en": "Zuunburen",
      "name:ru": "Зуунбурэн",
      "boundary": "administrative",
      "way_area": "0.146751",
      "admin_level": "6"
    }
  },
  {
    "osm_id": -7302599,
    "boundary": "administrative",
    "admin_level": 6,
    "parents": "-270073,-161033",
    "name": "Bayan-Agt",
    "local_name": "Баян-Агт",
    "name_en": "Bayan-Agt",
    "all_tags": {
      "name": "Баян-Агт",
      "name:de": "Bayan-Agt",
      "name:en": "Bayan-Agt",
      "boundary": "administrative",
      "way_area": "0.40092",
      "admin_level": "6"
    }
  },
  {
    "osm_id": -7302598,
    "boundary": "administrative",
    "admin_level": 6,
    "parents": "-270073,-161033",
    "name": "Bayanuur",
    "local_name": "Баяннуур",
    "name_en": "Bayanuur",
    "all_tags": {
      "name": "Баяннуур",
      "name:de": "Bayanuur",
      "name:en": "Bayanuur",
      "boundary": "administrative",
      "way_area": "0.0899637",
      "admin_level": "6"
    }
  },
  {
    "osm_id": -7302597,
    "boundary": "administrative",
    "admin_level": 6,
    "parents": "-270073,-161033",
    "name": "Bugat",
    "local_name": "Бугат",
    "name_en": "Bugat",
    "all_tags": {
      "name": "Бугат",
      "name:de": "Bugat",
      "name:en": "Bugat",
      "name:uk": "Буґат сомон",
      "boundary": "administrative",
      "way_area": "0.392837",
      "wikidata": "Q2605809",
      "wikipedia": "mn:Бугат сум (Булган)",
      "admin_level": "6"
    }
  },
  {
    "osm_id": -7302596,
    "boundary": "administrative",
    "admin_level": 6,
    "parents": "-270073,-161033",
    "name": "Bulgan",
    "local_name": "Булган",
    "name_en": "Bulgan",
    "all_tags": {
      "name": "Булган",
      "name:de": "Bulgan",
      "name:en": "Bulgan",
      "boundary": "administrative",
      "way_area": "0.0189864",
      "admin_level": "6"
    }
  },
  {
    "osm_id": -7302595,
    "boundary": "administrative",
    "admin_level": 6,
    "parents": "-270073,-161033",
    "name": "Bureghangai",
    "local_name": "Бүрэгхангай",
    "name_en": "Bureghangai",
    "all_tags": {
      "name": "Бүрэгхангай",
      "name:de": "Büregkhangai",
      "name:en": "Bureghangai",
      "name:ru": "Бурэгхангай",
      "boundary": "administrative",
      "way_area": "0.411937",
      "admin_level": "6"
    }
  },
  {
    "osm_id": -7302594,
    "boundary": "administrative",
    "admin_level": 6,
    "parents": "-270073,-161033",
    "name": "Dashinchilen",
    "local_name": "Дашинчилэн",
    "name_en": "Dashinchilen",
    "all_tags": {
      "name": "Дашинчилэн",
      "name:de": "Dashinchilen",
      "name:en": "Dashinchilen",
      "boundary": "administrative",
      "way_area": "0.281345",
      "admin_level": "6"
    }
  },
  {
    "osm_id": -7302593,
    "boundary": "administrative",
    "admin_level": 6,
    "parents": "-270073,-161033",
    "name": "Gurvanbulag",
    "local_name": "Гурванбулаг",
    "name_en": "Gurvanbulag",
    "all_tags": {
      "name": "Гурванбулаг",
      "name:de": "Gurvanbulag",
      "name:en": "Gurvanbulag",
      "boundary": "administrative",
      "way_area": "0.34605",
      "admin_level": "6"
    }
  },
  {
    "osm_id": -7302592,
    "boundary": "administrative",
    "admin_level": 6,
    "parents": "-270073,-161033",
    "name": "Hangal",
    "local_name": "Хангал",
    "name_en": "Hangal",
    "all_tags": {
      "name": "Хангал",
      "name:de": "Khangal",
      "name:en": "Hangal",
      "boundary": "administrative",
      "way_area": "0.197889",
      "admin_level": "6"
    }
  },
  {
    "osm_id": -7302591,
    "boundary": "administrative",
    "admin_level": 6,
    "parents": "-270073,-161033",
    "name": "Hishig-Ondor",
    "local_name": "Хишиг-Өндөр",
    "name_en": "Hishig-Ondor",
    "all_tags": {
      "name": "Хишиг-Өндөр",
      "name:de": "Khishig-Öndör",
      "name:en": "Hishig-Ondor",
      "name:ru": "Хишиг-Ундер",
      "boundary": "administrative",
      "way_area": "0.303692",
      "admin_level": "6"
    }
  },
  {
    "osm_id": -7302590,
    "boundary": "administrative",
    "admin_level": 6,
    "parents": "-270073,-161033",
    "name": "Hutag",
    "local_name": "Хутаг-Өндөр",
    "name_en": "Hutag",
    "all_tags": {
      "name": "Хутаг-Өндөр",
      "name:de": "Khutag-Öndör",
      "name:en": "Hutag",
      "name:ru": "Хутаг-Ундер",
      "boundary": "administrative",
      "way_area": "0.657678",
      "admin_level": "6"
    }
  },
  {
    "osm_id": -7302589,
    "boundary": "administrative",
    "admin_level": 6,
    "parents": "-270073,-161033",
    "name": "Mogod",
    "local_name": "Могод",
    "name_en": "Mogod",
    "all_tags": {
      "name": "Могод",
      "name:de": "Mogod",
      "name:en": "Mogod",
      "boundary": "administrative",
      "way_area": "0.36404",
      "admin_level": "6"
    }
  },
  {
    "osm_id": -7302588,
    "boundary": "administrative",
    "admin_level": 6,
    "parents": "-270073,-161033",
    "name": "Orgon",
    "local_name": "Орхон",
    "name_en": "Orgon",
    "all_tags": {
      "name": "Орхон",
      "name:de": "Orkhon",
      "name:en": "Orgon",
      "boundary": "administrative",
      "way_area": "0.479799",
      "admin_level": "6"
    }
  },
  {
    "osm_id": -7302587,
    "boundary": "administrative",
    "admin_level": 6,
    "parents": "-270073,-161033",
    "name": "Rashaant",
    "local_name": "Рашаант",
    "name_en": "Rashaant",
    "all_tags": {
      "name": "Рашаант",
      "name:de": "Rashaant",
      "name:en": "Rashaant",
      "boundary": "administrative",
      "way_area": "0.112744",
      "admin_level": "6"
    }
  },
  {
    "osm_id": -7302586,
    "boundary": "administrative",
    "admin_level": 6,
    "parents": "-270073,-161033",
    "name": "Saihan",
    "local_name": "Сайхан",
    "name_en": "Saihan",
    "all_tags": {
      "name": "Сайхан",
      "name:de": "Saikhan",
      "name:en": "Saihan",
      "boundary": "administrative",
      "way_area": "0.355236",
      "admin_level": "6"
    }
  },
  {
    "osm_id": -7302585,
    "boundary": "administrative",
    "admin_level": 6,
    "parents": "-270073,-161033",
    "name": "Selenge",
    "local_name": "Сэлэнгэ",
    "name_en": "Selenge",
    "all_tags": {
      "name": "Сэлэнгэ",
      "name:de": "Selenge",
      "name:en": "Selenge",
      "boundary": "administrative",
      "way_area": "0.604436",
      "admin_level": "6"
    }
  },
  {
    "osm_id": -7302584,
    "boundary": "administrative",
    "admin_level": 6,
    "parents": "-270073,-161033",
    "name": "Teshig",
    "local_name": "Тэшиг",
    "name_en": "Teshig",
    "all_tags": {
      "name": "Тэшиг",
      "name:de": "Teshig",
      "name:en": "Teshig",
      "boundary": "administrative",
      "way_area": "0.929586",
      "admin_level": "6"
    }
  },
  {
    "osm_id": -7302550,
    "boundary": "administrative",
    "admin_level": 6,
    "parents": "-270075,-161033",
    "name": "Battsengel",
    "local_name": "Батцэнгэл",
    "name_en": "Battsengel",
    "all_tags": {
      "name": "Батцэнгэл",
      "name:de": "Battsengel",
      "name:en": "Battsengel",
      "boundary": "administrative",
      "way_area": "0.400457",
      "admin_level": "6"
    }
  },
  {
    "osm_id": -7302549,
    "boundary": "administrative",
    "admin_level": 6,
    "parents": "-270075,-161033",
    "name": "Bulgan",
    "local_name": "Булган",
    "name_en": "Bulgan",
    "all_tags": {
      "name": "Булган",
      "name:de": "Bulgan",
      "name:en": "Bulgan",
      "boundary": "administrative",
      "way_area": "0.314907",
      "admin_level": "6"
    }
  },
  {
    "osm_id": -7302548,
    "boundary": "administrative",
    "admin_level": 6,
    "parents": "-270075,-161033",
    "name": "Chuluut",
    "local_name": "Чулуут",
    "name_en": "Chuluut",
    "all_tags": {
      "name": "Чулуут",
      "name:de": "Chuluut",
      "name:en": "Chuluut",
      "boundary": "administrative",
      "way_area": "0.483767",
      "admin_level": "6"
    }
  },
  {
    "osm_id": -7302547,
    "boundary": "administrative",
    "admin_level": 6,
    "parents": "-270075,-161033",
    "name": "Erdene-Bulgan",
    "local_name": "Эрдэнэбулган",
    "name_en": "Erdene-Bulgan",
    "all_tags": {
      "name": "Эрдэнэбулган",
      "name:de": "Erdenebulgan",
      "name:en": "Erdene-Bulgan",
      "boundary": "administrative",
      "way_area": "0.0672788",
      "admin_level": "6"
    }
  },
  {
    "osm_id": -7302546,
    "boundary": "administrative",
    "admin_level": 6,
    "parents": "-270075,-161033",
    "name": "Erdeenemandal",
    "local_name": "Эрдэнэмандал",
    "name_en": "Erdeenemandal",
    "all_tags": {
      "name": "Эрдэнэмандал",
      "name:de": "Erdenemandal",
      "name:en": "Erdeenemandal",
      "boundary": "administrative",
      "way_area": "0.415036",
      "admin_level": "6"
    }
  },
  {
    "osm_id": -7302545,
    "boundary": "administrative",
    "admin_level": 6,
    "parents": "-270075,-161033",
    "name": "Ih-Tamir",
    "local_name": "Их тамир",
    "name_en": "Ih-Tamir",
    "all_tags": {
      "name": "Их тамир",
      "name:de": "Ikh-Tamir",
      "name:en": "Ih-Tamir",
      "name:ru": "Ихтамир",
      "boundary": "administrative",
      "way_area": "0.606169",
      "admin_level": "6"
    }
  },
  {
    "osm_id": -7302544,
    "boundary": "administrative",
    "admin_level": 6,
    "parents": "-270075,-161033",
    "name": "Jargalant",
    "local_name": "Жаргалант",
    "name_en": "Jargalant",
    "all_tags": {
      "name": "Жаргалант",
      "name:de": "Jargalant",
      "name:en": "Jargalant",
      "name:uk": "Жарґалант",
      "boundary": "administrative",
      "way_area": "0.308029",
      "admin_level": "6"
    }
  },
  {
    "osm_id": -7302543,
    "boundary": "administrative",
    "admin_level": 6,
    "parents": "-270075,-161033",
    "name": "Hangai",
    "local_name": "Хангай",
    "name_en": "Hangai",
    "all_tags": {
      "name": "Хангай",
      "name:de": "Khangai",
      "name:en": "Hangai",
      "boundary": "administrative",
      "way_area": "0.47753",
      "admin_level": "6"
    }
  },
  {
    "osm_id": -7302542,
    "boundary": "administrative",
    "admin_level": 6,
    "parents": "-270075,-161033",
    "name": "Hashaat",
    "local_name": "Хашаат",
    "name_en": "Hashaat",
    "all_tags": {
      "name": "Хашаат",
      "name:de": "Khashaat",
      "name:en": "Hashaat",
      "boundary": "administrative",
      "way_area": "0.287628",
      "admin_level": "6"
    }
  },
  {
    "osm_id": -7302541,
    "boundary": "administrative",
    "admin_level": 6,
    "parents": "-270075,-161033",
    "name": "Hairhan",
    "local_name": "Хайрхан",
    "name_en": "Hairhan",
    "all_tags": {
      "name": "Хайрхан",
      "name:de": "Khairkhan",
      "name:en": "Hairhan",
      "boundary": "administrative",
      "way_area": "0.292079",
      "admin_level": "6"
    }
  },
  {
    "osm_id": -7302540,
    "boundary": "administrative",
    "admin_level": 6,
    "parents": "-270075,-161033",
    "name": "Hotont",
    "local_name": "Хотонт",
    "name_en": "Hotont",
    "all_tags": {
      "name": "Хотонт",
      "name:de": "Khotont",
      "name:en": "Hotont",
      "boundary": "administrative",
      "way_area": "0.263655",
      "admin_level": "6"
    }
  },
  {
    "osm_id": -7302539,
    "boundary": "administrative",
    "admin_level": 6,
    "parents": "-270075,-161033",
    "name": "Ugiinuur",
    "local_name": "Өгий нуур",
    "name_en": "Ugiinuur",
    "all_tags": {
      "name": "Өгий нуур",
      "name:de": "Ögii nuur",
      "name:en": "Ugiinuur",
      "name:ru": "Угийнуур",
      "boundary": "administrative",
      "way_area": "0.200299",
      "admin_level": "6"
    }
  },
  {
    "osm_id": -7302538,
    "boundary": "administrative",
    "admin_level": 6,
    "parents": "-270075,-161033",
    "name": "Ölziit",
    "local_name": "Өлзийт",
    "name_en": "Ölziit",
    "all_tags": {
      "name": "Өлзийт",
      "name:de": "Ölziit",
      "name:en": "Ölziit",
      "name:ru": "Улзийт",
      "boundary": "administrative",
      "way_area": "0.206464",
      "admin_level": "6"
    }
  },
  {
    "osm_id": -7302537,
    "boundary": "administrative",
    "admin_level": 6,
    "parents": "-270075,-161033",
    "name": "Ondor-Ulaan",
    "local_name": "Өндөр-Улаан",
    "name_en": "Ondor-Ulaan",
    "all_tags": {
      "name": "Өндөр-Улаан",
      "name:de": "Öndör-Ulaan",
      "name:en": "Ondor-Ulaan",
      "name:ru": "Ундер-Улаан",
      "boundary": "administrative",
      "way_area": "0.534128",
      "admin_level": "6"
    }
  },
  {
    "osm_id": -7302536,
    "boundary": "administrative",
    "admin_level": 6,
    "parents": "-270075,-161033",
    "name": "Tariat",
    "local_name": "Тариат",
    "name_en": "Tariat",
    "all_tags": {
      "name": "Тариат",
      "name:de": "Tariat",
      "name:en": "Tariat",
      "boundary": "administrative",
      "way_area": "0.501806",
      "admin_level": "6"
    }
  },
  {
    "osm_id": -7302535,
    "boundary": "administrative",
    "admin_level": 6,
    "parents": "-270075,-161033",
    "name": "Tsahir",
    "local_name": "Цахир",
    "name_en": "Tsahir",
    "all_tags": {
      "name": "Цахир",
      "name:de": "Tsakhir",
      "name:en": "Tsahir",
      "boundary": "administrative",
      "way_area": "0.407193",
      "admin_level": "6"
    }
  },
  {
    "osm_id": -7302534,
    "boundary": "administrative",
    "admin_level": 6,
    "parents": "-270075,-161033",
    "name": "Tsenher",
    "local_name": "Цэнхэр",
    "name_en": "Tsenher",
    "all_tags": {
      "name": "Цэнхэр",
      "name:de": "Tsenkher",
      "name:en": "Tsenher",
      "boundary": "administrative",
      "way_area": "0.372286",
      "admin_level": "6"
    }
  },
  {
    "osm_id": -7302533,
    "boundary": "administrative",
    "admin_level": 6,
    "parents": "-270075,-161033",
    "name": "Tsetserleg",
    "local_name": "Цэцэрлэг",
    "name_en": "Tsetserleg",
    "all_tags": {
      "name": "Цэцэрлэг",
      "name:de": "Tsetserleg",
      "name:en": "Tsetserleg",
      "boundary": "administrative",
      "way_area": "0.317142",
      "admin_level": "6"
    }
  },
  {
    "osm_id": -7302532,
    "boundary": "administrative",
    "admin_level": 6,
    "parents": "-270075,-161033",
    "name": "Tuvshruuleh",
    "local_name": "Түвшрүүлэх",
    "name_en": "Tuvshruuleh",
    "all_tags": {
      "name": "Түвшрүүлэх",
      "name:de": "Tüvshrüülekh",
      "name:en": "Tuvshruuleh",
      "name:ru": "Тувшруулэх",
      "boundary": "administrative",
      "way_area": "0.149771",
      "admin_level": "6"
    }
  },
  {
    "osm_id": -7302479,
    "boundary": "administrative",
    "admin_level": 6,
    "parents": "-3382267,-161033",
    "name": "Altanbulag",
    "local_name": "Алтанбулаг",
    "name_en": "Altanbulag",
    "all_tags": {
      "name": "Алтанбулаг",
      "name:de": "Altanbulag",
      "name:en": "Altanbulag",
      "boundary": "administrative",
      "way_area": "0.6576",
      "admin_level": "6"
    }
  },
  {
    "osm_id": -7302478,
    "boundary": "administrative",
    "admin_level": 6,
    "parents": "-3382267,-161033",
    "name": "Argalant",
    "local_name": "Аргалант",
    "name_en": "Argalant",
    "all_tags": {
      "name": "Аргалант",
      "name:de": "Argalant",
      "name:en": "Argalant",
      "boundary": "administrative",
      "way_area": "0.124766",
      "admin_level": "6"
    }
  },
  {
    "osm_id": -7302477,
    "boundary": "administrative",
    "admin_level": 6,
    "parents": "-3382267,-161033",
    "name": "Arkhust",
    "local_name": "Архуст",
    "name_en": "Arkhust",
    "all_tags": {
      "name": "Архуст",
      "name:de": "Arkhust",
      "name:en": "Arkhust",
      "boundary": "administrative",
      "way_area": "0.0970656",
      "admin_level": "6"
    }
  },
  {
    "osm_id": -7302476,
    "boundary": "administrative",
    "admin_level": 6,
    "parents": "-3382267,-161033",
    "name": "Batsumber",
    "local_name": "Батсүмбэр",
    "name_en": "Batsumber",
    "all_tags": {
      "name": "Батсүмбэр",
      "name:de": "Batsümber",
      "name:en": "Batsumber",
      "name:ru": "Батсумбэр",
      "boundary": "administrative",
      "way_area": "0.281301",
      "admin_level": "6"
    }
  },
  {
    "osm_id": -7302475,
    "boundary": "administrative",
    "admin_level": 6,
    "parents": "-3382267,-161033",
    "name": "Bayan",
    "local_name": "Баян",
    "name_en": "Bayan",
    "all_tags": {
      "name": "Баян",
      "name:de": "Bayan",
      "name:en": "Bayan",
      "boundary": "administrative",
      "way_area": "0.362112",
      "admin_level": "6"
    }
  },
  {
    "osm_id": -7302474,
    "boundary": "administrative",
    "admin_level": 6,
    "parents": "-3382267,-161033",
    "name": "Bayan-Onjuul",
    "local_name": "Баян-Өнжүүл",
    "name_en": "Bayan-Onjuul",
    "all_tags": {
      "name": "Баян-Өнжүүл",
      "name:de": "Bayan-Önjüül",
      "name:en": "Bayan-Onjuul",
      "name:ru": "Баян-Унжуул",
      "boundary": "administrative",
      "way_area": "0.533951",
      "admin_level": "6"
    }
  },
  {
    "osm_id": -7302473,
    "boundary": "administrative",
    "admin_level": 6,
    "parents": "-3382267,-161033",
    "name": "Bayanchandmani",
    "local_name": "Баянчандмань",
    "name_en": "Bayanchandmani",
    "all_tags": {
      "name": "Баянчандмань",
      "name:de": "Bayanchandmani",
      "name:en": "Bayanchandmani",
      "boundary": "administrative",
      "way_area": "0.0579082",
      "admin_level": "6"
    }
  },
  {
    "osm_id": -7302472,
    "boundary": "administrative",
    "admin_level": 6,
    "parents": "-3382267,-161033",
    "name": "Bayandelger",
    "local_name": "Баяндэлгэр",
    "name_en": "Bayandelger",
    "all_tags": {
      "name": "Баяндэлгэр",
      "name:de": "Bayandelger",
      "name:en": "Bayandelger",
      "boundary": "administrative",
      "way_area": "0.162781",
      "admin_level": "6"
    }
  },
  {
    "osm_id": -7302471,
    "boundary": "administrative",
    "admin_level": 6,
    "parents": "-3382267,-161033",
    "name": "Bayanjargalan",
    "local_name": "Баянжаргалан",
    "name_en": "Bayanjargalan",
    "all_tags": {
      "name": "Баянжаргалан",
      "name:de": "Bayanjargalan",
      "name:en": "Bayanjargalan",
      "boundary": "administrative",
      "way_area": "0.346371",
      "admin_level": "6"
    }
  },
  {
    "osm_id": -7302470,
    "boundary": "administrative",
    "admin_level": 6,
    "parents": "-3382267,-161033",
    "name": "Bayankhangai",
    "local_name": "Баянхангай",
    "name_en": "Bayankhangai",
    "all_tags": {
      "name": "Баянхангай",
      "name:de": "Bayankhangai",
      "name:en": "Bayankhangai",
      "boundary": "administrative",
      "way_area": "0.124496",
      "admin_level": "6"
    }
  },
  {
    "osm_id": -7302469,
    "boundary": "administrative",
    "admin_level": 6,
    "parents": "-3382267,-161033",
    "name": "Bayantsagaan",
    "local_name": "Баянцагаан",
    "name_en": "Bayantsagaan",
    "all_tags": {
      "name": "Баянцагаан",
      "name:de": "Bayantsagaan",
      "name:en": "Bayantsagaan",
      "boundary": "administrative",
      "way_area": "0.670951",
      "admin_level": "6"
    }
  },
  {
    "osm_id": -7302468,
    "boundary": "administrative",
    "admin_level": 6,
    "parents": "-3382267,-161033",
    "name": "Bayantsogt",
    "local_name": "Баянцогт",
    "name_en": "Bayantsogt",
    "all_tags": {
      "name": "Баянцогт",
      "name:de": "Bayantsogt",
      "name:en": "Bayantsogt",
      "boundary": "administrative",
      "way_area": "0.168166",
      "admin_level": "6"
    }
  },
  {
    "osm_id": -7302467,
    "boundary": "administrative",
    "admin_level": 6,
    "parents": "-3382267,-161033",
    "name": "Bornuur",
    "local_name": "Борнуур",
    "name_en": "Bornuur",
    "all_tags": {
      "name": "Борнуур",
      "name:de": "Bornuur",
      "name:en": "Bornuur",
      "boundary": "administrative",
      "way_area": "0.157029",
      "admin_level": "6"
    }
  },
  {
    "osm_id": -7302466,
    "boundary": "administrative",
    "admin_level": 6,
    "parents": "-3382267,-161033",
    "name": "Buren",
    "local_name": "Бүрэн",
    "name_en": "Buren",
    "all_tags": {
      "name": "Бүрэн",
      "name:de": "Büren",
      "name:en": "Buren",
      "name:ru": "Бурэн",
      "boundary": "administrative",
      "way_area": "0.417686",
      "admin_level": "6"
    }
  },
  {
    "osm_id": -7302465,
    "boundary": "administrative",
    "admin_level": 6,
    "parents": "-3382267,-161033",
    "name": "Delgerhaan",
    "local_name": "Дэлгэрхаан",
    "name_en": "Delgerhaan",
    "all_tags": {
      "name": "Дэлгэрхаан",
      "name:de": "Delgerkhaan",
      "name:en": "Delgerhaan",
      "boundary": "administrative",
      "way_area": "0.246877",
      "admin_level": "6"
    }
  },
  {
    "osm_id": -7302464,
    "boundary": "administrative",
    "admin_level": 6,
    "parents": "-3382267,-161033",
    "name": "Erdene",
    "local_name": "Эрдэнэ",
    "name_en": "Erdene",
    "all_tags": {
      "name": "Эрдэнэ",
      "name:de": "Erdene",
      "name:en": "Erdene",
      "boundary": "administrative",
      "way_area": "1.00486",
      "admin_level": "6"
    }
  },
  {
    "osm_id": -7302463,
    "boundary": "administrative",
    "admin_level": 6,
    "parents": "-3382267,-161033",
    "name": "Erdenesant",
    "local_name": "Эрдэнэсант",
    "name_en": "Erdenesant",
    "all_tags": {
      "name": "Эрдэнэсант",
      "name:de": "Erdenesant",
      "name:en": "Erdenesant",
      "boundary": "administrative",
      "way_area": "0.374635",
      "admin_level": "6"
    }
  },
  {
    "osm_id": -7302462,
    "boundary": "administrative",
    "admin_level": 6,
    "parents": "-3382267,-161033",
    "name": "Jargalant",
    "local_name": "Жаргалант",
    "name_en": "Jargalant",
    "all_tags": {
      "name": "Жаргалант",
      "name:de": "Jargalant",
      "name:en": "Jargalant",
      "name:uk": "Жарґалант",
      "boundary": "administrative",
      "way_area": "0.212007",
      "admin_level": "6"
    }
  },
  {
    "osm_id": -7302461,
    "boundary": "administrative",
    "admin_level": 6,
    "parents": "-3382267,-161033",
    "name": "Lun",
    "local_name": "Лүн",
    "name_en": "Lun",
    "all_tags": {
      "name": "Лүн",
      "name:de": "Lün",
      "name:en": "Lun",
      "name:ru": "Лунэ",
      "boundary": "administrative",
      "way_area": "0.296907",
      "admin_level": "6"
    }
  },
  {
    "osm_id": -7302460,
    "boundary": "administrative",
    "admin_level": 6,
    "parents": "-3382267,-161033",
    "name": "Mongonmorit",
    "local_name": "Мөнгөнморьт",
    "name_en": "Mongonmorit",
    "all_tags": {
      "name": "Мөнгөнморьт",
      "name:de": "Möngönmorit",
      "name:en": "Mongonmorit",
      "name:ru": "Менгенморьт",
      "boundary": "administrative",
      "way_area": "0.826246",
      "wikidata": "Q3403761",
      "admin_level": "6"
    }
  },
  {
    "osm_id": -7302459,
    "boundary": "administrative",
    "admin_level": 6,
    "parents": "-3382267,-161033",
    "name": "Ondorshireet",
    "local_name": "Өндөрширээт",
    "name_en": "Ondorshireet",
    "all_tags": {
      "name": "Өндөрширээт",
      "name:de": "Öndörshireet",
      "name:en": "Ondorshireet",
      "name:ru": "Ундерширээт",
      "boundary": "administrative",
      "way_area": "0.358103",
      "admin_level": "6"
    }
  },
  {
    "osm_id": -7302458,
    "boundary": "administrative",
    "admin_level": 6,
    "parents": "-3382267,-161033",
    "name": "Sergelen",
    "local_name": "Сэргэлэн",
    "name_en": "Sergelen",
    "all_tags": {
      "name": "Сэргэлэн",
      "name:de": "Sergelen",
      "name:en": "Sergelen",
      "boundary": "administrative",
      "way_area": "0.442224",
      "admin_level": "6"
    }
  },
  {
    "osm_id": -7302457,
    "boundary": "administrative",
    "admin_level": 6,
    "parents": "-3382267,-161033",
    "name": "Sumber",
    "local_name": "Сүмбэр",
    "name_en": "Sumber",
    "all_tags": {
      "name": "Сүмбэр",
      "name:de": "Sümber",
      "name:en": "Sumber",
      "name:ru": "Сүмбэр",
      "boundary": "administrative",
      "way_area": "0.0518818",
      "admin_level": "6"
    }
  },
  {
    "osm_id": -7302456,
    "boundary": "administrative",
    "admin_level": 6,
    "parents": "-3382267,-161033",
    "name": "Tseel",
    "local_name": "Цээл",
    "name_en": "Tseel",
    "all_tags": {
      "name": "Цээл",
      "name:de": "Tseel",
      "name:en": "Tseel",
      "boundary": "administrative",
      "way_area": "0.20304",
      "admin_level": "6"
    }
  },
  {
    "osm_id": -7302455,
    "boundary": "administrative",
    "admin_level": 6,
    "parents": "-3382267,-161033",
    "name": "Ugtaal",
    "local_name": "Угтаал",
    "name_en": "Ugtaal",
    "all_tags": {
      "name": "Угтаал",
      "name:de": "Ugtaal",
      "name:en": "Ugtaal",
      "boundary": "administrative",
      "way_area": "0.166648",
      "admin_level": "6"
    }
  },
  {
    "osm_id": -7302454,
    "boundary": "administrative",
    "admin_level": 6,
    "parents": "-3382267,-161033",
    "name": "Zaamar",
    "local_name": "Заамар",
    "name_en": "Zaamar",
    "all_tags": {
      "name": "Заамар",
      "name:de": "Zaamar",
      "name:en": "Zaamar",
      "boundary": "administrative",
      "way_area": "0.356974",
      "admin_level": "6"
    }
  },
  {
    "osm_id": -7302453,
    "boundary": "administrative",
    "admin_level": 6,
    "parents": "-3382267,-161033",
    "name": "Zuunmod",
    "local_name": "Зуунмод",
    "name_en": "Zuunmod",
    "all_tags": {
      "name": "Зуунмод",
      "name:de": "Zuunmod",
      "name:en": "Zuunmod",
      "boundary": "administrative",
      "way_area": "0.0128785",
      "admin_level": "6"
    }
  },
  {
    "osm_id": -7302222,
    "boundary": "administrative",
    "admin_level": 6,
    "parents": "-270092,-161033",
    "name": "Bayan-Ondor",
    "local_name": "Баян-Өндөр",
    "name_en": "Bayan-Ondor",
    "all_tags": {
      "name": "Баян-Өндөр",
      "name:de": "Bayan-Öndör",
      "name:en": "Bayan-Ondor",
      "name:ru": "Баян-Ундер",
      "boundary": "administrative",
      "way_area": "0.0362966",
      "admin_level": "6"
    }
  },
  {
    "osm_id": -7302221,
    "boundary": "administrative",
    "admin_level": 6,
    "parents": "-270092,-161033",
    "name": "Jargalant",
    "local_name": "Жаргалант",
    "name_en": "Jargalant",
    "all_tags": {
      "name": "Жаргалант",
      "name:de": "Jargalant",
      "name:en": "Jargalant",
      "boundary": "administrative",
      "way_area": "0.0541583",
      "admin_level": "6"
    }
  },
  {
    "osm_id": -7302215,
    "boundary": "administrative",
    "admin_level": 6,
    "parents": "-270091,-161033",
    "name": "Hongor",
    "local_name": "Хонгор",
    "name_en": "Hongor",
    "all_tags": {
      "name": "Хонгор",
      "name:de": "Khongor",
      "name:en": "Hongor",
      "boundary": "administrative",
      "way_area": "0.366872",
      "admin_level": "6"
    }
  },
  {
    "osm_id": -7302214,
    "boundary": "administrative",
    "admin_level": 6,
    "parents": "-270091,-161033",
    "name": "Orgon",
    "local_name": "Орхон",
    "name_en": "Orgon",
    "all_tags": {
      "name": "Орхон",
      "name:de": "Orkhon",
      "name:en": "Orgon",
      "boundary": "administrative",
      "way_area": "0.0594982",
      "wikidata": "Q7102939",
      "wikipedia": "mn:Орхон сум (Дархан-Уул)",
      "admin_level": "6",
      "wikipedia:en": "Orkhon,_Darkhan-Uul"
    }
  },
  {
    "osm_id": -7302213,
    "boundary": "administrative",
    "admin_level": 6,
    "parents": "-270091,-161033",
    "name": "Darhan",
    "local_name": "Дархан",
    "name_en": "Darhan",
    "all_tags": {
      "name": "Дархан",
      "name:ar": "دارخان",
      "name:de": "Darkhan",
      "name:en": "Darhan",
      "boundary": "administrative",
      "way_area": "0.0138486",
      "admin_level": "6",
      "alt_name:ar": "درخان"
    }
  },
  {
    "osm_id": -7302212,
    "boundary": "administrative",
    "admin_level": 6,
    "parents": "-270091,-161033",
    "name": "Shariingol",
    "local_name": "Шарынгол",
    "name_en": "Shariingol",
    "all_tags": {
      "name": "Шарынгол",
      "name:de": "Sharyngol",
      "name:en": "Shariingol",
      "boundary": "administrative",
      "way_area": "0.0300673",
      "admin_level": "6"
    }
  },
  {
    "osm_id": -7297920,
    "boundary": "administrative",
    "admin_level": 6,
    "parents": "-270074,-161033",
    "name": "Bogd",
    "local_name": "Богд",
    "name_en": "Bogd",
    "all_tags": {
      "name": "Богд",
      "name:de": "Bogd",
      "name:en": "Bogd",
      "boundary": "administrative",
      "way_area": "1.11319",
      "admin_level": "6"
    }
  },
  {
    "osm_id": -7297919,
    "boundary": "administrative",
    "admin_level": 6,
    "parents": "-270074,-161033",
    "name": "Baruunbayan-Ulaan",
    "local_name": "Баруун Баян-Улаан",
    "name_en": "Baruunbayan-Ulaan",
    "all_tags": {
      "name": "Баруун Баян-Улаан",
      "name:de": "Baruun Bayan-Ulaan",
      "name:en": "Baruunbayan-Ulaan",
      "boundary": "administrative",
      "way_area": "0.489608",
      "admin_level": "6"
    }
  },
  {
    "osm_id": -7297918,
    "boundary": "administrative",
    "admin_level": 6,
    "parents": "-270074,-161033",
    "name": "Guchin-Us",
    "local_name": "Гучин-Ус",
    "name_en": "Guchin-Us",
    "all_tags": {
      "name": "Гучин-Ус",
      "name:de": "Guchin-Us",
      "name:en": "Guchin-Us",
      "boundary": "administrative",
      "way_area": "0.552096",
      "admin_level": "6"
    }
  },
  {
    "osm_id": -7297917,
    "boundary": "administrative",
    "admin_level": 6,
    "parents": "-270074,-161033",
    "name": "Togrog",
    "local_name": "Төгрөг",
    "name_en": "Togrog",
    "all_tags": {
      "name": "Төгрөг",
      "name:de": "Tögrög",
      "name:en": "Togrog",
      "name:ru": "Тугрег",
      "boundary": "administrative",
      "way_area": "0.593333",
      "admin_level": "6"
    }
  },
  {
    "osm_id": -7297916,
    "boundary": "administrative",
    "admin_level": 6,
    "parents": "-270074,-161033",
    "name": "Bayangol",
    "local_name": "Баянгол",
    "name_en": "Bayangol",
    "all_tags": {
      "name": "Баянгол",
      "name:de": "Bayangol",
      "name:en": "Bayangol",
      "boundary": "administrative",
      "way_area": "0.401993",
      "admin_level": "6"
    }
  },
  {
    "osm_id": -7297915,
    "boundary": "administrative",
    "admin_level": 6,
    "parents": "-270074,-161033",
    "name": "Sant",
    "local_name": "Сант",
    "name_en": "Sant",
    "all_tags": {
      "name": "Сант",
      "name:de": "Sant",
      "name:en": "Sant",
      "boundary": "administrative",
      "way_area": "0.300293",
      "admin_level": "6"
    }
  },
  {
    "osm_id": -7297914,
    "boundary": "administrative",
    "admin_level": 6,
    "parents": "-270074,-161033",
    "name": "Bayan-Ondor",
    "local_name": "Баян-Өндөр",
    "name_en": "Bayan-Ondor",
    "all_tags": {
      "name": "Баян-Өндөр",
      "name:de": "Bayan-Öndör",
      "name:en": "Bayan-Ondor",
      "name:ru": "Баян-Ундер",
      "boundary": "administrative",
      "way_area": "0.335095",
      "admin_level": "6"
    }
  },
  {
    "osm_id": -7297913,
    "boundary": "administrative",
    "admin_level": 6,
    "parents": "-270074,-161033",
    "name": "Burd",
    "local_name": "Бүрд",
    "name_en": "Burd",
    "all_tags": {
      "name": "Бүрд",
      "name:de": "Bürd",
      "name:en": "Burd",
      "name:ru": "Бурд",
      "boundary": "administrative",
      "way_area": "0.312753",
      "admin_level": "6"
    }
  },
  {
    "osm_id": -7297912,
    "boundary": "administrative",
    "admin_level": 6,
    "parents": "-270074,-161033",
    "name": "Harhorin",
    "local_name": "Хархорин",
    "name_en": "Harhorin",
    "all_tags": {
      "name": "Хархорин",
      "name:de": "Kharkhorin",
      "name:en": "Harhorin",
      "boundary": "administrative",
      "way_area": "0.245142",
      "wikipedia": "mn:Хархорин сум",
      "admin_level": "6",
      "wikipedia:en": "Kharkhorin",
      "wikimedia_commons": "Category:Kharkhorin"
    }
  },
  {
    "osm_id": -7297911,
    "boundary": "administrative",
    "admin_level": 6,
    "parents": "-270074,-161033",
    "name": "Hujirt",
    "local_name": "Хужирт",
    "name_en": "Hujirt",
    "all_tags": {
      "name": "Хужирт",
      "name:de": "Khujirt",
      "name:en": "Hujirt",
      "boundary": "administrative",
      "way_area": "0.209235",
      "admin_level": "6"
    }
  },
  {
    "osm_id": -7297910,
    "boundary": "administrative",
    "admin_level": 6,
    "parents": "-270074,-161033",
    "name": "Eson-Zuil",
    "local_name": "Есөнзүйл",
    "name_en": "Eson-Zuil",
    "all_tags": {
      "name": "Есөнзүйл",
      "name:de": "Yesönzüil",
      "name:en": "Eson-Zuil",
      "name:ru": "Есензуйлэ",
      "boundary": "administrative",
      "way_area": "0.232404",
      "admin_level": "6"
    }
  },
  {
    "osm_id": -7297909,
    "boundary": "administrative",
    "admin_level": 6,
    "parents": "-270074,-161033",
    "name": "Ölziit",
    "local_name": "Өлзийт",
    "name_en": "Ölziit",
    "all_tags": {
      "name": "Өлзийт",
      "name:de": "Ölziit",
      "name:en": "Ölziit",
      "name:ru": "Улзийт",
      "boundary": "administrative",
      "way_area": "0.245168",
      "admin_level": "6"
    }
  },
  {
    "osm_id": -7297908,
    "boundary": "administrative",
    "admin_level": 6,
    "parents": "-270074,-161033",
    "name": "Zuunbayan-Ulaan",
    "local_name": "Зүүнбаян-Улаан",
    "name_en": "Zuunbayan-Ulaan",
    "all_tags": {
      "name": "Зүүнбаян-Улаан",
      "name:de": "Züünbayan-Ulaan",
      "name:en": "Zuunbayan-Ulaan",
      "name:ru": "Зуунбаян-Улаан",
      "boundary": "administrative",
      "way_area": "0.33072",
      "admin_level": "6"
    }
  },
  {
    "osm_id": -7297907,
    "boundary": "administrative",
    "admin_level": 6,
    "parents": "-270074,-161033",
    "name": "Bat-Olzii",
    "local_name": "Бат-Өлзий",
    "name_en": "Bat-Olzii",
    "all_tags": {
      "name": "Бат-Өлзий",
      "name:de": "Bat-Ölzii",
      "name:en": "Bat-Olzii",
      "name:ru": "Бат-Улзий",
      "boundary": "administrative",
      "way_area": "0.334094",
      "wikipedia": "mn:Бат-Өлзий сум",
      "admin_level": "6",
      "wikipedia:en": "Bat-Ölzii, Övörkhangai"
    }
  },
  {
    "osm_id": -7297906,
    "boundary": "administrative",
    "admin_level": 6,
    "parents": "-270074,-161033",
    "name": "Uyanga",
    "local_name": "Уянга",
    "name_en": "Uyanga",
    "all_tags": {
      "name": "Уянга",
      "name:de": "Uyanga",
      "name:en": "Uyanga",
      "boundary": "administrative",
      "way_area": "0.331561",
      "admin_level": "6"
    }
  },
  {
    "osm_id": -7297905,
    "boundary": "administrative",
    "admin_level": 6,
    "parents": "-270074,-161033",
    "name": "Nariinteel",
    "local_name": "Нарийнтээл",
    "name_en": "Nariinteel",
    "all_tags": {
      "name": "Нарийнтээл",
      "name:de": "Nariinteel",
      "name:en": "Nariinteel",
      "boundary": "administrative",
      "way_area": "0.319304",
      "admin_level": "6"
    }
  },
  {
    "osm_id": -7297904,
    "boundary": "administrative",
    "admin_level": 6,
    "parents": "-270074,-161033",
    "name": "Hairhandulaan",
    "local_name": "Хайрхандулаан",
    "name_en": "Hairhandulaan",
    "all_tags": {
      "name": "Хайрхандулаан",
      "name:de": "Khairkhandulaan",
      "name:en": "Hairhandulaan",
      "boundary": "administrative",
      "way_area": "0.506976",
      "admin_level": "6"
    }
  },
  {
    "osm_id": -7297903,
    "boundary": "administrative",
    "admin_level": 6,
    "parents": "-270074,-161033",
    "name": "Taragt",
    "local_name": "Тарагт",
    "name_en": "Taragt",
    "all_tags": {
      "name": "Тарагт",
      "name:de": "Taragt",
      "name:en": "Taragt",
      "boundary": "administrative",
      "way_area": "0.418574",
      "admin_level": "6"
    }
  },
  {
    "osm_id": -7297902,
    "boundary": "administrative",
    "admin_level": 6,
    "parents": "-270074,-161033",
    "name": "Arvaiheer",
    "local_name": "Арвайхээр",
    "name_en": "Arvaiheer",
    "all_tags": {
      "name": "Арвайхээр",
      "name:de": "Arvaikheer",
      "name:en": "Arvaiheer",
      "boundary": "administrative",
      "way_area": "0.0240522",
      "admin_level": "6"
    }
  },
  {
    "osm_id": -7297819,
    "boundary": "administrative",
    "admin_level": 6,
    "parents": "-270095,-161033",
    "name": "Bayantal",
    "local_name": "Баянтал",
    "name_en": "Bayantal",
    "all_tags": {
      "name": "Баянтал",
      "name:de": "Bayantal",
      "name:en": "Bayantal",
      "boundary": "administrative",
      "way_area": "0.0978189",
      "admin_level": "6"
    }
  },
  {
    "osm_id": -7297818,
    "boundary": "administrative",
    "admin_level": 6,
    "parents": "-270095,-161033",
    "name": "Shiveegovi",
    "local_name": "Шивээговь",
    "name_en": "Shiveegovi",
    "all_tags": {
      "name": "Шивээговь",
      "name:de": "Shiveegovi",
      "name:en": "Shiveegovi",
      "boundary": "administrative",
      "way_area": "0.0839239",
      "admin_level": "6"
    }
  },
  {
    "osm_id": -7297817,
    "boundary": "administrative",
    "admin_level": 6,
    "parents": "-270095,-161033",
    "name": "Sumber",
    "local_name": "Сүмбэр",
    "name_en": "Sumber",
    "all_tags": {
      "name": "Сүмбэр",
      "name:de": "Sümber",
      "name:en": "Sumber",
      "name:ru": "Сумбэр",
      "boundary": "administrative",
      "way_area": "0.441273",
      "admin_level": "6"
    }
  },
  {
    "osm_id": -7297810,
    "boundary": "administrative",
    "admin_level": 6,
    "parents": "-270094,-161033",
    "name": "Saihan-Ovoo",
    "local_name": "Сайхан-Овоо",
    "name_en": "Saihan-Ovoo",
    "all_tags": {
      "name": "Сайхан-Овоо",
      "name:de": "Saikhan-Ovoo",
      "name:en": "Saihan-Ovoo",
      "boundary": "administrative",
      "way_area": "0.464603",
      "admin_level": "6"
    }
  },
  {
    "osm_id": -7297809,
    "boundary": "administrative",
    "admin_level": 6,
    "parents": "-270094,-161033",
    "name": "Erdenedalai",
    "local_name": "Эрдэнэдалай",
    "name_en": "Erdenedalai",
    "all_tags": {
      "name": "Эрдэнэдалай",
      "name:de": "Erdenedalai",
      "name:en": "Erdenedalai",
      "boundary": "administrative",
      "way_area": "0.840313",
      "admin_level": "6"
    }
  },
  {
    "osm_id": -7297808,
    "boundary": "administrative",
    "admin_level": 6,
    "parents": "-270094,-161033",
    "name": "Delgerhangai",
    "local_name": "Дэлгэрхангай",
    "name_en": "Delgerhangai",
    "all_tags": {
      "name": "Дэлгэрхангай",
      "name:de": "Delgerkhangai",
      "name:en": "Delgerhangai",
      "boundary": "administrative",
      "way_area": "0.740904",
      "admin_level": "6"
    }
  },
  {
    "osm_id": -7297807,
    "boundary": "administrative",
    "admin_level": 6,
    "parents": "-270094,-161033",
    "name": "Huld",
    "local_name": "Хулд",
    "name_en": "Huld",
    "all_tags": {
      "name": "Хулд",
      "name:de": "Khuld",
      "name:en": "Huld",
      "boundary": "administrative",
      "way_area": "0.653095",
      "admin_level": "6"
    }
  },
  {
    "osm_id": -7297806,
    "boundary": "administrative",
    "admin_level": 6,
    "parents": "-270094,-161033",
    "name": "Luus",
    "local_name": "Луус",
    "name_en": "Luus",
    "all_tags": {
      "name": "Луус",
      "name:de": "Luus",
      "name:en": "Luus",
      "boundary": "administrative",
      "way_area": "0.352717",
      "admin_level": "6"
    }
  },
  {
    "osm_id": -7297805,
    "boundary": "administrative",
    "admin_level": 6,
    "parents": "-270094,-161033",
    "name": "Adaatsag",
    "local_name": "Адаацаг",
    "name_en": "Adaatsag",
    "all_tags": {
      "name": "Адаацаг",
      "name:de": "Adaatsag",
      "name:en": "Adaatsag",
      "boundary": "administrative",
      "way_area": "0.40146",
      "admin_level": "6"
    }
  },
  {
    "osm_id": -7297804,
    "boundary": "administrative",
    "admin_level": 6,
    "parents": "-270094,-161033",
    "name": "Delgertsogt",
    "local_name": "Дэлгэрцогт",
    "name_en": "Delgertsogt",
    "all_tags": {
      "name": "Дэлгэрцогт",
      "name:de": "Delgertsogt",
      "name:en": "Delgertsogt",
      "boundary": "administrative",
      "way_area": "0.283281",
      "admin_level": "6"
    }
  },
  {
    "osm_id": -7297803,
    "boundary": "administrative",
    "admin_level": 6,
    "parents": "-270094,-161033",
    "name": "Deren",
    "local_name": "Дэрэн",
    "name_en": "Deren",
    "all_tags": {
      "name": "Дэрэн",
      "name:de": "Deren",
      "name:en": "Deren",
      "boundary": "administrative",
      "way_area": "0.407212",
      "admin_level": "6"
    }
  },
  {
    "osm_id": -7297802,
    "boundary": "administrative",
    "admin_level": 6,
    "parents": "-270094,-161033",
    "name": "Tsagaandelger",
    "local_name": "Цагаандэлгэр",
    "name_en": "Tsagaandelger",
    "all_tags": {
      "name": "Цагаандэлгэр",
      "name:de": "Tsagaandelger",
      "name:en": "Tsagaandelger",
      "boundary": "administrative",
      "way_area": "0.3366",
      "admin_level": "6"
    }
  },
  {
    "osm_id": -7297801,
    "boundary": "administrative",
    "admin_level": 6,
    "parents": "-270094,-161033",
    "name": "Bayanjargalan",
    "local_name": "Баянжаргалан",
    "name_en": "Bayanjargalan",
    "all_tags": {
      "name": "Баянжаргалан",
      "name:de": "Bayanjargalan",
      "name:en": "Bayanjargalan",
      "boundary": "administrative",
      "way_area": "0.361888",
      "admin_level": "6"
    }
  },
  {
    "osm_id": -7297800,
    "boundary": "administrative",
    "admin_level": 6,
    "parents": "-270094,-161033",
    "name": "Ondorshil",
    "local_name": "Өндөршил",
    "name_en": "Ondorshil",
    "all_tags": {
      "name": "Өндөршил",
      "name:de": "Öndörshil",
      "name:en": "Ondorshil",
      "name:ru": "Ундершил",
      "boundary": "administrative",
      "way_area": "0.55732",
      "admin_level": "6"
    }
  },
  {
    "osm_id": -7297799,
    "boundary": "administrative",
    "admin_level": 6,
    "parents": "-270094,-161033",
    "name": "Govi-Ugtaal",
    "local_name": "Говь-Угтаал",
    "name_en": "Govi-Ugtaal",
    "all_tags": {
      "name": "Говь-Угтаал",
      "name:de": "Govi-Ugtaal",
      "name:en": "Govi-Ugtaal",
      "boundary": "administrative",
      "way_area": "0.349245",
      "admin_level": "6"
    }
  },
  {
    "osm_id": -7297798,
    "boundary": "administrative",
    "admin_level": 6,
    "parents": "-270094,-161033",
    "name": "Gurvansaihan",
    "local_name": "Гурвансайхан",
    "name_en": "Gurvansaihan",
    "all_tags": {
      "name": "Гурвансайхан",
      "name:de": "Gurvansaikhan",
      "name:en": "Gurvansaihan",
      "boundary": "administrative",
      "way_area": "0.601507",
      "admin_level": "6"
    }
  },
  {
    "osm_id": -7297797,
    "boundary": "administrative",
    "admin_level": 6,
    "parents": "-270094,-161033",
    "name": "Ölziit",
    "local_name": "Өлзийт",
    "name_en": "Ölziit",
    "all_tags": {
      "name": "Өлзийт",
      "name:de": "Ölziit",
      "name:en": "Ölziit",
      "name:ru": "Улзийт",
      "boundary": "administrative",
      "way_area": "1.71545",
      "admin_level": "6"
    }
  },
  {
    "osm_id": -7297796,
    "boundary": "administrative",
    "admin_level": 6,
    "parents": "-270094,-161033",
    "name": "Saihandulaan",
    "local_name": "Сайхандулаан",
    "name_en": "Saihandulaan",
    "all_tags": {
      "name": "Сайхандулаан",
      "name:de": "Saintsagaan",
      "name:en": "Saihandulaan",
      "boundary": "administrative",
      "way_area": "0.386267",
      "admin_level": "6"
    }
  },
  {
    "osm_id": -7297560,
    "boundary": "administrative",
    "admin_level": 6,
    "parents": "-270051,-161033",
    "name": "Manlai",
    "local_name": "Манлай",
    "name_en": "Manlai",
    "all_tags": {
      "name": "Манлай",
      "name:de": "Manlai",
      "name:en": "Manlai",
      "boundary": "administrative",
      "way_area": "1.28016",
      "admin_level": "6"
    }
  },
  {
    "osm_id": -7297559,
    "boundary": "administrative",
    "admin_level": 6,
    "parents": "-270051,-161033",
    "name": "Hanbogd",
    "local_name": "Ханбогд",
    "name_en": "Hanbogd",
    "all_tags": {
      "name": "Ханбогд",
      "name:de": "Khanbogd",
      "name:en": "Hanbogd",
      "boundary": "administrative",
      "way_area": "1.62582",
      "admin_level": "6"
    }
  },
  {
    "osm_id": -7297558,
    "boundary": "administrative",
    "admin_level": 6,
    "parents": "-270051,-161033",
    "name": "Bayan-Ovoo",
    "local_name": "Баян-Овоо",
    "name_en": "Bayan-Ovoo",
    "all_tags": {
      "name": "Баян-Овоо",
      "name:de": "Bayan-Ovoo",
      "name:en": "Bayan-Ovoo",
      "name:ru": "Баян-Овоо",
      "boundary": "administrative",
      "way_area": "1.2297",
      "admin_level": "6"
    }
  },
  {
    "osm_id": -7297557,
    "boundary": "administrative",
    "admin_level": 6,
    "parents": "-270051,-161033",
    "name": "Tsogttsetsii",
    "local_name": "Цогтцэций",
    "name_en": "Tsogttsetsii",
    "all_tags": {
      "name": "Цогтцэций",
      "name:de": "Tsogttsetsii",
      "name:en": "Tsogttsetsii",
      "boundary": "administrative",
      "way_area": "0.762573",
      "admin_level": "6"
    }
  },
  {
    "osm_id": -7297556,
    "boundary": "administrative",
    "admin_level": 6,
    "parents": "-270051,-161033",
    "name": "Tsogt-Ovoo",
    "local_name": "Цогт-Овоо",
    "name_en": "Tsogt-Ovoo",
    "all_tags": {
      "name": "Цогт-Овоо",
      "name:de": "Tsogt-Ovoo",
      "name:en": "Tsogt-Ovoo",
      "boundary": "administrative",
      "way_area": "0.673928",
      "admin_level": "6"
    }
  },
  {
    "osm_id": -7297555,
    "boundary": "administrative",
    "admin_level": 6,
    "parents": "-270051,-161033",
    "name": "Mandal-Ovoo",
    "local_name": "Мандал-Овоо",
    "name_en": "Mandal-Ovoo",
    "all_tags": {
      "name": "Мандал-Овоо",
      "name:de": "Mandal-Ovoo",
      "name:en": "Mandal-Ovoo",
      "boundary": "administrative",
      "way_area": "0.721068",
      "admin_level": "6"
    }
  },
  {
    "osm_id": -7297554,
    "boundary": "administrative",
    "admin_level": 6,
    "parents": "-270051,-161033",
    "name": "Bulgan",
    "local_name": "Булган",
    "name_en": "Bulgan",
    "all_tags": {
      "name": "Булган",
      "name:de": "Bulgan",
      "name:en": "Bulgan",
      "boundary": "administrative",
      "way_area": "0.845504",
      "admin_level": "6"
    }
  },
  {
    "osm_id": -7297553,
    "boundary": "administrative",
    "admin_level": 6,
    "parents": "-270051,-161033",
    "name": "Gurvantes",
    "local_name": "Гурван тэс",
    "name_en": "Gurvantes",
    "all_tags": {
      "name": "Гурван тэс",
      "name:de": "Gurvan tes",
      "name:en": "Gurvantes",
      "name:ru": "Гурвантэс",
      "boundary": "administrative",
      "way_area": "3.15687",
      "admin_level": "6"
    }
  },
  {
    "osm_id": -7297552,
    "boundary": "administrative",
    "admin_level": 6,
    "parents": "-270051,-161033",
    "name": "Sevrei",
    "local_name": "Сэврэй",
    "name_en": "Sevrei",
    "all_tags": {
      "name": "Сэврэй",
      "name:de": "Sevrei",
      "name:en": "Sevrei",
      "boundary": "administrative",
      "way_area": "0.892187",
      "admin_level": "6"
    }
  },
  {
    "osm_id": -7297551,
    "boundary": "administrative",
    "admin_level": 6,
    "parents": "-270051,-161033",
    "name": "Noyon",
    "local_name": "Ноён",
    "name_en": "Noyon",
    "all_tags": {
      "name": "Ноён",
      "name:de": "Noyon",
      "name:en": "Noyon",
      "name:ru": "Ноён",
      "boundary": "administrative",
      "way_area": "1.18208",
      "admin_level": "6"
    }
  },
  {
    "osm_id": -7297550,
    "boundary": "administrative",
    "admin_level": 6,
    "parents": "-270051,-161033",
    "name": "Bayandalai",
    "local_name": "Баяндалай",
    "name_en": "Bayandalai",
    "all_tags": {
      "name": "Баяндалай",
      "name:de": "Bayandalai",
      "name:en": "Bayandalai",
      "boundary": "administrative",
      "way_area": "1.19534",
      "wikipedia": "mn:Баяндалай сум",
      "admin_level": "6",
      "wikipedia:en": "Bayandalai, Ömnögovi"
    }
  },
  {
    "osm_id": -7297549,
    "boundary": "administrative",
    "admin_level": 6,
    "parents": "-270051,-161033",
    "name": "Hurmen",
    "local_name": "Хүрмэн",
    "name_en": "Hurmen",
    "all_tags": {
      "name": "Хүрмэн",
      "name:de": "Khürmen",
      "name:en": "Hurmen",
      "name:ru": "Хурмэн",
      "boundary": "administrative",
      "way_area": "1.44645",
      "admin_level": "6"
    }
  },
  {
    "osm_id": -7297548,
    "boundary": "administrative",
    "admin_level": 6,
    "parents": "-270051,-161033",
    "name": "Nomgon",
    "local_name": "Номгон",
    "name_en": "Nomgon",
    "all_tags": {
      "name": "Номгон",
      "name:de": "Nomgon",
      "name:en": "Nomgon",
      "boundary": "administrative",
      "way_area": "2.0443",
      "admin_level": "6"
    }
  },
  {
    "osm_id": -7297547,
    "boundary": "administrative",
    "admin_level": 6,
    "parents": "-270051,-161033",
    "name": "Hanhongor",
    "local_name": "Хан хонгор",
    "name_en": "Hanhongor",
    "all_tags": {
      "name": "Хан хонгор",
      "name:de": "Khan khongor",
      "name:en": "Hanhongor",
      "name:ru": "Ханхонгор",
      "boundary": "administrative",
      "way_area": "1.09596",
      "admin_level": "6"
    }
  },
  {
    "osm_id": -7297546,
    "boundary": "administrative",
    "admin_level": 6,
    "parents": "-270051,-161033",
    "name": "Dalanzadgad",
    "local_name": "Даланзадгад",
    "name_en": "Dalanzadgad",
    "all_tags": {
      "name": "Даланзадгад",
      "name:de": "Dalanzadgad",
      "name:en": "Dalanzadgad",
      "boundary": "administrative",
      "way_area": "0.0553488",
      "wikipedia": "mn:Даланзадгад",
      "admin_level": "6",
      "wikipedia:en": "Dalanzadgad"
    }
  },
  {
    "osm_id": -4074177,
    "boundary": "administrative",
    "admin_level": 4,
    "parents": "-161033",
    "name": "Zavkhan",
    "local_name": "Завхан",
    "name_en": "Zavkhan",
    "all_tags": {
      "name": "Завхан",
      "name:ar": "محافظة زافخان",
      "name:de": "Zawchan",
      "name:en": "Zavkhan",
      "name:es": "Zavhan",
      "name:fr": "Zavhan",
      "name:it": "Zavhan",
      "name:ja": "ザブハン",
      "name:mn": "Завхан",
      "name:pt": "Zavkhan",
      "name:ru": "Завхан",
      "boundary": "administrative",
      "int_name": "Zavkhan",
      "timezone": "Asia/Hovd",
      "way_area": "9.96931",
      "wikidata": "Q167764",
      "ISO3166-2": "MN-057",
      "admin_level": "4",
      "is_in:country": "Mongolia",
      "is_in:continent": "Asia",
      "is_in:country_code": "MN"
    }
  },
  {
    "osm_id": -3382267,
    "boundary": "administrative",
    "admin_level": 4,
    "parents": "-161033",
    "name": "Töv",
    "local_name": "Төв",
    "name_en": "Töv",
    "all_tags": {
      "name": "Төв",
      "name:ar": "محافظة توف",
      "name:de": "Töw",
      "name:en": "Töv",
      "name:es": "Töv",
      "name:fr": "Töv",
      "name:ja": "トゥブ",
      "name:mn": "Төв",
      "name:ru": "Туве",
      "name:zh": "中央省",
      "boundary": "administrative",
      "timezone": "Asia/Ulaanbaatar",
      "way_area": "8.71546",
      "wikidata": "Q276195",
      "ISO3166-2": "MN-047",
      "admin_level": "4",
      "alt_name:de": "Zentral",
      "alt_name:en": "Central",
      "name:zh-Hant": "中央省",
      "is_in:country": "Mongolia",
      "is_in:continent": "Asia",
      "is_in:country_code": "MN"
    }
  },
  {
    "osm_id": -3382266,
    "boundary": "administrative",
    "admin_level": 4,
    "parents": "-161033",
    "name": "Bayan-Ölgii",
    "local_name": "Баян-Өлгий",
    "name_en": "Bayan-Ölgii",
    "all_tags": {
      "name": "Баян-Өлгий",
      "name:ar": "محافظة بايان-أولجي",
      "name:de": "Bajan-Ölgii",
      "name:en": "Bayan-Ölgii",
      "name:es": "Bayan-Ölgiy",
      "name:fr": "Bayan-Ölgiy",
      "name:ja": "バヤン・ウルギー",
      "name:mn": "Баян-Өлгий",
      "name:pl": "Bayan-Ulgiy",
      "name:ru": "Баян-Улгий",
      "boundary": "administrative",
      "timezone": "Asia/Hovd",
      "way_area": "5.61157",
      "wikidata": "Q191792",
      "ISO3166-2": "MN-071",
      "admin_level": "4",
      "is_in:country": "Mongolia",
      "is_in:continent": "Asia",
      "is_in:country_code": "MN"
    }
  },
  {
    "osm_id": -270095,
    "boundary": "administrative",
    "admin_level": 4,
    "parents": "-161033",
    "name": "Govisumber",
    "local_name": "Говьсүмбэр",
    "name_en": "Govisumber",
    "all_tags": {
      "name": "Говьсүмбэр",
      "name:ar": "محافظة جوفيسومبر",
      "name:de": "Gobi-Sümber",
      "name:en": "Govisumber",
      "name:es": "Govisümber",
      "name:fr": "Govisümber",
      "name:ja": "ゴビスンベル",
      "name:mn": "Говьсүмбэр",
      "name:ru": "Говь-Сумбэр",
      "boundary": "administrative",
      "timezone": "Asia/Ulaanbaatar",
      "way_area": "0.623016",
      "wikidata": "Q236333",
      "ISO3166-2": "MN-064",
      "admin_level": "4",
      "is_in:country": "Mongolia",
      "name:zh_pinyin": "Xīnbā'ěrhǔ Yòu Qí",
      "is_in:continent": "Asia",
      "is_in:country_code": "MN"
    }
  },
  {
    "osm_id": -270094,
    "boundary": "administrative",
    "admin_level": 4,
    "parents": "-161033",
    "name": "Dundgovi",
    "local_name": "Дундговь",
    "name_en": "Dundgovi",
    "all_tags": {
      "name": "Дундговь",
      "name:ar": "محافظة دوندغوفي",
      "name:de": "Dund-Gobi",
      "name:en": "Dundgovi",
      "name:es": "Dundgovi",
      "name:fr": "Dundgovi",
      "name:ja": "ドンドゴビ",
      "name:mn": "Дундговь",
      "name:ru": "Дундговь",
      "name:zh": "中戈壁省",
      "boundary": "administrative",
      "timezone": "Asia/Ulaanbaatar",
      "way_area": "8.45186",
      "wikidata": "Q211835",
      "ISO3166-2": "MN-059",
      "admin_level": "4",
      "alt_name:de": "Mittelgobi",
      "alt_name:en": "Middle Gobi",
      "name:zh-Hant": "中戈壁省",
      "is_in:country": "Mongolia",
      "name:zh_pinyin": "Xīnbā'ěrhǔ Yòu Qí",
      "is_in:continent": "Asia",
      "is_in:country_code": "MN"
    }
  },
  {
    "osm_id": -270092,
    "boundary": "administrative",
    "admin_level": 4,
    "parents": "-161033",
    "name": "Orkhon",
    "local_name": "Орхон",
    "name_en": "Orkhon",
    "all_tags": {
      "name": "Орхон",
      "name:ar": "محافظة أورخون",
      "name:de": "Orchon",
      "name:en": "Orkhon",
      "name:es": "Orkhon",
      "name:fr": "Orhon",
      "name:ja": "オルホン",
      "name:mn": "Орхон",
      "name:ru": "Орхон",
      "boundary": "administrative",
      "timezone": "Asia/Ulaanbaatar",
      "way_area": "0.0904549",
      "wikidata": "Q234710",
      "ISO3166-2": "MN-035",
      "admin_level": "4",
      "is_in:country": "Mongolia",
      "name:zh_pinyin": "Xīnbā'ěrhǔ Yòu Qí",
      "is_in:continent": "Asia",
      "is_in:country_code": "MN"
    }
  },
  {
    "osm_id": -270091,
    "boundary": "administrative",
    "admin_level": 4,
    "parents": "-161033",
    "name": "Darkhan-Uul",
    "local_name": "Дархан-Уул",
    "name_en": "Darkhan-Uul",
    "all_tags": {
      "name": "Дархан-Уул",
      "name:ar": "محافظة درخان-وول",
      "name:de": "Darchan-Uul",
      "name:en": "Darkhan-Uul",
      "name:es": "Darhan-Uul",
      "name:fr": "Darhan-Uul",
      "name:ja": "ダルハン・オール",
      "name:mn": "Дархан-Уул",
      "name:ru": "Дархан-Уул",
      "boundary": "administrative",
      "timezone": "Asia/Ulaanbaatar",
      "way_area": "0.470286",
      "wikidata": "Q18827",
      "ISO3166-2": "MN-037",
      "admin_level": "4",
      "is_in:country": "Mongolia",
      "name:zh_pinyin": "Xīnbā'ěrhǔ Yòu Qí",
      "is_in:continent": "Asia",
      "is_in:country_code": "MN"
    }
  },
  {
    "osm_id": -270090,
    "boundary": "administrative",
    "admin_level": 4,
    "parents": "-161033",
    "name": "Ulaanbaatar",
    "local_name": "Улаанбаатар",
    "name_en": "Ulaanbaatar",
    "all_tags": {
      "name": "Улаанбаатар",
      "name:ar": "أولان باتور",
      "name:de": "Ulaanbaatar",
      "name:en": "Ulaanbaatar",
      "name:es": "Ulán Bator",
      "name:fr": "Oulan-Bator",
      "name:mn": "Улаанбаатар",
      "name:ru": "Улан-Батор",
      "name:zh": "乌兰巴托",
      "boundary": "administrative",
      "timezone": "Asia/Ulaanbaatar",
      "way_area": "0.592142",
      "wikidata": "Q23430",
      "ISO3166-2": "MN-1",
      "admin_level": "4",
      "name:zh-Hans": "乌兰巴托",
      "name:zh-Hant": "烏蘭巴托",
      "is_in:country": "Mongolia",
      "name:zh_pinyin": "Wū lán bā tuō",
      "is_in:continent": "Asia",
      "is_in:country_code": "MN"
    }
  },
  {
    "osm_id": -270089,
    "boundary": "administrative",
    "admin_level": 4,
    "parents": "-161033",
    "name": "Selenge",
    "local_name": "Сэлэнгэ",
    "name_en": "Selenge",
    "all_tags": {
      "name": "Сэлэнгэ",
      "name:ar": "محافظة سيلنج",
      "name:de": "Selenge",
      "name:en": "Selenge",
      "name:es": "Selenge",
      "name:fr": "Selenge",
      "name:ja": "セレンゲ",
      "name:mn": "Сэлэнгэ",
      "name:ru": "Сэлэнгэ",
      "boundary": "administrative",
      "timezone": "Asia/Ulaanbaatar",
      "way_area": "5.20228",
      "wikidata": "Q234680",
      "ISO3166-2": "MN-049",
      "admin_level": "4",
      "is_in:country": "Mongolia",
      "is_in:continent": "Asia",
      "is_in:country_code": "MN"
    }
  },
  {
    "osm_id": -270075,
    "boundary": "administrative",
    "admin_level": 4,
    "parents": "-161033",
    "name": "Arkhangai",
    "local_name": "Архангай",
    "name_en": "Arkhangai",
    "all_tags": {
      "name": "Архангай",
      "name:ar": "محافظة أرخانغاي",
      "name:de": "Archangai",
      "name:en": "Arkhangai",
      "name:es": "Arhangay",
      "name:fr": "Arhangay",
      "name:hu": "Arhangaj",
      "name:it": "Arhangaj",
      "name:ja": "アルハンガイ",
      "name:mn": "Архангай",
      "name:pt": "Arkhangay",
      "name:ru": "Архангай",
      "boundary": "administrative",
      "timezone": "Asia/Ulaanbaatar",
      "way_area": "6.60562",
      "wikidata": "Q207809",
      "ISO3166-2": "MN-073",
      "admin_level": "4",
      "is_in:country": "Mongolia",
      "name:zh_pinyin": "Xīnbā'ěrhǔ Yòu Qí",
      "is_in:continent": "Asia",
      "is_in:country_code": "MN"
    }
  },
  {
    "osm_id": -270074,
    "boundary": "administrative",
    "admin_level": 4,
    "parents": "-161033",
    "name": "Övörkhangai",
    "local_name": "Өвөрхангай",
    "name_en": "Övörkhangai",
    "all_tags": {
      "name": "Өвөрхангай",
      "name:ar": "محافظة أوفوخاناجي",
      "name:de": "Öwörchangai",
      "name:en": "Övörkhangai",
      "name:es": "Övörhangay",
      "name:fr": "Övörkhangai",
      "name:mn": "Өвөрхангай",
      "name:ru": "Уверхангай",
      "boundary": "administrative",
      "timezone": "Asia/Ulaanbaatar",
      "way_area": "7.29559",
      "wikidata": "Q234713",
      "ISO3166-2": "MN-055",
      "admin_level": "4",
      "is_in:country": "Mongolia",
      "is_in:continent": "Asia",
      "is_in:country_code": "MN"
    }
  },
  {
    "osm_id": -270073,
    "boundary": "administrative",
    "admin_level": 4,
    "parents": "-161033",
    "name": "Bulgan",
    "local_name": "Булган",
    "name_en": "Bulgan",
    "all_tags": {
      "name": "Булган",
      "name:ar": "محافظة بولغان",
      "name:de": "Bulgan",
      "name:en": "Bulgan",
      "name:es": "Bulgan",
      "name:fr": "Bulgan",
      "name:it": "Bulgan",
      "name:ja": "ボルガン",
      "name:mn": "Булган",
      "name:ru": "Булган",
      "boundary": "administrative",
      "int_name": "Bulgan",
      "timezone": "Asia/Ulaanbaatar",
      "way_area": "5.94714",
      "wikidata": "Q209774",
      "ISO3166-2": "MN-067",
      "admin_level": "4",
      "is_in:country": "Mongolia",
      "name:zh_pinyin": "Xīnbā'ěrhǔ Yòu Qí",
      "is_in:continent": "Asia",
      "is_in:country_code": "MN"
    }
  },
  {
    "osm_id": -270072,
    "boundary": "administrative",
    "admin_level": 4,
    "parents": "-161033",
    "name": "Hovsgel",
    "local_name": "Хөвсгөл",
    "name_en": "Hovsgel",
    "all_tags": {
      "name": "Хөвсгөл",
      "name:ar": "محافظة خوفسغول",
      "name:de": "Chöwsgöl",
      "name:en": "Hovsgel",
      "name:es": "Hövsgöl",
      "name:fr": "Khövsgöl",
      "name:ja": "フブスグル",
      "name:lt": "Chubsugulo aimakas",
      "name:mn": "Хөвсгөл",
      "name:ru": "Хувсгел",
      "name:uk": "Хувсґел",
      "boundary": "administrative",
      "timezone": "Asia/Ulaanbaatar",
      "way_area": "12.8655",
      "wikidata": "Q244788",
      "ISO3166-2": "MN-041",
      "admin_level": "4",
      "is_in:country": "Mongolia",
      "is_in:continent": "Asia",
      "is_in:country_code": "MN"
    }
  },
  {
    "osm_id": -270059,
    "boundary": "administrative",
    "admin_level": 4,
    "parents": "-161033",
    "name": "Uvs",
    "local_name": "Увс",
    "name_en": "Uvs",
    "all_tags": {
      "name": "Увс",
      "name:ar": "محافظة أوفس",
      "name:de": "Uws",
      "name:en": "Uvs",
      "name:es": "Uvs",
      "name:fr": "Uvs",
      "name:it": "Uvs",
      "name:ja": "オブス",
      "name:mn": "Увс",
      "name:pt": "Uvs",
      "name:ru": "Увс",
      "boundary": "administrative",
      "int_name": "Uvs",
      "timezone": "Asia/Hovd",
      "way_area": "8.68364",
      "wikidata": "Q192942",
      "ISO3166-2": "MN-046",
      "admin_level": "4",
      "is_in:country": "Mongolia",
      "is_in:continent": "Asia",
      "is_in:country_code": "MN"
    }
  },
  {
    "osm_id": -270055,
    "boundary": "administrative",
    "admin_level": 4,
    "parents": "-161033",
    "name": "Khovd",
    "local_name": "Ховд",
    "name_en": "Khovd",
    "all_tags": {
      "name": "Ховд",
      "name:ar": "هوفد",
      "name:de": "Chowd",
      "name:en": "Khovd",
      "name:es": "Hovd",
      "name:fr": "Hovd",
      "name:it": "Hovd",
      "name:ja": "ホブド",
      "name:mn": "Ховд",
      "name:pt": "Khovd",
      "name:ru": "Ховд",
      "boundary": "administrative",
      "timezone": "Asia/Hovd",
      "way_area": "8.95257",
      "wikidata": "Q194098",
      "ISO3166-2": "MN-043",
      "admin_level": "4",
      "is_in:country": "Mongolia",
      "name:zh_pinyin": "Xīnbā'ěrhǔ Yòu Qí",
      "is_in:continent": "Asia",
      "is_in:country_code": "MN"
    }
  },
  {
    "osm_id": -270054,
    "boundary": "administrative",
    "admin_level": 4,
    "parents": "-161033",
    "name": "Govi-Altai",
    "local_name": "Говь-Алтай",
    "name_en": "Govi-Altai",
    "all_tags": {
      "name": "Говь-Алтай",
      "name:ar": "محافظة غوفي-ألتاي",
      "name:de": "Gobi-Altai",
      "name:en": "Govi-Altai",
      "name:es": "Govĭ-Altay",
      "name:fr": "Govi-Altay",
      "name:ja": "ゴビ・アルタイ",
      "name:mn": "Говь-Алтай",
      "name:pt": "Govĭ-Altay",
      "name:ro": "Gobi-Altai",
      "name:ru": "Говь-Алтай",
      "name:uk": "Ґовь-Алтай",
      "boundary": "administrative",
      "timezone": "Asia/Hovd",
      "way_area": "16.2751",
      "wikidata": "Q192945",
      "ISO3166-2": "MN-065",
      "admin_level": "4",
      "is_in:country": "Mongolia",
      "name:zh_pinyin": "Xīnbā'ěrhǔ Yòu Qí",
      "is_in:continent": "Asia",
      "is_in:country_code": "MN"
    }
  },
  {
    "osm_id": -270052,
    "boundary": "administrative",
    "admin_level": 4,
    "parents": "-161033",
    "name": "Bayankhongor",
    "local_name": "Баянхонгор",
    "name_en": "Bayankhongor",
    "all_tags": {
      "name": "Баянхонгор",
      "name:ar": "محافظة بايانخونغور",
      "name:de": "Bajanchongor",
      "name:en": "Bayankhongor",
      "name:es": "Bayanhongor",
      "name:fr": "Bayanhongor",
      "name:it": "Bajanhongor",
      "name:ja": "バヤンホンゴル",
      "name:mn": "Баянхонгор",
      "name:ru": "Баянхонгор",
      "name:uk": "Баянхонґор",
      "boundary": "administrative",
      "timezone": "Asia/Ulaanbaatar",
      "way_area": "13.2722",
      "wikidata": "Q276200",
      "ISO3166-2": "MN-069",
      "admin_level": "4",
      "is_in:country": "Mongolia",
      "name:zh_pinyin": "Xīnbā'ěrhǔ Yòu Qí",
      "is_in:continent": "Asia",
      "is_in:country_code": "MN"
    }
  },
  {
    "osm_id": -270051,
    "boundary": "administrative",
    "admin_level": 4,
    "parents": "-161033",
    "name": "Ömnögovi",
    "local_name": "Өмнөговь",
    "name_en": "Ömnögovi",
    "all_tags": {
      "name": "Өмнөговь",
      "name:ar": "محافظة أومنوغوفي",
      "name:de": "Ömnögovi",
      "name:en": "Ömnögovi",
      "name:es": "Ömnögovi",
      "name:fr": "Ömnögovi",
      "name:mn": "Өмнөговь",
      "name:ru": "Умнеговь",
      "name:zh": "南戈壁省",
      "boundary": "administrative",
      "timezone": "Asia/Ulaanbaatar",
      "way_area": "18.2073",
      "wikidata": "Q235579",
      "ISO3166-2": "MN-053",
      "admin_level": "4",
      "alt_name:de": "Südgobi",
      "alt_name:en": "South Gobi",
      "name:zh-Hant": "南戈壁省",
      "is_in:country": "Mongolia",
      "is_in:continent": "Asia",
      "is_in:country_code": "MN"
    }
  },
  {
    "osm_id": -270050,
    "boundary": "administrative",
    "admin_level": 4,
    "parents": "-161033",
    "name": "Dornogovi",
    "local_name": "Дорноговь",
    "name_en": "Dornogovi",
    "all_tags": {
      "name": "Дорноговь",
      "name:ar": "محافظة دورنوغوفي",
      "name:de": "Dorno-Gobi",
      "name:en": "Dornogovi",
      "name:es": "Dornogovi",
      "name:fr": "Dornogovi",
      "name:ja": "ドルノゴビ",
      "name:mn": "Дорноговь",
      "name:ru": "Дорноговь",
      "name:zh": "东戈壁省",
      "boundary": "administrative",
      "timezone": "Asia/Ulaanbaatar",
      "way_area": "12.4373",
      "wikidata": "Q213272",
      "ISO3166-2": "MN-063",
      "admin_level": "4",
      "alt_name:de": "Ostgobi",
      "alt_name:en": "East Gobi",
      "is_in:country": "Mongolia",
      "is_in:continent": "Asia",
      "is_in:country_code": "MN"
    }
  },
  {
    "osm_id": -269886,
    "boundary": "administrative",
    "admin_level": 4,
    "parents": "-161033",
    "name": "Dornod",
    "local_name": "Дорнод",
    "name_en": "Dornod",
    "all_tags": {
      "name": "Дорнод",
      "name:ar": "دورنود",
      "name:de": "Dornod",
      "name:en": "Dornod",
      "name:es": "Dornod",
      "name:fr": "Dornod",
      "name:ja": "ドルノド",
      "name:mn": "Дорнод",
      "name:ru": "Дорнод",
      "name:zh": "東方省",
      "boundary": "administrative",
      "timezone": "Asia/Choibalsan",
      "way_area": "15.0828",
      "wikidata": "Q207795",
      "ISO3166-2": "MN-061",
      "admin_level": "4",
      "name:zh-Hant": "東方省",
      "is_in:country": "Mongolia",
      "name:zh_pinyin": "Xīnbā'ěrhǔ Yòu Qí",
      "is_in:continent": "Asia",
      "official_name:ar": "محافظة دورنود",
      "is_in:country_code": "MN"
    }
  },
  {
    "osm_id": -269885,
    "boundary": "administrative",
    "admin_level": 4,
    "parents": "-161033",
    "name": "Khentii",
    "local_name": "Хэнтий",
    "name_en": "Khentii",
    "all_tags": {
      "name": "Хэнтий",
      "name:ar": "محافظة خنتي",
      "name:de": "Chentii",
      "name:en": "Khentii",
      "name:es": "Hentiy",
      "name:fr": "Hentiy",
      "name:it": "Hėntij",
      "name:ja": "ヘンティー",
      "name:mn": "Хэнтий",
      "name:ru": "Хэнтий",
      "boundary": "administrative",
      "timezone": "Asia/Ulaanbaatar",
      "way_area": "9.77985",
      "wikidata": "Q239040",
      "ISO3166-2": "MN-039",
      "admin_level": "4",
      "is_in:country": "Mongolia",
      "name:zh_pinyin": "Xīnbā'ěrhǔ Yòu Qí",
      "is_in:continent": "Asia",
      "is_in:country_code": "MN"
    }
  },
  {
    "osm_id": -269874,
    "boundary": "administrative",
    "admin_level": 4,
    "parents": "-161033",
    "name": "Sükhbaatar",
    "local_name": "Сүхбаатар",
    "name_en": "Sükhbaatar",
    "all_tags": {
      "name": "Сүхбаатар",
      "name:ar": "سوخباتار",
      "name:de": "Süchbaatar",
      "name:en": "Sükhbaatar",
      "name:es": "Sühbaatar",
      "name:fr": "Sühbaatar",
      "name:ja": "スフバートル",
      "name:mn": "Сүхбаатар",
      "name:ru": "Сухэ-Батор",
      "boundary": "administrative",
      "timezone": "Asia/Choibalsan",
      "way_area": "9.55673",
      "wikidata": "Q244804",
      "ISO3166-2": "MN-051",
      "admin_level": "4",
      "is_in:country": "Mongolia",
      "name:zh_pinyin": "Xīnbā'ěrhǔ Yòu Qí",
      "is_in:continent": "Asia",
      "official_name:ar": "محافظة سوخباتار",
      "is_in:country_code": "MN"
    }
  }
]
