[
  {
    "osm_id": -3395245,
    "boundary": "administrative",
    "admin_level": 4,
    "parents": "-192763",
    "name": "Trarza",
    "local_name": "الترارزة",
    "name_en": "Trarza",
    "all_tags": {
      "name": "الترارزة",
      "name:ar": "الترارزة",
      "name:de": "At-Tarariza",
      "name:en": "Trarza",
      "name:fr": "Trarza",
      "name:pl": "At-Tarariza",
      "name:ru": "Трарза",
      "boundary": "administrative",
      "way_area": "5.87663",
      "wikidata": "Q859581",
      "ISO3166-2": "MR-06",
      "wikipedia": "ar:ولاية الترارزة",
      "admin_level": "4",
      "long_name:ar": "ولاية الترارزة",
      "official_name:ar": "ولاية الترارزة"
    }
  },
  {
    "osm_id": -3395244,
    "boundary": "administrative",
    "admin_level": 4,
    "parents": "-192763",
    "name": "Guidimaka",
    "local_name": "غيديماغا",
    "name_en": "Guidimaka",
    "all_tags": {
      "ref": "10",
      "name": "غيديماغا",
      "name:ar": "غيديماغا",
      "name:de": "Guidimaka",
      "name:en": "Guidimaka",
      "name:fr": "Guidimaka",
      "name:pl": "Ghidimagha",
      "name:ru": "Кудимага",
      "boundary": "administrative",
      "way_area": "0.903268",
      "wikidata": "Q768119",
      "ISO3166-2": "MR-10",
      "wikipedia": "ar:ولاية غيديماغا",
      "admin_level": "4"
    }
  },
  {
    "osm_id": -3395243,
    "boundary": "administrative",
    "admin_level": 4,
    "parents": "-192763",
    "name": "Gorgol",
    "local_name": "كوركول",
    "name_en": "Gorgol",
    "all_tags": {
      "name": "كوركول",
      "name:ar": "كوركول",
      "name:de": "Gorgol",
      "name:en": "Gorgol",
      "name:fr": "Gorgol",
      "name:pl": "Kurkul",
      "name:ru": "Горголь",
      "boundary": "administrative",
      "way_area": "1.16497",
      "wikidata": "Q859831",
      "ISO3166-2": "MR-04",
      "wikipedia": "ar:ولاية كوركول",
      "admin_level": "4"
    }
  },
  {
    "osm_id": -3395242,
    "boundary": "administrative",
    "admin_level": 4,
    "parents": "-192763",
    "name": "Brakna",
    "local_name": "البراكنة",
    "name_en": "Brakna",
    "all_tags": {
      "name": "البراكنة",
      "name:ar": "البراكنة",
      "name:de": "Al-Barakina",
      "name:en": "Brakna",
      "name:fr": "Brakna",
      "name:pl": "Al-Barakina",
      "name:ru": "Бракна",
      "boundary": "administrative",
      "way_area": "2.82058",
      "wikidata": "Q12632",
      "ISO3166-2": "MR-05",
      "wikipedia": "ar:ولاية البراكنة",
      "admin_level": "4",
      "long_name:ar": "ولاية البراكنة"
    }
  },
  {
    "osm_id": -3395241,
    "boundary": "administrative",
    "admin_level": 4,
    "parents": "-192763",
    "name": "Assaba",
    "local_name": "العصابة",
    "name_en": "Assaba",
    "all_tags": {
      "name": "العصابة",
      "name:ar": "ولاية العصابة",
      "name:de": "Assaba",
      "name:en": "Assaba",
      "name:fr": "Assaba",
      "name:pl": "Al-Asaba",
      "name:ru": "Ассаба",
      "boundary": "administrative",
      "way_area": "3.02637",
      "wikidata": "Q738546",
      "ISO3166-2": "MR-03",
      "wikipedia": "ar:ولاية العصابة",
      "admin_level": "4"
    }
  },
  {
    "osm_id": -3395130,
    "boundary": "administrative",
    "admin_level": 4,
    "parents": "-192763",
    "name": "Nouakchott",
    "local_name": "نواكشوط",
    "name_en": "Nouakchott",
    "all_tags": {
      "name": "نواكشوط",
      "name:am": "ኑዋክሾት",
      "name:ar": "نواكشوط",
      "name:az": "Nuakşot",
      "name:be": "Нуакшот",
      "name:bg": "Нуакшот",
      "name:bn": "নুওয়াকশুত",
      "name:bo": "ནའུ་ཀ་ཅོ་ཊི།",
      "name:cs": "Nuakšott",
      "name:da": "Nouakchott",
      "name:de": "Nuakschott",
      "name:el": "Νουακσότ",
      "name:en": "Nouakchott",
      "name:eo": "Nuakŝoto",
      "name:es": "Nuakchot",
      "name:eu": "Nuakchot",
      "name:fa": "نوآکشوت",
      "name:fr": "Nouakchott",
      "name:gr": "Ναυαξούτη",
      "name:he": "נואקשוט",
      "name:hr": "Nouakchott",
      "name:ht": "Nouakchot",
      "name:hy": "Նուակշոտ",
      "name:is": "Núaksjott",
      "name:ja": "ヌアクショット",
      "name:ka": "ნუაქშოტი",
      "name:kk": "Нуакшот қаласы",
      "name:ko": "누악쇼트",
      "name:ks": "نواکشوط",
      "name:ku": "Nûakşot",
      "name:ky": "Нуакшот",
      "name:lt": "Nuakšotas",
      "name:lv": "Nuakšota",
      "name:mk": "Нуакшот",
      "name:mr": "नवाकसुत",
      "name:pa": "ਨੁਆਕਚੋਤ",
      "name:pl": "Nawakszut",
      "name:ru": "Нуакшот",
      "name:so": "Nawakshot",
      "name:sr": "Нуакшот",
      "name:sv": "Nouakchott",
      "name:ta": "நவாக்சோட்",
      "name:tg": "Нуакшот",
      "name:th": "นูแอกชอต",
      "name:tr": "Nuakşot",
      "name:uk": "Нуакшот",
      "name:ur": "نواکشوط",
      "name:vi": "Nouakchott",
      "name:vo": "Nävakjut",
      "name:zh": "努瓦克肖特",
      "alt_name": "Nouakchot;Nouakchat",
      "boundary": "administrative",
      "name:arc": "ܢܘܐܟܫܘܛ",
      "name:ast": "Nuakxot",
      "name:azb": "نواكشوط",
      "name:ckb": "نۆئاکشۆت",
      "name:grc": "Ναυαξούτη",
      "name:mrj": "Нуакшот",
      "name:nov": "Nouakchot",
      "name:pnb": "نوواکوٹ",
      "name:syc": "ܢܘܐܟܫܘܛ",
      "name:udm": "Нуакшот",
      "name:yue": "或索",
      "way_area": "0.127589",
      "wikidata": "Q3688",
      "ISO3166-2": "MR-NKC",
      "wikipedia": "ar:نواكشوط",
      "admin_level": "4",
      "alt_name:ar": "انواكشوط;أنواكشوط",
      "alt_name:de": "Nawakschut",
      "alt_name:en": "Nuwakshut",
      "border_type": "region",
      "name:az-Arab": "نواكشوط",
      "name:kk-Arab": "نۋاكشوت",
      "name:be-tarask": "Нуакшот"
    }
  },
  {
    "osm_id": -3395037,
    "boundary": "administrative",
    "admin_level": 4,
    "parents": "-192763",
    "name": "Inchiri",
    "local_name": "إينشيري",
    "name_en": "Inchiri",
    "all_tags": {
      "name": "إينشيري",
      "name:ar": "إينشيري",
      "name:de": "Inchiri",
      "name:en": "Inchiri",
      "name:fr": "Inchiri",
      "name:pl": "Insziri",
      "name:ru": "Иншири",
      "boundary": "administrative",
      "way_area": "3.8581",
      "wikidata": "Q850022",
      "ISO3166-2": "MR-12",
      "wikipedia": "ar:ولاية إينشيري",
      "admin_level": "4"
    }
  },
  {
    "osm_id": -3395036,
    "boundary": "administrative",
    "admin_level": 4,
    "parents": "-192763",
    "name": "Hodh El Gharbi",
    "local_name": "الحوض الغربي",
    "name_en": "Hodh El Gharbi",
    "all_tags": {
      "name": "الحوض الغربي",
      "name:ar": "ولاية الحوض الغربي",
      "name:de": "Al-Haud al-Gharbi",
      "name:en": "Hodh El Gharbi",
      "name:fr": "Hodh El Gharbi",
      "name:pl": "Haud al-Gharbi",
      "name:ru": "Ход-эль-Гарби",
      "boundary": "administrative",
      "way_area": "4.25188",
      "wikidata": "Q850435",
      "ISO3166-2": "MR-02",
      "wikipedia": "ar:ولاية الحوض الغربي",
      "admin_level": "4"
    }
  },
  {
    "osm_id": -3395035,
    "boundary": "administrative",
    "admin_level": 4,
    "parents": "-192763",
    "name": "Dakhlet Nouadhibou",
    "local_name": "ولاية داخلة نواذيبو",
    "name_en": "Dakhlet Nouadhibou",
    "all_tags": {
      "name": "ولاية داخلة نواذيبو",
      "name:ar": "ولاية داخلة نواذيبو",
      "name:de": "Dakhlet Nouadhibou",
      "name:en": "Dakhlet Nouadhibou",
      "name:fa": "استان داخله نواذیبو",
      "name:fr": "Dakhlet Nouadhibou",
      "name:lt": "Dachlet Nuadibu vilaja",
      "name:pl": "Dachlat Nawazibu",
      "name:ru": "Дахлет-Нуадибу",
      "name:ur": "داخلت نواذیبو علاقہ",
      "boundary": "administrative",
      "name:azb": "داخلت نواذیبو بؤلگه‌سی",
      "way_area": "1.56136",
      "wikidata": "Q859573",
      "ISO3166-2": "MR-08",
      "wikipedia": "ar:داخلة نواذيبو",
      "admin_level": "4",
      "sorting_name": "داخلة نواذيبو",
      "sorting_name:ar": "داخلة نواذيبو",
      "sorting_name:ur": "داخلت نواذیبو",
      "sorting_name:azb": "داخلت نواذیبو"
    }
  },
  {
    "osm_id": -3394989,
    "boundary": "administrative",
    "admin_level": 4,
    "parents": "-192763",
    "name": "Tiris Zemmour",
    "local_name": "تيرس زمور",
    "name_en": "Tiris Zemmour",
    "all_tags": {
      "name": "تيرس زمور",
      "name:ar": "تيرس زمور",
      "name:de": "Tiris Zemmour",
      "name:en": "Tiris Zemmour",
      "name:es": "Tiris Zemmur",
      "name:fa": "تیرس زمور",
      "name:fr": "Tiris Zemmour",
      "name:ks": "تیرس زمور",
      "name:pl": "Tiris Zammur",
      "name:ru": "Тирис-Земмур",
      "name:ur": "تیرس زمور",
      "boundary": "administrative",
      "way_area": "23.1043",
      "wikidata": "Q859567",
      "ISO3166-2": "MR-11",
      "wikipedia": "ar:ولاية تيرس زمور",
      "admin_level": "4",
      "wikipedia:es": "Región de Tiris Zemmur",
      "official_name": "ولاية تيرس زمور",
      "official_name:ar": "ولاية تيرس زمور",
      "official_name:es": "Región de Tiris Zemmur",
      "official_name:fa": "استان تیرس زمور",
      "official_name:ur": "تیرس زمور علاقہ",
      "official_name:azb": "تیرس زمور بؤلگه‌سی",
      "official_name:az-Arab": "تیرس زمور بؤلگه‌سی"
    }
  },
  {
    "osm_id": -3394988,
    "boundary": "administrative",
    "admin_level": 4,
    "parents": "-192763",
    "name": "Tagant",
    "local_name": "تكانت",
    "name_en": "Tagant",
    "all_tags": {
      "name": "تكانت",
      "name:ar": "ولاية تكانت",
      "name:de": "Takanit",
      "name:en": "Tagant",
      "name:fr": "Tagant",
      "name:pl": "Takant",
      "name:ru": "Тагант",
      "boundary": "administrative",
      "way_area": "8.12191",
      "wikidata": "Q843903",
      "ISO3166-2": "MR-09",
      "wikipedia": "ar:ولاية تكانت",
      "admin_level": "4"
    }
  },
  {
    "osm_id": -3394987,
    "boundary": "administrative",
    "admin_level": 4,
    "parents": "-192763",
    "name": "Hodh Ech Chargui",
    "local_name": "الحوض الشرقي",
    "name_en": "Hodh Ech Chargui",
    "all_tags": {
      "name": "الحوض الشرقي",
      "name:ar": "الحوض الشرقي",
      "name:de": "Hodh Ech Chargui",
      "name:en": "Hodh Ech Chargui",
      "name:fr": "Hodh Ech Chargui",
      "name:pl": "Haud asz-Szarki",
      "name:ru": "Ход-эш-Шарки",
      "boundary": "administrative",
      "way_area": "15.9014",
      "wikidata": "Q12621",
      "ISO3166-2": "MR-01",
      "wikipedia": "ar:ولاية الحوض الشرقي",
      "admin_level": "4"
    }
  },
  {
    "osm_id": -3394986,
    "boundary": "administrative",
    "admin_level": 4,
    "parents": "-192763",
    "name": "Adrar",
    "local_name": "أدرار",
    "name_en": "Adrar",
    "all_tags": {
      "ref": "01",
      "name": "أدرار",
      "name:ar": "أدرار",
      "name:de": "Adrar",
      "name:en": "Adrar",
      "name:fr": "Adrar",
      "name:pl": "Adrar",
      "name:ru": "Адрар",
      "boundary": "administrative",
      "name:ber": "ⴰⴷⵔⴰⵔ",
      "way_area": "19.2279",
      "wikidata": "Q366626",
      "ISO3166-2": "MR-07",
      "wikipedia": "ar:ولاية أدرار (موريتانيا)",
      "admin_level": "4",
      "long_name:ar": "ولاية أدرار",
      "long_name:en": "Adrar Province",
      "long_name:fr": "Wilaya d'Adrar"
    }
  }
]
