[
  {
    "osm_id": -10567984,
    "boundary": "administrative",
    "admin_level": 4,
    "parents": "-365307",
    "name": "Central Region",
    "local_name": "Ċentrali",
    "name_en": "Central Region",
    "all_tags": {
      "name": "Ċentrali",
      "name:en": "Central Region",
      "name:mt": "Reġjun Ċentrali",
      "boundary": "administrative",
      "way_area": "0.00226025",
      "wikidata": "Q20199186",
      "admin_level": "4",
      "name:prefix:mt": "Reġjun"
    }
  },
  {
    "osm_id": -10563355,
    "boundary": "administrative",
    "admin_level": 4,
    "parents": "-365307",
    "name": "Northern Region",
    "local_name": "Tramuntana",
    "name_en": "Northern Region",
    "all_tags": {
      "name": "Tramuntana",
      "name:en": "Northern Region",
      "name:mt": "Reġjun Tramuntana",
      "boundary": "administrative",
      "way_area": "0.0113004",
      "wikidata": "Q20199334",
      "admin_level": "4",
      "name:prefix:mt": "Reġjun"
    }
  },
  {
    "osm_id": -10558977,
    "boundary": "administrative",
    "admin_level": 4,
    "parents": "-365307",
    "name": "South Eastern Region",
    "local_name": "Xlokk",
    "name_en": "South Eastern Region",
    "all_tags": {
      "name": "Xlokk",
      "name:en": "South Eastern Region",
      "name:mt": "Reġjun Xlokk",
      "boundary": "administrative",
      "way_area": "0.00341801",
      "wikidata": "Q20199379",
      "admin_level": "4",
      "name:prefix:mt": "Reġjun"
    }
  },
  {
    "osm_id": -2101121,
    "boundary": "administrative",
    "admin_level": 4,
    "parents": "-365307",
    "name": "Gozo Region",
    "local_name": "Għawdex",
    "name_en": "Gozo Region",
    "all_tags": {
      "name": "Għawdex",
      "name:de": "Region Gozo",
      "name:en": "Gozo Region",
      "name:mt": "Reġjun Għawdex",
      "boundary": "administrative",
      "way_area": "0.00689481",
      "wikidata": "Q2054290",
      "ref:nuts:3": "MT002",
      "admin_level": "4",
      "name:prefix:mt": "Reġjun"
    }
  },
  {
    "osm_id": -1711219,
    "boundary": "administrative",
    "admin_level": 4,
    "parents": "-365307",
    "name": "Southern Region",
    "local_name": "Nofsinhar",
    "name_en": "Southern Region",
    "all_tags": {
      "name": "Nofsinhar",
      "name:en": "Southern Region",
      "name:mt": "Reġjun Nofsinhar",
      "boundary": "administrative",
      "way_area": "0.00768257",
      "wikidata": "Q20199405",
      "admin_level": "4",
      "name:prefix:mt": "Reġjun"
    }
  },
  {
    "osm_id": 10365724,
    "boundary": "administrative",
    "admin_level": 4,
    "parents": "-365307",
    "name": "Ħalfa Rock",
    "local_name": "Il-Ġebla tal-Ħalfa",
    "name_en": "Ħalfa Rock",
    "all_tags": {
      "area": "yes",
      "name": "Il-Ġebla tal-Ħalfa",
      "place": "islet",
      "name:en": "Ħalfa Rock",
      "boundary": "administrative",
      "way_area": "4.75553e-07",
      "wikidata": "Q20922695",
      "wikipedia": "en:Ħalfa Rock",
      "admin_level": "4",
      "converted_by": "mikes"
    }
  },
  {
    "osm_id": 10365737,
    "boundary": "administrative",
    "admin_level": 4,
    "parents": "-365307",
    "name": "Small Blue Lagoon Rock",
    "local_name": "Il-Ħaġra Ta’ Bejn il-Kmiemen iż-Żgħira",
    "name_en": "Small Blue Lagoon Rock",
    "all_tags": {
      "area": "yes",
      "name": "Il-Ħaġra Ta’ Bejn il-Kmiemen iż-Żgħira",
      "place": "islet",
      "name:en": "Small Blue Lagoon Rock",
      "boundary": "administrative",
      "way_area": "1.61794e-07",
      "admin_level": "4"
    }
  },
  {
    "osm_id": 10365739,
    "boundary": "administrative",
    "admin_level": 4,
    "parents": "-365307",
    "name": "Cominotto",
    "local_name": "Kemmunett",
    "name_en": "Cominotto",
    "all_tags": {
      "area": "yes",
      "name": "Kemmunett",
      "place": "islet",
      "name:ar": "كومينوتو",
      "name:cs": "Cominotto",
      "name:en": "Cominotto",
      "name:fr": "Cominotto",
      "name:it": "Cominotto",
      "name:mt": "Kemmunett",
      "boundary": "administrative",
      "way_area": "1.01285e-05",
      "wikidata": "Q828250",
      "admin_level": "4",
      "alt_name:it": "Cominetto"
    }
  },
  {
    "osm_id": 23465078,
    "boundary": "administrative",
    "admin_level": 4,
    "parents": "-365307",
    "name": "Kemmuna",
    "local_name": "Kemmuna",
    "name_en": null,
    "all_tags": {
      "area": "yes",
      "name": "Kemmuna",
      "place": "island",
      "name:ar": "كمونة",
      "name:de": "Comino",
      "name:es": "Comino",
      "name:fr": "Comino",
      "name:it": "Comino",
      "name:mt": "Kemmuna",
      "alt_name": "Lampas",
      "boundary": "administrative",
      "name:int": "Comino",
      "way_area": "0.000278243",
      "wikidata": "Q191098",
      "wikipedia": "en:Comino",
      "admin_level": "4"
    }
  },
  {
    "osm_id": 80442058,
    "boundary": "administrative",
    "admin_level": 4,
    "parents": "-365307",
    "name": "Large Blue Lagoon Rock",
    "local_name": "Il-Ħaġra Ta' Bejn il-Kmiemen il-Kbira",
    "name_en": "Large Blue Lagoon Rock",
    "all_tags": {
      "area": "yes",
      "name": "Il-Ħaġra Ta' Bejn il-Kmiemen il-Kbira",
      "place": "islet",
      "name:en": "Large Blue Lagoon Rock",
      "boundary": "administrative",
      "way_area": "9.07691e-07",
      "admin_level": "4"
    }
  },
  {
    "osm_id": 127163329,
    "boundary": "administrative",
    "admin_level": 4,
    "parents": "-365307",
    "name": "Manoel Island",
    "local_name": "Il-Gżira Manoel",
    "name_en": "Manoel Island",
    "all_tags": {
      "area": "yes",
      "name": "Il-Gżira Manoel",
      "place": "islet",
      "name:ar": "جزيرة مانويل",
      "name:en": "Manoel Island",
      "name:fr": "Île Manoel",
      "boundary": "administrative",
      "way_area": "3.06708e-05",
      "wikidata": "Q949457",
      "wikipedia": "en:Manoel Island",
      "admin_level": "4"
    }
  }
]
