[
  {
    "osm_id": -13091383,
    "boundary": "administrative",
    "admin_level": 4,
    "parents": "-2108121",
    "name": "Pulau Yu Besar",
    "local_name": "Pulau Yu Besar",
    "name_en": null,
    "all_tags": {
      "name": "Pulau Yu Besar",
      "place": "islet",
      "gns:ufi": "-2401730",
      "natural": "bare_rock",
      "boundary": "administrative",
      "way_area": "9.7208e-06",
      "wikidata": "Q49673403",
      "admin_level": "4"
    }
  },
  {
    "osm_id": -12583174,
    "boundary": "administrative",
    "admin_level": 6,
    "parents": "-4444411,-2108121",
    "name": "Marang",
    "local_name": "Marang",
    "name_en": null,
    "all_tags": {
      "name": "Marang",
      "name:ko": "마랑",
      "name:th": "อำเภอมารัง",
      "name:zh": "马江县",
      "boundary": "administrative",
      "way_area": "0.0540712",
      "wikidata": "Q2362852",
      "wikipedia": "en:Marang District",
      "admin_level": "6"
    }
  },
  {
    "osm_id": -12583173,
    "boundary": "administrative",
    "admin_level": 6,
    "parents": "-4444411,-2108121",
    "name": "Dungun",
    "local_name": "Dungun",
    "name_en": null,
    "all_tags": {
      "name": "Dungun",
      "name:th": "อำเภอดูงุน",
      "name:zh": "龙运县",
      "boundary": "administrative",
      "way_area": "0.217525",
      "wikidata": "Q2328824",
      "wikipedia": "en:Dungun District",
      "admin_level": "6"
    }
  },
  {
    "osm_id": -12573897,
    "boundary": "administrative",
    "admin_level": 6,
    "parents": "-4444411,-2108121",
    "name": "Setiu",
    "local_name": "Setiu",
    "name_en": null,
    "all_tags": {
      "name": "Setiu",
      "name:th": "อำเภอเซอตียู",
      "name:ur": "ضلع ستیو",
      "name:zh": "士兆县",
      "boundary": "administrative",
      "way_area": "0.102136",
      "wikidata": "Q943317",
      "wikipedia": "en:Setiu District",
      "admin_level": "6"
    }
  },
  {
    "osm_id": -12573879,
    "boundary": "administrative",
    "admin_level": 6,
    "parents": "-4444411,-2108121",
    "name": "Kuala Nerus",
    "local_name": "Kuala Nerus",
    "name_en": null,
    "all_tags": {
      "name": "Kuala Nerus",
      "name:ta": "கோலா நெருஸ்",
      "name:th": "อำเภอกัวลาเนอรุซ",
      "name:zh": "瓜拉尼鲁斯县",
      "boundary": "administrative",
      "way_area": "0.0324836",
      "wikidata": "Q18073135",
      "wikipedia": "en:Kuala Nerus District",
      "admin_level": "6"
    }
  },
  {
    "osm_id": -12570056,
    "boundary": "administrative",
    "admin_level": 6,
    "parents": "-4444411,-2108121",
    "name": "Kuala Terengganu",
    "local_name": "Kuala Terengganu",
    "name_en": null,
    "all_tags": {
      "name": "Kuala Terengganu",
      "name:ta": "கோலா திரங்கானு",
      "name:th": "อำเภอกัวลาเตอเริงกานู",
      "name:zh": "瓜拉登嘉楼县",
      "boundary": "administrative",
      "way_area": "0.0171847",
      "wikidata": "Q20451120",
      "wikipedia": "en:Kuala Terengganu District",
      "admin_level": "6"
    }
  },
  {
    "osm_id": -12513726,
    "boundary": "administrative",
    "admin_level": 6,
    "parents": "-4445076,-2108121",
    "name": "Kinta",
    "local_name": "Kinta",
    "name_en": null,
    "all_tags": {
      "name": "Kinta",
      "name:ta": "கிந்தா மாவட்டம்",
      "name:zh": "近打县",
      "boundary": "administrative",
      "way_area": "0.10547",
      "wikidata": "Q2781356",
      "wikipedia": "en:Kinta District",
      "admin_level": "6"
    }
  },
  {
    "osm_id": -12513725,
    "boundary": "administrative",
    "admin_level": 6,
    "parents": "-4445076,-2108121",
    "name": "Kampar",
    "local_name": "Kampar",
    "name_en": null,
    "all_tags": {
      "name": "Kampar",
      "name:ta": "கம்பார் நகரம்",
      "name:zh": "金宝县",
      "boundary": "administrative",
      "way_area": "0.0548032",
      "wikidata": "Q6359147",
      "wikipedia": "en:Kampar District",
      "admin_level": "6"
    }
  },
  {
    "osm_id": -12508550,
    "boundary": "administrative",
    "admin_level": 6,
    "parents": "-4445076,-2108121",
    "name": "Kuala Kangsar",
    "local_name": "Kuala Kangsar",
    "name_en": null,
    "all_tags": {
      "name": "Kuala Kangsar",
      "name:ta": "கோலாகங்சார்",
      "name:zh": "江沙县",
      "boundary": "administrative",
      "way_area": "0.207705",
      "wikidata": "Q24841029",
      "wikipedia": "en:Kuala Kangsar District",
      "admin_level": "6"
    }
  },
  {
    "osm_id": -12499933,
    "boundary": "administrative",
    "admin_level": 6,
    "parents": "-4445076,-2108121",
    "name": "Muallim",
    "local_name": "Muallim",
    "name_en": null,
    "all_tags": {
      "name": "Muallim",
      "name:ta": "தஞ்சோங் மாலிம்",
      "name:zh": "慕亚林县",
      "boundary": "administrative",
      "way_area": "0.0765393",
      "wikidata": "Q22022339",
      "wikipedia": "en:Muallim District",
      "admin_level": "6"
    }
  },
  {
    "osm_id": -12499932,
    "boundary": "administrative",
    "admin_level": 6,
    "parents": "-4445076,-2108121",
    "name": "Batang Padang",
    "local_name": "Batang Padang",
    "name_en": null,
    "all_tags": {
      "name": "Batang Padang",
      "name:ta": "பத்தாங் பாடாங்",
      "name:zh": "马登巴冷县",
      "boundary": "administrative",
      "way_area": "0.145569",
      "wikidata": "Q1938723",
      "wikipedia": "en:Batang Padang District",
      "admin_level": "6"
    }
  },
  {
    "osm_id": -12489669,
    "boundary": "administrative",
    "admin_level": 6,
    "parents": "-4445076,-2108121",
    "name": "Perak Tengah",
    "local_name": "Perak Tengah",
    "name_en": null,
    "all_tags": {
      "name": "Perak Tengah",
      "name:ta": "பேராக் தெஙஹ் மாவட்டம்",
      "name:zh": "中霹雳县",
      "boundary": "administrative",
      "way_area": "0.105104",
      "wikidata": "Q2165801",
      "wikipedia": "en:Perak Tengah District",
      "admin_level": "6"
    }
  },
  {
    "osm_id": -12456501,
    "boundary": "administrative",
    "admin_level": 6,
    "parents": "-4445076,-2108121",
    "name": "Larut, Matang and Selama",
    "local_name": "Larut, Matang dan Selama",
    "name_en": "Larut, Matang and Selama",
    "all_tags": {
      "name": "Larut, Matang dan Selama",
      "name:en": "Larut, Matang and Selama",
      "name:ms": "Larut, Matang dan Selama",
      "name:ta": "லாருட், மாத்தாங், செலாமா",
      "name:ur": "لاروٹ، ماٹانگ ڈان سیلاما",
      "name:zh": "拉律峇登司南马县",
      "alt_name": "Larut dan Matang;Larut & Matang;Larut Matang Selama;Larut, Matang & Selama",
      "boundary": "administrative",
      "way_area": "0.167687",
      "wikidata": "Q2694747",
      "wikipedia": "en:Larut, Matang and Selama District",
      "short_name": "LMS",
      "admin_level": "6"
    }
  },
  {
    "osm_id": -12438352,
    "boundary": "administrative",
    "admin_level": 6,
    "parents": "-2932285,-2108121",
    "name": "Gombak",
    "local_name": "Gombak",
    "name_en": null,
    "all_tags": {
      "name": "Gombak",
      "name:ta": "கோம்பாக்",
      "name:ur": "ضلع گومباک",
      "name:zh": "鹅唛县",
      "boundary": "administrative",
      "way_area": "0.0510987",
      "wikidata": "Q2219712",
      "wikipedia": "en:Gombak District",
      "admin_level": "6"
    }
  },
  {
    "osm_id": -12438351,
    "boundary": "administrative",
    "admin_level": 6,
    "parents": "-2932285,-2108121",
    "name": "Hulu Langat",
    "local_name": "Hulu Langat",
    "name_en": null,
    "all_tags": {
      "name": "Hulu Langat",
      "name:ta": "உலு இலங்காத் மாவட்டம்",
      "name:zh": "乌鲁冷岳县",
      "alt_name": "Ulu Langat",
      "boundary": "administrative",
      "way_area": "0.0683285",
      "wikidata": "Q4251470",
      "wikipedia": "en:Hulu Langat District",
      "admin_level": "6"
    }
  },
  {
    "osm_id": -12424582,
    "boundary": "administrative",
    "admin_level": 6,
    "parents": "-4445076,-2108121",
    "name": "Hilir Perak",
    "local_name": "Hilir Perak",
    "name_en": null,
    "all_tags": {
      "name": "Hilir Perak",
      "name:ta": "ஹீலிர் பேராக் மாவட்டம்",
      "name:zh": "下霹雳县",
      "boundary": "administrative",
      "old_name": "Lower Perak District;Lower Perak",
      "way_area": "0.0645625",
      "wikidata": "Q2381489",
      "wikipedia": "en:Hilir Perak District",
      "admin_level": "6"
    }
  },
  {
    "osm_id": -12424581,
    "boundary": "administrative",
    "admin_level": 6,
    "parents": "-4445076,-2108121",
    "name": "Bagan Datuk",
    "local_name": "Bagan Datuk",
    "name_en": null,
    "all_tags": {
      "name": "Bagan Datuk",
      "name:ta": "பாகான் டத்தோ",
      "name:zh": "峇眼拿督县",
      "boundary": "administrative",
      "old_name": "Bagan Datoh",
      "way_area": "0.0755198",
      "wikidata": "Q31185912",
      "wikipedia": "en:Bagan Datuk District",
      "admin_level": "6"
    }
  },
  {
    "osm_id": -12406442,
    "boundary": "administrative",
    "admin_level": 6,
    "parents": "-4445076,-2108121",
    "name": "Manjung",
    "local_name": "Manjung",
    "name_en": null,
    "all_tags": {
      "name": "Manjung",
      "name:fa": "مانجونگ",
      "name:ms": "Daerah Manjung",
      "name:ta": "மஞ்சோங்",
      "name:zh": "曼绒县",
      "boundary": "administrative",
      "old_name": "Dindings",
      "way_area": "0.089242",
      "wikidata": "Q2302576",
      "wikipedia": "en:Manjung District",
      "admin_level": "6",
      "old_name:zh": "天定"
    }
  },
  {
    "osm_id": -12391135,
    "boundary": "administrative",
    "admin_level": 6,
    "parents": "-2932285,-2108121",
    "name": "Klang",
    "local_name": "Klang",
    "name_en": null,
    "all_tags": {
      "name": "Klang",
      "name:ta": "கிள்ளான்",
      "name:ur": "ضلع کلانگ",
      "name:zh": "巴生县",
      "boundary": "administrative",
      "way_area": "0.0501312",
      "wikidata": "Q20466235",
      "wikipedia": "en:Klang District",
      "admin_level": "6"
    }
  },
  {
    "osm_id": -12391134,
    "boundary": "administrative",
    "admin_level": 6,
    "parents": "-2932285,-2108121",
    "name": "Petaling",
    "local_name": "Petaling",
    "name_en": null,
    "all_tags": {
      "name": "Petaling",
      "name:ta": "பெத்தாலிங் மாவட்டம்",
      "name:ur": "ضلع پیٹلنگ",
      "name:zh": "八打灵县",
      "boundary": "administrative",
      "way_area": "0.0406876",
      "wikidata": "Q2701266",
      "wikipedia": "en:Petaling District",
      "admin_level": "6"
    }
  },
  {
    "osm_id": -12306921,
    "boundary": "administrative",
    "admin_level": 6,
    "parents": "-2939653,-2108121",
    "name": "Kota Tinggi",
    "local_name": "Kota Tinggi",
    "name_en": "Kota Tinggi",
    "all_tags": {
      "name": "Kota Tinggi",
      "name:en": "Kota Tinggi",
      "name:ms": "Daerah Kota Tinggi",
      "name:th": "อำเภอโกตาติงกี",
      "name:zh": "哥打丁宜县",
      "boundary": "administrative",
      "way_area": "0.28493",
      "wikidata": "Q6433828",
      "wikipedia": "en:Kota Tinggi District",
      "admin_level": "6"
    }
  },
  {
    "osm_id": -12306920,
    "boundary": "administrative",
    "admin_level": 6,
    "parents": "-2939653,-2108121",
    "name": "Johor Bahru",
    "local_name": "Johor Bahru",
    "name_en": "Johor Bahru",
    "all_tags": {
      "name": "Johor Bahru",
      "name:en": "Johor Bahru",
      "name:fa": "منطقه جوهور بهرو",
      "name:th": "อำเภอโจโฮร์บะฮ์รู",
      "name:ur": "جوھر بھرو ضلع",
      "name:zh": "新山县",
      "boundary": "administrative",
      "way_area": "0.083953",
      "wikidata": "Q2193190",
      "wikipedia": "en:Johor Bahru District",
      "admin_level": "6"
    }
  },
  {
    "osm_id": -12306919,
    "boundary": "administrative",
    "admin_level": 6,
    "parents": "-2939653,-2108121",
    "name": "Kulai",
    "local_name": "Kulai",
    "name_en": "Kulai",
    "all_tags": {
      "name": "Kulai",
      "name:en": "Kulai",
      "name:ta": "கூலாய்",
      "name:zh": "古来县",
      "alt_name": "Kulaijaya",
      "boundary": "administrative",
      "way_area": "0.061995",
      "wikidata": "Q2219755",
      "wikipedia": "ms:Daerah Kulai",
      "admin_level": "6",
      "alt_name:zh": "古来再也",
      "official_name": "Daerah Kulai",
      "official_name:en": "Kulai District"
    }
  },
  {
    "osm_id": -12306918,
    "boundary": "administrative",
    "admin_level": 6,
    "parents": "-2939653,-2108121",
    "name": "Pontian",
    "local_name": "Pontian",
    "name_en": "Pontian",
    "all_tags": {
      "name": "Pontian",
      "name:en": "Pontian",
      "name:fa": "پونتیان کچیل",
      "name:ta": "பொந்தியான்",
      "name:zh": "笨珍县",
      "boundary": "administrative",
      "way_area": "0.0753446",
      "wikidata": "Q2452012",
      "wikipedia": "ms:Pontian",
      "admin_level": "6"
    }
  },
  {
    "osm_id": -12306917,
    "boundary": "administrative",
    "admin_level": 6,
    "parents": "-2939653,-2108121",
    "name": "Mersing",
    "local_name": "Mersing",
    "name_en": "Mersing",
    "all_tags": {
      "name": "Mersing",
      "name:en": "Mersing",
      "name:ms": "Daerah Mersing",
      "name:zh": "丰盛港县",
      "boundary": "administrative",
      "way_area": "0.232566",
      "wikidata": "Q2206319",
      "wikipedia": "en:Mersing District",
      "admin_level": "6"
    }
  },
  {
    "osm_id": -12306916,
    "boundary": "administrative",
    "admin_level": 6,
    "parents": "-2939653,-2108121",
    "name": "Kluang",
    "local_name": "Kluang",
    "name_en": "Kluang",
    "all_tags": {
      "name": "Kluang",
      "name:en": "Kluang",
      "name:ta": "குளுவாங்",
      "name:zh": "居銮县",
      "boundary": "administrative",
      "way_area": "0.232296",
      "wikidata": "Q12683379",
      "wikipedia": "ms:Daerah Kluang",
      "admin_level": "6",
      "official_name": "Daerah Kluang",
      "official_name:en": "Kluang District"
    }
  },
  {
    "osm_id": -12306081,
    "boundary": "administrative",
    "admin_level": 6,
    "parents": "-2939653,-2108121",
    "name": "Batu Pahat",
    "local_name": "Batu Pahat",
    "name_en": "Batu Pahat",
    "all_tags": {
      "name": "Batu Pahat",
      "name:en": "Batu Pahat",
      "name:ta": "பத்து பகாட்",
      "name:zh": "峇株巴辖县",
      "boundary": "administrative",
      "way_area": "0.159678",
      "wikidata": "Q2306850",
      "wikipedia": "ms:Batu Pahat",
      "admin_level": "6"
    }
  },
  {
    "osm_id": -12306080,
    "boundary": "administrative",
    "admin_level": 6,
    "parents": "-2939653,-2108121",
    "name": "Muar",
    "local_name": "Muar",
    "name_en": "Muar",
    "all_tags": {
      "name": "Muar",
      "name:ar": "مديرية موار",
      "name:en": "Muar",
      "name:fa": "دایره موار",
      "name:ta": "மூவார்",
      "name:zh": "麻坡县",
      "boundary": "administrative",
      "way_area": "0.11503",
      "wikidata": "Q1941846",
      "wikipedia": "ms:Muar",
      "admin_level": "6"
    }
  },
  {
    "osm_id": -12306079,
    "boundary": "administrative",
    "admin_level": 6,
    "parents": "-2939653,-2108121",
    "name": "Segamat",
    "local_name": "Segamat",
    "name_en": "Segamat",
    "all_tags": {
      "name": "Segamat",
      "name:en": "Segamat",
      "name:fa": "سگامات",
      "name:ko": "스가맛",
      "name:ta": "சிகாமட்",
      "name:zh": "昔加末县",
      "boundary": "administrative",
      "way_area": "0.233853",
      "wikidata": "Q2643141",
      "wikipedia": "ms:Segamat",
      "admin_level": "6",
      "official_name": "Daerah Segamat",
      "official_name:en": "Segamat District"
    }
  },
  {
    "osm_id": -12306078,
    "boundary": "administrative",
    "admin_level": 6,
    "parents": "-2939653,-2108121",
    "name": "Tangkak",
    "local_name": "Tangkak",
    "name_en": "Tangkak",
    "all_tags": {
      "name": "Tangkak",
      "name:en": "Tangkak",
      "name:zh": "东甲县",
      "alt_name": "Ledang",
      "boundary": "administrative",
      "way_area": "0.0793505",
      "wikidata": "Q21857784",
      "wikipedia": "ms:Daerah Tangkak",
      "admin_level": "6",
      "alt_name:zh": "礼让县"
    }
  },
  {
    "osm_id": -12220076,
    "boundary": "administrative",
    "admin_level": 6,
    "parents": "-4445076,-2108121",
    "name": "Kerian",
    "local_name": "Kerian",
    "name_en": null,
    "all_tags": {
      "name": "Kerian",
      "name:ta": "கிரியான்",
      "name:zh": "吉辇县",
      "alt_name": "Krian District;Krian",
      "boundary": "administrative",
      "way_area": "0.0741164",
      "wikidata": "Q2674376",
      "wikipedia": "en:Kerian District",
      "admin_level": "6",
      "official_name": "Daerah Kerian"
    }
  },
  {
    "osm_id": -11292731,
    "boundary": "administrative",
    "admin_level": 6,
    "parents": "-3879783,-2108121",
    "name": "Sandakan District",
    "local_name": "Sandakan District",
    "name_en": null,
    "all_tags": {
      "name": "Sandakan District",
      "name:zh": "山打根县",
      "boundary": "administrative",
      "way_area": "0.329987",
      "wikidata": "Q137203",
      "wikipedia": "en:Sandakan",
      "admin_level": "6"
    }
  },
  {
    "osm_id": -10976230,
    "boundary": "administrative",
    "admin_level": 6,
    "parents": "-2939674,-2108121",
    "name": "Jempol",
    "local_name": "Jempol",
    "name_en": null,
    "all_tags": {
      "name": "Jempol",
      "name:zh": "仁保县",
      "boundary": "administrative",
      "way_area": "0.120686",
      "wikidata": "Q2048692",
      "wikipedia": "en:Jempol District",
      "admin_level": "6"
    }
  },
  {
    "osm_id": -10976229,
    "boundary": "administrative",
    "admin_level": 6,
    "parents": "-2939674,-2108121",
    "name": "Jelebu",
    "local_name": "Jelebu",
    "name_en": null,
    "all_tags": {
      "name": "Jelebu",
      "name:zh": "日叻务县",
      "boundary": "administrative",
      "way_area": "0.110572",
      "wikidata": "Q933043",
      "wikipedia": "en:Jelebu District",
      "admin_level": "6"
    }
  },
  {
    "osm_id": -10976221,
    "boundary": "administrative",
    "admin_level": 6,
    "parents": "-2939674,-2108121",
    "name": "Tampin",
    "local_name": "Tampin",
    "name_en": null,
    "all_tags": {
      "name": "Tampin",
      "name:zh": "淡边县",
      "boundary": "administrative",
      "way_area": "0.0697258",
      "wikidata": "Q20463750",
      "wikipedia": "en:Tampin District",
      "admin_level": "6"
    }
  },
  {
    "osm_id": -10976220,
    "boundary": "administrative",
    "admin_level": 6,
    "parents": "-2939674,-2108121",
    "name": "Kuala Pilah",
    "local_name": "Kuala Pilah",
    "name_en": null,
    "all_tags": {
      "name": "Kuala Pilah",
      "name:zh": "瓜拉庇劳县",
      "boundary": "administrative",
      "way_area": "0.0837946",
      "wikidata": "Q2929940",
      "wikipedia": "en:Kuala Pilah District",
      "admin_level": "6"
    }
  },
  {
    "osm_id": -10976198,
    "boundary": "administrative",
    "admin_level": 6,
    "parents": "-2939674,-2108121",
    "name": "Seremban",
    "local_name": "Seremban",
    "name_en": null,
    "all_tags": {
      "name": "Seremban",
      "name:zh": "芙蓉县",
      "boundary": "administrative",
      "way_area": "0.0774251",
      "wikidata": "Q2712436",
      "wikipedia": "en:Seremban District",
      "admin_level": "6"
    }
  },
  {
    "osm_id": -10976197,
    "boundary": "administrative",
    "admin_level": 6,
    "parents": "-2939674,-2108121",
    "name": "Rembau",
    "local_name": "Rembau",
    "name_en": null,
    "all_tags": {
      "name": "Rembau",
      "name:zh": "林茂县",
      "boundary": "administrative",
      "way_area": "0.0327566",
      "wikidata": "Q48730250",
      "wikipedia": "en:Rembau District",
      "admin_level": "6"
    }
  },
  {
    "osm_id": -10976196,
    "boundary": "administrative",
    "admin_level": 6,
    "parents": "-2939674,-2108121",
    "name": "Port Dickson",
    "local_name": "Port Dickson",
    "name_en": null,
    "all_tags": {
      "name": "Port Dickson",
      "name:zh": "波德申县",
      "boundary": "administrative",
      "way_area": "0.0467754",
      "wikidata": "Q48724278",
      "wikipedia": "en:Port Dickson District",
      "admin_level": "6"
    }
  },
  {
    "osm_id": -10744375,
    "boundary": "administrative",
    "admin_level": 6,
    "parents": "-4444595,-2108121",
    "name": "Pekan",
    "local_name": "Pekan",
    "name_en": null,
    "all_tags": {
      "name": "Pekan",
      "name:ta": "பெக்கான்",
      "name:zh": "北根县",
      "boundary": "administrative",
      "way_area": "0.302069",
      "wikidata": "Q12685427",
      "wikipedia": "en:Pekan District",
      "admin_level": "6"
    }
  },
  {
    "osm_id": -10744374,
    "boundary": "administrative",
    "admin_level": 6,
    "parents": "-4444595,-2108121",
    "name": "Rompin",
    "local_name": "Rompin",
    "name_en": null,
    "all_tags": {
      "name": "Rompin",
      "name:fa": "رومپین",
      "name:ta": "ரொம்பின்",
      "name:zh": "云冰县",
      "boundary": "administrative",
      "way_area": "0.429114",
      "wikidata": "Q1884739",
      "wikipedia": "en:Rompin District",
      "admin_level": "6"
    }
  },
  {
    "osm_id": -10744369,
    "boundary": "administrative",
    "admin_level": 6,
    "parents": "-4444595,-2108121",
    "name": "Maran",
    "local_name": "Maran",
    "name_en": null,
    "all_tags": {
      "name": "Maran",
      "name:ta": "மாரான்",
      "name:zh": "马兰县",
      "boundary": "administrative",
      "way_area": "0.162124",
      "wikidata": "Q43990909",
      "wikipedia": "en:Maran District",
      "admin_level": "6"
    }
  },
  {
    "osm_id": -10744366,
    "boundary": "administrative",
    "admin_level": 6,
    "parents": "-4444595,-2108121",
    "name": "Bera",
    "local_name": "Bera",
    "name_en": null,
    "all_tags": {
      "name": "Bera",
      "name:fa": "برا پاهانگ",
      "name:ta": "பெரா",
      "name:zh": "百乐县",
      "boundary": "administrative",
      "way_area": "0.178821",
      "wikidata": "Q1658705",
      "wikipedia": "en:Bera District",
      "admin_level": "6"
    }
  },
  {
    "osm_id": -10744362,
    "boundary": "administrative",
    "admin_level": 6,
    "parents": "-4444595,-2108121",
    "name": "Bentong",
    "local_name": "Bentong",
    "name_en": null,
    "all_tags": {
      "name": "Bentong",
      "name:ta": "பெந்தோங்",
      "name:zh": "文冬县",
      "boundary": "administrative",
      "way_area": "0.149109",
      "wikidata": "Q38112641",
      "wikipedia": "en:Bentong District",
      "admin_level": "6"
    }
  },
  {
    "osm_id": -10744351,
    "boundary": "administrative",
    "admin_level": 6,
    "parents": "-4444595,-2108121",
    "name": "Temerloh",
    "local_name": "Temerloh",
    "name_en": null,
    "all_tags": {
      "name": "Temerloh",
      "name:ta": "தெமர்லோ",
      "name:zh": "淡马鲁县",
      "boundary": "administrative",
      "way_area": "0.18651",
      "wikidata": "Q44032118",
      "wikipedia": "en:Temerloh District",
      "admin_level": "6"
    }
  },
  {
    "osm_id": -10744349,
    "boundary": "administrative",
    "admin_level": 6,
    "parents": "-4444595,-2108121",
    "name": "Raub",
    "local_name": "Raub",
    "name_en": null,
    "all_tags": {
      "name": "Raub",
      "name:ta": "ரவுப்",
      "name:zh": "劳勿县",
      "boundary": "administrative",
      "way_area": "0.187327",
      "wikidata": "Q12685431",
      "wikipedia": "en:Raub District",
      "admin_level": "6"
    }
  },
  {
    "osm_id": -10744343,
    "boundary": "administrative",
    "admin_level": 6,
    "parents": "-4444595,-2108121",
    "name": "Kuantan",
    "local_name": "Kuantan",
    "name_en": null,
    "all_tags": {
      "name": "Kuantan",
      "name:ta": "குவாந்தான்",
      "name:zh": "关丹县",
      "boundary": "administrative",
      "way_area": "0.248083",
      "wikidata": "Q20467357",
      "wikipedia": "en:Kuantan District",
      "admin_level": "6",
      "official_name": "Daerah Kuantan"
    }
  },
  {
    "osm_id": -10744335,
    "boundary": "administrative",
    "admin_level": 6,
    "parents": "-4444595,-2108121",
    "name": "Jerantut",
    "local_name": "Jerantut",
    "name_en": null,
    "all_tags": {
      "name": "Jerantut",
      "name:fa": "جرانتوت",
      "name:ru": "Джерантут",
      "name:ta": "ஜெராண்டுட்",
      "name:zh": "而连突县",
      "boundary": "administrative",
      "way_area": "0.589877",
      "wikidata": "Q2172999",
      "wikipedia": "en:Jerantut District",
      "admin_level": "6"
    }
  },
  {
    "osm_id": -10744331,
    "boundary": "administrative",
    "admin_level": 6,
    "parents": "-4444595,-2108121",
    "name": "Lipis",
    "local_name": "Lipis",
    "name_en": null,
    "all_tags": {
      "name": "Lipis",
      "name:fa": "بخش لیپیس",
      "name:ta": "லிப்பிஸ்",
      "name:zh": "立卑县",
      "boundary": "administrative",
      "way_area": "0.438871",
      "wikidata": "Q2330535",
      "wikipedia": "en:Lipis District",
      "admin_level": "6"
    }
  },
  {
    "osm_id": -10744325,
    "boundary": "administrative",
    "admin_level": 6,
    "parents": "-4444595,-2108121",
    "name": "Cameron Highlands",
    "local_name": "Cameron Highlands",
    "name_en": null,
    "all_tags": {
      "name": "Cameron Highlands",
      "name:fa": "کمرون هایلندز",
      "name:ja": "キャメロンハイランド",
      "name:ta": "கேமரன் மலை",
      "name:th": "ที่สูงแคเมอรอน",
      "name:ur": "کیمرون ہائی لینڈز",
      "name:zh": "金马仑高原县",
      "boundary": "administrative",
      "way_area": "0.0555285",
      "wikidata": "Q1028741",
      "wikipedia": "en:Cameron Highlands District",
      "admin_level": "6"
    }
  },
  {
    "osm_id": -10743362,
    "boundary": "administrative",
    "admin_level": 6,
    "parents": "-2932285,-2108121",
    "name": "Kuala Langat",
    "local_name": "Kuala Langat",
    "name_en": null,
    "all_tags": {
      "name": "Kuala Langat",
      "name:ja": "クアラ・ランガット",
      "name:zh": "瓜拉冷岳县",
      "boundary": "administrative",
      "way_area": "0.0693485",
      "wikidata": "Q2219254",
      "wikipedia": "en:Kuala Langat District",
      "admin_level": "6"
    }
  },
  {
    "osm_id": -10743315,
    "boundary": "administrative",
    "admin_level": 6,
    "parents": "-2932285,-2108121",
    "name": "Sepang",
    "local_name": "Sepang",
    "name_en": null,
    "all_tags": {
      "name": "Sepang",
      "name:ar": "سيبانغ",
      "name:ja": "セパン",
      "name:ko": "스팡",
      "name:ru": "Сепанг",
      "name:ta": "சிப்பாங்",
      "name:zh": "雪邦县",
      "boundary": "administrative",
      "way_area": "0.0448641",
      "wikidata": "Q911008",
      "wikipedia": "en:Sepang District",
      "admin_level": "6"
    }
  },
  {
    "osm_id": -10714199,
    "boundary": "administrative",
    "admin_level": 6,
    "parents": "-2932285,-2108121",
    "name": "Hulu Selangor",
    "local_name": "Hulu Selangor",
    "name_en": null,
    "all_tags": {
      "name": "Hulu Selangor",
      "name:ja": "フル・セランゴール",
      "name:zh": "乌鲁雪兰莪县",
      "alt_name": "Ulu Selangor",
      "boundary": "administrative",
      "way_area": "0.142906",
      "wikidata": "Q2741737",
      "wikipedia": "en:Hulu Selangor District",
      "admin_level": "6"
    }
  },
  {
    "osm_id": -10714137,
    "boundary": "administrative",
    "admin_level": 6,
    "parents": "-2932285,-2108121",
    "name": "Kuala Selangor",
    "local_name": "Kuala Selangor",
    "name_en": null,
    "all_tags": {
      "name": "Kuala Selangor",
      "name:zh": "瓜拉雪兰莪县",
      "boundary": "administrative",
      "way_area": "0.0971967",
      "wikidata": "Q2010079",
      "wikipedia": "en:Kuala Selangor District",
      "admin_level": "6"
    }
  },
  {
    "osm_id": -10714136,
    "boundary": "administrative",
    "admin_level": 6,
    "parents": "-2932285,-2108121",
    "name": "Sabak Bernam",
    "local_name": "Sabak Bernam",
    "name_en": null,
    "all_tags": {
      "name": "Sabak Bernam",
      "name:ar": "سابق برنم",
      "name:ja": "サバッ・ブルナム",
      "name:zh": "沙白安南县",
      "boundary": "administrative",
      "way_area": "0.0799405",
      "wikidata": "Q2198128",
      "wikipedia": "en:Sabak Bernam District",
      "admin_level": "6"
    }
  },
  {
    "osm_id": -10411526,
    "boundary": "administrative",
    "admin_level": 6,
    "parents": "-4445076,-2108121",
    "name": "Hulu Perak",
    "local_name": "Hulu Perak",
    "name_en": null,
    "all_tags": {
      "name": "Hulu Perak",
      "name:ta": "உலு பேராக்",
      "name:ur": "ضلع ہولو پیراک",
      "name:zh": "上霹靂县",
      "boundary": "administrative",
      "old_name": "Upper Perak",
      "way_area": "0.537541",
      "wikidata": "Q2416685",
      "wikipedia": "ms:Hulu Perak",
      "admin_level": "6",
      "official_name": "Daerah Hulu Perak"
    }
  },
  {
    "osm_id": -9404252,
    "boundary": "administrative",
    "admin_level": 6,
    "parents": "-4443571,-2108121",
    "name": "Tumpat",
    "local_name": "Tumpat",
    "name_en": null,
    "all_tags": {
      "name": "Tumpat",
      "name:zh": "道北县",
      "boundary": "administrative",
      "way_area": "0.0156624",
      "wikidata": "Q2180590",
      "wikipedia": "en:Tumpat District",
      "admin_level": "6"
    }
  },
  {
    "osm_id": -9383947,
    "boundary": "administrative",
    "admin_level": 6,
    "parents": "-4447619,-4445131,-2108121",
    "name": "Central Seberang Perai District",
    "local_name": "Seberang Perai Tengah",
    "name_en": "Central Seberang Perai District",
    "all_tags": {
      "name": "Seberang Perai Tengah",
      "name:en": "Central Seberang Perai District",
      "name:ta": "மத்திய செபராங் பிறை மாவட்டம்",
      "name:zh": "威中县",
      "boundary": "administrative",
      "way_area": "0.0193903",
      "wikidata": "Q1884730",
      "wikipedia": "en:Central Seberang Perai District",
      "admin_level": "6"
    }
  },
  {
    "osm_id": -9383946,
    "boundary": "administrative",
    "admin_level": 6,
    "parents": "-4447619,-4445131,-2108121",
    "name": "North Seberang Perai District",
    "local_name": "Seberang Perai Utara",
    "name_en": "North Seberang Perai District",
    "all_tags": {
      "name": "Seberang Perai Utara",
      "name:en": "North Seberang Perai District",
      "name:ta": "வட செபராங் பிறை மாவட்டம்",
      "name:zh": "威北县",
      "boundary": "administrative",
      "way_area": "0.0221569",
      "wikidata": "Q1884752",
      "wikipedia": "en:North Seberang Perai District",
      "admin_level": "6"
    }
  },
  {
    "osm_id": -9383945,
    "boundary": "administrative",
    "admin_level": 6,
    "parents": "-4445131,-2108121",
    "name": "Northeast Penang Island District",
    "local_name": "Timur Laut",
    "name_en": "Northeast Penang Island District",
    "all_tags": {
      "name": "Timur Laut",
      "name:en": "Northeast Penang Island District",
      "name:ta": "வடகிழக்கு பினாங்கு தீவு மாவட்டம்",
      "name:zh": "东北县",
      "boundary": "administrative",
      "way_area": "0.0103672",
      "wikidata": "Q2111318",
      "wikipedia": "en:Northeast Penang Island District",
      "admin_level": "6"
    }
  },
  {
    "osm_id": -9383944,
    "boundary": "administrative",
    "admin_level": 6,
    "parents": "-4445131,-2108121",
    "name": "Southwest Penang Island District",
    "local_name": "Barat Daya",
    "name_en": "Southwest Penang Island District",
    "all_tags": {
      "name": "Barat Daya",
      "name:en": "Southwest Penang Island District",
      "name:ta": "தென்மேற்கு பினாங்கு தீவு மாவட்டம்",
      "name:zh": "西南县",
      "boundary": "administrative",
      "way_area": "0.0146684",
      "wikidata": "Q2113918",
      "wikipedia": "en:Southwest Penang Island District",
      "admin_level": "6"
    }
  },
  {
    "osm_id": -9377821,
    "boundary": "administrative",
    "admin_level": 6,
    "parents": "-4444908,-2108121",
    "name": "Pokok Sena",
    "local_name": "Pokok Sena",
    "name_en": null,
    "all_tags": {
      "name": "Pokok Sena",
      "name:fa": "پوکوک سنا",
      "name:ta": "பொக்கோக் சேனா",
      "name:zh": "波各先那县",
      "boundary": "administrative",
      "way_area": "0.0200222",
      "wikidata": "Q7208694",
      "wikipedia": "en:Pokok Sena District",
      "admin_level": "6"
    }
  },
  {
    "osm_id": -9377820,
    "boundary": "administrative",
    "admin_level": 6,
    "parents": "-4444908,-2108121",
    "name": "Pendang",
    "local_name": "Pendang",
    "name_en": null,
    "all_tags": {
      "name": "Pendang",
      "name:fa": "پندانگ",
      "name:ta": "பெண்டாங்",
      "name:zh": "本同县",
      "boundary": "administrative",
      "way_area": "0.0514828",
      "wikidata": "Q1884545",
      "wikipedia": "en:Pendang District",
      "admin_level": "6"
    }
  },
  {
    "osm_id": -7374838,
    "boundary": "administrative",
    "admin_level": 6,
    "parents": "-4447619,-4445131,-2108121",
    "name": "South Seberang Perai District",
    "local_name": "Seberang Perai Selatan",
    "name_en": "South Seberang Perai District",
    "all_tags": {
      "name": "Seberang Perai Selatan",
      "name:en": "South Seberang Perai District",
      "name:ta": "தென் செபராங் பிறை மாவட்டம்",
      "name:zh": "威南县",
      "boundary": "administrative",
      "way_area": "0.0200066",
      "wikidata": "Q1884768",
      "wikipedia": "en:South Seberang Perai District",
      "admin_level": "6"
    }
  },
  {
    "osm_id": -7132273,
    "boundary": "administrative",
    "admin_level": 6,
    "parents": "-4444908,-2108121",
    "name": "Kota Setar",
    "local_name": "Kota Setar",
    "name_en": null,
    "all_tags": {
      "name": "Kota Setar",
      "name:fa": "کوتا ستار",
      "name:ta": "கோத்தா ஸ்டார்",
      "name:zh": "哥打士打县",
      "boundary": "administrative",
      "way_area": "0.0342174",
      "wikidata": "Q2219638",
      "wikipedia": "en:Kota Setar District",
      "admin_level": "6"
    }
  },
  {
    "osm_id": -6900420,
    "boundary": "administrative",
    "admin_level": 6,
    "parents": "-4443571,-2108121",
    "name": "Pasir Mas",
    "local_name": "Pasir Mas",
    "name_en": null,
    "all_tags": {
      "name": "Pasir Mas",
      "name:ta": "பாசிர் மாஸ்",
      "name:th": "อำเภอปาซีร์มัซ",
      "name:uk": "Пасір-Мас",
      "name:zh": "巴西马县",
      "boundary": "administrative",
      "way_area": "0.0465566",
      "wikidata": "Q20453839",
      "wikipedia": "en:Pasir Mas District",
      "admin_level": "6"
    }
  },
  {
    "osm_id": -6900418,
    "boundary": "administrative",
    "admin_level": 6,
    "parents": "-4443571,-2108121",
    "name": "Tanah Merah",
    "local_name": "Tanah Merah",
    "name_en": null,
    "all_tags": {
      "name": "Tanah Merah",
      "name:zh": "丹那美拉县",
      "boundary": "administrative",
      "way_area": "0.0717967",
      "wikidata": "Q1991996",
      "wikipedia": "en:Tanah Merah District",
      "admin_level": "6"
    }
  },
  {
    "osm_id": -6663545,
    "boundary": "administrative",
    "admin_level": 6,
    "parents": "-4444411,-2108121",
    "name": "Hulu Terengganu",
    "local_name": "Hulu Terengganu",
    "name_en": null,
    "all_tags": {
      "name": "Hulu Terengganu",
      "name:th": "อำเภอฮูลูเตอเริงกานู",
      "name:zh": "乌鲁登嘉楼县",
      "alt_name": "Ulu Terengganu",
      "boundary": "administrative",
      "way_area": "0.335872",
      "wikidata": "Q2219170",
      "wikipedia": "en:Hulu Terengganu District",
      "admin_level": "6"
    }
  },
  {
    "osm_id": -6663543,
    "boundary": "administrative",
    "admin_level": 6,
    "parents": "-4444411,-2108121",
    "name": "Besut",
    "local_name": "Besut",
    "name_en": "Besut",
    "all_tags": {
      "name": "Besut",
      "name:en": "Besut",
      "name:ms": "Besut",
      "name:th": "อำเภอเบอซุต",
      "name:ur": "ضلع بسوت",
      "name:zh": "勿述县",
      "boundary": "administrative",
      "way_area": "0.0911845",
      "wikidata": "Q1884571",
      "wikipedia": "en:Besut District",
      "admin_level": "6"
    }
  },
  {
    "osm_id": -6663537,
    "boundary": "administrative",
    "admin_level": 6,
    "parents": "-4444411,-2108121",
    "name": "Kemaman District",
    "local_name": "Kemaman",
    "name_en": "Kemaman District",
    "all_tags": {
      "name": "Kemaman",
      "name:en": "Kemaman District",
      "name:ms": "Kemaman",
      "name:ta": "கேமாமன்",
      "name:th": "อำเภอเกอมามัน",
      "name:ur": "کیمامان ضلع",
      "name:zh": "甘马挽县",
      "boundary": "administrative",
      "way_area": "0.206376",
      "wikidata": "Q1827701",
      "wikipedia": "en:Kemaman District",
      "admin_level": "6",
      "official_name": "Daerah Kemaman"
    }
  },
  {
    "osm_id": -6311590,
    "boundary": "administrative",
    "admin_level": 6,
    "parents": "-4443571,-2108121",
    "name": "Kota Bharu",
    "local_name": "Kota Bharu",
    "name_en": null,
    "all_tags": {
      "name": "Kota Bharu",
      "name:zh": "哥打峇鲁县",
      "boundary": "administrative",
      "way_area": "0.0326499",
      "wikidata": "Q651131",
      "wikipedia": "en:Kota Bharu",
      "admin_level": "6"
    }
  },
  {
    "osm_id": -6166151,
    "boundary": "administrative",
    "admin_level": 6,
    "parents": "-4444908,-2108121",
    "name": "Sik",
    "local_name": "Sik",
    "name_en": null,
    "all_tags": {
      "name": "Sik",
      "name:fa": "سیک کداح",
      "name:ta": "சிக்",
      "name:ur": "ضلع سیک",
      "name:zh": "锡县",
      "boundary": "administrative",
      "way_area": "0.135309",
      "wikidata": "Q1884759",
      "wikipedia": "en:Sik District",
      "admin_level": "6"
    }
  },
  {
    "osm_id": -6166150,
    "boundary": "administrative",
    "admin_level": 6,
    "parents": "-4444908,-2108121",
    "name": "Kulim",
    "local_name": "Kulim",
    "name_en": null,
    "all_tags": {
      "name": "Kulim",
      "name:ta": "கூலிம்",
      "name:ur": "کولیم ضلع",
      "name:zh": "居林县",
      "boundary": "administrative",
      "way_area": "0.062246",
      "wikidata": "Q2272953",
      "wikipedia": "en:Kulim District",
      "admin_level": "6"
    }
  },
  {
    "osm_id": -6166149,
    "boundary": "administrative",
    "admin_level": 6,
    "parents": "-4444908,-2108121",
    "name": "Bandar Baharu",
    "local_name": "Bandar Baharu",
    "name_en": null,
    "all_tags": {
      "name": "Bandar Baharu",
      "name:fa": "بندر باهارو",
      "name:ta": "பண்டார் பாரு",
      "name:zh": "万拉峇鲁县",
      "boundary": "administrative",
      "way_area": "0.0220574",
      "wikidata": "Q1884699",
      "wikipedia": "en:Bandar Baharu District",
      "admin_level": "6"
    }
  },
  {
    "osm_id": -6166148,
    "boundary": "administrative",
    "admin_level": 6,
    "parents": "-4444908,-2108121",
    "name": "Baling",
    "local_name": "Baling",
    "name_en": null,
    "all_tags": {
      "name": "Baling",
      "name:ja": "バリン",
      "name:ta": "பாலிங்",
      "name:ur": "ضلع بالنگ",
      "name:zh": "华玲县",
      "boundary": "administrative",
      "way_area": "0.126078",
      "wikidata": "Q1884712",
      "wikipedia": "en:Baling District",
      "admin_level": "6"
    }
  },
  {
    "osm_id": -5341460,
    "boundary": "administrative",
    "admin_level": 6,
    "parents": "-4444908,-2108121",
    "name": "Kuala Muda",
    "local_name": "Kuala Muda",
    "name_en": null,
    "all_tags": {
      "name": "Kuala Muda",
      "name:ja": "クアラ・ムダ",
      "name:ta": "கோலா மூடா",
      "name:zh": "瓜拉姆达县",
      "boundary": "administrative",
      "way_area": "0.0754401",
      "wikidata": "Q1884538",
      "wikipedia": "zh:瓜拉姆达县",
      "admin_level": "6"
    }
  },
  {
    "osm_id": -5331713,
    "boundary": "administrative",
    "admin_level": 6,
    "parents": "-4444908,-2108121",
    "name": "Yan",
    "local_name": "Yan",
    "name_en": null,
    "all_tags": {
      "name": "Yan",
      "name:fa": "یان",
      "name:ja": "ヤン",
      "name:ta": "யான்",
      "name:ur": "ین",
      "name:zh": "铅县",
      "boundary": "administrative",
      "way_area": "0.0194635",
      "wikidata": "Q605393",
      "wikipedia": "en:Yan District",
      "admin_level": "6"
    }
  },
  {
    "osm_id": -5245240,
    "boundary": "administrative",
    "admin_level": 6,
    "parents": "-4444908,-2108121",
    "name": "Padang Terap",
    "local_name": "Padang Terap",
    "name_en": null,
    "all_tags": {
      "name": "Padang Terap",
      "name:ja": "パダン・トゥラップ",
      "name:ta": "பாடாங் தெராப்",
      "name:ur": "ضلع پادانگ تیراپ",
      "name:zh": "巴东得腊县",
      "boundary": "administrative",
      "way_area": "0.110936",
      "wikidata": "Q1858255",
      "wikipedia": "en:Padang Terap District",
      "admin_level": "6"
    }
  },
  {
    "osm_id": -5245238,
    "boundary": "administrative",
    "admin_level": 6,
    "parents": "-4444908,-2108121",
    "name": "Kubang Pasu",
    "local_name": "Kubang Pasu",
    "name_en": null,
    "all_tags": {
      "name": "Kubang Pasu",
      "name:ja": "クバン・パス",
      "name:ta": "குபாங் பாசு",
      "name:th": "อำเภอกูบังปาซู",
      "name:ur": "کوبانگ پاسو ضلع",
      "name:zh": "古邦巴素县",
      "boundary": "administrative",
      "way_area": "0.0775166",
      "wikidata": "Q33653158",
      "admin_level": "6"
    }
  },
  {
    "osm_id": -5203296,
    "boundary": "administrative",
    "admin_level": 5,
    "parents": "-3879784,-2108121",
    "name": "Kuching Division",
    "local_name": "Kuching Division",
    "name_en": null,
    "all_tags": {
      "name": "Kuching Division",
      "name:id": "Divisi Kuching",
      "name:ms": "Bahagian Kuching",
      "name:uk": "Кучинґ автономний округ",
      "name:zh": "古晋省",
      "boundary": "administrative",
      "way_area": "0.336326",
      "wikidata": "Q2552204",
      "wikipedia": "en:Kuching Division",
      "admin_level": "5"
    }
  },
  {
    "osm_id": -4763405,
    "boundary": "administrative",
    "admin_level": 6,
    "parents": "-4444908,-2108121",
    "name": "Langkawi",
    "local_name": "Langkawi",
    "name_en": null,
    "all_tags": {
      "name": "Langkawi",
      "name:ja": "ランカウイ",
      "name:ms": "Daerah Langkawi",
      "name:ru": "Лангкави",
      "name:ta": "லங்காவி",
      "name:zh": "浮罗交怡县",
      "boundary": "administrative",
      "way_area": "0.0382978",
      "wikidata": "Q273303",
      "wikipedia": "en:Langkawi",
      "admin_level": "6"
    }
  },
  {
    "osm_id": -4521286,
    "boundary": "administrative",
    "admin_level": 4,
    "parents": "-2108121",
    "name": "Labuan",
    "local_name": "Labuan",
    "name_en": null,
    "all_tags": {
      "name": "Labuan",
      "name:ar": "لابوان",
      "name:be": "Лабуан",
      "name:bg": "Лабуан",
      "name:br": "Labuan",
      "name:el": "Λαμπουάν",
      "name:eo": "Labuano",
      "name:es": "Labuán",
      "name:fa": "لابوآن",
      "name:fr": "Labuan",
      "name:he": "לבואן",
      "name:hi": "लबूअन",
      "name:id": "Labuan",
      "name:ja": "ラブアン",
      "name:ka": "ლაბუანი",
      "name:ko": "라부안",
      "name:mk": "Лабуан",
      "name:mr": "लाबुआन",
      "name:ms": "Labuan",
      "name:nl": "Labuan",
      "name:ru": "Лабуан",
      "name:ta": "லாபுவான்",
      "name:th": "ลาบวน",
      "name:uk": "Лабуан",
      "name:ur": "لابوان",
      "name:zh": "纳闽",
      "boundary": "administrative",
      "timezone": "Asia/Kuching",
      "way_area": "0.161424",
      "wikidata": "Q214504",
      "ISO3166-2": "MY-15",
      "wikipedia": "en:Labuan",
      "admin_level": "4",
      "official_name": "Wilayah Persekutuan Labuan",
      "official_name:en": "Federal Territory of Labuan"
    }
  },
  {
    "osm_id": -4463195,
    "boundary": "administrative",
    "admin_level": 6,
    "parents": "-2939673,-2108121",
    "name": "Jasin District",
    "local_name": "Jasin",
    "name_en": "Jasin District",
    "all_tags": {
      "name": "Jasin",
      "name:de": "Jasin",
      "name:en": "Jasin District",
      "name:ja": "ジャシン",
      "name:zh": "野新县",
      "boundary": "administrative",
      "way_area": "0.055994",
      "wikidata": "Q2030149",
      "wikipedia": "ms:Jasin",
      "admin_level": "6"
    }
  },
  {
    "osm_id": -4463194,
    "boundary": "administrative",
    "admin_level": 6,
    "parents": "-2939673,-2108121",
    "name": "Central Malacca",
    "local_name": "Melaka Tengah",
    "name_en": "Central Malacca",
    "all_tags": {
      "name": "Melaka Tengah",
      "name:en": "Central Malacca",
      "name:ja": "ムラカ・トゥンガ",
      "name:zh": "马六甲中央县",
      "boundary": "administrative",
      "way_area": "0.0251462",
      "wikidata": "Q4398232",
      "wikipedia": "ms:Melaka Tengah",
      "admin_level": "6"
    }
  },
  {
    "osm_id": -4463193,
    "boundary": "administrative",
    "admin_level": 6,
    "parents": "-2939673,-2108121",
    "name": "Alor Gajah",
    "local_name": "Alor Gajah",
    "name_en": "Alor Gajah",
    "all_tags": {
      "name": "Alor Gajah",
      "name:en": "Alor Gajah",
      "name:ja": "アロー・ガジャ",
      "name:zh": "亚罗牙也县",
      "boundary": "administrative",
      "way_area": "0.054614",
      "wikidata": "Q2251607",
      "wikipedia": "ms:Alor Gajah",
      "admin_level": "6"
    }
  },
  {
    "osm_id": -4447619,
    "boundary": "administrative",
    "admin_level": 5,
    "parents": "-4445131,-2108121",
    "name": "Seberang Perai",
    "local_name": "Seberang Perai",
    "name_en": "Seberang Perai",
    "all_tags": {
      "name": "Seberang Perai",
      "name:en": "Seberang Perai",
      "name:ms": "Seberang Perai",
      "name:zh": "威省",
      "boundary": "administrative",
      "old_name": "Province Wellesley",
      "way_area": "0.0614782",
      "wikidata": "Q1861984",
      "wikipedia": "en:Seberang Perai",
      "admin_level": "5",
      "description": "This is a municipality of Seberang Perai border MPSP , below it have 3 district called North, Central and South(admin level for 6) and it below at Penang(admin level 4) so specially get 5(but different meaning for East Malaysia)"
    }
  },
  {
    "osm_id": -4445131,
    "boundary": "administrative",
    "admin_level": 4,
    "parents": "-2108121",
    "name": "Penang",
    "local_name": "Pulau Pinang",
    "name_en": "Penang",
    "all_tags": {
      "name": "Pulau Pinang",
      "name:ar": "بينانق",
      "name:az": "Pinanq",
      "name:bg": "Пенанг",
      "name:bn": "পেনাং",
      "name:ca": "Penang",
      "name:cs": "Penang",
      "name:da": "Penang",
      "name:de": "Penang",
      "name:en": "Penang",
      "name:eo": "Penango",
      "name:es": "Penang",
      "name:eu": "Penang",
      "name:fa": "پنانگ",
      "name:fi": "Penang",
      "name:fr": "Penang",
      "name:he": "פננג",
      "name:hi": "पिनांग",
      "name:hu": "Pineng",
      "name:ik": "Penang",
      "name:io": "Penang",
      "name:it": "Penang",
      "name:ja": "ペナン",
      "name:jv": "Pulo Pinang",
      "name:kn": "ಪಿನಾಂಗ್",
      "name:ko": "피낭",
      "name:lt": "Penangas",
      "name:mk": "Пенанг",
      "name:ml": "പെനാംഗ്",
      "name:mr": "पेनांग",
      "name:ms": "Pulau Pinang",
      "name:nl": "Penang",
      "name:no": "Penang",
      "name:pa": "ਪੀਨਾਂਗ",
      "name:pl": "Penang",
      "name:pt": "Penang",
      "name:qu": "Penang suyu",
      "name:ru": "Пинанг",
      "name:sv": "Pinang",
      "name:ta": "பினாங்கு",
      "name:te": "పెనాంగ్",
      "name:th": "รัฐปีนัง",
      "name:tr": "Penang",
      "name:uk": "Пінанг",
      "name:ur": "پینانگ",
      "name:zh": "槟城州",
      "boundary": "administrative",
      "name:yue": "檳城州",
      "way_area": "0.0866059",
      "wikidata": "Q188096",
      "ISO3166-2": "MY-07",
      "wikipedia": "en:Penang",
      "admin_level": "4"
    }
  },
  {
    "osm_id": -4445076,
    "boundary": "administrative",
    "admin_level": 4,
    "parents": "-2108121",
    "name": "Perak",
    "local_name": "Perak",
    "name_en": "Perak",
    "all_tags": {
      "ref": "PRK",
      "name": "Perak",
      "sqkm": "21035",
      "place": "state",
      "name:ar": "فيرق",
      "name:az": "Perak",
      "name:bg": "Перак",
      "name:ca": "Perak",
      "name:da": "Perak",
      "name:de": "Perak",
      "name:en": "Perak",
      "name:eo": "Perako",
      "name:es": "Perak",
      "name:et": "Peraki osariik",
      "name:eu": "Perak",
      "name:fa": "پراک",
      "name:fi": "Perak",
      "name:fr": "Perak",
      "name:gl": "Perak",
      "name:he": "פרק",
      "name:hi": "पेराक",
      "name:hu": "Perak",
      "name:id": "Perak",
      "name:ik": "Perak",
      "name:it": "Perak",
      "name:ja": "ペラ",
      "name:ka": "პერაკი",
      "name:ko": "페락",
      "name:lt": "Perakas",
      "name:mk": "Перак",
      "name:mr": "पराक",
      "name:ms": "Perak",
      "name:nl": "Perak",
      "name:no": "Perak",
      "name:pl": "Perak",
      "name:pt": "Perak",
      "name:qu": "Perak suyu",
      "name:ru": "Перак",
      "name:sv": "Perak",
      "name:ta": "பேராக்",
      "name:th": "รัฐเปรัก",
      "name:tl": "Perak",
      "name:tr": "Perak",
      "name:uk": "Перак",
      "name:ur": "پیراک",
      "name:vi": "Perak",
      "name:zh": "霹雳州",
      "alt_name": "ڨيرق دار الرّضوان",
      "boundary": "administrative",
      "way_area": "1.70386",
      "wikidata": "Q188953",
      "ISO3166-2": "MY-08",
      "wikipedia": "en:Perak",
      "population": "2477700",
      "short_name": "PRK",
      "admin_level": "4",
      "old_name:zh": "吡叻",
      "official_name": "Perak Darul Ridzuan"
    }
  },
  {
    "osm_id": -4444918,
    "boundary": "administrative",
    "admin_level": 4,
    "parents": "-2108121",
    "name": "Perlis",
    "local_name": "Perlis",
    "name_en": "Perlis",
    "all_tags": {
      "name": "Perlis",
      "place": "state",
      "name:ar": "برليس",
      "name:bg": "Перлис",
      "name:en": "Perlis",
      "name:eo": "Perliso",
      "name:fa": "پرلیس",
      "name:he": "פרליס",
      "name:hi": "पेरलिस",
      "name:ja": "プルリス",
      "name:ka": "პერლისი",
      "name:ko": "프를리스",
      "name:mk": "Перлис",
      "name:mr": "पर्लिस",
      "name:ms": "Perlis",
      "name:qu": "Perlis suyu",
      "name:ru": "Перлис",
      "name:ta": "பெர்லிஸ்",
      "name:th": "รัฐปะลิส",
      "name:uk": "Перліс",
      "name:ur": "پرلس",
      "name:zh": "玻璃市州",
      "boundary": "administrative",
      "old_name": "Palit;ปะลิส",
      "way_area": "0.0665382",
      "wikidata": "Q213467",
      "ISO3166-2": "MY-09",
      "wikipedia": "en:Perlis",
      "admin_level": "4",
      "old_name:th": "ไทรบุร",
      "official_name": "Perlis Indera Kayangan"
    }
  },
  {
    "osm_id": -4444908,
    "boundary": "administrative",
    "admin_level": 4,
    "parents": "-2108121",
    "name": "Kedah",
    "local_name": "Kedah",
    "name_en": "Kedah",
    "all_tags": {
      "name": "Kedah",
      "place": "state",
      "name:ar": "قدح",
      "name:ba": "Кедах",
      "name:bg": "Кедах",
      "name:bn": "কেদাহ",
      "name:en": "Kedah",
      "name:eo": "Kedaho",
      "name:et": "Kedahi osariik",
      "name:fa": "کداح",
      "name:he": "קדה",
      "name:hi": "केदाह",
      "name:ja": "ケダ",
      "name:kn": "ಕಟಾಹ",
      "name:ko": "크다",
      "name:lt": "Kedahas",
      "name:mk": "Кедах",
      "name:mr": "कदा",
      "name:ms": "Kedah",
      "name:pt": "Quedá",
      "name:qu": "Kedah suyu",
      "name:ru": "Кедах",
      "name:sa": "कदा",
      "name:ta": "கடாரம்",
      "name:th": "รัฐเกดะห์",
      "name:uk": "Кедах",
      "name:ur": "قدح (ریاست)",
      "name:zh": "吉打州",
      "alt_name": "Darul Aman;Kedah Darul Aman;قدح در الامن",
      "boundary": "administrative",
      "old_name": "Kadaram",
      "way_area": "0.900998",
      "wikidata": "Q188947",
      "ISO3166-2": "MY-02",
      "wikipedia": "en:Kedah",
      "admin_level": "4",
      "old_name:th": "ไทรบุร",
      "name:ms-Arab": "قدح",
      "official_name": "Kedah Darul Aman"
    }
  },
  {
    "osm_id": -4444595,
    "boundary": "administrative",
    "admin_level": 4,
    "parents": "-2108121",
    "name": "Pahang",
    "local_name": "Pahang",
    "name_en": "Pahang",
    "all_tags": {
      "name": "Pahang",
      "place": "state",
      "name:ar": "فهغ",
      "name:az": "Pahanq",
      "name:bg": "Паханг",
      "name:bn": "পেহাং",
      "name:en": "Pahang",
      "name:eo": "Pahango",
      "name:et": "Pahangi osariik",
      "name:fa": "پاهانگ",
      "name:he": "פהנג",
      "name:hi": "पाहांग",
      "name:id": "Pahang",
      "name:ja": "パハン",
      "name:ko": "파항",
      "name:lt": "Pahangas",
      "name:mk": "Паханг",
      "name:ml": "പഹാങ്ങ്",
      "name:mr": "पाहांग",
      "name:ms": "Pahang",
      "name:nl": "Pahang",
      "name:qu": "Pahang suyu",
      "name:ru": "Паханг",
      "name:ta": "பகாங்",
      "name:th": "รัฐปะหัง",
      "name:uk": "Паганґ",
      "name:ur": "پاہانگ",
      "name:zh": "彭亨州",
      "boundary": "administrative",
      "way_area": "2.92743",
      "wikidata": "Q191346",
      "ISO3166-2": "MY-06",
      "wikipedia": "en:Pahang",
      "admin_level": "4",
      "official_name": "Pahang Darul Makmur"
    }
  },
  {
    "osm_id": -4444411,
    "boundary": "administrative",
    "admin_level": 4,
    "parents": "-2108121",
    "name": "Terengganu",
    "local_name": "Terengganu",
    "name_en": "Terengganu",
    "all_tags": {
      "name": "Terengganu",
      "name:ar": "ترغكانو",
      "name:az": "Trenqanu",
      "name:bg": "Теренггану",
      "name:ca": "Terengganu",
      "name:da": "Terengganu",
      "name:de": "Terengganu",
      "name:en": "Terengganu",
      "name:eo": "Terengganuo",
      "name:es": "Terengganu",
      "name:et": "Terengganu osariik",
      "name:eu": "Terengganu",
      "name:fa": "ترنگانو",
      "name:fi": "Terengganu",
      "name:fr": "Terengganu",
      "name:he": "טרנגנו",
      "name:hi": "तेरेंगानू",
      "name:hu": "Terengganu",
      "name:id": "Terengganu",
      "name:ik": "Terengganu",
      "name:it": "Terengganu",
      "name:ja": "トレンガヌ",
      "name:jv": "Trengganu",
      "name:ko": "트렝가누",
      "name:lt": "Terenganu",
      "name:mk": "Теренгану",
      "name:mr": "तरेंगानू",
      "name:ms": "Terengganu",
      "name:nl": "Terengganu",
      "name:no": "Terengganu",
      "name:pl": "Terengganu",
      "name:pt": "Terenganu",
      "name:qu": "Terengganu suyu",
      "name:ro": "Terengganu",
      "name:ru": "Тренгану",
      "name:sv": "Terengganu",
      "name:ta": "திராங்கானு",
      "name:th": "รัฐตรังกานู",
      "name:tr": "Terengganu",
      "name:uk": "Тренгану",
      "name:ur": "تیرنگانو",
      "name:vi": "Terengganu",
      "name:zh": "登嘉樓州",
      "alt_name": "Terengganu Darul Iman;Negeri Terengganu Darul Iman;ترڠڬانو دار الإيما",
      "boundary": "administrative",
      "old_name": "Trengganu;Tringganu",
      "way_area": "1.05683",
      "wikidata": "Q189701",
      "ISO3166-2": "MY-11",
      "wikipedia": "en:Terengganu",
      "admin_level": "4",
      "alt_name:zh": "登嘉楼;丁加奴",
      "old_name:zh": "丁加奴州",
      "official_name": "Terengganu Darul Iman"
    }
  },
  {
    "osm_id": -4443881,
    "boundary": "administrative",
    "admin_level": 4,
    "parents": "-2108121",
    "name": "Putrajaya",
    "local_name": "Putrajaya",
    "name_en": "Putrajaya",
    "all_tags": {
      "name": "Putrajaya",
      "place": "state",
      "name:ar": "بوتراجاي",
      "name:az": "Putracaya",
      "name:bg": "Путраджая",
      "name:bh": "पुत्रजय",
      "name:bn": "পুত্রজায়া",
      "name:el": "Πουτρατζάγια",
      "name:en": "Putrajaya",
      "name:eo": "Putraĝajo",
      "name:fa": "پوتراجایا",
      "name:he": "פוטרג'איה",
      "name:hi": "पुत्रजय",
      "name:hy": "Պուտրաջայա",
      "name:ja": "プトラジャヤ",
      "name:ka": "პუტრაჯაია",
      "name:ko": "푸트라자야",
      "name:ky": "Путражайя",
      "name:lv": "Putradžaja",
      "name:mk": "Путраџаја",
      "name:ml": "പുത്രജയ",
      "name:mr": "पुत्रजय",
      "name:ms": "Putrajaya",
      "name:os": "Путраджайя",
      "name:pa": "ਪੁੱਤਰਜੈ",
      "name:ru": "Путраджая",
      "name:ta": "புத்ராஜாயா",
      "name:th": "ปูตราจายา",
      "name:uk": "Путраджая",
      "name:ur": "پتراجایا",
      "name:zh": "布城",
      "boundary": "administrative",
      "way_area": "0.00399109",
      "wikidata": "Q182378",
      "ISO3166-2": "MY-16",
      "wikipedia": "en:Putrajaya",
      "admin_level": "4",
      "official_name": "Wilayah Persekutuan Putrajaya",
      "official_name:en": "Federal Territory of Putrajaya"
    }
  },
  {
    "osm_id": -4443639,
    "boundary": "administrative",
    "admin_level": 6,
    "parents": "-4443571,-2108121",
    "name": "Pasir Puteh",
    "local_name": "ڤاسير ڤوتيه / Pasir Puteh",
    "name_en": "Pasir Puteh",
    "all_tags": {
      "name": "ڤاسير ڤوتيه / Pasir Puteh",
      "name:en": "Pasir Puteh",
      "name:ja": "パシール・プテ",
      "name:ms": "Jajahan Pasir Puteh",
      "name:zh": "巴西富地县",
      "boundary": "administrative",
      "way_area": "0.0345537",
      "wikidata": "Q7142173",
      "wikipedia": "en:Pasir Puteh",
      "admin_level": "6"
    }
  },
  {
    "osm_id": -4443638,
    "boundary": "administrative",
    "admin_level": 6,
    "parents": "-4443571,-2108121",
    "name": "Machang",
    "local_name": "ماچڠ / Machang",
    "name_en": "Machang",
    "all_tags": {
      "name": "ماچڠ / Machang",
      "name:en": "Machang",
      "name:ja": "マチャン",
      "name:ms": "Jajahan Machang",
      "name:zh": "马樟县",
      "boundary": "administrative",
      "way_area": "0.0430992",
      "wikidata": "Q6723423",
      "wikipedia": "en:Machang, Kelantan",
      "admin_level": "6"
    }
  },
  {
    "osm_id": -4443637,
    "boundary": "administrative",
    "admin_level": 6,
    "parents": "-4443571,-2108121",
    "name": "Kuala Krai",
    "local_name": "كوالا كراي / Kuala Krai",
    "name_en": "Kuala Krai",
    "all_tags": {
      "name": "كوالا كراي / Kuala Krai",
      "name:en": "Kuala Krai",
      "name:ja": "クアラ・クライ",
      "name:ms": "Jajahan Kuala Krai",
      "name:zh": "瓜拉吉赖县",
      "boundary": "administrative",
      "int_name": "Kuala Krai",
      "way_area": "0.185277",
      "wikidata": "Q2181394",
      "wikipedia": "en:Kuala Krai",
      "admin_level": "6"
    }
  },
  {
    "osm_id": -4443636,
    "boundary": "administrative",
    "admin_level": 6,
    "parents": "-4443571,-2108121",
    "name": "Jeli",
    "local_name": "جيلي / Jeli",
    "name_en": "Jeli",
    "all_tags": {
      "name": "جيلي / Jeli",
      "name:en": "Jeli",
      "name:ja": "ジュリ",
      "name:ms": "Jajahan Jeli",
      "name:ta": "ஜெலி",
      "name:zh": "日里县",
      "boundary": "administrative",
      "int_name": "Jeli",
      "way_area": "0.108145",
      "wikidata": "Q1884709",
      "wikipedia": "en:Jeli",
      "admin_level": "6"
    }
  },
  {
    "osm_id": -4443635,
    "boundary": "administrative",
    "admin_level": 6,
    "parents": "-4443571,-2108121",
    "name": "Gua Musang",
    "local_name": "ڬوا موسڠ / Gua Musang",
    "name_en": "Gua Musang",
    "all_tags": {
      "name": "ڬوا موسڠ / Gua Musang",
      "name:en": "Gua Musang",
      "name:ja": "グア・ムサン",
      "name:ms": "Jajahan Gua Musang",
      "name:ta": "குவா மூசாங்",
      "name:zh": "话望生县",
      "boundary": "administrative",
      "int_name": "Gua Musang",
      "way_area": "0.666706",
      "wikidata": "Q3096534",
      "wikipedia": "en:Gua Musang",
      "admin_level": "6"
    }
  },
  {
    "osm_id": -4443634,
    "boundary": "administrative",
    "admin_level": 6,
    "parents": "-4443571,-2108121",
    "name": "Bachok",
    "local_name": "باچوق / Bachok",
    "name_en": "Bachok",
    "all_tags": {
      "name": "باچوق / Bachok",
      "name:en": "Bachok",
      "name:ja": "バチョ",
      "name:ms": "Jajahan Bachok",
      "name:zh": "万捷县",
      "boundary": "administrative",
      "int_name": "Bachok",
      "way_area": "0.0226076",
      "wikidata": "Q1836486",
      "wikipedia": "en:Bachok",
      "admin_level": "6",
      "alt_name:zh": "峇卓县"
    }
  },
  {
    "osm_id": -4443571,
    "boundary": "administrative",
    "admin_level": 4,
    "parents": "-2108121",
    "name": "Kelantan",
    "local_name": "Kelantan",
    "name_en": "Kelantan",
    "all_tags": {
      "name": "Kelantan",
      "place": "state",
      "name:ar": "كلنتن",
      "name:bg": "Келантан",
      "name:en": "Kelantan",
      "name:eo": "Kelantano",
      "name:et": "Kelantani osariik",
      "name:fa": "کلانتان",
      "name:he": "קלנטן",
      "name:hi": "केलंतन",
      "name:ja": "クランタン",
      "name:ko": "클란탄",
      "name:lt": "Kelantanas",
      "name:mk": "Келантан",
      "name:mr": "कलांतान",
      "name:ms": "Kelantan",
      "name:qu": "Kelantan suyu",
      "name:ru": "Келантан",
      "name:ta": "கிளாந்தான்",
      "name:th": "รัฐกลันตัน",
      "name:uk": "Келантан",
      "name:ur": "کیلانتن",
      "name:zh": "吉兰丹州",
      "boundary": "administrative",
      "way_area": "1.22705",
      "wikidata": "Q185944",
      "ISO3166-2": "MY-03",
      "wikipedia": "en:Kelantan",
      "admin_level": "4",
      "official_name": "Kelantan Darul Naim"
    }
  },
  {
    "osm_id": -3879784,
    "boundary": "administrative",
    "admin_level": 4,
    "parents": "-2108121",
    "name": "Sarawak",
    "local_name": "Sarawak",
    "name_en": "Sarawak",
    "all_tags": {
      "name": "Sarawak",
      "name:ar": "سراوق",
      "name:az": "Saravak",
      "name:be": "Саравак",
      "name:bg": "Саравак",
      "name:bn": "সারাওয়াক",
      "name:en": "Sarawak",
      "name:eo": "Saravako",
      "name:et": "Sarawaki osariik",
      "name:fa": "ساراواک",
      "name:he": "סראוואק",
      "name:hi": "सारावाक",
      "name:hy": "Սարավակ",
      "name:ja": "サラワク",
      "name:ko": "사라왁",
      "name:lt": "Saravakas",
      "name:lv": "Saravaka",
      "name:mk": "Саравак",
      "name:ml": "സാരവാക്ക്",
      "name:mr": "सारावाक",
      "name:ms": "Sarawak",
      "name:my": "ဆာရာဝပ်ပြည်နယ်",
      "name:nl": "Sarawak",
      "name:qu": "Sarawak suyu",
      "name:ru": "Саравак",
      "name:sr": "Саравак",
      "name:ta": "சரவாக்",
      "name:th": "รัฐซาราวัก",
      "name:tr": "Saravak",
      "name:uk": "Саравак",
      "name:ur": "سراواک",
      "name:zh": "砂拉越州",
      "alt_name": "Bumi Kenyalang;Sarawak Bumi Kenyalang",
      "boundary": "administrative",
      "timezone": "Asia/Kuching",
      "way_area": "12.2992",
      "wikidata": "Q170462",
      "ISO3166-2": "MY-13",
      "wikipedia": "en:Sarawak",
      "admin_level": "4"
    }
  },
  {
    "osm_id": -3879783,
    "boundary": "administrative",
    "admin_level": 4,
    "parents": "-2108121",
    "name": "Sabah",
    "local_name": "Sabah",
    "name_en": null,
    "all_tags": {
      "name": "Sabah",
      "name:ar": "صباح",
      "name:az": "Sabah",
      "name:be": "Сабах",
      "name:bg": "Сабах",
      "name:eo": "Sabaho",
      "name:fa": "صباح",
      "name:he": "סבה",
      "name:hi": "साबाह राज्य",
      "name:hy": "Սաբահ",
      "name:ja": "サバ",
      "name:ka": "საბაჰი",
      "name:kk": "Сабах",
      "name:ko": "사바",
      "name:lt": "Sabahas",
      "name:lv": "Sabaha",
      "name:mk": "Сабах",
      "name:ml": "ഷബഹ്",
      "name:mr": "साबा",
      "name:ms": "Sabah",
      "name:pt": "Sabá",
      "name:qu": "Sabah suyu",
      "name:ru": "Сабах",
      "name:ta": "சபா",
      "name:th": "รัฐซาบะฮ์",
      "name:tr": "Sabah",
      "name:uk": "Сабах",
      "name:ur": "صباح",
      "name:zh": "沙巴州",
      "alt_name": "Negeri Di Bawah Bayu;Sabah Negeri Di Bawah Bayu",
      "boundary": "administrative",
      "timezone": "Asia/Kuching",
      "way_area": "9.66684",
      "wikidata": "Q179029",
      "ISO3166-2": "MY-12",
      "wikipedia": "en:Sabah",
      "admin_level": "4"
    }
  },
  {
    "osm_id": -2939674,
    "boundary": "administrative",
    "admin_level": 4,
    "parents": "-2108121",
    "name": "Negeri Sembilan",
    "local_name": "Negeri Sembilan",
    "name_en": null,
    "all_tags": {
      "name": "Negeri Sembilan",
      "place": "state",
      "name:ar": "نكري سمبيلن",
      "name:az": "Neqeri Sembilan",
      "name:bg": "Негери Сембилан",
      "name:eo": "Negeri-Sembilano",
      "name:fa": "نگاری سمبیلان",
      "name:he": "נגרי סמבילן",
      "name:hi": "नेगेरी सेमबिलान",
      "name:ik": "Negri Sembilan",
      "name:ja": "ヌグリ・スンビラン",
      "name:ko": "느그리슴빌란",
      "name:mk": "Негери Сембилан",
      "name:mr": "नगरी संबिलान",
      "name:ms": "Negeri Sembilan",
      "name:qu": "Negeri Sembilan suyu",
      "name:ru": "Негери-Сембилан",
      "name:ta": "நெகிரி செம்பிலான்",
      "name:th": "รัฐเนอเกอรีเซิมบีลัน",
      "name:uk": "Неґері-Сембілан",
      "name:ur": "نگری سمبیلان",
      "name:zh": "森美兰州",
      "boundary": "administrative",
      "way_area": "0.614751",
      "wikidata": "Q213893",
      "ISO3166-2": "MY-05",
      "wikipedia": "en:Negeri Sembilan",
      "admin_level": "4",
      "alt_name:en": "Negri Sembilan",
      "border_type": "state",
      "official_name": "Negeri Sembilan Darul Khusus"
    }
  },
  {
    "osm_id": -2939673,
    "boundary": "administrative",
    "admin_level": 4,
    "parents": "-2108121",
    "name": "Malacca",
    "local_name": "Melaka",
    "name_en": "Malacca",
    "all_tags": {
      "ref": "MLK",
      "name": "Melaka",
      "place": "state",
      "name:af": "Malakka",
      "name:ar": "ملقا",
      "name:az": "Malakka",
      "name:ba": "Малакка",
      "name:bg": "Малака",
      "name:br": "Malaka",
      "name:ca": "Malaca",
      "name:cs": "Malakka",
      "name:de": "Malakka",
      "name:el": "Μαλάκκα",
      "name:en": "Malacca",
      "name:eo": "Malako",
      "name:es": "Malaca",
      "name:et": "Melaka osariik",
      "name:eu": "Malaka",
      "name:fa": "ایالت ملاکا",
      "name:fi": "Malakka",
      "name:fr": "Malacca",
      "name:gl": "Malaca",
      "name:he": "מלאקה",
      "name:hi": "मेलाका",
      "name:hu": "Melaka",
      "name:ik": "Malacca",
      "name:it": "Malacca",
      "name:ja": "ムラカ",
      "name:ko": "믈라카",
      "name:lb": "Malakka",
      "name:mg": "Malacca",
      "name:mk": "Малака",
      "name:ml": "മലാക്കാ",
      "name:mr": "मलाक्का",
      "name:ms": "Melaka",
      "name:nl": "Malakka",
      "name:no": "Malakka",
      "name:pl": "Malakka",
      "name:pt": "Malaca",
      "name:qu": "Melaka suyu",
      "name:ro": "Malacca",
      "name:ru": "Малакка",
      "name:sv": "Malacka",
      "name:ta": "மலாக்கா",
      "name:th": "รัฐมะละกา",
      "name:tr": "Malakka",
      "name:uk": "Малакка",
      "name:ur": "ملاکا",
      "name:vi": "Melaka",
      "name:zh": "马六甲州",
      "boundary": "administrative",
      "way_area": "0.282726",
      "wikidata": "Q185221",
      "ISO3166-2": "MY-04",
      "wikipedia": "ms:Melaka",
      "short_name": "MLK",
      "admin_level": "4",
      "border_type": "state"
    }
  },
  {
    "osm_id": -2939672,
    "boundary": "administrative",
    "admin_level": 4,
    "parents": "-2108121",
    "name": "Kuala Lumpur",
    "local_name": "Kuala Lumpur",
    "name_en": "Kuala Lumpur",
    "all_tags": {
      "name": "Kuala Lumpur",
      "place": "state",
      "name:am": "ኩዋላ ሉምፑር",
      "name:ar": "كوالالمبور",
      "name:as": "কুৱালালামপুৰ",
      "name:av": "Куала-Лумпур",
      "name:az": "Kuala-Lumpur",
      "name:ba": "Куала-Лумпур",
      "name:be": "Куала-Лумпур",
      "name:bg": "Куала Лумпур",
      "name:bh": "कुआला लंपुर",
      "name:bn": "কুয়ালালামপুর",
      "name:bo": "ཁལ་ལུང་ཕུ།",
      "name:ce": "Куала-Лумпур",
      "name:cv": "Куала-Лумпур",
      "name:el": "Κουάλα Λουμπούρ",
      "name:en": "Kuala Lumpur",
      "name:eo": "Kuala-Lumpuro",
      "name:fa": "کوالا لامپور",
      "name:he": "קואלה לומפור",
      "name:hi": "कुआलालम्पुर",
      "name:ht": "Kouala Loumpou",
      "name:hy": "Կուալա Լումպուր",
      "name:is": "Kúala Lúmpúr",
      "name:ja": "クアラルンプール",
      "name:ka": "კუალა-ლუმპური",
      "name:kk": "Куала Лумпур",
      "name:km": "គូឡាឡាំពួ",
      "name:kn": "ಕೌಲಾಲಂಪುರ್",
      "name:ko": "쿠알라룸푸르",
      "name:ky": "Куала-Лумпур",
      "name:la": "Cuala Lumpuria",
      "name:lo": "ກົວລາລຸມປູ",
      "name:lt": "Kvala Lumpūras",
      "name:lv": "Kualalumpura",
      "name:mk": "Куала Лумпур",
      "name:ml": "കോലാലമ്പൂർ",
      "name:mn": "Куала Лумпур",
      "name:mr": "क्वालालंपूर",
      "name:ms": "Kuala Lumpur",
      "name:my": "ကွာလာလမ်ပူမြို့",
      "name:ne": "क्वालालम्पुर",
      "name:or": "କୁଆଲାଲୁମ୍ପୁର",
      "name:os": "Куалæ-Лумпур",
      "name:pa": "ਕੁਆਲਾ ਲੁੰਪੁਰ",
      "name:ps": "کوالالامپور",
      "name:ru": "Куала-Лумпур",
      "name:sd": "ڪوالالمپور",
      "name:so": "Kuwala Lumbuur",
      "name:sr": "Куала Лумпур",
      "name:ta": "கோலாலம்பூர்",
      "name:te": "కౌలాలంపూర్",
      "name:tg": "Куала-Лумпур",
      "name:th": "กัวลาลัมเปอร์",
      "name:tt": "Kuala-Lumpur",
      "name:ug": "كۇئالالۇمپۇر",
      "name:uk": "Куала-Лумпур",
      "name:ur": "کوالا لمپور",
      "name:za": "Gizlungzpoh",
      "name:zh": "吉隆坡",
      "boundary": "administrative",
      "way_area": "0.0197449",
      "wikidata": "Q1865",
      "ISO3166-2": "MY-14",
      "wikipedia": "en:Kuala Lumpur",
      "short_name": "KL",
      "admin_level": "4",
      "border_type": "state",
      "official_name": "Wilayah Persekutuan Kuala Lumpur",
      "official_name:en": "Federal Territory of Kuala Lumpur"
    }
  },
  {
    "osm_id": -2939653,
    "boundary": "administrative",
    "admin_level": 4,
    "parents": "-2108121",
    "name": "Johor",
    "local_name": "Johor",
    "name_en": null,
    "all_tags": {
      "name": "Johor",
      "place": "state",
      "name:ar": "جوهر",
      "name:az": "Cohor",
      "name:ba": "Джохор",
      "name:bg": "Джохор",
      "name:eo": "Ĝohoro",
      "name:et": "Johori osariik",
      "name:fa": "جوهور",
      "name:he": "ג'והור",
      "name:hi": "जोहोर",
      "name:ja": "ジョホール",
      "name:ka": "ჯოჰორი",
      "name:ko": "조호르",
      "name:lt": "Džohoras",
      "name:mk": "Џохор",
      "name:mr": "जोहोर",
      "name:ms": "Johor",
      "name:qu": "Johor suyu",
      "name:ru": "Джохор",
      "name:ta": "சொகூர்",
      "name:th": "รัฐยะโฮร์",
      "name:tr": "Johore",
      "name:uk": "Джохор",
      "name:ur": "جوھر",
      "name:zh": "柔佛州",
      "alt_name": "Johore",
      "boundary": "administrative",
      "way_area": "2.47481",
      "wikidata": "Q183032",
      "ISO3166-2": "MY-01",
      "wikipedia": "en:Johor",
      "admin_level": "4",
      "border_type": "state",
      "official_name": "Negeri dan Jajahan Takluk Johor Darul Ta'zim"
    }
  },
  {
    "osm_id": -2932285,
    "boundary": "administrative",
    "admin_level": 4,
    "parents": "-2108121",
    "name": "Selangor",
    "local_name": "Selangor",
    "name_en": null,
    "all_tags": {
      "name": "Selangor",
      "place": "state",
      "name:ar": "سلاغور",
      "name:az": "Selanqor",
      "name:bg": "Селангор",
      "name:bn": "সেলাঙ্গর",
      "name:eo": "Selangoro",
      "name:fa": "سلانگور",
      "name:he": "סלנגור",
      "name:hi": "सेलांगोर",
      "name:ja": "セランゴール",
      "name:ko": "슬랑오르",
      "name:lt": "Selangoras",
      "name:mk": "Селангор",
      "name:mr": "सलांगोर",
      "name:ms": "Selangor",
      "name:qu": "Selangor suyu",
      "name:ru": "Селангор",
      "name:ta": "சிலாங்கூர்",
      "name:th": "รัฐเซอลาโงร์",
      "name:uk": "Селангор",
      "name:ur": "سلنگور",
      "name:zh": "雪兰莪州",
      "boundary": "administrative",
      "way_area": "1.00839",
      "wikidata": "Q189710",
      "ISO3166-2": "MY-10",
      "wikipedia": "en:Selangor",
      "admin_level": "4",
      "border_type": "state",
      "official_name": "Selangor Darul Ehsan"
    }
  },
  {
    "osm_id": 7713541,
    "boundary": "administrative",
    "admin_level": 4,
    "parents": "-2108121",
    "name": "Jerejak Island",
    "local_name": "Pulau Jerejak",
    "name_en": "Jerejak Island",
    "all_tags": {
      "area": "yes",
      "name": "Pulau Jerejak",
      "place": "island",
      "name:en": "Jerejak Island",
      "name:zh": "木蔻山",
      "boundary": "administrative",
      "way_area": "0.000309482",
      "wikidata": "Q13639254",
      "wikipedia": "en:Jerejak Island",
      "admin_level": "4"
    }
  },
  {
    "osm_id": 7972067,
    "boundary": "administrative",
    "admin_level": 4,
    "parents": "-2108121",
    "name": "Pulau Rimau",
    "local_name": "Pulau Rimau",
    "name_en": null,
    "all_tags": {
      "area": "yes",
      "name": "Pulau Rimau",
      "place": "islet",
      "name:zh": "虎屿",
      "boundary": "administrative",
      "way_area": "2.81539e-05",
      "wikidata": "Q7259248",
      "wikipedia": "en:Rimau Island",
      "admin_level": "4"
    }
  },
  {
    "osm_id": 7972068,
    "boundary": "administrative",
    "admin_level": 4,
    "parents": "-2108121",
    "name": "Betong Island",
    "local_name": "Pulau Betong",
    "name_en": "Betong Island",
    "all_tags": {
      "area": "yes",
      "name": "Pulau Betong",
      "place": "islet",
      "name:en": "Betong Island",
      "name:zh": "勿洞岛",
      "alt_name": "Pulau Betung",
      "boundary": "administrative",
      "way_area": "2.64364e-06",
      "wikidata": "Q7259229",
      "wikipedia": "en:Betong Island",
      "admin_level": "4"
    }
  },
  {
    "osm_id": 7972074,
    "boundary": "administrative",
    "admin_level": 4,
    "parents": "-2108121",
    "name": "Tikus Island",
    "local_name": "Pulau Tikus",
    "name_en": "Tikus Island",
    "all_tags": {
      "area": "yes",
      "name": "Pulau Tikus",
      "place": "islet",
      "name:en": "Tikus Island",
      "name:zh": "老鼠岛",
      "boundary": "administrative",
      "way_area": "8.50318e-07",
      "wikidata": "Q35205437",
      "wikipedia": "en:Tikus Island",
      "admin_level": "4"
    }
  },
  {
    "osm_id": 7973704,
    "boundary": "administrative",
    "admin_level": 4,
    "parents": "-2108121",
    "name": "Kendi Island",
    "local_name": "Pulau Kendi",
    "name_en": "Kendi Island",
    "all_tags": {
      "area": "yes",
      "name": "Pulau Kendi",
      "place": "islet",
      "name:en": "Kendi Island",
      "name:zh": "葫芦岛",
      "boundary": "administrative",
      "way_area": "2.21731e-05",
      "admin_level": "4"
    }
  },
  {
    "osm_id": 112999237,
    "boundary": "administrative",
    "admin_level": 4,
    "parents": "-2108121",
    "name": "Pulau Yu Kecil",
    "local_name": "Pulau Yu Kecil",
    "name_en": null,
    "all_tags": {
      "area": "yes",
      "name": "Pulau Yu Kecil",
      "place": "islet",
      "gns:ufi": "-2401731",
      "boundary": "administrative",
      "way_area": "4.14513e-06",
      "wikidata": "Q49673404",
      "admin_level": "4"
    }
  },
  {
    "osm_id": 245940067,
    "boundary": "administrative",
    "admin_level": 4,
    "parents": "-2108121",
    "name": "Rhu Island",
    "local_name": "Pulau Rhu",
    "name_en": "Rhu Island",
    "all_tags": {
      "area": "yes",
      "name": "Pulau Rhu",
      "place": "islet",
      "GNS:id": "-2401718",
      "name:en": "Rhu Island",
      "boundary": "administrative",
      "way_area": "1.93138e-05",
      "wikidata": "Q49672679",
      "admin_level": "4"
    }
  },
  {
    "osm_id": 293503979,
    "boundary": "administrative",
    "admin_level": 4,
    "parents": "-2108121",
    "name": "Pulau Tenggol",
    "local_name": "Pulau Tenggol",
    "name_en": null,
    "all_tags": {
      "area": "yes",
      "name": "Pulau Tenggol",
      "place": "island",
      "boundary": "administrative",
      "way_area": "0.000205645",
      "wikidata": "Q614412",
      "wikipedia": "en:Pulau Tenggol",
      "admin_level": "4"
    }
  },
  {
    "osm_id": 296374128,
    "boundary": "administrative",
    "admin_level": 4,
    "parents": "-2108121",
    "name": "Pulau Nyirih",
    "local_name": "Pulau Nyirih",
    "name_en": null,
    "all_tags": {
      "area": "yes",
      "name": "Pulau Nyirih",
      "place": "islet",
      "gns:ufi": "-2403890",
      "alt_name": "Pulau Nyireh",
      "boundary": "administrative",
      "way_area": "1.52846e-05",
      "wikidata": "Q49672289",
      "wikipedia": "ceb:Pulau Nyirih",
      "admin_level": "4"
    }
  },
  {
    "osm_id": 319719784,
    "boundary": "administrative",
    "admin_level": 4,
    "parents": "-2108121",
    "name": "Pulau Gemia",
    "local_name": "Pulau Gemia",
    "name_en": null,
    "all_tags": {
      "area": "yes",
      "name": "Pulau Gemia",
      "place": "islet",
      "name:zh": "宝石岛",
      "alt_name": "Pulau Kapas Kechil;Pulau Kapas Kecil",
      "boundary": "administrative",
      "way_area": "3.74419e-06",
      "wikidata": "Q2004034",
      "wikipedia": "en:Kapas Island",
      "admin_level": "4"
    }
  },
  {
    "osm_id": 319726508,
    "boundary": "administrative",
    "admin_level": 4,
    "parents": "-2108121",
    "name": "Pulau Aman",
    "local_name": "Pulau Aman",
    "name_en": null,
    "all_tags": {
      "area": "yes",
      "name": "Pulau Aman",
      "place": "island",
      "name:zh": "阿曼岛",
      "boundary": "administrative",
      "way_area": "4.84861e-05",
      "wikidata": "Q12701356",
      "wikipedia": "en:Aman Island",
      "admin_level": "4"
    }
  },
  {
    "osm_id": 319726514,
    "boundary": "administrative",
    "admin_level": 4,
    "parents": "-2108121",
    "name": "Pulau Gedung",
    "local_name": "Pulau Gedung",
    "name_en": null,
    "all_tags": {
      "area": "yes",
      "name": "Pulau Gedung",
      "place": "island",
      "name:zh": "葛东岛",
      "boundary": "administrative",
      "way_area": "4.36961e-05",
      "wikidata": "Q7259236",
      "wikipedia": "en:Gedung Island",
      "admin_level": "4",
      "alt_name:zh": "哥东岛"
    }
  }
]
