[
  {
    "osm_id": -3995171,
    "boundary": "administrative",
    "admin_level": 4,
    "parents": "-195266",
    "name": "Kavango West",
    "local_name": "Kavango-West Region",
    "name_en": "Kavango West",
    "all_tags": {
      "ref": "KW",
      "name": "Kavango-West Region",
      "name:de": "Kavango-West",
      "name:en": "Kavango West",
      "name:es": "Kavango del Oeste",
      "name:fr": "Kavango West",
      "name:pl": "Okawango Zachodnie",
      "name:ru": "Западный Окаванго",
      "boundary": "administrative",
      "way_area": "1.93795",
      "wikidata": "Q14824027",
      "ISO3166-2": "NA-KW",
      "wikipedia": "en:Kavango West",
      "admin_level": "4"
    }
  },
  {
    "osm_id": -3995170,
    "boundary": "administrative",
    "admin_level": 4,
    "parents": "-195266",
    "name": "Kavango East",
    "local_name": "Kavango-East Region",
    "name_en": "Kavango East",
    "all_tags": {
      "ref": "KE",
      "name": "Kavango-East Region",
      "name:ar": "كافانغو الشرقي",
      "name:de": "Kavango-Ost",
      "name:en": "Kavango East",
      "name:es": "Kavango del Este",
      "name:fr": "Kavango East",
      "name:pl": "Okawango Wschodnie",
      "name:ru": "Восточный Окаванго",
      "boundary": "administrative",
      "way_area": "2.20212",
      "wikidata": "Q14824032",
      "ISO3166-2": "NA-KE",
      "wikipedia": "en:Kavango East",
      "admin_level": "4",
      "official_name:ar": "إقليم كافانغو الشرقي"
    }
  },
  {
    "osm_id": -2279628,
    "boundary": "administrative",
    "admin_level": 4,
    "parents": "-195266",
    "name": "Otjozondjupa",
    "local_name": "Otjozondjupa Region",
    "name_en": "Otjozondjupa",
    "all_tags": {
      "ref": "OD",
      "name": "Otjozondjupa Region",
      "name:ar": "إقليم أوتجوزوندجوبا",
      "name:de": "Otjozondjupa",
      "name:en": "Otjozondjupa",
      "name:es": "Otjozondjupa",
      "name:fr": "Otjozondjupa",
      "name:ru": "Очосондьюпа",
      "boundary": "administrative",
      "way_area": "9.10944",
      "wikidata": "Q876506",
      "ISO3166-2": "NA-OD",
      "wikipedia": "en:Otjozondjupa Region",
      "admin_level": "4"
    }
  },
  {
    "osm_id": -2279627,
    "boundary": "administrative",
    "admin_level": 4,
    "parents": "-195266",
    "name": "Oshikoto",
    "local_name": "Oshikoto Region",
    "name_en": "Oshikoto",
    "all_tags": {
      "ref": "OT",
      "name": "Oshikoto Region",
      "name:ar": "إقليم أوشيكوتو",
      "name:de": "Oshikoto",
      "name:en": "Oshikoto",
      "name:es": "Oshikoto",
      "name:fr": "Oshikoto",
      "name:ru": "Ошикото",
      "boundary": "administrative",
      "way_area": "3.313",
      "wikidata": "Q876512",
      "ISO3166-2": "NA-OT",
      "wikipedia": "en:Oshikoto Region",
      "admin_level": "4"
    }
  },
  {
    "osm_id": -2279623,
    "boundary": "administrative",
    "admin_level": 4,
    "parents": "-195266",
    "name": "Oshana",
    "local_name": "Oshana Region",
    "name_en": "Oshana",
    "all_tags": {
      "ref": "ON",
      "name": "Oshana Region",
      "name:ar": "إقليم أوشانا",
      "name:de": "Oshana",
      "name:en": "Oshana",
      "name:es": "Oshana",
      "name:fr": "Oshana",
      "name:ru": "Ошана",
      "boundary": "administrative",
      "way_area": "0.742139",
      "wikidata": "Q534528",
      "ISO3166-2": "NA-ON",
      "wikipedia": "en:Oshana Region",
      "admin_level": "4"
    }
  },
  {
    "osm_id": -2279621,
    "boundary": "administrative",
    "admin_level": 4,
    "parents": "-195266",
    "name": "Omusati",
    "local_name": "Omusati Region",
    "name_en": "Omusati",
    "all_tags": {
      "ref": "OS",
      "name": "Omusati Region",
      "name:ar": "إقليم أوموساتي",
      "name:de": "Omusati",
      "name:en": "Omusati",
      "name:es": "Omusati",
      "name:fr": "Omusati",
      "name:ru": "Омусати",
      "boundary": "administrative",
      "way_area": "2.26823",
      "wikidata": "Q764385",
      "ISO3166-2": "NA-OS",
      "wikipedia": "en:Omusati Region",
      "admin_level": "4"
    }
  },
  {
    "osm_id": -2279601,
    "boundary": "administrative",
    "admin_level": 4,
    "parents": "-195266",
    "name": "Omaheke",
    "local_name": "Omaheke Region",
    "name_en": "Omaheke",
    "all_tags": {
      "ref": "OH",
      "name": "Omaheke Region",
      "name:ar": "إقليم أوماهيكي",
      "name:de": "Omaheke",
      "name:en": "Omaheke",
      "name:es": "Omaheke",
      "name:fr": "Omaheke",
      "name:ru": "Омахеке",
      "boundary": "administrative",
      "way_area": "7.38007",
      "wikidata": "Q838775",
      "ISO3166-2": "NA-OH",
      "wikipedia": "en:Omaheke Region",
      "admin_level": "4"
    }
  },
  {
    "osm_id": -2279597,
    "boundary": "administrative",
    "admin_level": 4,
    "parents": "-195266",
    "name": "Ohangwena",
    "local_name": "Ohangwena Region",
    "name_en": "Ohangwena",
    "all_tags": {
      "ref": "OW",
      "name": "Ohangwena Region",
      "name:ar": "إقليم أوهانغوينا",
      "name:de": "Ohangwena",
      "name:en": "Ohangwena",
      "name:es": "Ohangwena",
      "name:fr": "Ohangwena",
      "name:ru": "Охангвена",
      "boundary": "administrative",
      "way_area": "0.908232",
      "wikidata": "Q845702",
      "ISO3166-2": "NA-OW",
      "wikipedia": "en:Ohangwena Region",
      "admin_level": "4"
    }
  },
  {
    "osm_id": -2279589,
    "boundary": "administrative",
    "admin_level": 4,
    "parents": "-195266",
    "name": "Kunene Region",
    "local_name": "Kunene Region",
    "name_en": "Kunene Region",
    "all_tags": {
      "ref": "KU",
      "name": "Kunene Region",
      "name:ar": "اقليم كونيني",
      "name:de": "Kunene",
      "name:en": "Kunene Region",
      "name:es": "Kunene",
      "name:fr": "Kunene",
      "name:ru": "Кунене",
      "boundary": "administrative",
      "way_area": "9.89692",
      "wikidata": "Q834513",
      "ISO3166-2": "NA-KU",
      "wikipedia": "en:Kunene Region",
      "admin_level": "4"
    }
  },
  {
    "osm_id": -2279585,
    "boundary": "administrative",
    "admin_level": 4,
    "parents": "-195266",
    "name": "Khomas",
    "local_name": "Khomas Region",
    "name_en": "Khomas",
    "all_tags": {
      "ref": "KH",
      "name": "Khomas Region",
      "name:ar": "إقليم خوماس",
      "name:de": "Khomas",
      "name:en": "Khomas",
      "name:es": "Khomas",
      "name:fr": "Khomas",
      "name:ru": "Кхомас",
      "boundary": "administrative",
      "way_area": "3.24568",
      "wikidata": "Q834508",
      "ISO3166-2": "NA-KH",
      "wikipedia": "en:Khomas Region",
      "admin_level": "4"
    }
  },
  {
    "osm_id": -2279557,
    "boundary": "administrative",
    "admin_level": 4,
    "parents": "-195266",
    "name": "Karas",
    "local_name": "ǁKaras Region",
    "name_en": "Karas",
    "all_tags": {
      "ref": "KA",
      "name": "ǁKaras Region",
      "name:ar": "إقليم كاراس",
      "name:de": "ǁKaras",
      "name:en": "Karas",
      "name:es": "Karas",
      "name:fr": "ǁKaras",
      "name:ru": "Карас",
      "boundary": "administrative",
      "way_area": "14.6769",
      "wikidata": "Q573467",
      "ISO3166-2": "NA-KA",
      "wikipedia": "fr:ǁKaras",
      "admin_level": "4"
    }
  },
  {
    "osm_id": -2279556,
    "boundary": "administrative",
    "admin_level": 4,
    "parents": "-195266",
    "name": "Hardap",
    "local_name": "Hardap Region",
    "name_en": "Hardap",
    "all_tags": {
      "ref": "HA",
      "name": "Hardap Region",
      "name:ar": "إقليم هارداب",
      "name:de": "Hardap",
      "name:en": "Hardap",
      "name:es": "Hardap",
      "name:fr": "Hardap",
      "name:ru": "Хардап",
      "boundary": "administrative",
      "way_area": "9.75589",
      "wikidata": "Q752676",
      "ISO3166-2": "NA-HA",
      "wikipedia": "en:Hardap Region",
      "admin_level": "4"
    }
  },
  {
    "osm_id": -2279555,
    "boundary": "administrative",
    "admin_level": 4,
    "parents": "-195266",
    "name": "Erongo Region",
    "local_name": "Erongo Region",
    "name_en": null,
    "all_tags": {
      "ref": "ER",
      "name": "Erongo Region",
      "name:ar": "إقليم إيرونغو",
      "name:de": "Erongo",
      "name:es": "Erongo",
      "name:fr": "Erongo",
      "name:ru": "Эронго",
      "name:uk": "Еронго",
      "boundary": "administrative",
      "way_area": "5.56621",
      "wikidata": "Q648753",
      "ISO3166-2": "NA-ER",
      "wikipedia": "en:Erongo Region",
      "admin_level": "4"
    }
  },
  {
    "osm_id": -2279554,
    "boundary": "administrative",
    "admin_level": 4,
    "parents": "-195266",
    "name": "Zambezi",
    "local_name": "Zambezi Region",
    "name_en": "Zambezi",
    "all_tags": {
      "ref": "CA",
      "name": "Zambezi Region",
      "name:ar": "اقليم زامبيزي",
      "name:de": "Sambesi",
      "name:en": "Zambezi",
      "name:es": "Caprivi",
      "name:fr": "Zambezi",
      "name:ru": "Каприви",
      "name:uk": "Замбезі",
      "boundary": "administrative",
      "old_name": "Caprivi Region",
      "way_area": "1.23223",
      "wikidata": "Q473190",
      "ISO3166-2": "NA-CA",
      "wikipedia": "en:Zambezi Region",
      "admin_level": "4"
    }
  }
]
