[
  {
    "osm_id": -47381,
    "boundary": "administrative",
    "admin_level": 4,
    "parents": "-47796,-2323309",
    "name": "Frisia",
    "local_name": "Fryslân",
    "name_en": "Frisia",
    "all_tags": {
      "ref": "FR",
      "name": "Fryslân",
      "name:ar": "فرايزلاند",
      "name:ca": "Frísia",
      "name:de": "Friesland",
      "name:el": "Φρησλανδία",
      "name:en": "Frisia",
      "name:eo": "Frislando",
      "name:es": "Frisia",
      "name:fr": "Frise",
      "name:fy": "Fryslân",
      "name:hu": "Frízföld",
      "name:ja": "フリースラント州",
      "name:la": "Frisia",
      "name:nl": "Friesland",
      "name:pl": "Fryzja",
      "name:ru": "Фрисландия",
      "boundary": "administrative",
      "name:lfn": "Frisland",
      "name:pcd": "Frise",
      "name:tzl": "Früs",
      "ref:nuts": "NL12",
      "way_area": "0.772754",
      "wikidata": "Q770",
      "ISO3166-2": "NL-FR",
      "wikipedia": "fy:Fryslân",
      "population": "649957",
      "ref:nuts:2": "NL12",
      "admin_level": "4",
      "alt_name:eo": "Frisio;Frisujo",
      "alt_name:ja": "フリースラン州",
      "alt_name:vo": "Frisän",
      "name:zh-Hans": "弗赖斯兰省",
      "name:zh-Hant": "弗賴斯蘭省",
      "official_name": "Fryslân",
      "population:date": "2020-01-01",
      "default_language": "fy",
      "ref:provinciecode": "21"
    }
  },
  {
    "osm_id": -47654,
    "boundary": "administrative",
    "admin_level": 4,
    "parents": "-47796,-2323309",
    "name": "North Holland",
    "local_name": "Noord-Holland",
    "name_en": "North Holland",
    "all_tags": {
      "ref": "NH",
      "name": "Noord-Holland",
      "name:ar": "شمال هولندا",
      "name:ca": "Holanda Septentrional",
      "name:de": "Nordholland",
      "name:el": "Βόρεια Ολλανδία",
      "name:en": "North Holland",
      "name:eo": "Norda Holando",
      "name:es": "Holanda Septentrional",
      "name:fr": "Hollande-Septentrionale",
      "name:fy": "Noard-Hollân",
      "name:hu": "Észak-Holland",
      "name:ja": "北ホラント州",
      "name:la": "Hollandia Septentrionalis",
      "name:lt": "Šiaurės Olandija",
      "name:nl": "Noord-Holland",
      "name:pl": "Holandia Północna",
      "name:ru": "Северная Голландия",
      "boundary": "administrative",
      "name:pcd": "Hollande-Septintrionale",
      "name:vls": "Nôord-Holland",
      "ref:nuts": "NL32",
      "way_area": "0.543567",
      "wikidata": "Q701",
      "ISO3166-2": "NL-NH",
      "wikipedia": "nl:Noord-Holland",
      "population": "2879527",
      "ref:nuts:2": "NL32",
      "admin_level": "4",
      "alt_name:ja": "北オランダ州",
      "name:zh-Hans": "北荷兰",
      "name:zh-Hant": "北荷蘭",
      "population:date": "2020-01-01",
      "ref:provinciecode": "27"
    }
  },
  {
    "osm_id": -47667,
    "boundary": "administrative",
    "admin_level": 4,
    "parents": "-47796,-2323309",
    "name": "Utrecht",
    "local_name": "Utrecht",
    "name_en": "Utrecht",
    "all_tags": {
      "ref": "UT",
      "name": "Utrecht",
      "name:ar": "مقاطعة أوترخت",
      "name:ca": "Província d'Utrecht",
      "name:de": "Utrecht",
      "name:en": "Utrecht",
      "name:eo": "Utreĥto",
      "name:es": "Utrecht",
      "name:fr": "Utrecht",
      "name:fy": "Utert",
      "name:he": "אוטרכט",
      "name:hu": "Utrecht",
      "name:ja": "ユトレヒト州",
      "name:la": "Traiectum ad Rhenum",
      "name:mk": "Утрехт",
      "name:nl": "Utrecht",
      "name:ru": "Утрехт",
      "name:sr": "Утрехт",
      "boundary": "administrative",
      "name:nds": "Utrecht",
      "ref:nuts": "NL31;NL310",
      "way_area": "0.204569",
      "wikidata": "Q776",
      "ISO3166-2": "NL-UT",
      "wikipedia": "nl:Utrecht (provincie)",
      "population": "1354834",
      "ref:nuts:2": "NL31",
      "ref:nuts:3": "NL310",
      "admin_level": "4",
      "description": "Utrecht",
      "name:zh-Hans": "乌特勒支",
      "name:zh-Hant": "烏得勒支",
      "population:date": "2020-01-01",
      "ref:provinciecode": "26"
    }
  },
  {
    "osm_id": -47806,
    "boundary": "administrative",
    "admin_level": 4,
    "parents": "-47796,-2323309",
    "name": "Zeeland",
    "local_name": "Zeeland",
    "name_en": "Zeeland",
    "all_tags": {
      "ref": "ZL",
      "name": "Zeeland",
      "name:ar": "زيلند",
      "name:ca": "Zelanda",
      "name:de": "Seeland",
      "name:en": "Zeeland",
      "name:eo": "Zelando",
      "name:es": "Zelanda",
      "name:fr": "Zélande",
      "name:fy": "Seelân",
      "name:hu": "Zeeland",
      "name:ja": "ゼーラント州",
      "name:nl": "Zeeland",
      "name:pl": "Zelandia",
      "name:ru": "Зеландия",
      "boundary": "administrative",
      "name:lfn": "Zeland",
      "name:pcd": "Zélande",
      "name:tzl": "Zaiphäts",
      "name:vls": "Zêeland",
      "ref:nuts": "NL34",
      "way_area": "0.379497",
      "wikidata": "Q705",
      "ISO3166-2": "NL-ZE",
      "wikipedia": "nl:Zeeland (provincie)",
      "population": "383488",
      "ref:nuts:2": "NL34",
      "admin_level": "4",
      "name:zh-Hans": "泽兰",
      "name:zh-Hant": "澤蘭",
      "official_name": "Provincie Zeeland",
      "population:date": "2020-01-01",
      "official_name:nl": "Provincie Zeeland",
      "ref:provinciecode": "29"
    }
  },
  {
    "osm_id": -47696,
    "boundary": "administrative",
    "admin_level": 4,
    "parents": "-47796,-2323309",
    "name": "North Brabant",
    "local_name": "Noord-Brabant",
    "name_en": "North Brabant",
    "all_tags": {
      "ref": "NB",
      "name": "Noord-Brabant",
      "name:ar": "شمال برابنت",
      "name:ca": "Brabant Septentrional",
      "name:de": "Nordbrabant",
      "name:en": "North Brabant",
      "name:eo": "Norda Brabanto",
      "name:es": "Brabante Septentrional",
      "name:fr": "Brabant-Septentrional",
      "name:fy": "Noard-Brabân",
      "name:hu": "Észak-Brabant",
      "name:ja": "北ブラバント州",
      "name:nl": "Noord-Brabant",
      "name:pl": "Brabancja Północna",
      "name:ru": "Северный Брабант",
      "boundary": "administrative",
      "name:pcd": "Brabant-Septintrional",
      "name:tzl": "Brabant Septentrional",
      "name:vls": "Nôord-Broabant",
      "ref:nuts": "NL41",
      "way_area": "0.65875",
      "wikidata": "Q1101",
      "ISO3166-2": "NL-NB",
      "wikipedia": "nl:Noord-Brabant",
      "population": "2562955",
      "ref:nuts:2": "NL41",
      "admin_level": "4",
      "alt_name:fr": "Brabant-du-Nord",
      "name:zh-Hans": "北布拉班特",
      "name:zh-Hant": "北布拉邦",
      "official_name": "Provincie Noord-Brabant",
      "population:date": "2020-01-01",
      "official_name:nl": "Provincie Noord-Brabant",
      "ref:provinciecode": "30"
    }
  },
  {
    "osm_id": -47554,
    "boundary": "administrative",
    "admin_level": 4,
    "parents": "-47796,-2323309",
    "name": "Gelderland",
    "local_name": "Gelderland",
    "name_en": "Gelderland",
    "all_tags": {
      "ref": "GD",
      "name": "Gelderland",
      "name:ar": "خيلدرلند",
      "name:ca": "Gelderland",
      "name:de": "Geldern",
      "name:en": "Gelderland",
      "name:eo": "Gelderlando",
      "name:es": "Güeldres",
      "name:fr": "Gueldre",
      "name:fy": "Gelderlân",
      "name:hu": "Gelderland",
      "name:ja": "ヘルダーラント州",
      "name:la": "Geldria",
      "name:nl": "Gelderland",
      "name:pl": "Geldria",
      "name:ru": "Гелдерланд",
      "alt_name": "Gelria",
      "boundary": "administrative",
      "name:pcd": "Gueldre",
      "ref:nuts": "NL22",
      "way_area": "0.673169",
      "wikidata": "Q775",
      "ISO3166-2": "NL-GE",
      "wikipedia": "nl:Gelderland",
      "population": "2085952",
      "ref:nuts:2": "NL22",
      "admin_level": "4",
      "name:zh-Hans": "海尔德兰",
      "name:zh-Hant": "海爾德蘭",
      "official_name": "Provincie Gelderland",
      "population:date": "2020-01-01",
      "official_name:nl": "Provincie Gelderland",
      "ref:provinciecode": "25"
    }
  },
  {
    "osm_id": -47540,
    "boundary": "administrative",
    "admin_level": 4,
    "parents": "-47796,-2323309",
    "name": "Drenthe",
    "local_name": "Drenthe",
    "name_en": "Drenthe",
    "all_tags": {
      "ref": "DR",
      "name": "Drenthe",
      "name:ar": "درينته",
      "name:ca": "Drenthe",
      "name:de": "Drente",
      "name:en": "Drenthe",
      "name:eo": "Drento",
      "name:es": "Drente",
      "name:fr": "Drenthe",
      "name:fy": "Drinte",
      "name:hu": "Drenthe",
      "name:ja": "ドレンテ州",
      "name:nl": "Drenthe",
      "name:ru": "Дренте",
      "boundary": "administrative",
      "ref:nuts": "NL13",
      "way_area": "0.357631",
      "wikidata": "Q772",
      "ISO3166-2": "NL-DR",
      "wikipedia": "nl:Drenthe",
      "population": "493682",
      "ref:nuts:2": "NL13",
      "admin_level": "4",
      "name:zh-Hans": "德伦特",
      "name:zh-Hant": "德伦特",
      "population:date": "2020-01-01",
      "ref:provinciecode": "22"
    }
  },
  {
    "osm_id": -47793,
    "boundary": "administrative",
    "admin_level": 4,
    "parents": "-47796,-2323309",
    "name": "Limburg",
    "local_name": "Limburg",
    "name_en": "Limburg",
    "all_tags": {
      "ref": "LB",
      "name": "Limburg",
      "name:ar": "ليمبورخ",
      "name:ca": "Limburg",
      "name:de": "Limburg",
      "name:en": "Limburg",
      "name:eo": "Limburgo",
      "name:es": "Limburgo",
      "name:fr": "Limbourg",
      "name:fy": "Limburch",
      "name:hu": "Limburg",
      "name:ja": "リンブルフ州",
      "name:nl": "Limburg",
      "name:pl": "Limburgia",
      "name:ru": "Лимбург",
      "alt_name": "Nederlands Limburg",
      "boundary": "administrative",
      "loc_name": "Limburg",
      "name:lfn": "Limburg",
      "name:pcd": "Limbourq",
      "ref:nuts": "NL42",
      "way_area": "0.284251",
      "wikidata": "Q1093",
      "ISO3166-2": "NL-LI",
      "wikipedia": "nl:Limburg (Nederlandse provincie)",
      "population": "1117201",
      "ref:nuts:2": "NL42",
      "admin_level": "4",
      "alt_name:de": "Nederlander Limburg",
      "alt_name:en": "Dutch Limburg",
      "alt_name:fr": "Limbourg néerlandais",
      "alt_name:nl": "Nederlands Limburg",
      "loc_name:de": "Limburg",
      "loc_name:fr": "Limbourg",
      "loc_name:nl": "Limburg",
      "name:zh-Hans": "林堡",
      "name:zh-Hant": "林堡",
      "official_name": "Provincie Limburg",
      "population:date": "2020-01-01",
      "official_name:en": "Province of Limburg",
      "official_name:fr": "Province du Limbourg",
      "official_name:nl": "Provincie Limburg",
      "ref:provinciecode": "31"
    }
  },
  {
    "osm_id": -47608,
    "boundary": "administrative",
    "admin_level": 4,
    "parents": "-47796,-2323309",
    "name": "Overijssel",
    "local_name": "Overijssel",
    "name_en": "Overijssel",
    "all_tags": {
      "ref": "OV",
      "name": "Overijssel",
      "name:ar": "أوفرايسل",
      "name:ca": "Overijssel",
      "name:de": "Overijssel",
      "name:en": "Overijssel",
      "name:eo": "Overiselo",
      "name:es": "Overijssel",
      "name:fr": "Overijssel",
      "name:fy": "Oerisel",
      "name:hu": "Overijssel",
      "name:ja": "オーファーアイセル州",
      "name:la": "Transisalania",
      "name:nl": "Overijssel",
      "name:ru": "Оверэйссел",
      "boundary": "administrative",
      "name:vls": "Overyssel",
      "ref:nuts": "NL21",
      "way_area": "0.452146",
      "wikidata": "Q773",
      "ISO3166-2": "NL-OV",
      "wikipedia": "nl:Overijssel",
      "population": "1162406",
      "ref:nuts:2": "NL21",
      "admin_level": "4",
      "name:nds-nl": "Overiessel",
      "name:zh-Hans": "上艾瑟尔",
      "name:zh-Hant": "上艾瑟尔",
      "population:date": "2020-01-01",
      "ref:provinciecode": "23"
    }
  },
  {
    "osm_id": -47826,
    "boundary": "administrative",
    "admin_level": 4,
    "parents": "-47796,-2323309",
    "name": "Groningen",
    "local_name": "Groningen",
    "name_en": "Groningen",
    "all_tags": {
      "ref": "GR",
      "name": "Groningen",
      "name:ar": "خرونينغن",
      "name:ca": "Província de Groningen",
      "name:de": "Groningen",
      "name:en": "Groningen",
      "name:eo": "Groningo",
      "name:es": "Groninga",
      "name:fr": "Groningue",
      "name:fy": "Grinslân",
      "name:hu": "Groningen",
      "name:it": "Groninga",
      "name:ja": "フローニンゲン州",
      "name:la": "Groninga",
      "name:nl": "Groningen",
      "name:pt": "Groninga",
      "name:ru": "Гронинген",
      "name:sr": "Гронинген",
      "name:uk": "Гронінген",
      "boundary": "administrative",
      "name:nds": "Grunnen",
      "name:pcd": "Groningue",
      "name:vls": "Groniengn",
      "ref:nuts": "NL11",
      "way_area": "0.39786",
      "wikidata": "Q752",
      "ISO3166-2": "NL-GR",
      "wikipedia": "nl:Groningen (provincie)",
      "population": "585866",
      "ref:nuts:2": "NL11",
      "admin_level": "4",
      "name:zh-Hans": "格罗宁根",
      "name:zh-Hant": "格羅寧根",
      "population:date": "2020-01-01",
      "ref:provinciecode": "20"
    }
  },
  {
    "osm_id": -47772,
    "boundary": "administrative",
    "admin_level": 4,
    "parents": "-47796,-2323309",
    "name": "South Holland",
    "local_name": "Zuid-Holland",
    "name_en": "South Holland",
    "all_tags": {
      "ref": "ZH",
      "name": "Zuid-Holland",
      "name:ar": "جنوب هولندا",
      "name:ca": "Holanda Meridional",
      "name:de": "Südholland",
      "name:en": "South Holland",
      "name:eo": "Suda Holando",
      "name:es": "Holanda Meridional",
      "name:fr": "Hollande-Méridionale",
      "name:fy": "Súd-Hollân",
      "name:hu": "Dél-Holland",
      "name:ja": "南ホラント州",
      "name:la": "Hollandia Australis",
      "name:lt": "Pietų Olandija",
      "name:nl": "Zuid-Holland",
      "name:pl": "Holandia Południowa",
      "name:ru": "Южная Голландия",
      "boundary": "administrative",
      "name:pcd": "Hollande-Méridionale",
      "name:vls": "Zuud-Holland",
      "ref:nuts": "NL33",
      "way_area": "0.432344",
      "wikidata": "Q694",
      "ISO3166-2": "NL-ZH",
      "wikipedia": "nl:Zuid-Holland",
      "population": "3708696",
      "ref:nuts:2": "NL33",
      "admin_level": "4",
      "alt_name:ja": "南オランダ州",
      "name:zh-Hans": "南荷兰",
      "name:zh-Hant": "南荷蘭",
      "population:date": "2020-01-01",
      "ref:provinciecode": "28"
    }
  },
  {
    "osm_id": -47407,
    "boundary": "administrative",
    "admin_level": 4,
    "parents": "-47796,-2323309",
    "name": "Flevoland",
    "local_name": "Flevoland",
    "name_en": "Flevoland",
    "all_tags": {
      "ref": "FL",
      "name": "Flevoland",
      "name:ar": "فليفولاند",
      "name:ca": "Flevoland",
      "name:el": "Φλεφολανδία",
      "name:en": "Flevoland",
      "name:eo": "Flevolando",
      "name:es": "Flevolanda",
      "name:fr": "Flevoland",
      "name:fy": "Flevolân",
      "name:hu": "Flevoland",
      "name:la": "Flevolandia",
      "name:lt": "Flevolandas",
      "name:nl": "Flevoland",
      "name:ru": "Флеволанд",
      "boundary": "administrative",
      "ref:nuts": "NL23",
      "way_area": "0.319631",
      "wikidata": "Q707",
      "ISO3166-2": "NL-FL",
      "wikipedia": "nl:Flevoland",
      "population": "423021",
      "ref:nuts:2": "NL23",
      "admin_level": "4",
      "name:zh-Hans": "弗莱福兰",
      "name:zh-Hant": "弗萊福蘭",
      "population:date": "2020-01-01",
      "ref:provinciecode": "24"
    }
  }
]
