[
  {
    "osm_id": -10155517,
    "boundary": "administrative",
    "admin_level": 4,
    "parents": "-2978650",
    "name": "Agder",
    "local_name": "Agder",
    "name_en": null,
    "all_tags": {
      "ref": "42",
      "name": "Agder",
      "place": "county",
      "boundary": "administrative",
      "way_area": "3.5412",
      "wikidata": "Q2729021",
      "ISO3166-2": "NO-42",
      "population": "309198",
      "admin_level": "4",
      "population:date": "2021-04-01"
    }
  },
  {
    "osm_id": -2425963,
    "boundary": "administrative",
    "admin_level": 4,
    "parents": "-2978650",
    "name": "Bouvet Island",
    "local_name": "Bouvetøya",
    "name_en": "Bouvet Island",
    "all_tags": {
      "name": "Bouvetøya",
      "name:ar": "جزيرة بوفيه",
      "name:da": "Bouvetøen",
      "name:de": "Bouvetinsel",
      "name:en": "Bouvet Island",
      "name:eo": "Buvet-Insulo",
      "name:fa": "جزیره بووه",
      "name:fr": "Île Bouvet",
      "name:hr": "Otok Bouvet",
      "name:mk": "Буве",
      "name:ur": "جزیرہ بووہ",
      "boundary": "administrative",
      "way_area": "0.31427",
      "wikidata": "Q23408",
      "ISO3166-1": "BV",
      "wikipedia": "en:Bouvet Island",
      "population": "0",
      "admin_level": "4",
      "alt_name:ar": "جزيرة بوفيت",
      "alt_name:eo": "Buvetinsulo",
      "ISO3166-1:alpha2": "BV",
      "ISO3166-1:alpha3": "BVT",
      "iso3166-1:alpha3": "BVT",
      "ISO3166-1:numeric": "074"
    }
  },
  {
    "osm_id": -1337126,
    "boundary": "administrative",
    "admin_level": 4,
    "parents": "-2978650",
    "name": "Jan Mayen",
    "local_name": "Jan Mayen",
    "name_en": null,
    "all_tags": {
      "ref": "22",
      "name": "Jan Mayen",
      "name:ar": "يان ماين",
      "name:be": "Востраў Ян-Маен",
      "name:bg": "Ян Майен",
      "name:el": "Γιαν Μαγιέν",
      "name:eo": "Janmajeno",
      "name:fa": "یان ماین",
      "name:fr": "Île Jan Mayen",
      "name:he": "יאן מאיין",
      "name:hi": "यान मायेन",
      "name:hu": "Jan Mayen-sziget",
      "name:ja": "ヤンマイエン島",
      "name:ka": "იან-მაიენი",
      "name:ko": "얀마옌 섬",
      "name:lt": "Jan Majenas",
      "name:lv": "Jana Majena sala",
      "name:mr": "यान मायेन",
      "name:no": "Jan Mayen",
      "name:os": "Ян-Майен",
      "name:ro": "Insula Jan Mayen",
      "name:ru": "Ян-Майен",
      "name:sr": "Јан Мајен",
      "name:th": "ยานไมเอน",
      "name:uk": "Ян-Маєн",
      "name:ur": "جان ماین",
      "name:zh": "揚馬延島",
      "boundary": "administrative",
      "timezone": "Atlantic/Jan_Mayen",
      "way_area": "1.15736",
      "wikidata": "Q14056",
      "ISO3166-2": "NO-22",
      "wikipedia": "no:Jan Mayen",
      "admin_level": "4",
      "alt_name:ar": "جان ماين"
    }
  },
  {
    "osm_id": -406567,
    "boundary": "administrative",
    "admin_level": 4,
    "parents": "-2978650",
    "name": "Trøndelag",
    "local_name": "Trøndelag",
    "name_en": "Trøndelag",
    "all_tags": {
      "ref": "50",
      "name": "Trøndelag",
      "place": "county",
      "name:de": "Tröndelag",
      "name:en": "Trøndelag",
      "name:nn": "Trøndelag",
      "name:no": "Trøndelag",
      "name:ps": "تروندلاګ",
      "name:ru": "Трёнделаг",
      "alt_name": "Trøndelag fylke",
      "boundary": "administrative",
      "name:sma": "Trøndelága",
      "way_area": "10.9098",
      "wikidata": "Q127676",
      "ISO3166-2": "NO-50",
      "wikipedia": "no:Trøndelag",
      "population": "471882",
      "admin_level": "4",
      "alt_name:ps": "تروندلاګ",
      "population:date": "2021-04-01"
    }
  },
  {
    "osm_id": -405836,
    "boundary": "administrative",
    "admin_level": 4,
    "parents": "-2978650",
    "name": "Rogaland",
    "local_name": "Rogaland",
    "name_en": "Rogaland",
    "all_tags": {
      "ref": "11",
      "name": "Rogaland",
      "place": "county",
      "name:ar": "روغالاند",
      "name:en": "Rogaland",
      "name:ru": "Ругаланн",
      "alt_name": "Rogaland fylke",
      "boundary": "administrative",
      "way_area": "2.58519",
      "wikidata": "Q50624",
      "ISO3166-2": "NO-11",
      "wikipedia": "no:Rogaland",
      "population": "483539",
      "admin_level": "4",
      "population:date": "2021-04-01"
    }
  },
  {
    "osm_id": -406091,
    "boundary": "administrative",
    "admin_level": 4,
    "parents": "-2978650",
    "name": "Oslo",
    "local_name": "Oslo",
    "name_en": "Oslo",
    "all_tags": {
      "ref": "03",
      "name": "Oslo",
      "place": "city",
      "name:en": "Oslo",
      "name:eo": "Oslo",
      "name:ko": "오슬로",
      "name:pt": "Oslo",
      "name:ru": "Осло",
      "alt_name": "Oslo fylke",
      "boundary": "administrative",
      "way_area": "0.0772749",
      "wikidata": "Q585",
      "ISO3166-2": "NO-03",
      "wikipedia": "no:Oslo",
      "admin_level": "4"
    }
  },
  {
    "osm_id": -1337397,
    "boundary": "administrative",
    "admin_level": 4,
    "parents": "-2978650",
    "name": "Svalbard",
    "local_name": "Svalbard",
    "name_en": "Svalbard",
    "all_tags": {
      "ref": "21",
      "name": "Svalbard",
      "name:ar": "سفالبارد",
      "name:cs": "Špicberky",
      "name:de": "Spitzbergen",
      "name:en": "Svalbard",
      "name:eo": "Svalbardo",
      "name:fy": "Spitsbergen",
      "name:hu": "Spitzbergák",
      "name:lt": "Svalbardas",
      "name:nl": "Spitsbergen",
      "name:ps": "سوالبرد",
      "name:pt": "Esvalbarda",
      "name:ru": "Шпицберген",
      "boundary": "administrative",
      "name:tzl": "Svalbard",
      "timezone": "Arctic/Longyearbyen",
      "way_area": "62.5991",
      "wikidata": "Q25231",
      "ISO3166-2": "NO-21",
      "wikipedia": "en:Svalbard",
      "population": "2417",
      "admin_level": "4",
      "alt_name:nl": "Svalbard",
      "population:date": "2020-09-24"
    }
  },
  {
    "osm_id": -10155539,
    "boundary": "administrative",
    "admin_level": 4,
    "parents": "-2978650",
    "name": "Viken",
    "local_name": "Viken",
    "name_en": null,
    "all_tags": {
      "ref": "30",
      "name": "Viken",
      "place": "county",
      "boundary": "administrative",
      "way_area": "4.15749",
      "wikidata": "Q56407178",
      "ISO3166-2": "NO-30",
      "population": "1255929",
      "admin_level": "4",
      "population:date": "2021-04-01"
    }
  },
  {
    "osm_id": -408105,
    "boundary": "administrative",
    "admin_level": 4,
    "parents": "-2978650",
    "name": "Nordland",
    "local_name": "Nordland",
    "name_en": "Nordland",
    "all_tags": {
      "ref": "18",
      "name": "Nordland",
      "place": "county",
      "name:en": "Nordland",
      "name:fi": "Nordlandin lääni",
      "name:ru": "Нурланн",
      "name:se": "Nordlánda",
      "alt_name": "Nordland fylke",
      "boundary": "administrative",
      "name:sma": "Nordlaante",
      "name:smj": "Nordlánnda",
      "way_area": "16.6777",
      "wikidata": "Q50630",
      "ISO3166-2": "NO-18",
      "wikipedia": "no:Nordland",
      "population": "240559",
      "admin_level": "4",
      "population:date": "2021-04-01"
    }
  },
  {
    "osm_id": -406868,
    "boundary": "administrative",
    "admin_level": 4,
    "parents": "-2978650",
    "name": "Møre og Romsdal",
    "local_name": "Møre og Romsdal",
    "name_en": "Møre og Romsdal",
    "all_tags": {
      "ref": "15",
      "name": "Møre og Romsdal",
      "place": "county",
      "name:de": "Möre und Romsdal",
      "name:en": "Møre og Romsdal",
      "name:ru": "Мёре-ог-Ромсдал",
      "alt_name": "Møre og Romsdal fylke",
      "boundary": "administrative",
      "name:sma": "Möre jïh Romsdaelie",
      "way_area": "4.46539",
      "wikidata": "Q50627",
      "ISO3166-2": "NO-15",
      "wikipedia": "no:Møre og Romsdal",
      "population": "265647",
      "admin_level": "4",
      "population:date": "2021-04-01"
    }
  },
  {
    "osm_id": -10487008,
    "boundary": "administrative",
    "admin_level": 4,
    "parents": "-2978650",
    "name": "Vestfold og Telemark",
    "local_name": "Vestfold og Telemark",
    "name_en": null,
    "all_tags": {
      "ref": "38",
      "name": "Vestfold og Telemark",
      "place": "county",
      "boundary": "administrative",
      "way_area": "3.19364",
      "wikidata": "Q56405721",
      "ISO3166-2": "NO-38",
      "population": "422317",
      "admin_level": "4",
      "population:date": "2021-04-01"
    }
  },
  {
    "osm_id": -10155543,
    "boundary": "administrative",
    "admin_level": 4,
    "parents": "-2978650",
    "name": "Vestland",
    "local_name": "Vestland",
    "name_en": null,
    "all_tags": {
      "ref": "46",
      "name": "Vestland",
      "place": "county",
      "boundary": "administrative",
      "way_area": "8.20934",
      "wikidata": "Q56407177",
      "ISO3166-2": "NO-46",
      "population": "639520",
      "admin_level": "4",
      "population:date": "2021-04-01"
    }
  },
  {
    "osm_id": -10155527,
    "boundary": "administrative",
    "admin_level": 4,
    "parents": "-2978650",
    "name": "Innlandet",
    "local_name": "Innlandet",
    "name_en": null,
    "all_tags": {
      "ref": "34",
      "name": "Innlandet",
      "place": "county",
      "name:ps": "اينلانه",
      "boundary": "administrative",
      "way_area": "8.75955",
      "wikidata": "Q56404886",
      "ISO3166-2": "NO-34",
      "population": "370905",
      "admin_level": "4",
      "alt_name:ps": "اينلانه",
      "population:date": "2021-04-01"
    }
  },
  {
    "osm_id": -10155507,
    "boundary": "administrative",
    "admin_level": 4,
    "parents": "-2978650",
    "name": "Troms og Finnmark",
    "local_name": "Troms og Finnmark",
    "name_en": null,
    "all_tags": {
      "ref": "54",
      "name": "Troms og Finnmark",
      "place": "county",
      "name:se": "Romsa ja Finnmárku",
      "boundary": "administrative",
      "name:fkv": "Tromssa ja Finmarkku",
      "way_area": "27.1542",
      "wikidata": "Q52600648",
      "ISO3166-2": "NO-54",
      "population": "242280",
      "admin_level": "4",
      "population:date": "2021-04-01"
    }
  }
]
