[
  {
    "osm_id": -4583291,
    "boundary": "historic",
    "admin_level": 4,
    "parents": "-184633",
    "name": "Eastern Development Region",
    "local_name": "पुर्वाञ्चल विकास क्षेत्र",
    "name_en": "Eastern Development Region",
    "all_tags": {
      "name": "पुर्वाञ्चल विकास क्षेत्र",
      "name:ar": "المنطقة التنموية الشرقية",
      "name:de": "Entwicklungsregion Ost",
      "name:en": "Eastern Development Region",
      "name:es": "Región de desarrollo Este",
      "name:fr": "Région de développement Est",
      "name:ja": "東部開発区域",
      "name:ne": "पुर्वाञ्चल विकास क्षेत्र",
      "name:pl": "Eastern Development Region",
      "name:ru": "Восточный регион",
      "name:ur": "مشرقی ترقیاتی علاقہ",
      "name:zh": "东部经济发展区",
      "boundary": "historic",
      "int_name": "Eastern Development Region",
      "way_area": "2.59369",
      "wikidata": "Q28576",
      "ISO3166-2": "NP-4",
      "wikipedia": "en:Eastern Development Region, Nepal",
      "admin_level": "4",
      "is_in:country": "Nepal",
      "is_in:continent": "Asia",
      "is_in:country_code": "NP"
    }
  },
  {
    "osm_id": -4583219,
    "boundary": "historic",
    "admin_level": 5,
    "parents": "-10489132,-184633",
    "name": "Mechi",
    "local_name": "मेची अञ्चल",
    "name_en": "Mechi",
    "all_tags": {
      "name": "मेची अञ्चल",
      "name:cs": "Méčí",
      "name:en": "Mechi",
      "name:ja": "メチ",
      "name:ne": "मेची अञ्चल",
      "name:pl": "Mechi",
      "name:ru": "Мечи",
      "name:zh": "梅吉专区",
      "boundary": "historic",
      "int_name": "Mechi",
      "way_area": "0.743959",
      "wikidata": "Q9180",
      "ISO3166-2": "NP-ME",
      "wikipedia": "en:Mechi Zone",
      "admin_level": "5"
    }
  },
  {
    "osm_id": -4586359,
    "boundary": "administrative",
    "admin_level": 6,
    "parents": "-10493723,-184633",
    "name": "Dolpa",
    "local_name": "डोल्पा",
    "name_en": "Dolpa",
    "all_tags": {
      "name": "डोल्पा",
      "name:en": "Dolpa",
      "name:ja": "ドルパ",
      "name:ne": "डोल्पा",
      "boundary": "administrative",
      "int_name": "Dolpa",
      "way_area": "0.736333",
      "wikidata": "Q28610",
      "wikipedia": "en:Dolpa District",
      "admin_level": "6"
    }
  },
  {
    "osm_id": -4589464,
    "boundary": "administrative",
    "admin_level": 6,
    "parents": "-4583222,-4583291,-184633",
    "name": "Khotang",
    "local_name": "खोटाङ",
    "name_en": "Khotang",
    "all_tags": {
      "name": "खोटाङ",
      "name:en": "Khotang",
      "name:ja": "コータン",
      "name:ne": "खोटाङ",
      "name:pl": "Khotang",
      "boundary": "administrative",
      "int_name": "Khotang",
      "way_area": "0.144649",
      "wikidata": "Q28599",
      "wikipedia": "en:Khotang District",
      "admin_level": "6"
    }
  },
  {
    "osm_id": -4589415,
    "boundary": "administrative",
    "admin_level": 6,
    "parents": "-4583215,-184633",
    "name": "Makwanpur",
    "local_name": "मकवानपुर",
    "name_en": "Makwanpur",
    "all_tags": {
      "name": "मकवानपुर",
      "name:de": "Makwanpur",
      "name:en": "Makwanpur",
      "name:fa": "بخش ماکوانپور",
      "name:ja": "マクワンプル",
      "name:ne": "मकवानपुर",
      "name:pl": "Makwanpur",
      "name:ur": "مکوانپور ضلع",
      "boundary": "administrative",
      "name:pnb": "ضلع مکنوار",
      "way_area": "0.223354",
      "wikidata": "Q28174",
      "wikipedia": "en:Makwanpur District",
      "admin_level": "6",
      "wikipedia:ur": "مکوانپور ضلع"
    }
  },
  {
    "osm_id": -4583290,
    "boundary": "historic",
    "admin_level": 4,
    "parents": "-184633",
    "name": "Western Development Region",
    "local_name": "Western Development Region",
    "name_en": "Western Development Region",
    "all_tags": {
      "name": "Western Development Region",
      "name:de": "Entwicklungsregion West",
      "name:en": "Western Development Region",
      "name:es": "Región de desarrollo Oeste",
      "name:fr": "Région de développement Ouest",
      "name:ja": "西部開発区域",
      "name:ne": "पश्चिमाञ्चल विकास क्षेत्र",
      "name:ru": "Западный регион",
      "name:uk": "Західний регіон",
      "name:zh": "西部经济发展区",
      "boundary": "historic",
      "int_name": "Western Development Region",
      "way_area": "2.7083",
      "wikidata": "Q28462",
      "ISO3166-2": "NP-3",
      "wikipedia": "en:Western Development Region, Nepal",
      "admin_level": "4",
      "is_in:country": "Nepal",
      "is_in:continent": "Asia",
      "is_in:country_code": "NP"
    }
  },
  {
    "osm_id": -4588152,
    "boundary": "administrative",
    "admin_level": 6,
    "parents": "-4583212,-10489605,-184633",
    "name": "Manang",
    "local_name": "मनाङ",
    "name_en": "Manang",
    "all_tags": {
      "name": "मनाङ",
      "name:en": "Manang",
      "name:ja": "マナン",
      "name:ne": "मनाङ",
      "name:pl": "Manang",
      "boundary": "administrative",
      "int_name": "Manang",
      "way_area": "0.214377",
      "wikidata": "Q28434",
      "wikipedia": "en:Manang District, Nepal",
      "admin_level": "6"
    }
  },
  {
    "osm_id": -4588144,
    "boundary": "administrative",
    "admin_level": 6,
    "parents": "-4583214,-10489605,-184633",
    "name": "Baglung",
    "local_name": "बागलुङ",
    "name_en": "Baglung",
    "all_tags": {
      "name": "बागलुङ",
      "name:en": "Baglung",
      "name:ja": "バグルン",
      "name:ne": "बागलुङ",
      "boundary": "administrative",
      "int_name": "Baglung",
      "way_area": "0.168737",
      "wikidata": "Q28162",
      "wikipedia": "en:Baglung District",
      "admin_level": "6"
    }
  },
  {
    "osm_id": -4586361,
    "boundary": "administrative",
    "admin_level": 6,
    "parents": "-10493723,-184633",
    "name": "Kalikot",
    "local_name": "कालीकोट",
    "name_en": "Kalikot",
    "all_tags": {
      "name": "कालीकोट",
      "name:en": "Kalikot",
      "name:ja": "カリコート",
      "name:ne": "कालीकोट",
      "boundary": "administrative",
      "int_name": "Kalikot",
      "way_area": "0.152042",
      "wikidata": "Q28102",
      "wikipedia": "en:Kalikot District",
      "admin_level": "6"
    }
  },
  {
    "osm_id": -4589558,
    "boundary": "administrative",
    "admin_level": 6,
    "parents": "-4583221,-4583290,-184633",
    "name": "Kapilvastu",
    "local_name": "Kapilvastu",
    "name_en": "Kapilvastu",
    "all_tags": {
      "name": "Kapilvastu",
      "name:en": "Kapilvastu",
      "name:ja": "カピラバストゥ",
      "name:ne": "कपिलवस्तु",
      "name:ru": "Капилвасту",
      "boundary": "administrative",
      "int_name": "Kapilvastu",
      "way_area": "0.150903",
      "wikidata": "Q28574",
      "wikipedia": "en:Kapilvastu District",
      "admin_level": "6"
    }
  },
  {
    "osm_id": -12228031,
    "boundary": "administrative",
    "admin_level": 6,
    "parents": "-10493723,-184633",
    "name": "Dailekh",
    "local_name": "दैलेख",
    "name_en": "Dailekh",
    "all_tags": {
      "name": "दैलेख",
      "name:en": "Dailekh",
      "name:ja": "ダイレク",
      "name:ne": "दैलेख",
      "boundary": "administrative",
      "int_name": "Dailekh",
      "way_area": "0.137134",
      "wikidata": "Q28443",
      "wikipedia": "en:Dailekh District",
      "admin_level": "6"
    }
  },
  {
    "osm_id": -4586360,
    "boundary": "administrative",
    "admin_level": 6,
    "parents": "-4583220,-4583375,-184633",
    "name": "Dang",
    "local_name": "Dang",
    "name_en": "Dang",
    "all_tags": {
      "name": "Dang",
      "name:en": "Dang",
      "name:ja": "ダン",
      "name:ne": "दाङ देउखुरी",
      "name:ru": "Данг",
      "boundary": "administrative",
      "int_name": "Dang",
      "way_area": "0.280449",
      "wikidata": "Q28066",
      "wikipedia": "en:Dang District, Nepal",
      "admin_level": "6"
    }
  },
  {
    "osm_id": -4586362,
    "boundary": "administrative",
    "admin_level": 6,
    "parents": "-4583220,-4583375,-184633",
    "name": "Pyuthan",
    "local_name": "प्युठान",
    "name_en": "Pyuthan",
    "all_tags": {
      "name": "प्युठान",
      "name:en": "Pyuthan",
      "name:ja": "ピュータン",
      "name:ne": "प्युठान",
      "boundary": "administrative",
      "int_name": "Pyuthan",
      "way_area": "0.121247",
      "wikidata": "Q28094",
      "wikipedia": "en:Pyuthan District",
      "admin_level": "6"
    }
  },
  {
    "osm_id": -4586049,
    "boundary": "administrative",
    "admin_level": 6,
    "parents": "-4583221,-4583290,-184633",
    "name": "Rupandehi",
    "local_name": "रुपन्देही",
    "name_en": "Rupandehi",
    "all_tags": {
      "name": "रुपन्देही",
      "name:en": "Rupandehi",
      "name:ja": "ルパンデヒ",
      "name:ne": "रुपन्देही",
      "name:uk": "Рупандегі район",
      "boundary": "administrative",
      "int_name": "Rupandehi",
      "way_area": "0.119097",
      "wikidata": "Q28438",
      "wikipedia": "en:Rupandehi District",
      "admin_level": "6"
    }
  },
  {
    "osm_id": -4589559,
    "boundary": "administrative",
    "admin_level": 6,
    "parents": "-4583221,-4583290,-184633",
    "name": "Gulmi",
    "local_name": "गुल्मी",
    "name_en": "Gulmi",
    "all_tags": {
      "name": "गुल्मी",
      "name:en": "Gulmi",
      "name:ja": "グルミ",
      "name:ne": "गुल्मी",
      "boundary": "administrative",
      "int_name": "Gulmi",
      "way_area": "0.101686",
      "wikidata": "Q28572",
      "wikipedia": "en:Gulmi District",
      "admin_level": "6"
    }
  },
  {
    "osm_id": -4583221,
    "boundary": "historic",
    "admin_level": 5,
    "parents": "-4583290,-184633",
    "name": "Lumbini",
    "local_name": "Lumbini",
    "name_en": "Lumbini",
    "all_tags": {
      "name": "Lumbini",
      "name:cs": "Lumbiní",
      "name:en": "Lumbini",
      "name:ja": "ルンビニ",
      "name:ne": "लुम्बिनी अञ्चल",
      "name:ru": "Лумбини",
      "name:uk": "Лумбіні зона",
      "name:zh": "蓝毗尼专区",
      "boundary": "historic",
      "int_name": "Lumbini",
      "way_area": "0.814735",
      "wikidata": "Q9172",
      "ISO3166-2": "NP-LU",
      "wikipedia": "en:Lumbini Zone",
      "admin_level": "5"
    }
  },
  {
    "osm_id": -10489606,
    "boundary": "administrative",
    "admin_level": 6,
    "parents": "-4583221,-4583290,-184633",
    "name": "Nawalpur District",
    "local_name": "Nawalpur District",
    "name_en": "Nawalpur District",
    "all_tags": {
      "name": "Nawalpur District",
      "name:en": "Nawalpur District",
      "name:ne": "नवलपुर जिल्ला",
      "alt_name": "Nawalparasi E",
      "boundary": "administrative",
      "way_area": "0.130684",
      "wikidata": "Q50822475",
      "wikipedia": "en:Nawalpur District",
      "admin_level": "6"
    }
  },
  {
    "osm_id": -4589410,
    "boundary": "administrative",
    "admin_level": 6,
    "parents": "-4583215,-184633",
    "name": "Chitwan",
    "local_name": "चितवन",
    "name_en": "Chitwan",
    "all_tags": {
      "name": "चितवन",
      "name:en": "Chitwan",
      "name:ja": "チトワン",
      "name:ne": "चितवन",
      "name:pl": "Chitwan",
      "boundary": "administrative",
      "int_name": "Chitwan",
      "way_area": "0.204212",
      "wikidata": "Q28583",
      "wikipedia": "ne:चितवन जिल्ला",
      "admin_level": "6"
    }
  },
  {
    "osm_id": -5691338,
    "boundary": "administrative",
    "admin_level": 6,
    "parents": "-4583212,-10489605,-184633",
    "name": "Syangja",
    "local_name": "स्याङ्जा",
    "name_en": "Syangja",
    "all_tags": {
      "name": "स्याङ्जा",
      "name:en": "Syangja",
      "name:ja": "シャンザ",
      "name:ne": "स्याङ्जा",
      "name:pl": "Syangja",
      "boundary": "administrative",
      "int_name": "Syangja",
      "way_area": "0.0951333",
      "wikidata": "Q28448",
      "wikipedia": "en:Syangja District",
      "admin_level": "6"
    }
  },
  {
    "osm_id": -4588151,
    "boundary": "administrative",
    "admin_level": 6,
    "parents": "-4583212,-10489605,-184633",
    "name": "Tanahun",
    "local_name": "तनहुँ",
    "name_en": "Tanahun",
    "all_tags": {
      "name": "तनहुँ",
      "name:en": "Tanahun",
      "name:ja": "タナフン",
      "name:ne": "तनहुँ जिल्ला",
      "name:pl": "Tanahun",
      "boundary": "administrative",
      "int_name": "Tanahun",
      "way_area": "0.144132",
      "wikidata": "Q28446",
      "wikipedia": "en:Tanahun District",
      "admin_level": "6"
    }
  },
  {
    "osm_id": -4589470,
    "boundary": "administrative",
    "admin_level": 6,
    "parents": "-10489318,-184633",
    "name": "Saptari",
    "local_name": "सप्तरी",
    "name_en": "Saptari",
    "all_tags": {
      "name": "सप्तरी",
      "name:en": "Saptari",
      "name:ja": "サプタリ",
      "name:ne": "सप्तरी",
      "name:pl": "Saptari",
      "boundary": "administrative",
      "int_name": "Saptari",
      "way_area": "0.116041",
      "wikidata": "Q28613",
      "wikipedia": "en:Saptari District",
      "admin_level": "6",
      "is_in:country_code": "NP"
    }
  },
  {
    "osm_id": -4589414,
    "boundary": "administrative",
    "admin_level": 6,
    "parents": "-4583215,-184633",
    "name": "Bara",
    "local_name": "बारा",
    "name_en": "Bara",
    "all_tags": {
      "name": "बारा",
      "name:de": "Bara",
      "name:en": "Bara",
      "name:ja": "バラ",
      "name:ne": "बारा",
      "name:pl": "Bara",
      "boundary": "administrative",
      "int_name": "Bara",
      "way_area": "0.115678",
      "wikidata": "Q28608",
      "wikipedia": "en:Bara District",
      "admin_level": "6",
      "is_in:country_code": "NP"
    }
  },
  {
    "osm_id": -4589418,
    "boundary": "administrative",
    "admin_level": 6,
    "parents": "-4583215,-184633",
    "name": "Rautahat",
    "local_name": "रौतहट",
    "name_en": "Rautahat",
    "all_tags": {
      "name": "रौतहट",
      "name:en": "Rautahat",
      "name:ja": "ラウタハト",
      "name:ne": "रौतहट",
      "name:pl": "Rautahat",
      "boundary": "administrative",
      "int_name": "Rautahat",
      "way_area": "0.0942943",
      "wikidata": "Q28098",
      "wikipedia": "ne:रौतहट जिल्ला",
      "admin_level": "6",
      "is_in:country_code": "NP"
    }
  },
  {
    "osm_id": -4583249,
    "boundary": "administrative",
    "admin_level": 6,
    "parents": "-4583216,-10489317,-184633",
    "name": "Dhading",
    "local_name": "धादिङ",
    "name_en": "Dhading",
    "all_tags": {
      "name": "धादिङ",
      "name:de": "Dhading",
      "name:en": "Dhading",
      "name:ja": "ダーディン",
      "name:ne": "धादिङ",
      "name:pl": "Dhading",
      "boundary": "administrative",
      "int_name": "Dhading",
      "way_area": "0.175057",
      "wikidata": "Q28454",
      "wikipedia": "ne:धादिङ जिल्ला",
      "admin_level": "6"
    }
  },
  {
    "osm_id": -4583253,
    "boundary": "administrative",
    "admin_level": 6,
    "parents": "-4583216,-10489317,-184633",
    "name": "Lalitpur",
    "local_name": "ललितपुर",
    "name_en": "Lalitpur",
    "all_tags": {
      "name": "ललितपुर",
      "name:de": "Lalitpur",
      "name:en": "Lalitpur",
      "name:hi": "पाटन",
      "name:ja": "ラリトプル",
      "name:ne": "ललितपुर",
      "name:pl": "Lalitpur",
      "boundary": "administrative",
      "int_name": "Lalitpur",
      "way_area": "0.0362212",
      "wikidata": "Q1108338",
      "wikipedia": "ne:ललितपुर जिल्ला",
      "admin_level": "6"
    }
  },
  {
    "osm_id": -4583247,
    "boundary": "administrative",
    "admin_level": 6,
    "parents": "-4583216,-10489317,-184633",
    "name": "Kathmandu",
    "local_name": "काठमाडौं",
    "name_en": "Kathmandu",
    "all_tags": {
      "name": "काठमाडौं",
      "name:en": "Kathmandu",
      "name:ja": "カトマンズ",
      "name:ne": "काठमाडौं",
      "name:pl": "Katmandu",
      "name:ru": "Катманду",
      "name:zh": "加德满都",
      "boundary": "administrative",
      "int_name": "Kathmandu",
      "way_area": "0.0378448",
      "wikidata": "Q797472",
      "wikipedia": "ne:काठमाडौं",
      "admin_level": "6"
    }
  },
  {
    "osm_id": -4583248,
    "boundary": "administrative",
    "admin_level": 6,
    "parents": "-4583216,-10489317,-184633",
    "name": "Kavrepalanchok",
    "local_name": "काभ्रेपलाञ्चोक",
    "name_en": "Kavrepalanchok",
    "all_tags": {
      "name": "काभ्रेपलाञ्चोक",
      "name:de": "Kavrepalanchok",
      "name:en": "Kavrepalanchok",
      "name:ja": "カーブレ・パランチョーク",
      "name:ne": "काभ्रेपलाञ्चोक",
      "name:pl": "Kavrepalanchok",
      "boundary": "administrative",
      "int_name": "Kavrepalanchok",
      "way_area": "0.12735",
      "wikidata": "Q28569",
      "wikipedia": "en:Kabhrepalanchok District",
      "population": "381937",
      "admin_level": "6",
      "alt_name:en": "Kabhrepalanchok",
      "population:date": "2011"
    }
  },
  {
    "osm_id": -4583251,
    "boundary": "administrative",
    "admin_level": 6,
    "parents": "-4583216,-10489317,-184633",
    "name": "Bhaktapur",
    "local_name": "भक्तपुर",
    "name_en": "Bhaktapur",
    "all_tags": {
      "name": "भक्तपुर",
      "name:en": "Bhaktapur",
      "name:ja": "バクタプル",
      "name:ne": "भक्तपुर",
      "name:pl": "Bhaktapur",
      "boundary": "administrative",
      "int_name": "Bhaktapur",
      "way_area": "0.0112356",
      "wikidata": "Q28451",
      "wikipedia": "en:Bhaktapur District",
      "admin_level": "6"
    }
  },
  {
    "osm_id": -4583250,
    "boundary": "administrative",
    "admin_level": 6,
    "parents": "-4583216,-10489317,-184633",
    "name": "Nuwakot",
    "local_name": "नुवाकोट",
    "name_en": "Nuwakot",
    "all_tags": {
      "name": "नुवाकोट",
      "name:en": "Nuwakot",
      "name:ja": "ヌワコート",
      "name:ne": "नुवाकोट",
      "name:pl": "Nuwakot",
      "boundary": "administrative",
      "int_name": "Nuwakot",
      "way_area": "0.109335",
      "wikidata": "Q28430",
      "wikipedia": "ne:नुवाकोट जिल्ला",
      "admin_level": "6"
    }
  },
  {
    "osm_id": -4583216,
    "boundary": "historic",
    "admin_level": 5,
    "parents": "-10489317,-184633",
    "name": "Bagmati",
    "local_name": "बागमती अञ्चल",
    "name_en": "Bagmati",
    "all_tags": {
      "name": "बागमती अञ्चल",
      "name:cs": "Bágmatí",
      "name:de": "Bagmati",
      "name:en": "Bagmati",
      "name:ja": "バグマティ",
      "name:ne": "बागमती अञ्चल",
      "name:pl": "Bagmati",
      "name:ru": "Багмати",
      "name:zh": "巴格马蒂专区",
      "boundary": "historic",
      "int_name": "Bagmati",
      "way_area": "0.862826",
      "wikidata": "Q9046",
      "ISO3166-2": "NP-BA",
      "wikipedia": "en:Bagmati Zone",
      "admin_level": "5"
    }
  },
  {
    "osm_id": -4583254,
    "boundary": "administrative",
    "admin_level": 6,
    "parents": "-4583216,-10489317,-184633",
    "name": "Sindhupalchowk",
    "local_name": "सिन्धुपाल्चोक",
    "name_en": "Sindhupalchowk",
    "all_tags": {
      "name": "सिन्धुपाल्चोक",
      "name:en": "Sindhupalchowk",
      "name:ja": "シンドゥ・パルチョーク",
      "name:ne": "सिन्धुपाल्चोक",
      "alt_name": "Sindhupalchok;Sindupalchok;Sindupalchock",
      "boundary": "administrative",
      "int_name": "Sindhupalchowk",
      "way_area": "0.228067",
      "wikidata": "Q28445",
      "wikipedia": "ne:सिन्धुपाल्चोक जिल्ला",
      "population": "287798",
      "admin_level": "6",
      "population:date": "2011"
    }
  },
  {
    "osm_id": -4589416,
    "boundary": "administrative",
    "admin_level": 6,
    "parents": "-10489318,-184633",
    "name": "Mahottari",
    "local_name": "Mahottari",
    "name_en": "Mahottari",
    "all_tags": {
      "name": "Mahottari",
      "name:en": "Mahottari",
      "name:ja": "マホッタリ",
      "name:ne": "महोत्तरी",
      "boundary": "administrative",
      "int_name": "Mahottari",
      "way_area": "0.0909313",
      "wikidata": "Q28618",
      "wikipedia": "ne:महोत्तरी जिल्ला",
      "admin_level": "6",
      "is_in:country_code": "NP"
    }
  },
  {
    "osm_id": -4589471,
    "boundary": "administrative",
    "admin_level": 6,
    "parents": "-10489318,-184633",
    "name": "Siraha",
    "local_name": "सिराहा",
    "name_en": "Siraha",
    "all_tags": {
      "name": "सिराहा",
      "name:en": "Siraha",
      "name:ja": "シラハ",
      "name:ne": "सिराहा",
      "name:pl": "Siraha",
      "boundary": "administrative",
      "int_name": "Siraha",
      "way_area": "0.103474",
      "wikidata": "Q28088",
      "wikipedia": "en:Siraha District",
      "admin_level": "6",
      "is_in:country_code": "NP"
    }
  },
  {
    "osm_id": -4583213,
    "boundary": "historic",
    "admin_level": 5,
    "parents": "-184633",
    "name": "Janakpur",
    "local_name": "जनकपुर अञ्चल",
    "name_en": "Janakpur",
    "all_tags": {
      "name": "जनकपुर अञ्चल",
      "name:cs": "Džanakpur",
      "name:de": "Janakpur",
      "name:en": "Janakpur",
      "name:ja": "ジャナクプル",
      "name:ne": "जनकपुर अञ्चल",
      "name:pl": "Dźanakpur",
      "name:ru": "Джанакпур",
      "name:zh": "贾纳克布尔专区",
      "boundary": "historic",
      "int_name": "Janakpur",
      "way_area": "0.879111",
      "wikidata": "Q9152",
      "ISO3166-2": "NP-JA",
      "wikipedia": "en:Janakpur Zone",
      "admin_level": "5"
    }
  },
  {
    "osm_id": -4589462,
    "boundary": "administrative",
    "admin_level": 6,
    "parents": "-4583222,-4583291,-184633",
    "name": "Udayapur",
    "local_name": "उदयपुर",
    "name_en": "Udayapur",
    "all_tags": {
      "name": "उदयपुर",
      "name:en": "Udayapur",
      "name:ja": "ウダイプル",
      "name:ne": "उदयपुर",
      "name:pl": "Udayapur",
      "boundary": "administrative",
      "int_name": "Udayapur",
      "way_area": "0.208429",
      "wikidata": "Q28582",
      "wikipedia": "en:Udayapur District",
      "admin_level": "6"
    }
  },
  {
    "osm_id": -4589417,
    "boundary": "administrative",
    "admin_level": 6,
    "parents": "-4583213,-184633",
    "name": "Ramechhap",
    "local_name": "रामेछाप",
    "name_en": "Ramechhap",
    "all_tags": {
      "name": "रामेछाप",
      "name:de": "Ramechhap",
      "name:en": "Ramechhap",
      "name:ja": "ラメチャープ",
      "name:ne": "रामेछाप",
      "boundary": "administrative",
      "int_name": "Ramechhap",
      "way_area": "0.142833",
      "wikidata": "Q28611",
      "wikipedia": "en:Ramechhap District",
      "population": "202646",
      "admin_level": "6",
      "population:date": "2011"
    }
  },
  {
    "osm_id": -4589411,
    "boundary": "administrative",
    "admin_level": 6,
    "parents": "-4583213,-184633",
    "name": "Dolakha",
    "local_name": "दोलखा",
    "name_en": "Dolakha",
    "all_tags": {
      "name": "दोलखा",
      "name:en": "Dolakha",
      "name:ja": "ドラカ",
      "name:ne": "दोलखा",
      "boundary": "administrative",
      "int_name": "Dolakha",
      "way_area": "0.196578",
      "wikidata": "Q28621",
      "wikipedia": "ne:दोलखा जिल्ला",
      "population": "186557",
      "admin_level": "6",
      "population:date": "2011"
    }
  },
  {
    "osm_id": -4589473,
    "boundary": "administrative",
    "admin_level": 6,
    "parents": "-4583222,-4583291,-184633",
    "name": "Solukhumbu",
    "local_name": "सोलुखुम्बु",
    "name_en": "Solukhumbu",
    "all_tags": {
      "name": "सोलुखुम्बु",
      "name:en": "Solukhumbu",
      "name:ja": "ソルクンブ",
      "name:ne": "सोलुखुम्बु",
      "name:pl": "Solukhumbu",
      "boundary": "administrative",
      "int_name": "Solukhumbu",
      "way_area": "0.306791",
      "wikidata": "Q28363",
      "wikipedia": "en:Solukhumbu District",
      "admin_level": "6"
    }
  },
  {
    "osm_id": -4589466,
    "boundary": "administrative",
    "admin_level": 6,
    "parents": "-4583211,-10489132,-184633",
    "name": "Dhankuta",
    "local_name": "धनकुटा",
    "name_en": "Dhankuta",
    "all_tags": {
      "name": "धनकुटा",
      "name:en": "Dhankuta",
      "name:ja": "ダンクタ",
      "name:ne": "धनकुटा",
      "name:pl": "Dhankuta",
      "boundary": "administrative",
      "int_name": "Dhankuta",
      "way_area": "0.0818338",
      "wikidata": "Q28081",
      "wikipedia": "en:Dhankuta District",
      "admin_level": "6"
    }
  },
  {
    "osm_id": -4583211,
    "boundary": "historic",
    "admin_level": 5,
    "parents": "-10489132,-184633",
    "name": "Koshi",
    "local_name": "कोशी अञ्चल",
    "name_en": "Koshi",
    "all_tags": {
      "name": "कोशी अञ्चल",
      "name:ar": "مديرية كوسي",
      "name:cs": "Kóší",
      "name:en": "Koshi",
      "name:ja": "コシ",
      "name:ne": "कोशी अञ्चल",
      "name:pl": "Kosi",
      "name:ru": "Коси",
      "name:ur": "کوسی زون",
      "name:zh": "戈西专区",
      "boundary": "historic",
      "int_name": "Koshi",
      "way_area": "0.872177",
      "wikidata": "Q9170",
      "ISO3166-2": "NP-KO",
      "wikipedia": "en:Kosi Zone",
      "admin_level": "5"
    }
  },
  {
    "osm_id": -4589465,
    "boundary": "administrative",
    "admin_level": 6,
    "parents": "-4583211,-10489132,-184633",
    "name": "Tehrathum",
    "local_name": "तेह्रथुम",
    "name_en": "Tehrathum",
    "all_tags": {
      "name": "तेह्रथुम",
      "name:en": "Tehrathum",
      "name:ja": "テラトゥム",
      "name:ne": "तेह्रथुम",
      "name:pl": "Tehrathum",
      "boundary": "administrative",
      "int_name": "Tehrathum",
      "way_area": "0.0609612",
      "wikidata": "Q28585",
      "wikipedia": "en:Tehrathum District",
      "admin_level": "6"
    }
  },
  {
    "osm_id": -4589469,
    "boundary": "administrative",
    "admin_level": 6,
    "parents": "-4583211,-10489132,-184633",
    "name": "Sankhuwasabha",
    "local_name": "सङ्खुवासभा",
    "name_en": "Sankhuwasabha",
    "all_tags": {
      "name": "सङ्खुवासभा",
      "name:en": "Sankhuwasabha",
      "name:ja": "サンクワサバー",
      "name:ne": "सङ्खुवासभा",
      "name:pl": "Sankhuwasabha",
      "boundary": "administrative",
      "int_name": "Sankhuwasabha",
      "way_area": "0.317297",
      "wikidata": "Q28596",
      "wikipedia": "en:Sankhuwasabha District",
      "admin_level": "6"
    }
  },
  {
    "osm_id": -4586363,
    "boundary": "administrative",
    "admin_level": 6,
    "parents": "-10493722,-184633",
    "name": "Bardiya",
    "local_name": "Bardiya",
    "name_en": "Bardiya",
    "all_tags": {
      "name": "Bardiya",
      "name:en": "Bardiya",
      "name:ja": "バルディヤ",
      "name:ne": "बर्दिया",
      "boundary": "administrative",
      "int_name": "Bardiya",
      "way_area": "0.184441",
      "wikidata": "Q28458",
      "wikipedia": "en:Bardiya District",
      "admin_level": "6"
    }
  },
  {
    "osm_id": -4586287,
    "boundary": "administrative",
    "admin_level": 6,
    "parents": "-4583223,-4583376,-10488187,-184633",
    "name": "Kailali",
    "local_name": "Kailali",
    "name_en": "Kailali",
    "all_tags": {
      "name": "Kailali",
      "name:en": "Kailali",
      "name:ja": "カイラリ",
      "name:ne": "कैलाली",
      "boundary": "administrative",
      "int_name": "Kailali",
      "way_area": "0.30358",
      "wikidata": "Q28153",
      "wikipedia": "en:Kailali District",
      "admin_level": "6"
    }
  },
  {
    "osm_id": -4586369,
    "boundary": "administrative",
    "admin_level": 6,
    "parents": "-10493723,-184633",
    "name": "Surkhet",
    "local_name": "सुर्खेत",
    "name_en": "Surkhet",
    "all_tags": {
      "name": "सुर्खेत",
      "name:en": "Surkhet",
      "name:ja": "スルケート",
      "name:ne": "सुर्खेत",
      "boundary": "administrative",
      "int_name": "Surkhet",
      "way_area": "0.229018",
      "wikidata": "Q28589",
      "wikipedia": "en:Surkhet District",
      "admin_level": "6"
    }
  },
  {
    "osm_id": -4586286,
    "boundary": "administrative",
    "admin_level": 6,
    "parents": "-4583218,-4583376,-10488187,-184633",
    "name": "Kanchanpur",
    "local_name": "Kanchanpur",
    "name_en": "Kanchanpur",
    "all_tags": {
      "name": "Kanchanpur",
      "name:en": "Kanchanpur",
      "name:ja": "カンチャンプル",
      "name:ne": "कञ्चनपुर",
      "boundary": "administrative",
      "int_name": "Kanchanpur",
      "way_area": "0.149434",
      "wikidata": "Q28981",
      "wikipedia": "en:Kanchanpur District",
      "admin_level": "6"
    }
  },
  {
    "osm_id": -4586288,
    "boundary": "administrative",
    "admin_level": 6,
    "parents": "-4583218,-4583376,-10488187,-184633",
    "name": "Dadeldhura",
    "local_name": "डडेलधुरा",
    "name_en": "Dadeldhura",
    "all_tags": {
      "name": "डडेलधुरा",
      "name:en": "Dadeldhura",
      "name:ja": "ダンデルドゥラ",
      "name:ne": "डडेलधुरा",
      "name:uk": "Даделдгура",
      "boundary": "administrative",
      "int_name": "Dadeldhura",
      "way_area": "0.139408",
      "wikidata": "Q28594",
      "wikipedia": "en:Dadeldhura District",
      "admin_level": "6"
    }
  },
  {
    "osm_id": -4586289,
    "boundary": "administrative",
    "admin_level": 6,
    "parents": "-4583223,-4583376,-10488187,-184633",
    "name": "Doti",
    "local_name": "डोटी",
    "name_en": "Doti",
    "all_tags": {
      "name": "डोटी",
      "name:en": "Doti",
      "name:ja": "ドーティ",
      "name:ne": "डोटी",
      "boundary": "administrative",
      "int_name": "Doti",
      "way_area": "0.190058",
      "wikidata": "Q28600",
      "wikipedia": "en:Doti District",
      "admin_level": "6"
    }
  },
  {
    "osm_id": -4583218,
    "boundary": "historic",
    "admin_level": 5,
    "parents": "-4583376,-10488187,-184633",
    "name": "Mahakali",
    "local_name": "Mahakali",
    "name_en": "Mahakali",
    "all_tags": {
      "name": "Mahakali",
      "name:cs": "Mahákálí",
      "name:en": "Mahakali",
      "name:ja": "マハカリ",
      "name:ne": "महाकाली अञ्चल",
      "name:ru": "Махакали",
      "name:uk": "Магакалі зона",
      "name:zh": "马哈卡利专区",
      "boundary": "historic",
      "int_name": "Mahakali",
      "way_area": "0.64023",
      "wikidata": "Q9178",
      "ISO3166-2": "NP-MA",
      "wikipedia": "en:Mahakali Zone",
      "admin_level": "5"
    }
  },
  {
    "osm_id": -4586293,
    "boundary": "administrative",
    "admin_level": 6,
    "parents": "-4583218,-4583376,-10488187,-184633",
    "name": "Baitadi",
    "local_name": "बैतडी",
    "name_en": "Baitadi",
    "all_tags": {
      "name": "बैतडी",
      "name:en": "Baitadi",
      "name:ja": "バイタディ",
      "name:ne": "बैतडी",
      "boundary": "administrative",
      "int_name": "Baitadi",
      "way_area": "0.138886",
      "wikidata": "Q28076",
      "wikipedia": "en:Baitadi District",
      "admin_level": "6"
    }
  },
  {
    "osm_id": -4583376,
    "boundary": "historic",
    "admin_level": 4,
    "parents": "-10488187,-184633",
    "name": "Far-Western Development Region",
    "local_name": "Far-Western Development Region",
    "name_en": "Far-Western Development Region",
    "all_tags": {
      "name": "Far-Western Development Region",
      "name:de": "Entwicklungsregion Fernwest",
      "name:en": "Far-Western Development Region",
      "name:fr": "Région de développement Extrême-Ouest",
      "name:ja": "極西部開発区域",
      "name:ne": "सुदुर पश्चिमाञ्चल विकास क्षेत्र",
      "name:ru": "Дальнезападный регион",
      "name:uk": "Далекозахідний регіон",
      "name:zh": "远西部经济发展区",
      "boundary": "historic",
      "int_name": "Far-Western Development Region",
      "way_area": "1.82733",
      "wikidata": "Q28235",
      "ISO3166-2": "NP-5",
      "wikipedia": "en:Far-Western Development Region, Nepal",
      "admin_level": "4",
      "is_in:country": "Nepal",
      "is_in:continent": "Asia",
      "is_in:country_code": "NP"
    }
  },
  {
    "osm_id": -4583223,
    "boundary": "historic",
    "admin_level": 5,
    "parents": "-4583376,-10488187,-184633",
    "name": "Seti",
    "local_name": "Seti",
    "name_en": "Seti",
    "all_tags": {
      "name": "Seti",
      "name:cs": "Sétí",
      "name:de": "Seti",
      "name:en": "Seti",
      "name:ja": "セティ",
      "name:ne": "सेती अञ्चल",
      "name:ru": "Сетхи",
      "name:zh": "塞蒂专区",
      "boundary": "historic",
      "int_name": "Seti",
      "way_area": "1.1871",
      "wikidata": "Q9196",
      "ISO3166-2": "NP-SE",
      "wikipedia": "en:Seti Zone",
      "admin_level": "5"
    }
  },
  {
    "osm_id": -4586290,
    "boundary": "administrative",
    "admin_level": 6,
    "parents": "-4583218,-4583376,-10488187,-184633",
    "name": "Darchula",
    "local_name": "दार्चुला",
    "name_en": "Darchula",
    "all_tags": {
      "name": "दार्चुला",
      "name:en": "Darchula",
      "name:ja": "ダルチュラ",
      "name:ne": "दार्चुला",
      "boundary": "administrative",
      "int_name": "Darchula",
      "way_area": "0.212502",
      "wikidata": "Q28601",
      "wikipedia": "en:Darchula District",
      "admin_level": "6"
    }
  },
  {
    "osm_id": -4586291,
    "boundary": "administrative",
    "admin_level": 6,
    "parents": "-4583223,-4583376,-10488187,-184633",
    "name": "Bajhang",
    "local_name": "बझाङ",
    "name_en": "Bajhang",
    "all_tags": {
      "name": "बझाङ",
      "name:en": "Bajhang",
      "name:ja": "バジャン",
      "name:ne": "बझाङ",
      "boundary": "administrative",
      "int_name": "Bajhang",
      "way_area": "0.322051",
      "wikidata": "Q28592",
      "wikipedia": "en:Bajhang District",
      "admin_level": "6"
    }
  },
  {
    "osm_id": -4586368,
    "boundary": "administrative",
    "admin_level": 6,
    "parents": "-4583220,-4583375,-184633",
    "name": "Salyan",
    "local_name": "सल्यान",
    "name_en": "Salyan",
    "all_tags": {
      "name": "सल्यान",
      "name:en": "Salyan",
      "name:ja": "サリャーン",
      "name:ne": "सल्यान",
      "boundary": "administrative",
      "int_name": "Salyan",
      "way_area": "0.173324",
      "wikidata": "Q28571",
      "wikipedia": "en:Salyan District, Nepal",
      "admin_level": "6"
    }
  },
  {
    "osm_id": -4583220,
    "boundary": "historic",
    "admin_level": 5,
    "parents": "-4583375,-184633",
    "name": "Rapti",
    "local_name": "Rapti",
    "name_en": "Rapti",
    "all_tags": {
      "name": "Rapti",
      "name:cs": "Ráptí",
      "name:en": "Rapti",
      "name:ja": "ラプティ",
      "name:ne": "राप्ती अञ्चल",
      "name:ru": "Рапти",
      "name:zh": "拉布蒂专区",
      "boundary": "historic",
      "int_name": "Rapti",
      "way_area": "1.01585",
      "wikidata": "Q9185",
      "ISO3166-2": "NP-RA",
      "wikipedia": "en:Rapti Zone",
      "admin_level": "5"
    }
  },
  {
    "osm_id": -10493724,
    "boundary": "administrative",
    "admin_level": 6,
    "parents": "-4583220,-4583375,-184633",
    "name": "Western Rukum District",
    "local_name": "पश्चिमी रुकुम",
    "name_en": "Western Rukum District",
    "all_tags": {
      "name": "पश्चिमी रुकुम",
      "name:en": "Western Rukum District",
      "name:ne": "पश्चिमी रुकुम",
      "alt_name": "Rukum W",
      "boundary": "administrative",
      "way_area": "0.112154",
      "wikidata": "Q53018063",
      "wikipedia": "en:Western Rukum District",
      "admin_level": "6"
    }
  },
  {
    "osm_id": -4586357,
    "boundary": "administrative",
    "admin_level": 6,
    "parents": "-10493723,-184633",
    "name": "Jajarkot",
    "local_name": "जाजरकोट",
    "name_en": "Jajarkot",
    "all_tags": {
      "name": "जाजरकोट",
      "name:en": "Jajarkot",
      "name:ja": "ジャージャルコート",
      "name:ne": "जाजरकोट",
      "boundary": "administrative",
      "int_name": "Jajarkot",
      "way_area": "0.205736",
      "wikidata": "Q29430",
      "wikipedia": "en:Jajarkot District",
      "admin_level": "6"
    }
  },
  {
    "osm_id": -4586358,
    "boundary": "administrative",
    "admin_level": 6,
    "parents": "-10493723,-184633",
    "name": "Jumla",
    "local_name": "जुम्ला",
    "name_en": "Jumla",
    "all_tags": {
      "name": "जुम्ला",
      "name:en": "Jumla",
      "name:ja": "ジュムラ",
      "name:ne": "जुम्ला",
      "boundary": "administrative",
      "int_name": "Jumla",
      "way_area": "0.237427",
      "wikidata": "Q28619",
      "wikipedia": "en:Jumla District",
      "admin_level": "6"
    }
  },
  {
    "osm_id": -4583375,
    "boundary": "historic",
    "admin_level": 4,
    "parents": "-184633",
    "name": "Mid-Western Development Region",
    "local_name": "Mid-Western Development Region",
    "name_en": "Mid-Western Development Region",
    "all_tags": {
      "name": "Mid-Western Development Region",
      "name:de": "Entwicklungsregion Mittelwest",
      "name:en": "Mid-Western Development Region",
      "name:fr": "Région de développement Moyen-Ouest",
      "name:ne": "मध्य-पश्चिमाञ्चल विकास क्षेत्र",
      "name:ru": "Среднезападный регион",
      "name:zh": "中西部经济发展区",
      "boundary": "historic",
      "int_name": "Mid-Western Development Region",
      "way_area": "3.93446",
      "wikidata": "Q28464",
      "ISO3166-2": "NP-2",
      "wikipedia": "en:Mid-Western Development Region, Nepal",
      "admin_level": "4"
    }
  },
  {
    "osm_id": -4588146,
    "boundary": "administrative",
    "admin_level": 6,
    "parents": "-4583214,-10489605,-184633",
    "name": "Myagdi",
    "local_name": "म्याग्दी",
    "name_en": "Myagdi",
    "all_tags": {
      "name": "म्याग्दी",
      "name:en": "Myagdi",
      "name:ja": "ミャグディ",
      "name:ne": "म्याग्दी",
      "boundary": "administrative",
      "int_name": "Myagdi",
      "way_area": "0.210713",
      "wikidata": "Q28624",
      "wikipedia": "en:Myagdi District",
      "admin_level": "6"
    }
  },
  {
    "osm_id": -4583214,
    "boundary": "historic",
    "admin_level": 5,
    "parents": "-10489605,-184633",
    "name": "Dhaulagiri",
    "local_name": "धौलागिरी अञ्चल",
    "name_en": "Dhaulagiri",
    "all_tags": {
      "name": "धौलागिरी अञ्चल",
      "name:cs": "Dhaulágirí",
      "name:en": "Dhaulagiri",
      "name:ja": "ダウラギリ",
      "name:ne": "धौलागिरी अञ्चल",
      "name:ru": "Дхаулагири",
      "name:zh": "道拉吉里专区",
      "boundary": "historic",
      "int_name": "Dhaulagiri",
      "way_area": "0.759481",
      "wikidata": "Q9088",
      "ISO3166-2": "NP-DH",
      "wikipedia": "en:Dhaulagiri Zone",
      "admin_level": "5"
    }
  },
  {
    "osm_id": -4588143,
    "boundary": "administrative",
    "admin_level": 6,
    "parents": "-4583214,-10489605,-184633",
    "name": "Parbat",
    "local_name": "पर्वत",
    "name_en": "Parbat",
    "all_tags": {
      "name": "पर्वत",
      "name:en": "Parbat",
      "name:ja": "パルバト",
      "name:ne": "पर्वत",
      "boundary": "administrative",
      "int_name": "Parbat",
      "way_area": "0.0497599",
      "wikidata": "Q28421",
      "wikipedia": "en:Parbat District",
      "admin_level": "6"
    }
  },
  {
    "osm_id": -4588149,
    "boundary": "administrative",
    "admin_level": 6,
    "parents": "-4583212,-10489605,-184633",
    "name": "Kaski",
    "local_name": "कास्की",
    "name_en": "Kaski",
    "all_tags": {
      "name": "कास्की",
      "name:en": "Kaski",
      "name:ja": "カスキ",
      "name:ne": "कास्की",
      "name:pl": "Kaski",
      "boundary": "administrative",
      "int_name": "Kaski",
      "way_area": "0.192221",
      "wikidata": "Q28436",
      "wikipedia": "en:Kaski District",
      "admin_level": "6"
    }
  },
  {
    "osm_id": -4588145,
    "boundary": "administrative",
    "admin_level": 6,
    "parents": "-4583214,-10489605,-184633",
    "name": "Mustang",
    "local_name": "मुस्ताङ",
    "name_en": "Mustang",
    "all_tags": {
      "name": "मुस्ताङ",
      "name:en": "Mustang",
      "name:ja": "ムスタン",
      "name:ne": "मुस्ताङ",
      "boundary": "administrative",
      "int_name": "Mustang",
      "way_area": "0.330271",
      "wikidata": "Q2239575",
      "wikipedia": "en:Mustang District",
      "admin_level": "6"
    }
  },
  {
    "osm_id": -4586370,
    "boundary": "administrative",
    "admin_level": 6,
    "parents": "-10493723,-184633",
    "name": "Humla",
    "local_name": "Humla",
    "name_en": "Humla",
    "all_tags": {
      "name": "Humla",
      "name:en": "Humla",
      "name:ja": "フムラ",
      "name:ne": "हुम्ला",
      "boundary": "administrative",
      "int_name": "Humla",
      "way_area": "0.562694",
      "wikidata": "Q28623",
      "wikipedia": "en:Humla District",
      "admin_level": "6"
    }
  },
  {
    "osm_id": -4586365,
    "boundary": "administrative",
    "admin_level": 6,
    "parents": "-10493723,-184633",
    "name": "Mugu",
    "local_name": "Mugu",
    "name_en": "Mugu",
    "all_tags": {
      "name": "Mugu",
      "name:en": "Mugu",
      "name:ja": "ムグ",
      "name:ne": "मुगु",
      "boundary": "administrative",
      "int_name": "Mugu",
      "way_area": "0.301038",
      "wikidata": "Q28593",
      "wikipedia": "en:Mugu District",
      "admin_level": "6"
    }
  },
  {
    "osm_id": -4588153,
    "boundary": "administrative",
    "admin_level": 6,
    "parents": "-4583212,-10489605,-184633",
    "name": "Lamjung",
    "local_name": "लमजुङ",
    "name_en": "Lamjung",
    "all_tags": {
      "name": "लमजुङ",
      "name:en": "Lamjung",
      "name:ja": "ラムジュン",
      "name:ne": "लमजुङ",
      "name:pl": "Lamjung",
      "boundary": "administrative",
      "int_name": "Lamjung",
      "way_area": "0.152722",
      "wikidata": "Q29275",
      "wikipedia": "en:Lamjung District",
      "admin_level": "6"
    }
  },
  {
    "osm_id": -4588150,
    "boundary": "administrative",
    "admin_level": 6,
    "parents": "-4583212,-10489605,-184633",
    "name": "Gorkha",
    "local_name": "गोरखा",
    "name_en": "Gorkha",
    "all_tags": {
      "name": "गोरखा",
      "name:de": "Gorkha",
      "name:en": "Gorkha",
      "name:ja": "ゴルカ",
      "name:ne": "गोरखा",
      "name:pl": "Gorkha",
      "boundary": "administrative",
      "int_name": "Gorkha",
      "way_area": "0.335501",
      "wikidata": "Q28476",
      "wikipedia": "en:Gorkha District",
      "admin_level": "6"
    }
  },
  {
    "osm_id": -4583252,
    "boundary": "administrative",
    "admin_level": 6,
    "parents": "-4583216,-10489317,-184633",
    "name": "Rasuwa",
    "local_name": "रसुवा",
    "name_en": "Rasuwa",
    "all_tags": {
      "name": "रसुवा",
      "name:de": "Rasuwa",
      "name:en": "Rasuwa",
      "name:ja": "ラスワ",
      "name:ne": "रसुवा",
      "boundary": "administrative",
      "int_name": "Rasuwa",
      "way_area": "0.137715",
      "wikidata": "Q28605",
      "wikipedia": "ne:रसुवा जिल्ला",
      "admin_level": "6"
    }
  },
  {
    "osm_id": -4589419,
    "boundary": "administrative",
    "admin_level": 6,
    "parents": "-10489318,-184633",
    "name": "Sarlahi",
    "local_name": "सर्लाही",
    "name_en": "Sarlahi",
    "all_tags": {
      "name": "सर्लाही",
      "name:en": "Sarlahi",
      "name:ja": "サルラヒ",
      "name:ne": "सर्लाही",
      "boundary": "administrative",
      "int_name": "Sarlahi",
      "way_area": "0.114984",
      "wikidata": "Q28074",
      "wikipedia": "ne:सर्लाही जिल्ला",
      "admin_level": "6",
      "is_in:country_code": "NP"
    }
  },
  {
    "osm_id": -4589561,
    "boundary": "administrative",
    "admin_level": 6,
    "parents": "-4583221,-4583290,-184633",
    "name": "Palpa",
    "local_name": "पाल्पा",
    "name_en": "Palpa",
    "all_tags": {
      "name": "पाल्पा",
      "name:en": "Palpa",
      "name:ja": "パルパ",
      "name:ne": "पाल्पा",
      "boundary": "administrative",
      "int_name": "Palpa",
      "way_area": "0.13409",
      "wikidata": "Q28440",
      "wikipedia": "en:Palpa District",
      "admin_level": "6"
    }
  },
  {
    "osm_id": -4583210,
    "boundary": "historic",
    "admin_level": 5,
    "parents": "-10493723,-184633",
    "name": "Karnali",
    "local_name": "कर्णाली अञ्चल",
    "name_en": "Karnali",
    "all_tags": {
      "name": "कर्णाली अञ्चल",
      "name:cs": "Karnálí",
      "name:de": "Karnali",
      "name:en": "Karnali",
      "name:ja": "カルナリ",
      "name:ne": "कर्णाली अञ्चल",
      "name:ru": "Карнали",
      "name:zh": "格尔纳利专区",
      "boundary": "historic",
      "int_name": "Karnali",
      "way_area": "0.0101438",
      "wikidata": "Q9164",
      "ISO3166-2": "NP-KA",
      "wikipedia": "en:Karnali Zone",
      "admin_level": "5"
    }
  },
  {
    "osm_id": -4583217,
    "boundary": "historic",
    "admin_level": 5,
    "parents": "-10493723,-184633",
    "name": "Bheri",
    "local_name": "भेरी",
    "name_en": "Bheri",
    "all_tags": {
      "name": "भेरी",
      "name:cs": "Bhérí",
      "name:en": "Bheri",
      "name:ja": "ベリ",
      "name:ne": "भेरी",
      "name:ru": "Бхери",
      "name:zh": "佩里专区",
      "boundary": "historic",
      "int_name": "Bheri",
      "way_area": "0.0101438",
      "wikidata": "Q9060",
      "ISO3166-2": "NP-BH",
      "wikipedia": "en:Bheri Zone",
      "admin_level": "5"
    }
  },
  {
    "osm_id": -4589420,
    "boundary": "administrative",
    "admin_level": 6,
    "parents": "-4583213,-184633",
    "name": "Sindhuli",
    "local_name": "सिन्धुली",
    "name_en": "Sindhuli",
    "all_tags": {
      "name": "सिन्धुली",
      "name:de": "Sindhuli",
      "name:en": "Sindhuli",
      "name:ja": "シンドゥリ",
      "name:ne": "सिन्धुली",
      "boundary": "administrative",
      "int_name": "Sindhuli",
      "way_area": "0.225835",
      "wikidata": "Q28586",
      "wikipedia": "en:Sindhuli District",
      "population": "296192",
      "admin_level": "6",
      "population:date": "2011"
    }
  },
  {
    "osm_id": -4589467,
    "boundary": "administrative",
    "admin_level": 6,
    "parents": "-4583211,-10489132,-184633",
    "name": "Bhojpur",
    "local_name": "भोजपुर",
    "name_en": "Bhojpur",
    "all_tags": {
      "name": "भोजपुर",
      "name:en": "Bhojpur",
      "name:ja": "ボージプル",
      "name:ne": "भोजपुर",
      "name:pl": "Bhojpur",
      "boundary": "administrative",
      "int_name": "Bhojpur",
      "way_area": "0.138765",
      "wikidata": "Q2284812",
      "wikipedia": "en:Bhojpur District, Nepal",
      "admin_level": "6"
    }
  },
  {
    "osm_id": -4589557,
    "boundary": "administrative",
    "admin_level": 6,
    "parents": "-4583221,-4583290,-184633",
    "name": "Arghakhanchi",
    "local_name": "Arghakhanchi",
    "name_en": "Arghakhanchi",
    "all_tags": {
      "name": "Arghakhanchi",
      "name:en": "Arghakhanchi",
      "name:ja": "アルガカンチー",
      "name:ne": "अर्घाखाँची",
      "boundary": "administrative",
      "int_name": "Arghakhanchi",
      "way_area": "0.113674",
      "wikidata": "Q28432",
      "wikipedia": "en:Arghakhanchi District",
      "admin_level": "6"
    }
  },
  {
    "osm_id": -4586364,
    "boundary": "administrative",
    "admin_level": 6,
    "parents": "-10493722,-184633",
    "name": "Banke",
    "local_name": "Banke",
    "name_en": "Banke",
    "all_tags": {
      "name": "Banke",
      "name:en": "Banke",
      "name:ja": "バンケ",
      "name:ne": "बाँके",
      "boundary": "administrative",
      "int_name": "Banke",
      "way_area": "0.172744",
      "wikidata": "Q28447",
      "wikipedia": "en:Banke District",
      "admin_level": "6"
    }
  },
  {
    "osm_id": -4589413,
    "boundary": "administrative",
    "admin_level": 6,
    "parents": "-4583215,-184633",
    "name": "Parsa",
    "local_name": "पर्सा",
    "name_en": "Parsa",
    "all_tags": {
      "name": "पर्सा",
      "name:en": "Parsa",
      "name:ja": "パルサ",
      "name:ne": "पर्सा",
      "name:pl": "Parsa",
      "boundary": "administrative",
      "int_name": "Parsa",
      "way_area": "0.128347",
      "wikidata": "Q28625",
      "wikipedia": "ne:पर्सा जिल्ला",
      "admin_level": "6",
      "is_in:country_code": "NP"
    }
  },
  {
    "osm_id": -4589412,
    "boundary": "administrative",
    "admin_level": 6,
    "parents": "-10489318,-184633",
    "name": "Dhanusa",
    "local_name": "धनुषा",
    "name_en": "Dhanusa",
    "all_tags": {
      "name": "धनुषा",
      "name:en": "Dhanusa",
      "name:ja": "ダヌシャ",
      "name:ne": "धनुषा",
      "name:pl": "Dhanusa",
      "boundary": "administrative",
      "int_name": "Dhanusa",
      "way_area": "0.107949",
      "wikidata": "Q29036",
      "wikipedia": "ne:धनुषा जिल्ला",
      "admin_level": "6",
      "is_in:country_code": "NP"
    }
  },
  {
    "osm_id": -4583222,
    "boundary": "historic",
    "admin_level": 5,
    "parents": "-4583291,-184633",
    "name": "Sagarmatha",
    "local_name": "सगरमाथा अञ्चल",
    "name_en": "Sagarmatha",
    "all_tags": {
      "name": "सगरमाथा अञ्चल",
      "name:cs": "Ságarmátha",
      "name:de": "Sagarmatha",
      "name:en": "Sagarmatha",
      "name:ja": "サガルマタ",
      "name:ne": "सगरमाथा अञ्चल",
      "name:pl": "Sagarmatha",
      "name:ru": "Сагарматха",
      "name:zh": "萨加玛塔专区",
      "boundary": "historic",
      "int_name": "Sagarmatha",
      "way_area": "0.977556",
      "wikidata": "Q9195",
      "ISO3166-2": "NP-SA",
      "wikipedia": "en:Sagarmatha Zone",
      "admin_level": "5"
    }
  },
  {
    "osm_id": -7522458,
    "boundary": "administrative",
    "admin_level": 6,
    "parents": "-4583219,-10489132,-184633",
    "name": "Jhapa",
    "local_name": "झापा जिल्ला",
    "name_en": "Jhapa",
    "all_tags": {
      "name": "झापा जिल्ला",
      "name:en": "Jhapa",
      "name:pl": "Jhapa",
      "alt_name": "Jhapa District",
      "boundary": "administrative",
      "int_name": "Jhapa",
      "way_area": "0.145263",
      "wikidata": "Q28160",
      "wikipedia": "en:Jhapa District",
      "admin_level": "6"
    }
  },
  {
    "osm_id": -4589479,
    "boundary": "administrative",
    "admin_level": 6,
    "parents": "-4583219,-10489132,-184633",
    "name": "Panchthar",
    "local_name": "पाँचथर",
    "name_en": "Panchthar",
    "all_tags": {
      "name": "पाँचथर",
      "name:en": "Panchthar",
      "name:ja": "パンチタル",
      "name:ne": "पाँचथर",
      "name:pl": "Panchthar",
      "boundary": "administrative",
      "int_name": "Panchthar",
      "way_area": "0.113566",
      "wikidata": "Q28155",
      "wikipedia": "en:Panchthar District",
      "admin_level": "6"
    }
  },
  {
    "osm_id": -4589478,
    "boundary": "administrative",
    "admin_level": 6,
    "parents": "-4583219,-10489132,-184633",
    "name": "Taplejung",
    "local_name": "ताप्लेजुङ",
    "name_en": "Taplejung",
    "all_tags": {
      "name": "ताप्लेजुङ",
      "name:en": "Taplejung",
      "name:ja": "タプレジュン",
      "name:ne": "ताप्लेजुङ",
      "name:pl": "Taplejung",
      "boundary": "administrative",
      "int_name": "Taplejung",
      "way_area": "0.331916",
      "wikidata": "Q28590",
      "wikipedia": "en:Taplejung District",
      "admin_level": "6"
    }
  },
  {
    "osm_id": -4586367,
    "boundary": "administrative",
    "admin_level": 6,
    "parents": "-4583220,-4583375,-184633",
    "name": "Rolpa",
    "local_name": "रोल्पा",
    "name_en": "Rolpa",
    "all_tags": {
      "name": "रोल्पा",
      "name:en": "Rolpa",
      "name:ja": "ロルパ",
      "name:ne": "रोल्पा",
      "boundary": "administrative",
      "int_name": "Rolpa",
      "way_area": "0.173409",
      "wikidata": "Q28597",
      "wikipedia": "en:Rolpa District",
      "admin_level": "6"
    }
  },
  {
    "osm_id": -4583212,
    "boundary": "historic",
    "admin_level": 5,
    "parents": "-10489605,-184633",
    "name": "Gandaki",
    "local_name": "गण्डकी अञ्चल",
    "name_en": "Gandaki",
    "all_tags": {
      "name": "गण्डकी अञ्चल",
      "name:cs": "Gándakí",
      "name:de": "Gandaki",
      "name:en": "Gandaki",
      "name:ja": "ガンダキ",
      "name:ne": "गण्डकी अञ्चल",
      "name:pl": "Gandaki",
      "name:ru": "Гандаки",
      "name:zh": "甘达基专区",
      "boundary": "historic",
      "int_name": "Gandaki",
      "way_area": "1.13409",
      "wikidata": "Q9133",
      "ISO3166-2": "NP-GA",
      "wikipedia": "en:Gandaki Zone",
      "admin_level": "5"
    }
  },
  {
    "osm_id": -10624408,
    "boundary": "administrative",
    "admin_level": 6,
    "parents": "-4583220,-4583375,-184633",
    "name": "Eastern Rukum",
    "local_name": "पूर्वी रुकुम",
    "name_en": "Eastern Rukum",
    "all_tags": {
      "name": "पूर्वी रुकुम",
      "name:en": "Eastern Rukum",
      "name:ne": "पूर्वी रुकुम",
      "alt_name": "Rukum E",
      "boundary": "administrative",
      "way_area": "0.155269",
      "wikidata": "Q51844688",
      "wikipedia": "en:Eastern Rukum District",
      "admin_level": "6"
    }
  },
  {
    "osm_id": -4589468,
    "boundary": "administrative",
    "admin_level": 6,
    "parents": "-4583211,-10489132,-184633",
    "name": "Morang",
    "local_name": "मोरङ",
    "name_en": "Morang",
    "all_tags": {
      "name": "मोरङ",
      "name:ar": "مورنك",
      "name:en": "Morang",
      "name:fa": "مورنگ",
      "name:ja": "モラン",
      "name:ne": "मोरङ",
      "name:pl": "Morang",
      "name:ur": "مورنگ",
      "boundary": "administrative",
      "int_name": "Morang",
      "way_area": "0.165185",
      "wikidata": "Q28083",
      "wikipedia": "en:Morang District",
      "admin_level": "6"
    }
  },
  {
    "osm_id": -4589560,
    "boundary": "administrative",
    "admin_level": 6,
    "parents": "-4583221,-4583290,-184633",
    "name": "Nawalparasi W",
    "local_name": "Nawalparasi W",
    "name_en": "Nawalparasi W",
    "all_tags": {
      "name": "Nawalparasi W",
      "name:en": "Nawalparasi W",
      "name:ne": "नवलपरासी पश्चिम",
      "alt_name": "Nawalparasi W",
      "boundary": "administrative",
      "way_area": "0.0646021",
      "wikidata": "Q28588",
      "wikipedia": "en:Nawalparasi District",
      "admin_level": "6"
    }
  },
  {
    "osm_id": -4589463,
    "boundary": "administrative",
    "admin_level": 6,
    "parents": "-4583222,-4583291,-184633",
    "name": "Okhaldhunga",
    "local_name": "ओखलढुङ्गा",
    "name_en": "Okhaldhunga",
    "all_tags": {
      "name": "ओखलढुङ्गा",
      "name:en": "Okhaldhunga",
      "name:ja": "オカルドゥンガ",
      "name:ne": "ओखलढुङ्गा",
      "name:uk": "Окгалдгунґа",
      "boundary": "administrative",
      "int_name": "Okhaldhunga",
      "way_area": "0.0981727",
      "wikidata": "Q29026",
      "wikipedia": "en:Okhaldhunga District",
      "population": "147984",
      "admin_level": "6",
      "population:date": "2011"
    }
  },
  {
    "osm_id": -4586285,
    "boundary": "administrative",
    "admin_level": 6,
    "parents": "-4583223,-4583376,-10488187,-184633",
    "name": "Achham",
    "local_name": "अछाम",
    "name_en": "Achham",
    "all_tags": {
      "name": "अछाम",
      "name:de": "Achham",
      "name:en": "Achham",
      "name:ja": "アチャ－ム",
      "name:ne": "अछाम",
      "boundary": "administrative",
      "int_name": "Achham",
      "way_area": "0.15756",
      "wikidata": "Q28426",
      "wikipedia": "en:Achham District",
      "admin_level": "6"
    }
  },
  {
    "osm_id": -4583215,
    "boundary": "historic",
    "admin_level": 5,
    "parents": "-184633",
    "name": "Narayani",
    "local_name": "नारायणी अञ्चल",
    "name_en": "Narayani",
    "all_tags": {
      "name": "नारायणी अञ्चल",
      "name:cs": "Nárájaní",
      "name:de": "Narayani",
      "name:en": "Narayani",
      "name:ja": "ナラヤニ",
      "name:ne": "नारायणी अञ्चल",
      "name:pl": "Narayani",
      "name:ru": "Нараяни",
      "name:zh": "纳拉亚尼专区",
      "boundary": "historic",
      "int_name": "Narayani",
      "way_area": "0.765886",
      "wikidata": "Q9183",
      "ISO3166-2": "NP-NA",
      "wikipedia": "en:Narayani Zone",
      "admin_level": "5"
    }
  },
  {
    "osm_id": -4586292,
    "boundary": "administrative",
    "admin_level": 6,
    "parents": "-4583223,-4583376,-10488187,-184633",
    "name": "Bajura",
    "local_name": "बाजुरा",
    "name_en": "Bajura",
    "all_tags": {
      "name": "बाजुरा",
      "name:en": "Bajura",
      "name:ja": "バージュラ",
      "name:ne": "बाजुरा",
      "boundary": "administrative",
      "int_name": "Bajura",
      "way_area": "0.21385",
      "wikidata": "Q28071",
      "wikipedia": "en:Bajura District",
      "admin_level": "6"
    }
  },
  {
    "osm_id": -4589472,
    "boundary": "administrative",
    "admin_level": 6,
    "parents": "-4583211,-10489132,-184633",
    "name": "Sunsari",
    "local_name": "सुनसरी",
    "name_en": "Sunsari",
    "all_tags": {
      "name": "सुनसरी",
      "name:ar": "سونساري",
      "name:en": "Sunsari",
      "name:fa": "سونساری",
      "name:ja": "スンサリ",
      "name:ne": "सुनसरी",
      "name:pl": "Sunsari",
      "name:ur": "سونساری",
      "boundary": "administrative",
      "int_name": "Sunsari",
      "way_area": "0.108136",
      "wikidata": "Q28157",
      "wikipedia": "en:Sunsari District",
      "admin_level": "6"
    }
  },
  {
    "osm_id": -4589476,
    "boundary": "administrative",
    "admin_level": 6,
    "parents": "-4583219,-10489132,-184633",
    "name": "Ilam",
    "local_name": "इलाम",
    "name_en": "Ilam",
    "all_tags": {
      "name": "इलाम",
      "name:en": "Ilam",
      "name:ja": "イラーム",
      "name:ne": "इलाम",
      "name:pl": "Ilam",
      "alt_name": "Ilam District",
      "boundary": "administrative",
      "int_name": "Ilam",
      "way_area": "0.153164",
      "wikidata": "Q29016",
      "wikipedia": "en:Ilam District",
      "admin_level": "6"
    }
  }
]
