[
  {
    "osm_id": -10402689,
    "boundary": "administrative",
    "admin_level": 5,
    "parents": "-3994012,-305138",
    "name": "al-Dschabal al-Achdar",
    "local_name": "الجبل الأخضر",
    "name_en": "al-Dschabal al-Achdar",
    "all_tags": {
      "name": "الجبل الأخضر",
      "name:de": "al-Dschabal al-Achdar",
      "name:en": "al-Dschabal al-Achdar",
      "boundary": "administrative",
      "way_area": "0.00285683",
      "wikipedia": "de:Al-Dschabal al-Achdar (Oman)",
      "admin_level": "5"
    }
  },
  {
    "osm_id": -10169426,
    "boundary": "administrative",
    "admin_level": 4,
    "parents": "-305138",
    "name": "Ash Sharqiyah South",
    "local_name": "جنوب الشرقية",
    "name_en": "Ash Sharqiyah South",
    "all_tags": {
      "name": "جنوب الشرقية",
      "name:cs": "Jižní aš-Šarkíja",
      "name:en": "Ash Sharqiyah South",
      "name:fa": "استان شرقیه جنوبی",
      "name:fr": "Ach-Charqiya du Sud",
      "name:ja": "南シャルキーヤ行政区",
      "name:ru": "Южная Эш-Шаркия",
      "boundary": "administrative",
      "way_area": "2.02638",
      "wikidata": "Q4501894",
      "ISO3166-2": "OM-SJ",
      "admin_level": "4",
      "is_in:country": "Oman"
    }
  },
  {
    "osm_id": -10169425,
    "boundary": "administrative",
    "admin_level": 4,
    "parents": "-305138",
    "name": "Ash Sharqiyah North",
    "local_name": "شمال الشرقية",
    "name_en": "Ash Sharqiyah North",
    "all_tags": {
      "name": "شمال الشرقية",
      "name:cs": "Severní aš-Šarkíja",
      "name:de": "Schamal asch-Scharqiyya",
      "name:en": "Ash Sharqiyah North",
      "name:fr": "Ach-Charqiya du Nord",
      "name:ru": "Северная Эш-Шаркия",
      "boundary": "administrative",
      "way_area": "1.49156",
      "wikidata": "Q4501876",
      "ISO3166-2": "OM-SS",
      "admin_level": "4",
      "is_in:country_code": "OM"
    }
  },
  {
    "osm_id": -3994012,
    "boundary": "administrative",
    "admin_level": 4,
    "parents": "-305138",
    "name": "Al Batinah South Governorate",
    "local_name": "محافظة جنوب الباطنة",
    "name_en": "Al Batinah South Governorate",
    "all_tags": {
      "ref": "BA",
      "name": "محافظة جنوب الباطنة",
      "name:cs": "Jižní al-Batína",
      "name:de": "Dschanub al-Batina",
      "name:en": "Al Batinah South Governorate",
      "name:es": "Al Batinah Sur",
      "name:fr": "Al-Batina du Sud",
      "boundary": "administrative",
      "way_area": "0.524785",
      "wikidata": "Q4703565",
      "ISO3166-2": "OM-BJ",
      "wikipedia": "ar:محافظة جنوب الباطنة",
      "state_code": "BA",
      "admin_level": "4",
      "is_in:country": "Oman",
      "is_in:continent": "Asia",
      "is_in:country_code": "OM"
    }
  },
  {
    "osm_id": -3781315,
    "boundary": "administrative",
    "admin_level": 4,
    "parents": "-305138",
    "name": "Musandam Governorate",
    "local_name": "محافظة مسندم",
    "name_en": "Musandam Governorate",
    "all_tags": {
      "ref": "MU",
      "name": "محافظة مسندم",
      "name:ar": "محافظة مسندم",
      "name:cs": "Musandam",
      "name:de": "Musandam",
      "name:en": "Musandam Governorate",
      "name:fr": "Musandam",
      "name:ru": "Мусандам",
      "boundary": "administrative",
      "way_area": "0.614436",
      "wikidata": "Q372144",
      "ISO3166-2": "OM-MU",
      "wikipedia": "ar:مسندم (محافظة)",
      "state_code": "MU",
      "admin_level": "4"
    }
  },
  {
    "osm_id": -3781314,
    "boundary": "administrative",
    "admin_level": 4,
    "parents": "-305138",
    "name": "Dhofar",
    "local_name": "محافظة ظفار",
    "name_en": "Dhofar",
    "all_tags": {
      "ref": "ZU",
      "name": "محافظة ظفار",
      "name:cs": "Dafár",
      "name:de": "Dhofar",
      "name:en": "Dhofar",
      "name:es": "Dhofar",
      "name:fr": "Dhofar",
      "name:ru": "Дофар",
      "boundary": "administrative",
      "way_area": "9.7827",
      "wikidata": "Q1207752",
      "ISO3166-2": "OM-ZU",
      "wikipedia": "ar:ظفار (محافظة)",
      "state_code": "ZU",
      "admin_level": "4",
      "is_in:country": "Oman",
      "is_in:continent": "Asia",
      "is_in:country_code": "OM"
    }
  },
  {
    "osm_id": -3781313,
    "boundary": "administrative",
    "admin_level": 4,
    "parents": "-305138",
    "name": "Al Buraymi Governorate",
    "local_name": "محافظة البريمي",
    "name_en": "Al Buraymi Governorate",
    "all_tags": {
      "ref": "BU",
      "name": "محافظة البريمي",
      "name:ar": "محافظة البريمي",
      "name:cs": "al-Burajmi",
      "name:de": "al-Buraimi",
      "name:en": "Al Buraymi Governorate",
      "name:es": "Buraimi",
      "name:fa": "شهرستان بریمی",
      "name:fr": "Al Buraymi",
      "boundary": "administrative",
      "way_area": "0.66564",
      "wikidata": "Q852039",
      "ISO3166-2": "OM-BU",
      "wikipedia": "ar:البريمي (محافظة)",
      "state_code": "BU",
      "admin_level": "4",
      "wikipedia:ar": "ولاية البريمي"
    }
  },
  {
    "osm_id": -3781242,
    "boundary": "administrative",
    "admin_level": 4,
    "parents": "-305138",
    "name": "Ad Dhahirah Governorate",
    "local_name": "محافظة الظاهرة",
    "name_en": "Ad Dhahirah Governorate",
    "all_tags": {
      "ref": "ZA",
      "name": "محافظة الظاهرة",
      "name:ar": "محافظة الظاهرة",
      "name:cs": "ad-Zahíra",
      "name:de": "az-Zahira",
      "name:en": "Ad Dhahirah Governorate",
      "name:es": "Ad Dhahirah",
      "name:fr": "Ad Dhahirah",
      "boundary": "administrative",
      "way_area": "3.1618",
      "wikidata": "Q1468596",
      "ISO3166-2": "OM-ZA",
      "wikipedia": "ar:الظاهرة (محافظة)",
      "state_code": "ZA",
      "admin_level": "4",
      "is_in:country": "Oman",
      "is_in:continent": "Asia",
      "is_in:country_code": "OM"
    }
  },
  {
    "osm_id": -3781241,
    "boundary": "administrative",
    "admin_level": 4,
    "parents": "-305138",
    "name": "Ad Dakhiliyah Governorate",
    "local_name": "محافظة الداخلية",
    "name_en": "Ad Dakhiliyah Governorate",
    "all_tags": {
      "ref": "DA",
      "name": "محافظة الداخلية",
      "name:cs": "ad-Dáchílija",
      "name:de": "ad-Dachiliyya",
      "name:en": "Ad Dakhiliyah Governorate",
      "name:fr": "Ad-Dākhilīyah",
      "boundary": "administrative",
      "way_area": "3.00493",
      "wikidata": "Q792550",
      "ISO3166-2": "OM-DA",
      "wikipedia": "ar:الداخلية (محافظة)",
      "state_code": "DA",
      "admin_level": "4",
      "is_in:country": "Oman",
      "is_in:continent": "Asia",
      "is_in:country_code": "OM"
    }
  },
  {
    "osm_id": -3781240,
    "boundary": "administrative",
    "admin_level": 4,
    "parents": "-305138",
    "name": "Al Batinah North Governorate",
    "local_name": "محافظة شمال الباطنة",
    "name_en": "Al Batinah North Governorate",
    "all_tags": {
      "ref": "BA",
      "name": "محافظة شمال الباطنة",
      "name:ar": "محافظة شمال الباطنة",
      "name:cs": "Severní al-Batína",
      "name:de": "Schamal al-Batina",
      "name:en": "Al Batinah North Governorate",
      "name:es": "Batina Norte",
      "name:fr": "Al-Batina du Nord",
      "boundary": "administrative",
      "way_area": "1.19682",
      "wikidata": "Q4703564",
      "ISO3166-2": "OM-BS",
      "wikipedia": "ar:شمال الباطنة (محافظة)",
      "state_code": "BA",
      "admin_level": "4",
      "is_in:country": "Oman",
      "is_in:continent": "Asia",
      "is_in:country_code": "OM"
    }
  },
  {
    "osm_id": -3781239,
    "boundary": "administrative",
    "admin_level": 4,
    "parents": "-305138",
    "name": "Muscat",
    "local_name": "مسقط",
    "name_en": "Muscat",
    "all_tags": {
      "ref": "MA",
      "name": "مسقط",
      "name:ar": "مسقط",
      "name:cs": "Maskat",
      "name:de": "Maskat",
      "name:en": "Muscat",
      "name:es": "Muscat",
      "name:fa": "مسقط",
      "name:fr": "Mascate",
      "name:ur": "مسقط",
      "name:vi": "Muscat",
      "boundary": "administrative",
      "way_area": "0.821066",
      "wikidata": "Q544762",
      "ISO3166-2": "OM-MA",
      "wikipedia": "ar:مسقط (محافظة)",
      "state_code": "MA",
      "admin_level": "4",
      "official_name": "محافظة مسقط",
      "official_name:ar": "محافظة مسقط",
      "official_name:fa": "استان مسقط",
      "official_name:ur": "محافظہ مسقط"
    }
  },
  {
    "osm_id": -3781238,
    "boundary": "administrative",
    "admin_level": 4,
    "parents": "-305138",
    "name": "Al Wusta Governorate",
    "local_name": "محافظة الوسطى",
    "name_en": "Al Wusta Governorate",
    "all_tags": {
      "ref": "WU",
      "name": "محافظة الوسطى",
      "name:cs": "al-Wusta",
      "name:de": "al-Wusta",
      "name:en": "Al Wusta Governorate",
      "name:fr": "Al Wusta",
      "boundary": "administrative",
      "way_area": "8.02151",
      "wikidata": "Q958518",
      "ISO3166-2": "OM-WU",
      "wikipedia": "ar:محافظة الوسطى (عمان)",
      "state_code": "WU",
      "admin_level": "4",
      "is_in:country": "Oman",
      "is_in:continent": "Asia",
      "is_in:country_code": "OM"
    }
  }
]
