[
  {
    "osm_id": -5259966,
    "boundary": "administrative",
    "admin_level": 6,
    "parents": "-4793634,-3778575,-3778610,-307866",
    "name": "Komo Rural LLG",
    "local_name": "Komo Rural LLG",
    "name_en": null,
    "all_tags": {
      "name": "Komo Rural LLG",
      "boundary": "administrative",
      "way_area": "0.155386",
      "admin_level": "6"
    }
  },
  {
    "osm_id": -5259919,
    "boundary": "administrative",
    "admin_level": 6,
    "parents": "-4793636,-3778575,-3778610,-307866",
    "name": "Tebi Rural LLG",
    "local_name": "Tebi Rural LLG",
    "name_en": null,
    "all_tags": {
      "name": "Tebi Rural LLG",
      "boundary": "administrative",
      "way_area": "0.0210804",
      "admin_level": "6"
    }
  },
  {
    "osm_id": -5259918,
    "boundary": "administrative",
    "admin_level": 6,
    "parents": "-4793636,-3778575,-3778610,-307866",
    "name": "Tari Urban LLG",
    "local_name": "Tari Urban LLG",
    "name_en": null,
    "all_tags": {
      "name": "Tari Urban LLG",
      "boundary": "administrative",
      "way_area": "0.00194589",
      "admin_level": "6"
    }
  },
  {
    "osm_id": -5259917,
    "boundary": "administrative",
    "admin_level": 6,
    "parents": "-4793636,-3778575,-3778610,-307866",
    "name": "Tagali Rural LLG",
    "local_name": "Tagali Rural LLG",
    "name_en": null,
    "all_tags": {
      "name": "Tagali Rural LLG",
      "boundary": "administrative",
      "way_area": "0.0424099",
      "admin_level": "6"
    }
  },
  {
    "osm_id": -5259916,
    "boundary": "administrative",
    "admin_level": 6,
    "parents": "-4793636,-3778575,-3778610,-307866",
    "name": "Hayapuga Rural LLG",
    "local_name": "Hayapuga Rural LLG",
    "name_en": null,
    "all_tags": {
      "name": "Hayapuga Rural LLG",
      "boundary": "administrative",
      "way_area": "0.0217898",
      "admin_level": "6"
    }
  },
  {
    "osm_id": -4793636,
    "boundary": "administrative",
    "admin_level": 5,
    "parents": "-3778575,-3778610,-307866",
    "name": "Tari-Pori District",
    "local_name": "Tari-Pori District",
    "name_en": null,
    "all_tags": {
      "name": "Tari-Pori District",
      "boundary": "administrative",
      "way_area": "0.087226",
      "admin_level": "5"
    }
  },
  {
    "osm_id": -4793635,
    "boundary": "administrative",
    "admin_level": 5,
    "parents": "-3778575,-3778610,-307866",
    "name": "Koroba - Kopiago District",
    "local_name": "Koroba - Kopiago District",
    "name_en": null,
    "all_tags": {
      "name": "Koroba - Kopiago District",
      "boundary": "administrative",
      "way_area": "0.445422",
      "admin_level": "5"
    }
  },
  {
    "osm_id": -4793634,
    "boundary": "administrative",
    "admin_level": 5,
    "parents": "-3778575,-3778610,-307866",
    "name": "Komo-Margarima District",
    "local_name": "Komo-Margarima District",
    "name_en": null,
    "all_tags": {
      "name": "Komo-Margarima District",
      "boundary": "administrative",
      "way_area": "0.314967",
      "admin_level": "5"
    }
  },
  {
    "osm_id": -3778576,
    "boundary": "administrative",
    "admin_level": 4,
    "parents": "-3778610,-307866",
    "name": "Jiwaka",
    "local_name": "Jiwaka",
    "name_en": null,
    "all_tags": {
      "name": "Jiwaka",
      "name:de": "Jiwaka",
      "name:ja": "ジワカ州",
      "name:ru": "Дживака",
      "name:uk": "Дживака",
      "boundary": "administrative",
      "way_area": "0.399648",
      "wikidata": "Q1400625",
      "ISO3166-2": "PG-JWK",
      "wikipedia": "en:Jiwaka Province",
      "admin_level": "4"
    }
  },
  {
    "osm_id": -3778575,
    "boundary": "administrative",
    "admin_level": 4,
    "parents": "-3778610,-307866",
    "name": "Hela",
    "local_name": "Hela",
    "name_en": null,
    "all_tags": {
      "name": "Hela",
      "name:de": "Hela",
      "name:ja": "ヘラ州",
      "name:ru": "Хела",
      "name:uk": "Гела",
      "boundary": "administrative",
      "way_area": "0.847615",
      "wikidata": "Q1382499",
      "ISO3166-2": "PG-HLA",
      "wikipedia": "en:Hela Province",
      "admin_level": "4"
    }
  },
  {
    "osm_id": -3777384,
    "boundary": "administrative",
    "admin_level": 4,
    "parents": "-3778611,-307866",
    "name": "West New Britain",
    "local_name": "West New Britain",
    "name_en": "West New Britain",
    "all_tags": {
      "name": "West New Britain",
      "name:de": "West-Neubritannien",
      "name:en": "West New Britain",
      "name:ja": "西ニューブリテン州",
      "name:ru": "Западная Новая Британия",
      "name:uk": "Західна Нова Британія",
      "boundary": "administrative",
      "timezone": "Pacific/Port_Moresby",
      "way_area": "7.28392",
      "wikidata": "Q667468",
      "ISO3166-2": "PG-WBK",
      "wikipedia": "en:West New Britain Province",
      "short_name": "WNB",
      "admin_level": "4"
    }
  },
  {
    "osm_id": -3777383,
    "boundary": "administrative",
    "admin_level": 4,
    "parents": "-3778611,-307866",
    "name": "New Ireland",
    "local_name": "New Ireland",
    "name_en": "New Ireland",
    "all_tags": {
      "name": "New Ireland",
      "name:de": "Neuirland",
      "name:en": "New Ireland",
      "name:ja": "ニューアイルランド州",
      "name:ru": "Новая Ирландия",
      "name:uk": "Нова Ірландія",
      "boundary": "administrative",
      "timezone": "Pacific/Port_Moresby",
      "way_area": "11.1873",
      "wikidata": "Q838690",
      "ISO3166-2": "PG-NIK",
      "wikipedia": "en:New Ireland Province",
      "admin_level": "4",
      "old_name:de": "Neumecklenburg"
    }
  },
  {
    "osm_id": -3777382,
    "boundary": "administrative",
    "admin_level": 4,
    "parents": "-3778611,-307866",
    "name": "Manus",
    "local_name": "Manus",
    "name_en": null,
    "all_tags": {
      "name": "Manus",
      "name:ja": "マヌス州",
      "name:ru": "Манус",
      "name:uk": "Манус",
      "boundary": "administrative",
      "timezone": "Pacific/Port_Moresby",
      "way_area": "11.1777",
      "wikidata": "Q874935",
      "ISO3166-2": "PG-MRL",
      "wikipedia": "en:Manus Province",
      "admin_level": "4"
    }
  },
  {
    "osm_id": -3777381,
    "boundary": "administrative",
    "admin_level": 4,
    "parents": "-3778611,-307866",
    "name": "East New Britain",
    "local_name": "East New Britain",
    "name_en": "East New Britain",
    "all_tags": {
      "name": "East New Britain",
      "name:de": "Ost-Neubritannien",
      "name:en": "East New Britain",
      "name:ja": "東ニューブリテン州",
      "name:ru": "Восточная Новая Британия",
      "name:uk": "Східна Нова Британія",
      "boundary": "administrative",
      "timezone": "Pacific/Port_Moresby",
      "way_area": "2.91075",
      "wikidata": "Q753702",
      "ISO3166-2": "PG-EBR",
      "wikipedia": "en:East New Britain Province",
      "short_name": "ENB",
      "admin_level": "4"
    }
  },
  {
    "osm_id": -3777380,
    "boundary": "administrative",
    "admin_level": 4,
    "parents": "-3778611,-307866",
    "name": "Autonomous Region of Bougainville",
    "local_name": "Autonomous Region of Bougainville",
    "name_en": null,
    "all_tags": {
      "name": "Autonomous Region of Bougainville",
      "name:ja": "ブーゲンビル自治州",
      "name:ru": "Автономный регион Бугенвиль",
      "name:uk": "Автономний регіон Бугенвіль",
      "name:zh": "布干维尔",
      "boundary": "administrative",
      "timezone": "Pacific/Bougainville",
      "way_area": "5.22022",
      "wikidata": "Q18826",
      "ISO3166-2": "PG-NSB",
      "wikipedia": "en:Autonomous Region of Bougainville",
      "admin_level": "4"
    }
  },
  {
    "osm_id": -311783,
    "boundary": "administrative",
    "admin_level": 4,
    "parents": "-3778630,-307866",
    "name": "Central",
    "local_name": "Central",
    "name_en": null,
    "all_tags": {
      "name": "Central",
      "name:de": "Zentral",
      "name:it": "Centrale",
      "name:ja": "中央州",
      "name:lt": "Centrinė provincija",
      "name:pt": "Central",
      "name:ru": "Центральная провинция",
      "name:uk": "Центральна провінція",
      "boundary": "administrative",
      "way_area": "3.42861",
      "wikidata": "Q874942",
      "ISO3166-2": "PG-CPM",
      "wikipedia": "en:Central Province (Papua New Guinea)",
      "admin_level": "4",
      "name:zh-Hans": "中央省",
      "name:zh-Hant": "中央省"
    }
  },
  {
    "osm_id": -311782,
    "boundary": "administrative",
    "admin_level": 4,
    "parents": "-3778630,-307866",
    "name": "Milne Bay",
    "local_name": "Milne Bay",
    "name_en": null,
    "all_tags": {
      "name": "Milne Bay",
      "name:de": "Milne-Bucht",
      "name:ja": "ミルン湾州",
      "name:lt": "Milno įlankos provincija",
      "name:ru": "Милн-Бей",
      "name:uk": "Мілн-Бей",
      "boundary": "administrative",
      "way_area": "11.6504",
      "wikidata": "Q874962",
      "ISO3166-2": "PG-MBA",
      "wikipedia": "en:Milne Bay Province",
      "admin_level": "4"
    }
  },
  {
    "osm_id": -311781,
    "boundary": "administrative",
    "admin_level": 4,
    "parents": "-3778630,-307866",
    "name": "Oro",
    "local_name": "Oro",
    "name_en": null,
    "all_tags": {
      "name": "Oro",
      "name:ja": "オロ州",
      "name:lt": "Oro provincija",
      "name:ru": "Оро",
      "name:uk": "Оро",
      "boundary": "administrative",
      "old_name": "Northern",
      "way_area": "2.97868",
      "wikidata": "Q753686",
      "ISO3166-2": "PG-NPP",
      "wikipedia": "en:Oro Province",
      "admin_level": "4"
    }
  },
  {
    "osm_id": -311780,
    "boundary": "administrative",
    "admin_level": 4,
    "parents": "-3778629,-307866",
    "name": "Morobe",
    "local_name": "Morobe",
    "name_en": null,
    "all_tags": {
      "name": "Morobe",
      "name:ja": "モロベ州",
      "name:lt": "Morobės provincija",
      "name:ru": "Моробе",
      "name:uk": "Моробе",
      "boundary": "administrative",
      "way_area": "5.23463",
      "wikidata": "Q853664",
      "ISO3166-2": "PG-MPL",
      "wikipedia": "en:Morobe Province",
      "admin_level": "4"
    }
  },
  {
    "osm_id": -311779,
    "boundary": "administrative",
    "admin_level": 4,
    "parents": "-3778629,-307866",
    "name": "Madang",
    "local_name": "Madang",
    "name_en": null,
    "all_tags": {
      "name": "Madang",
      "name:ja": "マダン州",
      "name:lt": "Madango provincija",
      "name:ru": "Маданг",
      "name:uk": "Маданг",
      "boundary": "administrative",
      "way_area": "7.6069",
      "wikidata": "Q326254",
      "ISO3166-2": "PG-MPM",
      "wikipedia": "en:Madang Province",
      "admin_level": "4"
    }
  },
  {
    "osm_id": -311778,
    "boundary": "administrative",
    "admin_level": 4,
    "parents": "-3778629,-307866",
    "name": "East Sepik",
    "local_name": "East Sepik",
    "name_en": null,
    "all_tags": {
      "name": "East Sepik",
      "name:de": "Ost-Sepik",
      "name:ja": "東セピック州",
      "name:lt": "Rytų Sepiko provincija",
      "name:ru": "Восточный Сепик",
      "name:uk": "Східний Сепік",
      "boundary": "administrative",
      "way_area": "6.82498",
      "wikidata": "Q690880",
      "ISO3166-2": "PG-ESW",
      "wikipedia": "en:East Sepik Province",
      "admin_level": "4"
    }
  },
  {
    "osm_id": -311777,
    "boundary": "administrative",
    "admin_level": 4,
    "parents": "-3778629,-307866",
    "name": "Sandaun",
    "local_name": "Sandaun",
    "name_en": null,
    "all_tags": {
      "name": "Sandaun",
      "name:ja": "サンダウン州",
      "name:lt": "Sandauno provincija",
      "name:ru": "Сандаун",
      "name:uk": "Сандаун",
      "alt_name": "West Sepik",
      "boundary": "administrative",
      "way_area": "4.57075",
      "wikidata": "Q753689",
      "ISO3166-2": "PG-SAN",
      "wikipedia": "en:Sandaun Province",
      "admin_level": "4"
    }
  },
  {
    "osm_id": -311776,
    "boundary": "administrative",
    "admin_level": 4,
    "parents": "-3778630,-307866",
    "name": "Western",
    "local_name": "Western",
    "name_en": null,
    "all_tags": {
      "name": "Western",
      "name:de": "West",
      "name:ja": "西部州",
      "name:lt": "Vakarų provincija",
      "name:ru": "Западная провинция",
      "name:uk": "Західна провінція",
      "alt_name": "Fly River",
      "boundary": "administrative",
      "way_area": "9.0515",
      "wikidata": "Q849790",
      "ISO3166-2": "PG-WPD",
      "wikipedia": "en:Western Province (Papua New Guinea)",
      "admin_level": "4"
    }
  },
  {
    "osm_id": -311775,
    "boundary": "administrative",
    "admin_level": 4,
    "parents": "-3778630,-307866",
    "name": "Gulf",
    "local_name": "Gulf",
    "name_en": null,
    "all_tags": {
      "name": "Gulf",
      "name:de": "Golf",
      "name:ja": "湾岸州",
      "name:lt": "Įlankos provincija",
      "name:ru": "Галф",
      "name:uk": "Галф",
      "boundary": "administrative",
      "way_area": "3.54159",
      "wikidata": "Q874980",
      "ISO3166-2": "PG-GPK",
      "wikipedia": "en:Gulf Province",
      "admin_level": "4"
    }
  },
  {
    "osm_id": -311774,
    "boundary": "administrative",
    "admin_level": 4,
    "parents": "-3778610,-307866",
    "name": "Eastern Highlands",
    "local_name": "Eastern Highlands",
    "name_en": null,
    "all_tags": {
      "name": "Eastern Highlands",
      "name:de": "Östliches Hochland",
      "name:ja": "東部山岳州",
      "name:lt": "Rytų Aukštumos provincija",
      "name:ru": "Истерн-Хайлендс",
      "name:uk": "Східний Гайлендс",
      "boundary": "administrative",
      "way_area": "0.911364",
      "wikidata": "Q849812",
      "ISO3166-2": "PG-EHG",
      "wikipedia": "en:Eastern Highlands Province",
      "admin_level": "4"
    }
  },
  {
    "osm_id": -311773,
    "boundary": "administrative",
    "admin_level": 4,
    "parents": "-3778610,-307866",
    "name": "Simbu",
    "local_name": "Simbu",
    "name_en": null,
    "all_tags": {
      "name": "Simbu",
      "name:ja": "シンブ州",
      "name:lt": "Simbu provincija",
      "name:ru": "Симбу",
      "name:uk": "Сімбу",
      "boundary": "administrative",
      "way_area": "0.497781",
      "wikidata": "Q599448",
      "ISO3166-2": "PG-CPK",
      "wikipedia": "en:Chimbu Province",
      "admin_level": "4"
    }
  },
  {
    "osm_id": -311772,
    "boundary": "administrative",
    "admin_level": 4,
    "parents": "-3778610,-307866",
    "name": "Western Highlands",
    "local_name": "Western Highlands",
    "name_en": null,
    "all_tags": {
      "name": "Western Highlands",
      "name:de": "Westliches Hochland",
      "name:ja": "西部山岳州",
      "name:lt": "Vakarų Aukštumų provincija",
      "name:ru": "Уэстерн-Хайлендс",
      "name:uk": "Західний Гайлендс",
      "boundary": "administrative",
      "way_area": "0.345463",
      "wikidata": "Q849807",
      "ISO3166-2": "PG-WHM",
      "wikipedia": "en:Western Highlands Province",
      "admin_level": "4"
    }
  },
  {
    "osm_id": -311771,
    "boundary": "administrative",
    "admin_level": 4,
    "parents": "-3778610,-307866",
    "name": "Enga",
    "local_name": "Enga",
    "name_en": null,
    "all_tags": {
      "name": "Enga",
      "name:ja": "エンガ州",
      "name:lt": "Enga provincija",
      "name:ru": "Энга",
      "name:uk": "Енга",
      "boundary": "administrative",
      "way_area": "0.959488",
      "wikidata": "Q862584",
      "ISO3166-2": "PG-EPW",
      "wikipedia": "en:Enga Province",
      "admin_level": "4"
    }
  },
  {
    "osm_id": -311770,
    "boundary": "administrative",
    "admin_level": 4,
    "parents": "-3778610,-307866",
    "name": "Southern Highlands",
    "local_name": "Southern Highlands",
    "name_en": null,
    "all_tags": {
      "name": "Southern Highlands",
      "name:de": "Südliches Hochland",
      "name:ja": "南部山岳州",
      "name:lt": "Pietų Aukštumų provincija",
      "name:ru": "Саутерн-Хайлендс",
      "name:uk": "Південний Гайлендс",
      "boundary": "administrative",
      "way_area": "1.2542",
      "wikidata": "Q849801",
      "ISO3166-2": "PG-SHM",
      "wikipedia": "en:Southern Highlands Province",
      "admin_level": "4"
    }
  },
  {
    "osm_id": -269423,
    "boundary": "administrative",
    "admin_level": 4,
    "parents": "-3778630,-307866",
    "name": "National Capital District",
    "local_name": "National Capital District",
    "name_en": null,
    "all_tags": {
      "name": "National Capital District",
      "name:de": "Nationaler Hauptstadtdistrikt",
      "name:ja": "首都区",
      "name:lt": "Nacionalinė sostinės teritorija",
      "name:ru": "Национальный столичный округ",
      "name:uk": "Національний столичний округ",
      "boundary": "administrative",
      "way_area": "0.0294569",
      "wikidata": "Q1378310",
      "ISO3166-2": "PG-NCD",
      "admin_level": "4",
      "name:zh-Hans": "国家首都区",
      "name:zh-Hant": "國家首都區"
    }
  }
]
