[
  {
    "osm_id": -11010950,
    "boundary": "administrative",
    "admin_level": 6,
    "parents": "-358004,-307573",
    "name": "Bajaur District",
    "local_name": "باجوړ",
    "name_en": "Bajaur District",
    "all_tags": {
      "name": "باجوړ",
      "name:en": "Bajaur District",
      "name:ur": "باجوڑ",
      "name:zh": "巴焦尔特区",
      "alt_name": "Bajaur;باجوړ",
      "boundary": "administrative",
      "old_name": "Bajaur Agency",
      "way_area": "0.134568",
      "wikidata": "Q804133",
      "wikipedia": "en:Bajaur District",
      "admin_level": "6"
    }
  },
  {
    "osm_id": -8295114,
    "boundary": "administrative",
    "admin_level": 4,
    "parents": "-307573",
    "name": "Chaklala Cantonment",
    "local_name": "چکلالہ کینٹ",
    "name_en": "Chaklala Cantonment",
    "all_tags": {
      "name": "چکلالہ کینٹ",
      "name:ar": "معسكر شكلالة",
      "name:en": "Chaklala Cantonment",
      "name:ur": "چکلالہ کینٹ",
      "boundary": "administrative",
      "way_area": "0.00404651",
      "admin_level": "4"
    }
  },
  {
    "osm_id": -8295062,
    "boundary": "administrative",
    "admin_level": 4,
    "parents": "-307573",
    "name": "Rawalpindi Cantonment",
    "local_name": "راولپنڈی کینٹ",
    "name_en": "Rawalpindi Cantonment",
    "all_tags": {
      "name": "راولپنڈی کینٹ",
      "name:ar": "معسكر راولبندي",
      "name:en": "Rawalpindi Cantonment",
      "name:ur": "راولپنڈی کینٹ",
      "boundary": "administrative",
      "way_area": "0.0276772",
      "wikidata": "Q7296923",
      "wikipedia": "ur:راولپنڈی چھاؤنی",
      "admin_level": "4",
      "alt_name:ur": "راولپنڈی چھاؤنی",
      "wikipedia:ur": "راولپنڈی چھاؤنی"
    }
  },
  {
    "osm_id": -8244486,
    "boundary": "administrative",
    "admin_level": 5,
    "parents": "-357988,-307573",
    "name": "Tehsil Murree",
    "local_name": "تحصیل مری",
    "name_en": "Tehsil Murree",
    "all_tags": {
      "name": "تحصیل مری",
      "name:en": "Tehsil Murree",
      "name:ur": "تحصیل مری",
      "boundary": "administrative",
      "way_area": "0.0358692",
      "admin_level": "5"
    }
  },
  {
    "osm_id": -8244467,
    "boundary": "administrative",
    "admin_level": 5,
    "parents": "-357988,-307573",
    "name": "Tehsil Kotli Sattian",
    "local_name": "تحصیل کوٹلی ستیاں",
    "name_en": "Tehsil Kotli Sattian",
    "all_tags": {
      "name": "تحصیل کوٹلی ستیاں",
      "name:en": "Tehsil Kotli Sattian",
      "name:ur": "تحصیل کوٹلی ستیاں",
      "boundary": "administrative",
      "way_area": "0.0353471",
      "admin_level": "5"
    }
  },
  {
    "osm_id": -8244393,
    "boundary": "administrative",
    "admin_level": 5,
    "parents": "-357988,-307573",
    "name": "Tehsil Kahuta",
    "local_name": "تحصیل کہوٹہ",
    "name_en": "Tehsil Kahuta",
    "all_tags": {
      "name": "تحصیل کہوٹہ",
      "name:en": "Tehsil Kahuta",
      "name:ur": "تحصیل کہوٹہ",
      "boundary": "administrative",
      "way_area": "0.0591594",
      "admin_level": "5"
    }
  },
  {
    "osm_id": -8204180,
    "boundary": "administrative",
    "admin_level": 5,
    "parents": "-3780130,-307573",
    "name": "Tehsil Chakswari",
    "local_name": "تحصیل چکسواری",
    "name_en": "Tehsil Chakswari",
    "all_tags": {
      "name": "تحصیل چکسواری",
      "name:en": "Tehsil Chakswari",
      "name:ur": "تحصیل چکسواری",
      "boundary": "administrative",
      "way_area": "0.0292356",
      "admin_level": "5"
    }
  },
  {
    "osm_id": -8199078,
    "boundary": "administrative",
    "admin_level": 5,
    "parents": "-3780130,-307573",
    "name": "Haveli District",
    "local_name": "ضلع حویلی",
    "name_en": "Haveli District",
    "all_tags": {
      "name": "ضلع حویلی",
      "name:en": "Haveli District",
      "name:uk": "Гавелі округ",
      "name:ur": "ضلع حویلی",
      "boundary": "administrative",
      "way_area": "0.0653089",
      "wikidata": "Q2639788",
      "wikipedia": "ur:ضلع حویلی",
      "admin_level": "5",
      "is_in:state": "Azad Jammu and Kashmir",
      "is_in:country": "Pakistan",
      "is_in:state_code": "AJK",
      "is_in:country_code": "PK"
    }
  },
  {
    "osm_id": -8198049,
    "boundary": "administrative",
    "admin_level": 5,
    "parents": "-3780130,-307573",
    "name": "Sudhanoti District",
    "local_name": "ضلع سدھنوتی",
    "name_en": "Sudhanoti District",
    "all_tags": {
      "name": "ضلع سدھنوتی",
      "name:en": "Sudhanoti District",
      "name:ur": "ضلع سدھنوتی",
      "boundary": "administrative",
      "way_area": "0.0333543",
      "wikidata": "Q2571446",
      "wikipedia": "en:Sudhanoti District",
      "admin_level": "5"
    }
  },
  {
    "osm_id": -8192278,
    "boundary": "administrative",
    "admin_level": 5,
    "parents": "-3780130,-307573",
    "name": "Jhelum Valley District",
    "local_name": "ضلع جہلم ویلی",
    "name_en": "Jhelum Valley District",
    "all_tags": {
      "name": "ضلع جہلم ویلی",
      "place": "district",
      "name_1": "Jhelum Valley",
      "name_2": "جہلم ویلی",
      "name:en": "Jhelum Valley District",
      "name:ur": "ضلع جہلم ویلی",
      "boundary": "administrative",
      "way_area": "0.0755662",
      "admin_level": "5",
      "is_in:state": "Azad Jammu and Kashmir",
      "is_in:country": "Pakistan",
      "is_in:state_code": "AJK",
      "is_in:country_code": "PK"
    }
  },
  {
    "osm_id": -8192015,
    "boundary": "administrative",
    "admin_level": 5,
    "parents": "-3780130,-307573",
    "name": "Bagh District",
    "local_name": "ضلع باغ",
    "name_en": "Bagh District",
    "all_tags": {
      "name": "ضلع باغ",
      "name:en": "Bagh District",
      "name:uk": "Баґг округ",
      "name:ur": "ضلع باغ",
      "boundary": "administrative",
      "way_area": "0.0608799",
      "wikidata": "Q2571473",
      "admin_level": "5",
      "is_in:state": "Azad Jammu and Kashmir",
      "is_in:country": "Pakistan",
      "is_in:state_code": "AJK",
      "is_in:country_code": "Pk"
    }
  },
  {
    "osm_id": -8191414,
    "boundary": "administrative",
    "admin_level": 5,
    "parents": "-3780130,-307573",
    "name": "Muzaffarabad Districts",
    "local_name": "ضلع مظفر آباد",
    "name_en": "Muzaffarabad Districts",
    "all_tags": {
      "name": "ضلع مظفر آباد",
      "name:cs": "Okres Muzaffarábád",
      "name:en": "Muzaffarabad Districts",
      "name:es": "Distrito de Muzaffarabad",
      "name:fa": "ناحیه مظفرآباد",
      "name:ps": "مظفر آباد ولسوالۍ",
      "name:sd": "مظفر آباد ضلعو",
      "name:ur": "ضلع مظفر آباد",
      "boundary": "administrative",
      "name:pnb": "ضلع مظفرآباد",
      "way_area": "0.111326",
      "wikidata": "Q2428174",
      "wikipedia": "ur:ضلع مظفر آباد",
      "admin_level": "5"
    }
  },
  {
    "osm_id": -8191217,
    "boundary": "administrative",
    "admin_level": 5,
    "parents": "-3780130,-307573",
    "name": "Neelam Valley District",
    "local_name": "ضلع وادیِ نیلم",
    "name_en": "Neelam Valley District",
    "all_tags": {
      "name": "ضلع وادیِ نیلم",
      "place": "district",
      "name:en": "Neelam Valley District",
      "alt_name": "وادیِ نیلم",
      "boundary": "administrative",
      "way_area": "0.50949",
      "wikidata": "Q2428449",
      "wikipedia": "en:Neelum District",
      "admin_level": "5",
      "alt_name:en": "Neelam Valley"
    }
  },
  {
    "osm_id": -8191016,
    "boundary": "administrative",
    "admin_level": 5,
    "parents": "-3780130,-307573",
    "name": "Poonch District",
    "local_name": "ضلع پونچھ",
    "name_en": "Poonch District",
    "all_tags": {
      "name": "ضلع پونچھ",
      "name:en": "Poonch District",
      "name:ur": "ضلع پونچھ",
      "boundary": "administrative",
      "way_area": "0.0984584",
      "wikidata": "Q2641954",
      "wikipedia": "en:Poonch district, Pakistan",
      "admin_level": "5",
      "is_in:state": "Azad Jammu and Kashmir",
      "is_in:country": "Pakistan",
      "is_in:district": "Poonch District"
    }
  },
  {
    "osm_id": -8187464,
    "boundary": "administrative",
    "admin_level": 6,
    "parents": "-8181854,-3780130,-307573",
    "name": "Tehsil Dadyal",
    "local_name": "تحصیل ڈڈیال",
    "name_en": "Tehsil Dadyal",
    "all_tags": {
      "name": "تحصیل ڈڈیال",
      "name:en": "Tehsil Dadyal",
      "name:ur": "تحصیل ڈڈیال",
      "boundary": "administrative",
      "way_area": "0.0347308",
      "admin_level": "6"
    }
  },
  {
    "osm_id": -8184277,
    "boundary": "administrative",
    "admin_level": 5,
    "parents": "-3780130,-307573",
    "name": "Kotli District",
    "local_name": "ضلع کوٹلی",
    "name_en": "Kotli District",
    "all_tags": {
      "name": "ضلع کوٹلی",
      "name:ar": "منطقة كوتلي",
      "name:en": "Kotli District",
      "name:ur": "ضلع کوٹلی",
      "boundary": "administrative",
      "way_area": "0.149205",
      "admin_level": "5"
    }
  },
  {
    "osm_id": -8183916,
    "boundary": "administrative",
    "admin_level": 5,
    "parents": "-3780130,-307573",
    "name": "Bhimber District",
    "local_name": "ضلع بھمبر",
    "name_en": "Bhimber District",
    "all_tags": {
      "name": "ضلع بھمبر",
      "name:en": "Bhimber District",
      "name:ur": "ضلع بھمبر",
      "boundary": "administrative",
      "way_area": "0.121091",
      "admin_level": "5"
    }
  },
  {
    "osm_id": -8181854,
    "boundary": "administrative",
    "admin_level": 5,
    "parents": "-3780130,-307573",
    "name": "Mirpur District",
    "local_name": "ضلع میرپور",
    "name_en": "Mirpur District",
    "all_tags": {
      "name": "ضلع میرپور",
      "name:en": "Mirpur District",
      "name:ur": "ضلع میرپور",
      "boundary": "administrative",
      "way_area": "0.100312",
      "wikidata": "Q2571434",
      "wikipedia": "en:Mirpur District",
      "admin_level": "5"
    }
  },
  {
    "osm_id": -8180305,
    "boundary": "administrative",
    "admin_level": 6,
    "parents": "-8162534,-357988,-307573",
    "name": "Tehsil Jhelum",
    "local_name": "تحصیل جہلم",
    "name_en": "Tehsil Jhelum",
    "all_tags": {
      "name": "تحصیل جہلم",
      "name:ar": "تحصيل جيلم",
      "name:en": "Tehsil Jhelum",
      "name:ur": "تحصیل جہلم",
      "boundary": "administrative",
      "way_area": "0.0570597",
      "admin_level": "6"
    }
  },
  {
    "osm_id": -8180177,
    "boundary": "administrative",
    "admin_level": 5,
    "parents": "-357988,-307573",
    "name": "تحصیل پنڈ دادنخان / تحصیل جہلم",
    "local_name": "تحصیل پنڈ دادنخان / تحصیل جہلم",
    "name_en": null,
    "all_tags": {
      "name": "تحصیل پنڈ دادنخان / تحصیل جہلم",
      "boundary": "administrative",
      "way_area": "0.135625",
      "admin_level": "5"
    }
  },
  {
    "osm_id": -8173600,
    "boundary": "Union_Council",
    "admin_level": 6,
    "parents": "-8160761,-357988,-307573",
    "name": "Samote Union Council",
    "local_name": "سموٹ یونین کونسل",
    "name_en": "Samote Union Council",
    "all_tags": {
      "name": "سموٹ یونین کونسل",
      "name:en": "Samote Union Council",
      "name:ur": "سموٹ یونین کونسل",
      "boundary": "Union_Council",
      "way_area": "0.0102919",
      "is_in:town": "Samote",
      "admin_level": "6"
    }
  },
  {
    "osm_id": -8163682,
    "boundary": "administrative",
    "admin_level": 6,
    "parents": "-8161545,-357988,-307573",
    "name": "Taxila Tehsil",
    "local_name": "تحصیل ٹیکسلا",
    "name_en": "Taxila Tehsil",
    "all_tags": {
      "name": "تحصیل ٹیکسلا",
      "name:ar": "تحصيل تيكسلا",
      "name:en": "Taxila Tehsil",
      "name:fa": "تحصیل تیکسلا",
      "name:ur": "تحصیل ٹیکسلا",
      "boundary": "administrative",
      "name:pnb": "تحصیل ٹیکسلا",
      "way_area": "0.0341373",
      "wikidata": "Q430394",
      "wikipedia": "ur:تحصیل ٹیکسلا",
      "admin_level": "6",
      "name:pa-Arab": "تحصیل ٹیکسلا",
      "wikipedia:fa": "تحصیل تیکسلا",
      "wikipedia:ur": "تحصیل ٹیکسلا",
      "wikipedia:pnb": "تحصیل ٹیکسلا"
    }
  },
  {
    "osm_id": -8163675,
    "boundary": "administrative",
    "admin_level": 5,
    "parents": "-357988,-307573",
    "name": "District Attock",
    "local_name": "ضلع اٹک",
    "name_en": "District Attock",
    "all_tags": {
      "name": "ضلع اٹک",
      "name:ar": "ناحية أتك",
      "name:en": "District Attock",
      "name:ml": "അറ്റോക്ക്",
      "name:ur": "ضلع اٹک",
      "boundary": "administrative",
      "way_area": "0.672811",
      "wikidata": "Q2283119",
      "admin_level": "5"
    }
  },
  {
    "osm_id": -8162555,
    "boundary": "administrative",
    "admin_level": 6,
    "parents": "-8162534,-357988,-307573",
    "name": "Tehsil Sohawa",
    "local_name": "تحصیل سوہاوہ",
    "name_en": "Tehsil Sohawa",
    "all_tags": {
      "name": "تحصیل سوہاوہ",
      "name:ar": "تحصيل سوهاوا",
      "name:en": "Tehsil Sohawa",
      "name:ur": "تحصیل سوہاوہ",
      "boundary": "administrative",
      "way_area": "0.0852071",
      "admin_level": "6"
    }
  },
  {
    "osm_id": -8162534,
    "boundary": "administrative",
    "admin_level": 5,
    "parents": "-357988,-307573",
    "name": "Jhelum District",
    "local_name": "ضلع جہلم",
    "name_en": "Jhelum District",
    "all_tags": {
      "name": "ضلع جہلم",
      "name:ar": "ناحية جيلم",
      "name:en": "Jhelum District",
      "name:ur": "ضلع جہلم",
      "boundary": "administrative",
      "way_area": "0.348612",
      "admin_level": "5",
      "alt_name:ur": "جہلم ضلع"
    }
  },
  {
    "osm_id": -8162528,
    "boundary": "administrative",
    "admin_level": 6,
    "parents": "-8162534,-357988,-307573",
    "name": "Tehsil Dina",
    "local_name": "تحصِیل دِینہ ‬‎",
    "name_en": "Tehsil Dina",
    "all_tags": {
      "name": "تحصِیل دِینہ ‬‎",
      "name:en": "Tehsil Dina",
      "name:ur": "تحصِیل دِینہ ‬‎",
      "boundary": "administrative",
      "way_area": "0.0707201",
      "admin_level": "6"
    }
  },
  {
    "osm_id": -8162469,
    "boundary": "administrative",
    "admin_level": 5,
    "parents": "-357988,-307573",
    "name": "Tehsil Gujar Khan",
    "local_name": "تحصیل گوجر خان",
    "name_en": "Tehsil Gujar Khan",
    "all_tags": {
      "name": "تحصیل گوجر خان",
      "name:en": "Tehsil Gujar Khan",
      "name:ur": "تحصیل گوجر خان",
      "boundary": "administrative",
      "way_area": "0.137658",
      "admin_level": "5"
    }
  },
  {
    "osm_id": -8161545,
    "boundary": "administrative",
    "admin_level": 5,
    "parents": "-357988,-307573",
    "name": "Rawalpindi District",
    "local_name": "ضلع راولپنڈی",
    "name_en": "Rawalpindi District",
    "all_tags": {
      "name": "ضلع راولپنڈی",
      "name:ar": "ناحية راولبندي",
      "name:cs": "okres Rávalpindí",
      "name:en": "Rawalpindi District",
      "name:ur": "ضلع راولپنڈی",
      "boundary": "administrative",
      "way_area": "0.497708",
      "wikidata": "Q24440",
      "admin_level": "5",
      "sorting_name:cs": "Rávalpindí"
    }
  },
  {
    "osm_id": -8160842,
    "boundary": "administrative",
    "admin_level": 5,
    "parents": "-357988,-307573",
    "name": "Rawalpindi Tehsil",
    "local_name": "تحصیل راولپنڈی",
    "name_en": "Rawalpindi Tehsil",
    "all_tags": {
      "name": "تحصیل راولپنڈی",
      "name:en": "Rawalpindi Tehsil",
      "name:ur": "تحصیل راولپنڈی",
      "boundary": "administrative",
      "way_area": "0.108335",
      "admin_level": "5"
    }
  },
  {
    "osm_id": -8160761,
    "boundary": "administrative",
    "admin_level": 5,
    "parents": "-357988,-307573",
    "name": "Tehsil Kallar Syedan",
    "local_name": "تحصیل کلر سیداں",
    "name_en": "Tehsil Kallar Syedan",
    "all_tags": {
      "name": "تحصیل کلر سیداں",
      "name:en": "Tehsil Kallar Syedan",
      "name:ur": "تحصیل کلر سیداں",
      "boundary": "administrative",
      "way_area": "0.0521687",
      "admin_level": "5"
    }
  },
  {
    "osm_id": -8159645,
    "boundary": "administrative",
    "admin_level": 6,
    "parents": "-8161545,-357988,-307573",
    "name": "Rawalpindi City",
    "local_name": "راولپنڈی سٹی",
    "name_en": "Rawalpindi City",
    "all_tags": {
      "name": "راولپنڈی سٹی",
      "name:ar": "مدينة راولبندي",
      "name:en": "Rawalpindi City",
      "name:ur": "راولپنڈی سٹی",
      "boundary": "administrative",
      "way_area": "0.00331053",
      "admin_level": "6"
    }
  },
  {
    "osm_id": -6589888,
    "boundary": "administrative",
    "admin_level": 6,
    "parents": "-3780131,-307573",
    "name": "Lakki Marwat",
    "local_name": "Lakki Marwat District",
    "name_en": "Lakki Marwat",
    "all_tags": {
      "name": "Lakki Marwat District",
      "name:en": "Lakki Marwat",
      "name:ur": "ضلع لکی مروت",
      "boundary": "administrative",
      "way_area": "0.301936",
      "admin_level": "6"
    }
  },
  {
    "osm_id": -6589887,
    "boundary": "administrative",
    "admin_level": 6,
    "parents": "-3780131,-307573",
    "name": "Bannu",
    "local_name": "ضلع بنوں",
    "name_en": "Bannu",
    "all_tags": {
      "name": "ضلع بنوں",
      "name:ar": "منطقة بنو",
      "name:en": "Bannu",
      "name:ur": "ضلع بنوں",
      "boundary": "administrative",
      "way_area": "0.116884",
      "admin_level": "6"
    }
  },
  {
    "osm_id": -6109503,
    "boundary": "administrative",
    "admin_level": 6,
    "parents": "-357981,-307573",
    "name": "Tharparkar District",
    "local_name": "ضلع تھرپارکر",
    "name_en": "Tharparkar District",
    "all_tags": {
      "name": "ضلع تھرپارکر",
      "name:de": "Distritk Tharparkar",
      "name:en": "Tharparkar District",
      "name:fa": "ناحیه ترپارکر",
      "name:ks": "ضلع تھرپارکر",
      "name:sd": "ٿرپارڪر ضلعو",
      "name:ur": "ضلع تھرپارکر",
      "boundary": "administrative",
      "name:pnb": "ضلع مِٹھی",
      "way_area": "1.74908",
      "wikidata": "Q2315507",
      "wikipedia": "ur:ضلع تھرپارکر",
      "admin_level": "6"
    }
  },
  {
    "osm_id": -3780131,
    "boundary": "administrative",
    "admin_level": 4,
    "parents": "-307573",
    "name": "Khyber Pakhtunkhwa",
    "local_name": "خیبر پښتونخوا",
    "name_en": "Khyber Pakhtunkhwa",
    "all_tags": {
      "name": "خیبر پښتونخوا",
      "name:ar": "خيبر بختونخوا",
      "name:cs": "Chajbar Paštúnchwá",
      "name:de": "Khyber Pakhtunkhwa",
      "name:en": "Khyber Pakhtunkhwa",
      "name:es": "Jaiber Pastunjuá",
      "name:fr": "Khyber Pakhtunkhwa",
      "name:ja": "カイバル・パクトゥンクワ",
      "name:ko": "카이베르파크툰크와 주",
      "name:lt": "Chaiber Pachtunchva",
      "name:pl": "Chajber Pasztunchwa",
      "name:ru": "Хайбер-Пахтунхва",
      "name:uk": "Хайбер-Пахтунхва",
      "name:ur": "خیبر پختونخوا",
      "name:zh": "开伯尔-普赫图赫瓦省",
      "boundary": "administrative",
      "old_name": "صوبہ سرحد",
      "way_area": "9.95036",
      "wikidata": "Q183314",
      "ISO3166-2": "PK-KP",
      "wikipedia": "en:Khyber Pakhtunkhwa",
      "admin_level": "4",
      "border_type": "province",
      "old_name:cs": "Severozápadní pohraniční provincie",
      "old_name:en": "North-West Frontier Province",
      "old_name:es": "Provincia de la Frontera del Noroeste",
      "old_name:ru": "Северо-западная пограничная провинция",
      "old_name:ur": "صوبہ سرحد",
      "is_in:country": "Pakistan",
      "is_in:continent": "Asia",
      "is_in:country_code": "PK"
    }
  },
  {
    "osm_id": -3780130,
    "boundary": "administrative",
    "admin_level": 4,
    "parents": "-307573",
    "name": "Azad Kashmir",
    "local_name": "آزاد کشمیر",
    "name_en": "Azad Kashmir",
    "all_tags": {
      "name": "آزاد کشمیر",
      "name:ar": "آزاد كشمير",
      "name:cs": "Ázád Kašmír",
      "name:de": "Asad Kaschmir",
      "name:en": "Azad Kashmir",
      "name:es": "Azad Cachemira",
      "name:fr": "Azad Cachemire",
      "name:hi": "आज़ाद कश्मीर",
      "name:ja": "アザド・カシミール",
      "name:ko": "아자드 카슈미르",
      "name:pl": "Azad Kaszmir",
      "name:ru": "Азад Кашмир",
      "name:uk": "Азад Кашмір",
      "name:ur": "آزاد کشمیر",
      "name:zh": "自由克什米尔",
      "boundary": "administrative",
      "way_area": "1.32529",
      "wikidata": "Q200130",
      "ISO3166-2": "PK-JK",
      "wikipedia": "en:Azad Kashmir",
      "admin_level": "4",
      "alt_name:en": "Azad Jammu and Kashmir",
      "alt_name:es": "Cachemira Azad;Jammu y Cachemira Azad",
      "border_type": "territorial",
      "is_in:country": "Pakistan",
      "official_name": "آزاد جموں و کشمیر",
      "is_in:continent": "Asia",
      "official_name:cs": "Ázád Džammú a Kašmír",
      "official_name:de": "Asad Jammu und Kaschmir",
      "official_name:en": "Azad Jammu and Kashmir",
      "official_name:es": "Azad Jammu y Cachemira",
      "official_name:pl": "Azad Dżammu i Kaszmir",
      "official_name:ur": "آزاد جموں و کشمیر",
      "is_in:country_code": "PK"
    }
  },
  {
    "osm_id": -3229274,
    "boundary": "administrative",
    "admin_level": 6,
    "parents": "-357968,-307573",
    "name": "Panjgur District",
    "local_name": "ضلع پنجگور / Panjgur",
    "name_en": "Panjgur District",
    "all_tags": {
      "name": "ضلع پنجگور / Panjgur",
      "name:en": "Panjgur District",
      "name:uk": "Панджґур",
      "name:ur": "ضلع پنجگور",
      "boundary": "administrative",
      "way_area": "1.53226",
      "wikidata": "Q2428944",
      "wikipedia": "en:Panjgur District",
      "admin_level": "6"
    }
  },
  {
    "osm_id": -3229202,
    "boundary": "administrative",
    "admin_level": 6,
    "parents": "-357968,-307573",
    "name": "Khuzdar District",
    "local_name": "ضلع خضدار / Khuzdar",
    "name_en": "Khuzdar District",
    "all_tags": {
      "name": "ضلع خضدار / Khuzdar",
      "name:en": "Khuzdar District",
      "name:ur": "ضلع خضدار",
      "boundary": "administrative",
      "name:bal": "خضدار",
      "way_area": "2.09203",
      "wikidata": "Q2642523",
      "wikipedia": "en:Khuzdar District",
      "population": "141395",
      "admin_level": "6"
    }
  },
  {
    "osm_id": -3229160,
    "boundary": "administrative",
    "admin_level": 6,
    "parents": "-357968,-307573",
    "name": "Kech District",
    "local_name": "ضلع گوادر / Kech",
    "name_en": "Kech District",
    "all_tags": {
      "name": "ضلع گوادر / Kech",
      "name:en": "Kech District",
      "name:ur": "ضلع کیچ",
      "alt_name": "Turbat district",
      "boundary": "administrative",
      "name:bal": "کیچ",
      "way_area": "2.21476",
      "wikidata": "Q276716",
      "wikipedia": "en:Kech District",
      "admin_level": "6"
    }
  },
  {
    "osm_id": -3228702,
    "boundary": "administrative",
    "admin_level": 6,
    "parents": "-357968,-307573",
    "name": "Barkhan District",
    "local_name": "ضلع بارخان / Barkhan",
    "name_en": "Barkhan District",
    "all_tags": {
      "name": "ضلع بارخان / Barkhan",
      "name:en": "Barkhan District",
      "name:ur": "ضلع بارخان",
      "boundary": "administrative",
      "name:bal": "ضِلع بارخان",
      "way_area": "0.37944",
      "wikidata": "Q250810",
      "wikipedia": "en:Barkhan District",
      "admin_level": "6"
    }
  },
  {
    "osm_id": -3228559,
    "boundary": "administrative",
    "admin_level": 5,
    "parents": "-357968,-307573",
    "name": "Lasbela District",
    "local_name": "ضلع لسبیلہ",
    "name_en": "Lasbela District",
    "all_tags": {
      "name": "ضلع لسبیلہ",
      "name:en": "Lasbela District",
      "name:ur": "ضلع لسبیلہ",
      "boundary": "administrative",
      "name:bal": "لسبیلہ",
      "way_area": "2.16192",
      "wikidata": "Q44942",
      "wikipedia": "en:Lasbela District",
      "admin_level": "5"
    }
  },
  {
    "osm_id": -3228558,
    "boundary": "administrative",
    "admin_level": 6,
    "parents": "-357968,-307573",
    "name": "Gwadar District",
    "local_name": "ضلع گوادر",
    "name_en": "Gwadar District",
    "all_tags": {
      "name": "ضلع گوادر",
      "name:ar": "منطقة كوادر",
      "name:en": "Gwadar District",
      "name:fa": "ناحیه گوادر",
      "name:ps": "گوادر ولسوالۍ",
      "name:sd": "گوادر ضلعو",
      "name:ur": "ضلع گوادر",
      "boundary": "administrative",
      "name:bal": "ضِلع گوادر",
      "name:pnb": "ضلع گوادر",
      "way_area": "2.31686",
      "wikidata": "Q2081818",
      "wikipedia": "ur:ضلع گوادر",
      "admin_level": "6"
    }
  },
  {
    "osm_id": -3228557,
    "boundary": "administrative",
    "admin_level": 6,
    "parents": "-357968,-307573",
    "name": "Chagai District",
    "local_name": "ضلع چاغی",
    "name_en": "Chagai District",
    "all_tags": {
      "name": "ضلع چاغی",
      "name:ar": "ناحية شاغي",
      "name:en": "Chagai District",
      "name:ur": "ضلع چاغی",
      "boundary": "administrative",
      "name:bal": "ضِلع چاغى",
      "way_area": "3.66187",
      "wikidata": "Q276717",
      "wikipedia": "ur:ضلع چاغی",
      "admin_level": "6",
      "short_name:ar": "شاغي",
      "short_name:en": "Chagai",
      "short_name:ur": "چاغی",
      "short_name:bal": "چاغى"
    }
  },
  {
    "osm_id": -3228135,
    "boundary": "administrative",
    "admin_level": 6,
    "parents": "-357968,-307573",
    "name": "Awaran District",
    "local_name": "ضلع آواران",
    "name_en": "Awaran District",
    "all_tags": {
      "name": "ضلع آواران",
      "name:en": "Awaran District",
      "name:fa": "شهرستان آواران",
      "name:ur": "ضلع آواران",
      "boundary": "administrative",
      "name:bal": "ضِلع آواران",
      "way_area": "2.32367",
      "wikidata": "Q250800",
      "wikipedia": "en:Awaran District",
      "admin_level": "6"
    }
  },
  {
    "osm_id": -358002,
    "boundary": "administrative",
    "admin_level": 4,
    "parents": "-307573",
    "name": "Islamabad Capital Territory",
    "local_name": "وفاقی دارالحکومت اسلام آباد",
    "name_en": "Islamabad Capital Territory",
    "all_tags": {
      "name": "وفاقی دارالحکومت اسلام آباد",
      "name:ar": "ناحية بايتختي إسلام آباد",
      "name:cs": "Území hlavního města Islámábádu",
      "name:de": "Hauptstadtterritorium Islamabad",
      "name:en": "Islamabad Capital Territory",
      "name:fa": "ناحیه پایتختی اسلام‌آباد",
      "name:fr": "Territoire fédéral d'Islamabad",
      "name:ja": "イスラーマーバード首都圏",
      "name:ko": "이슬라마바드 수도권",
      "name:pl": "Terytorium Stołeczne Islamabadu",
      "name:ru": "Федеральная столичная территория",
      "name:sd": "اسلام آباد راڄڌاني جو علائقو",
      "name:ur": "وفاقی دارالحکومت اسلام آباد",
      "name:zh": "伊斯兰堡联邦首都区",
      "website": "http://www.islamabad.gov.pk/",
      "boundary": "administrative",
      "way_area": "0.101277",
      "wikidata": "Q848613",
      "ISO3166-2": "PK-IS",
      "wikipedia": "ur:اسلام آباد وفاقی دارالحکومت علاقہ",
      "short_name": "اسلام آباد",
      "admin_level": "4",
      "border_type": "province",
      "short_name:ar": "إسلام آباد",
      "short_name:cs": "Islámábád",
      "short_name:en": "Islamabad",
      "short_name:fa": "اسلام‌آباد",
      "short_name:ug": "ئىسلامئاباد",
      "short_name:ur": "اسلام آباد",
      "short_name:azb": "ایسلام آباد",
      "short_name:ckb": "ئیسلاماباد"
    }
  },
  {
    "osm_id": -357995,
    "boundary": "administrative",
    "admin_level": 4,
    "parents": "-307573",
    "name": "Gilgit-Baltistan",
    "local_name": "گلگت بلتستان",
    "name_en": "Gilgit-Baltistan",
    "all_tags": {
      "name": "گلگت بلتستان",
      "name:ar": "غلغت-بلتستان",
      "name:cs": "Gilgit-Baltistán",
      "name:de": "Gilgit-Baltistan",
      "name:en": "Gilgit-Baltistan",
      "name:es": "Gilgit-Baltistán",
      "name:fr": "Gilgit-Baltistan",
      "name:ja": "ギルギット・バルティスタン",
      "name:ko": "길기트발티스탄",
      "name:lt": "Gilgitas-Baltistanas",
      "name:pl": "Gilgit-Baltistan",
      "name:ru": "Гилгит-Балтистан",
      "name:uk": "Гілгіт-Балтистан",
      "name:ur": "گلگت بلتستان",
      "name:zh": "吉尔吉特-巴尔蒂斯坦",
      "boundary": "administrative",
      "int_name": "Gilgit-Baltistan",
      "old_name": "شمالی علاقہ جات",
      "way_area": "6.50414",
      "wikidata": "Q200697",
      "ISO3166-2": "PK-GB",
      "wikipedia": "en:Gilgit-Baltistan",
      "admin_level": "4",
      "old_name:cs": "Severní oblasti",
      "old_name:de": "Nordgebiete",
      "old_name:en": "Northern Areas",
      "old_name:es": "Áreas del Norte",
      "old_name:pl": "Obszary Północne",
      "old_name:ru": "Северные Территории",
      "old_name:ur": "شمالی علاقہ جات",
      "old_name:zh": "北部地區",
      "is_in:country": "Pakistan",
      "is_in:continent": "Asia",
      "is_in:country_code": "PK"
    }
  },
  {
    "osm_id": -357988,
    "boundary": "administrative",
    "admin_level": 4,
    "parents": "-307573",
    "name": "Punjab",
    "local_name": "پنجاب",
    "name_en": "Punjab",
    "all_tags": {
      "name": "پنجاب",
      "name:am": "ፐንጃብ",
      "name:ar": "البنجاب",
      "name:cs": "Paňdžáb",
      "name:de": "Pandschab",
      "name:en": "Punjab",
      "name:eo": "Panĝabo",
      "name:es": "Panyab",
      "name:fa": "پنجاب",
      "name:fr": "Pendjab",
      "name:he": "פנג'אב",
      "name:hy": "Փենջաբ",
      "name:it": "Punjab",
      "name:ja": "パンジャーブ",
      "name:kn": "ಪಂಜಾಬ್",
      "name:ko": "펀자브 주",
      "name:ks": "پنجاب",
      "name:lv": "Pandžabas",
      "name:pa": "ਪੰਜਾਬ",
      "name:pl": "Pendżab",
      "name:ps": "پنجاب",
      "name:ru": "Пенджаб",
      "name:sd": "پنجاب",
      "name:si": "ᱯᱟᱧᱡᱟᱵᱽ",
      "name:tl": "Punjab",
      "name:tr": "Pencap",
      "name:ur": "پنجاب",
      "name:zh": "旁遮普省",
      "boundary": "administrative",
      "name:azb": "پنجاب",
      "name:ota": "پنجاب",
      "way_area": "19.3594",
      "wikidata": "Q4478",
      "ISO3166-2": "PK-PB",
      "wikipedia": "ur:پنجاب، پاکستان",
      "admin_level": "4",
      "alt_name:es": "Punyab",
      "name:az-Arab": "پنجاب",
      "name:pa-Arab": "پنجاب"
    }
  },
  {
    "osm_id": -357981,
    "boundary": "administrative",
    "admin_level": 4,
    "parents": "-307573",
    "name": "Sindh",
    "local_name": "سندھ",
    "name_en": "Sindh",
    "all_tags": {
      "name": "سندھ",
      "name:ar": "السند",
      "name:cs": "Sindh",
      "name:de": "Sindh",
      "name:en": "Sindh",
      "name:es": "Sind",
      "name:fr": "Sind",
      "name:ja": "シンド",
      "name:kn": "ಸಿಂಧ್",
      "name:ko": "신드 주",
      "name:pl": "Sindh",
      "name:ru": "Синд",
      "name:sd": "سنڌ",
      "name:uk": "Сінд",
      "name:ur": "سندھ",
      "name:zh": "信德省",
      "boundary": "administrative",
      "way_area": "13.47",
      "wikidata": "Q37211",
      "ISO3166-2": "PK-SD",
      "wikipedia": "en:Sindh",
      "admin_level": "4",
      "border_type": "province",
      "is_in:country": "Pakistan",
      "is_in:continent": "Asia",
      "is_in:country_code": "PK"
    }
  },
  {
    "osm_id": -357968,
    "boundary": "administrative",
    "admin_level": 4,
    "parents": "-307573",
    "name": "Balochistan",
    "local_name": "بلوچستان",
    "name_en": "Balochistan",
    "all_tags": {
      "name": "بلوچستان",
      "name:ar": "بلوشستان",
      "name:cs": "Balúčistán",
      "name:de": "Belutschistan",
      "name:en": "Balochistan",
      "name:es": "Baluchistán",
      "name:fr": "Baloutchistan",
      "name:hi": "बलूचिस्तान",
      "name:ja": "バローチスターン",
      "name:kn": "ಬಲೂಚಿಸ್ತಾನ",
      "name:ko": "발루치스탄 주",
      "name:nl": "Beloetsjistan",
      "name:pl": "Beludżystan",
      "name:ru": "Белуджистан",
      "name:uk": "Белуджистан",
      "name:ur": "بلوچستان",
      "name:zh": "俾路支省",
      "boundary": "administrative",
      "way_area": "33.8261",
      "wikidata": "Q163239",
      "ISO3166-2": "PK-BA",
      "wikipedia": "ur:بلوچستان",
      "admin_level": "4",
      "border_type": "province",
      "is_in:country": "Pakistan",
      "is_in:continent": "Asia",
      "is_in:country_code": "PK"
    }
  }
]
