[
  {
    "osm_id": -11146904,
    "boundary": "administrative",
    "admin_level": 4,
    "parents": "-305095",
    "name": "Al Daayen",
    "local_name": "الضعاين",
    "name_en": "Al Daayen",
    "all_tags": {
      "name": "الضعاين",
      "name:ar": "الضعاين",
      "name:de": "ad-Daʿayan",
      "name:en": "Al Daayen",
      "name:fr": "Al Daayen",
      "boundary": "administrative",
      "way_area": "0.0248796",
      "wikidata": "Q310786",
      "ISO3166-2": "QA-ZA",
      "wikipedia": "de:Ad-Daʿayan",
      "admin_level": "4"
    }
  },
  {
    "osm_id": -27337,
    "boundary": "administrative",
    "admin_level": 4,
    "parents": "-305095",
    "name": "Al Wakrah",
    "local_name": "الوكرة",
    "name_en": "Al Wakrah",
    "all_tags": {
      "name": "الوكرة",
      "name:ar": "الوكرة",
      "name:de": "Al-Wakra",
      "name:en": "Al Wakrah",
      "name:es": "Al Wakrah",
      "name:fr": "Al Wakrah",
      "boundary": "administrative",
      "way_area": "0.226082",
      "wikidata": "Q310893",
      "ISO3166-2": "QA-WA",
      "admin_level": "4"
    }
  },
  {
    "osm_id": -27335,
    "boundary": "administrative",
    "admin_level": 4,
    "parents": "-305095",
    "name": "Ash Shamal",
    "local_name": "الشمال",
    "name_en": "Ash Shamal",
    "all_tags": {
      "name": "الشمال",
      "name:ar": "الشمال",
      "name:de": "asch-Schamal",
      "name:en": "Ash Shamal",
      "name:es": "Madinat ash Shamal",
      "name:fr": "Ash Shamal",
      "boundary": "administrative",
      "way_area": "0.0776651",
      "wikidata": "Q310872",
      "ISO3166-2": "QA-MS",
      "admin_level": "4"
    }
  },
  {
    "osm_id": -27332,
    "boundary": "administrative",
    "admin_level": 4,
    "parents": "-305095",
    "name": "Doha",
    "local_name": "الدوحة",
    "name_en": "Doha",
    "all_tags": {
      "name": "الدوحة",
      "name:ar": "الدوحة",
      "name:de": "Doha",
      "name:en": "Doha",
      "name:es": "Doha",
      "name:fr": "Doha",
      "name:pt": "Doha",
      "boundary": "administrative",
      "way_area": "0.0187227",
      "wikidata": "Q3861",
      "ISO3166-2": "QA-DA",
      "admin_level": "4",
      "alt_name:en": "Ad Dawhah",
      "official_name:ar": "بلدية الدوحة"
    }
  },
  {
    "osm_id": -27331,
    "boundary": "administrative",
    "admin_level": 4,
    "parents": "-305095",
    "name": "Ar Rayyan",
    "local_name": "الريان",
    "name_en": "Ar Rayyan",
    "all_tags": {
      "name": "الريان",
      "name:ar": "الريان",
      "name:de": "Ar-Rayyan",
      "name:en": "Ar Rayyan",
      "name:es": "Rayán",
      "name:fr": "Al Rayyan",
      "name:ru": "Эр-Райян",
      "boundary": "administrative",
      "way_area": "0.219034",
      "wikidata": "Q311272",
      "ISO3166-2": "QA-RA",
      "admin_level": "4"
    }
  },
  {
    "osm_id": -27330,
    "boundary": "administrative",
    "admin_level": 4,
    "parents": "-305095",
    "name": "Al Shahaniya",
    "local_name": "الشحانية",
    "name_en": "Al Shahaniya",
    "all_tags": {
      "name": "الشحانية",
      "name:ar": "الشحانية",
      "name:de": "asch-Schahaniyya",
      "name:en": "Al Shahaniya",
      "name:fr": "Al Shahaniya",
      "boundary": "administrative",
      "way_area": "0.296752",
      "wikidata": "Q12188815",
      "ISO3166-2": "QA-SH",
      "admin_level": "4"
    }
  },
  {
    "osm_id": -27329,
    "boundary": "administrative",
    "admin_level": 4,
    "parents": "-305095",
    "name": "Al Khor and Al Thakhira",
    "local_name": "الخور والذخيرة",
    "name_en": "Al Khor and Al Thakhira",
    "all_tags": {
      "name": "الخور والذخيرة",
      "name:ar": "الخور والذخيرة",
      "name:de": "al-Chaur und adh-Dhachira",
      "name:en": "Al Khor and Al Thakhira",
      "name:es": "Jor",
      "name:fr": "Al Khawr",
      "boundary": "administrative",
      "way_area": "0.144637",
      "wikidata": "Q1156471",
      "ISO3166-2": "QA-KH",
      "admin_level": "4"
    }
  },
  {
    "osm_id": -27328,
    "boundary": "administrative",
    "admin_level": 4,
    "parents": "-305095",
    "name": "Umm Salal",
    "local_name": "أم صلال",
    "name_en": "Umm Salal",
    "all_tags": {
      "name": "أم صلال",
      "name:ar": "أم صلال",
      "name:de": "Umm Salal",
      "name:en": "Umm Salal",
      "name:es": "Umm Salal",
      "name:fr": "Umm Salal",
      "boundary": "administrative",
      "way_area": "0.0285345",
      "wikidata": "Q990414",
      "ISO3166-2": "QA-US",
      "wikipedia": "en:Umm Salal",
      "admin_level": "4"
    }
  }
]
