[
  {
    "osm_id": -2366873,
    "boundary": "administrative",
    "admin_level": 4,
    "parents": "-90689",
    "name": "Caraș-Severin",
    "local_name": "Caraș-Severin",
    "name_en": null,
    "all_tags": {
      "name": "Caraș-Severin",
      "place": "county",
      "name:hu": "Krassó-Szörény megye",
      "name:ru": "Караш-Северин",
      "boundary": "administrative",
      "place:ro": "județ",
      "ref:nuts": "RO422",
      "way_area": "0.976095",
      "wikidata": "Q187925",
      "ISO3166-2": "RO-CS",
      "ref:nuts:3": "RO422",
      "admin_level": "4",
      "is_in:country_code": "RO"
    }
  },
  {
    "osm_id": -91733,
    "boundary": "administrative",
    "admin_level": 4,
    "parents": "-90689",
    "name": "Cluj",
    "local_name": "Cluj",
    "name_en": null,
    "all_tags": {
      "name": "Cluj",
      "place": "county",
      "name:de": "Klausenburg",
      "name:hu": "Kolozs",
      "name:la": "Claudianopolis",
      "name:ru": "Клуж",
      "boundary": "administrative",
      "place:ro": "județ",
      "ref:nuts": "RO113",
      "way_area": "0.787281",
      "wikidata": "Q182624",
      "ISO3166-2": "RO-CJ",
      "ref:nuts:3": "RO113",
      "admin_level": "4",
      "is_in:country_code": "RO"
    }
  },
  {
    "osm_id": -2261315,
    "boundary": "administrative",
    "admin_level": 4,
    "parents": "-90689",
    "name": "Argeș",
    "local_name": "Argeș",
    "name_en": null,
    "all_tags": {
      "name": "Argeș",
      "place": "county",
      "name:de": "Argisch",
      "name:ru": "Арджеш",
      "boundary": "administrative",
      "place:ro": "județ",
      "ref:nuts": "RO311",
      "way_area": "0.779386",
      "wikidata": "Q179567",
      "ISO3166-2": "RO-AG",
      "ref:nuts:3": "RO311",
      "admin_level": "4",
      "is_in:country_code": "RO"
    }
  },
  {
    "osm_id": -2248621,
    "boundary": "administrative",
    "admin_level": 4,
    "parents": "-90689",
    "name": "Covasna",
    "local_name": "Covasna",
    "name_en": null,
    "all_tags": {
      "name": "Covasna",
      "place": "county",
      "name:de": "Kovasna",
      "name:hu": "Kovászna megye",
      "name:ru": "Ковасна",
      "boundary": "administrative",
      "place:ro": "județ",
      "ref:nuts": "RO123",
      "way_area": "0.430548",
      "wikidata": "Q188959",
      "ISO3166-2": "RO-CV",
      "ref:nuts:3": "RO123",
      "admin_level": "4",
      "is_in:country_code": "RO"
    }
  },
  {
    "osm_id": -2256753,
    "boundary": "administrative",
    "admin_level": 4,
    "parents": "-90689",
    "name": "Vaslui",
    "local_name": "Vaslui",
    "name_en": "Vaslui",
    "all_tags": {
      "name": "Vaslui",
      "place": "county",
      "name:de": "Wassluy",
      "name:en": "Vaslui",
      "name:ru": "Васлуй",
      "boundary": "administrative",
      "place:ro": "județ",
      "ref:nuts": "RO216",
      "way_area": "0.62648",
      "wikidata": "Q167199",
      "ISO3166-2": "RO-VS",
      "ref:nuts:3": "RO216",
      "admin_level": "4",
      "is_in:country_code": "RO"
    }
  },
  {
    "osm_id": -2366962,
    "boundary": "administrative",
    "admin_level": 4,
    "parents": "-90689",
    "name": "Mehedinți",
    "local_name": "Mehedinți",
    "name_en": null,
    "all_tags": {
      "name": "Mehedinți",
      "place": "county",
      "name:ru": "Мехединци",
      "boundary": "administrative",
      "place:ro": "județ",
      "ref:nuts": "RO413",
      "way_area": "0.560399",
      "wikidata": "Q191717",
      "ISO3166-2": "RO-MH",
      "ref:nuts:3": "RO413",
      "admin_level": "4",
      "is_in:country_code": "RO"
    }
  },
  {
    "osm_id": -2261275,
    "boundary": "administrative",
    "admin_level": 4,
    "parents": "-90689",
    "name": "Gorj",
    "local_name": "Gorj",
    "name_en": null,
    "all_tags": {
      "name": "Gorj",
      "place": "county",
      "name:ru": "Горж",
      "boundary": "administrative",
      "place:ro": "județ",
      "ref:nuts": "RO412",
      "way_area": "0.635995",
      "wikidata": "Q190406",
      "ISO3166-2": "RO-GJ",
      "ref:nuts:3": "RO412",
      "admin_level": "4",
      "is_in:country_code": "RO"
    }
  },
  {
    "osm_id": -2366970,
    "boundary": "administrative",
    "admin_level": 4,
    "parents": "-90689",
    "name": "Dolj",
    "local_name": "Dolj",
    "name_en": null,
    "all_tags": {
      "name": "Dolj",
      "place": "county",
      "name:ru": "Долж",
      "boundary": "administrative",
      "place:ro": "județ",
      "ref:nuts": "RO411",
      "way_area": "0.834063",
      "wikidata": "Q191065",
      "ISO3166-2": "RO-DJ",
      "ref:nuts:3": "RO411",
      "admin_level": "4",
      "is_in:country_code": "RO"
    }
  },
  {
    "osm_id": -2366978,
    "boundary": "administrative",
    "admin_level": 4,
    "parents": "-90689",
    "name": "Olt",
    "local_name": "Olt",
    "name_en": null,
    "all_tags": {
      "name": "Olt",
      "place": "county",
      "name:de": "Alt",
      "name:ro": "Olt",
      "name:ru": "Олт",
      "boundary": "administrative",
      "place:ro": "județ",
      "ref:nuts": "RO414",
      "way_area": "0.620368",
      "wikidata": "Q188945",
      "ISO3166-2": "RO-OT",
      "ref:nuts:3": "RO414",
      "admin_level": "4",
      "is_in:country_code": "RO"
    }
  },
  {
    "osm_id": -2366986,
    "boundary": "administrative",
    "admin_level": 4,
    "parents": "-90689",
    "name": "Teleorman",
    "local_name": "Teleorman",
    "name_en": null,
    "all_tags": {
      "name": "Teleorman",
      "place": "county",
      "name:ru": "Телеорман",
      "boundary": "administrative",
      "place:ro": "județ",
      "ref:nuts": "RO317",
      "way_area": "0.652816",
      "wikidata": "Q191653",
      "ISO3166-2": "RO-TR",
      "ref:nuts:3": "RO317",
      "admin_level": "4",
      "is_in:country_code": "RO"
    }
  },
  {
    "osm_id": -2366987,
    "boundary": "administrative",
    "admin_level": 4,
    "parents": "-90689",
    "name": "Giurgiu",
    "local_name": "Giurgiu",
    "name_en": null,
    "all_tags": {
      "name": "Giurgiu",
      "place": "county",
      "name:ru": "Джурджу",
      "boundary": "administrative",
      "place:ro": "județ",
      "ref:nuts": "RO314",
      "way_area": "0.397351",
      "wikidata": "Q193055",
      "ISO3166-2": "RO-GR",
      "ref:nuts:3": "RO314",
      "admin_level": "4",
      "is_in:country_code": "RO"
    }
  },
  {
    "osm_id": -2355471,
    "boundary": "administrative",
    "admin_level": 4,
    "parents": "-90689",
    "name": "Dâmbovița",
    "local_name": "Dâmbovița",
    "name_en": null,
    "all_tags": {
      "name": "Dâmbovița",
      "place": "county",
      "name:ru": "Дымбовица",
      "boundary": "administrative",
      "place:ro": "județ",
      "ref:nuts": "RO313",
      "way_area": "0.46093",
      "wikidata": "Q188797",
      "ISO3166-2": "RO-DB",
      "ref:nuts:3": "RO313",
      "admin_level": "4",
      "is_in:country_code": "RO"
    }
  },
  {
    "osm_id": -2366996,
    "boundary": "administrative",
    "admin_level": 4,
    "parents": "-90689",
    "name": "Ilfov",
    "local_name": "Ilfov",
    "name_en": null,
    "all_tags": {
      "name": "Ilfov",
      "place": "county",
      "name:ru": "Илфов",
      "boundary": "administrative",
      "place:ro": "județ",
      "ref:nuts": "RO322",
      "way_area": "0.176999",
      "wikidata": "Q191670",
      "ISO3166-2": "RO-IF",
      "ref:nuts:3": "RO322",
      "admin_level": "4",
      "is_in:country_code": "RO"
    }
  },
  {
    "osm_id": -2367022,
    "boundary": "administrative",
    "admin_level": 4,
    "parents": "-90689",
    "name": "Constanța",
    "local_name": "Constanța",
    "name_en": null,
    "all_tags": {
      "name": "Constanța",
      "place": "county",
      "name:ar": "كونستانتسا",
      "name:bg": "Констанца",
      "name:de": "Konstanza",
      "name:el": "Κωνστάντζα",
      "name:eo": "Konstanco",
      "name:es": "Constanza",
      "name:he": "קונסטנצה",
      "name:hu": "Konstanca",
      "name:it": "Costanza",
      "name:la": "Constantia",
      "name:lt": "Konstanca",
      "name:lv": "Konstanca",
      "name:pl": "Konstanca",
      "name:pt": "Constança",
      "name:ru": "Констанца",
      "name:sr": "Констанца",
      "name:tr": "Köstence",
      "name:uk": "Констанца",
      "boundary": "administrative",
      "place:ro": "județ",
      "ref:nuts": "RO223",
      "way_area": "0.799133",
      "wikidata": "Q188505",
      "ISO3166-2": "RO-CT",
      "ref:nuts:3": "RO223",
      "admin_level": "4",
      "old_name:la": "Tomis",
      "is_in:country_code": "RO"
    }
  },
  {
    "osm_id": -2256747,
    "boundary": "administrative",
    "admin_level": 4,
    "parents": "-90689",
    "name": "Iași",
    "local_name": "Iași",
    "name_en": null,
    "all_tags": {
      "name": "Iași",
      "place": "county",
      "name:de": "Jassy",
      "name:pl": "Okręg Jassy",
      "name:ru": "Яссы",
      "boundary": "administrative",
      "place:ro": "județ",
      "ref:nuts": "RO213",
      "way_area": "0.648051",
      "wikidata": "Q182888",
      "ISO3166-2": "RO-IS",
      "ref:nuts:3": "RO213",
      "admin_level": "4",
      "is_in:country_code": "RO"
    }
  },
  {
    "osm_id": -55466,
    "boundary": "administrative",
    "admin_level": 4,
    "parents": "-90689",
    "name": "Bistrița-Năsăud",
    "local_name": "Bistrița-Năsăud",
    "name_en": null,
    "all_tags": {
      "name": "Bistrița-Năsăud",
      "place": "county",
      "name:de": "Bistritz-Nussdorf",
      "name:hu": "Beszterce-Naszód megye",
      "name:ru": "Бистрица-Нэсэуд",
      "name:uk": "Бистриця-Несеуд",
      "boundary": "administrative",
      "place:ro": "județ",
      "ref:nuts": "RO112",
      "way_area": "0.63702",
      "wikidata": "Q181513",
      "ISO3166-2": "RO-BN",
      "ref:nuts:3": "RO112",
      "admin_level": "4",
      "is_in:country_code": "RO"
    }
  },
  {
    "osm_id": -377733,
    "boundary": "administrative",
    "admin_level": 4,
    "parents": "-90689",
    "name": "Bucharest",
    "local_name": "Municipiul București",
    "name_en": "Bucharest",
    "all_tags": {
      "name": "Municipiul București",
      "name:af": "Boekarest",
      "name:am": "ቡካረስት",
      "name:an": "Bucarest",
      "name:ar": "بوخارست",
      "name:az": "Buxarest",
      "name:be": "Бухарэст",
      "name:bg": "Букурещ",
      "name:bn": "বুখারেস্ট",
      "name:bo": "པུ་ཁ་རེ་སིད།",
      "name:bs": "Bukurešt",
      "name:ca": "Bucarest",
      "name:co": "Bucarest",
      "name:cs": "Bukurešť",
      "name:cv": "Бухарест",
      "name:cy": "Bucureşti",
      "name:da": "Bukarest",
      "name:de": "Bukarest",
      "name:ee": "Bucharest",
      "name:el": "Βουκουρέστι",
      "name:en": "Bucharest",
      "name:eo": "Bukareŝto",
      "name:es": "Bucarest",
      "name:et": "Bukarest",
      "name:fa": "بخارست",
      "name:fi": "Bukarest",
      "name:fr": "Bucarest",
      "name:fy": "Bûkarest",
      "name:ga": "Búcairist",
      "name:gd": "Bucharest",
      "name:gl": "Bucarest",
      "name:gv": "Bucharest",
      "name:he": "בוקרשט",
      "name:hi": "बुखारेस्ट",
      "name:hr": "Bukurešt",
      "name:ht": "Boukarès",
      "name:hu": "Bukarest",
      "name:hy": "Բուխարեստ",
      "name:ia": "Bucarest",
      "name:id": "Bukares",
      "name:ie": "Bucarest",
      "name:io": "Bucarest",
      "name:is": "Búkarest",
      "name:it": "Bucarest",
      "name:ja": "ブカレスト",
      "name:jv": "Bukarès",
      "name:ka": "ბუქარესტი",
      "name:kk": "Бухарест",
      "name:kn": "ಬುಕುರೆಶ್ತಿ",
      "name:ko": "부쿠레슈티",
      "name:ku": "Bûkareşt",
      "name:kv": "Бухарест",
      "name:la": "Bucaresta",
      "name:li": "Boekares",
      "name:ln": "Bukaresti",
      "name:lt": "Bukareštas",
      "name:lv": "Bukareste",
      "name:mi": "Bucharest",
      "name:mk": "Букурешт",
      "name:ml": "ബുക്കാറെസ്റ്റ്",
      "name:mr": "बुखारेस्ट",
      "name:ms": "Bucharest",
      "name:my": "ဗူးခရက်မြို့",
      "name:na": "Bucuresti",
      "name:ne": "बुखारेस्ट",
      "name:nl": "Boekarest",
      "name:nn": "Bucureşti",
      "name:no": "București",
      "name:oc": "Bucarèst",
      "name:os": "Бухарест",
      "name:pl": "Bukareszt",
      "name:ps": "بخارست",
      "name:pt": "Bucareste",
      "name:qu": "Bukuresti",
      "name:rm": "Bucarest",
      "name:ro": "București",
      "name:ru": "Бухарест",
      "name:sh": "Bukurešt",
      "name:sk": "Bukurešť",
      "name:sl": "Bukarešta",
      "name:sq": "Bukureshti",
      "name:sr": "Букурешт",
      "name:sv": "Bukarest",
      "name:ta": "புக்கரெஸ்ட்",
      "name:tg": "Бухарест",
      "name:th": "บูคาเรสต์",
      "name:tl": "Bucharest",
      "name:tr": "Bukres",
      "name:ug": "بۇخارېست",
      "name:uk": "Бухарест",
      "name:ur": "بخارسٹ",
      "name:vi": "Bucharest",
      "name:vo": "Bucureşti",
      "name:yi": "בוקארעשט",
      "name:yo": "Bucharest",
      "name:zh": "布加勒斯特",
      "boundary": "administrative",
      "name:ace": "Bucharèst",
      "name:arz": "بوخارست",
      "name:ast": "Bucarest",
      "name:ckb": "بوخارێست",
      "name:crh": "Bükreș",
      "name:csb": "Bùkareszt",
      "name:diq": "Bukreș",
      "name:ext": "Bucarest",
      "name:frp": "Bucarèst",
      "name:hif": "Bucharest",
      "name:lad": "Bukureshti",
      "name:lij": "Bucarest",
      "name:lmo": "Bucarest",
      "name:nan": "Bucharest",
      "name:nap": "Bucarest",
      "name:nov": "Bukareshti",
      "name:pms": "Bùcarest",
      "name:pnb": "بخارسٹ",
      "name:rmy": "Bukureshti",
      "name:sah": "Бухарест",
      "name:scn": "Bucarest",
      "name:sco": "Bucharest",
      "name:szl": "Bukareszt",
      "name:tet": "Bukareste",
      "name:tpi": "Busares",
      "name:udm": "Бухарест",
      "name:vec": "Bùcarest",
      "name:vep": "Buharest",
      "name:war": "Bucharest",
      "ref:nuts": "RO321",
      "way_area": "0.0271054",
      "wikidata": "Q19660",
      "ISO3166-2": "RO-B",
      "ref:nuts:3": "RO321",
      "admin_level": "4",
      "alt_name:gl": "Bucureşti",
      "name:simple": "Bucharest",
      "name:bat-smg": "Bukarėštos",
      "name:roa-rup": "Bucureshci",
      "name:roa-tara": "Bucarest",
      "name:be-tarask": "Бухарэст"
    }
  },
  {
    "osm_id": -2366863,
    "boundary": "administrative",
    "admin_level": 4,
    "parents": "-90689",
    "name": "Timiș",
    "local_name": "Timiș",
    "name_en": null,
    "all_tags": {
      "name": "Timiș",
      "place": "county",
      "name:de": "Temesch",
      "name:hu": "Temes megye",
      "name:lt": "Timišas",
      "name:ro": "Timiș",
      "name:ru": "Тимиш",
      "boundary": "administrative",
      "place:ro": "județ",
      "ref:nuts": "RO424",
      "way_area": "1.00459",
      "wikidata": "Q185586",
      "ISO3166-2": "RO-TM",
      "ref:nuts:3": "RO424",
      "admin_level": "4",
      "is_in:country_code": "RO"
    }
  },
  {
    "osm_id": -2248721,
    "boundary": "administrative",
    "admin_level": 4,
    "parents": "-90689",
    "name": "Arad",
    "local_name": "Arad",
    "name_en": null,
    "all_tags": {
      "name": "Arad",
      "place": "county",
      "name:hu": "Arad megye",
      "name:ru": "Арад",
      "boundary": "administrative",
      "place:ro": "județ",
      "ref:nuts": "RO421",
      "way_area": "0.903491",
      "wikidata": "Q179559",
      "ISO3166-2": "RO-AR",
      "ref:nuts:3": "RO421",
      "admin_level": "4",
      "is_in:country_code": "RO"
    }
  },
  {
    "osm_id": -91731,
    "boundary": "administrative",
    "admin_level": 4,
    "parents": "-90689",
    "name": "Bihor",
    "local_name": "Bihor",
    "name_en": null,
    "all_tags": {
      "name": "Bihor",
      "place": "county",
      "name:hu": "Bihar megye",
      "name:ru": "Бихор",
      "boundary": "administrative",
      "place:ro": "județ",
      "ref:nuts": "RO111",
      "way_area": "0.890402",
      "wikidata": "Q179588",
      "ISO3166-2": "RO-BH",
      "ref:nuts:3": "RO111",
      "admin_level": "4",
      "is_in:country_code": "RO"
    }
  },
  {
    "osm_id": -2248737,
    "boundary": "administrative",
    "admin_level": 4,
    "parents": "-90689",
    "name": "Hunedoara",
    "local_name": "Hunedoara",
    "name_en": null,
    "all_tags": {
      "name": "Hunedoara",
      "place": "county",
      "name:de": "Eisenmarkt",
      "name:hu": "Hunyad megye",
      "name:ru": "Хунедоара",
      "boundary": "administrative",
      "place:ro": "județ",
      "ref:nuts": "RO423",
      "way_area": "0.817667",
      "wikidata": "Q191071",
      "ISO3166-2": "RO-HD",
      "ref:nuts:3": "RO423",
      "admin_level": "4",
      "is_in:country_code": "RO"
    }
  },
  {
    "osm_id": -194271,
    "boundary": "administrative",
    "admin_level": 4,
    "parents": "-90689",
    "name": "Alba",
    "local_name": "Alba",
    "name_en": null,
    "all_tags": {
      "name": "Alba",
      "place": "county",
      "name:hu": "Fehér megye",
      "name:ru": "Алба",
      "boundary": "administrative",
      "place:ro": "județ",
      "ref:nuts": "RO121",
      "way_area": "0.727373",
      "wikidata": "Q45868",
      "ISO3166-2": "RO-AB",
      "ref:nuts:3": "RO121",
      "admin_level": "4",
      "is_in:country_code": "RO"
    }
  },
  {
    "osm_id": -2261289,
    "boundary": "administrative",
    "admin_level": 4,
    "parents": "-90689",
    "name": "Vâlcea",
    "local_name": "Vâlcea",
    "name_en": null,
    "all_tags": {
      "name": "Vâlcea",
      "place": "county",
      "name:ru": "Вылча",
      "boundary": "administrative",
      "place:ro": "județ",
      "ref:nuts": "RO415",
      "way_area": "0.659187",
      "wikidata": "Q186838",
      "ISO3166-2": "RO-VL",
      "ref:nuts:3": "RO415",
      "admin_level": "4",
      "is_in:country_code": "RO"
    }
  },
  {
    "osm_id": -91685,
    "boundary": "administrative",
    "admin_level": 4,
    "parents": "-90689",
    "name": "Sălaj",
    "local_name": "Sălaj",
    "name_en": null,
    "all_tags": {
      "name": "Sălaj",
      "place": "county",
      "name:hu": "Szilágy megye",
      "name:ru": "Сэлаж",
      "boundary": "administrative",
      "place:ro": "județ",
      "ref:nuts": "RO116",
      "way_area": "0.460106",
      "wikidata": "Q190690",
      "ISO3166-2": "RO-SJ",
      "ref:nuts:3": "RO116",
      "admin_level": "4",
      "is_in:country_code": "RO"
    }
  },
  {
    "osm_id": -72482,
    "boundary": "administrative",
    "admin_level": 4,
    "parents": "-90689",
    "name": "Satu Mare",
    "local_name": "Satu Mare",
    "name_en": null,
    "all_tags": {
      "name": "Satu Mare",
      "place": "county",
      "name:de": "Sathmar",
      "name:hu": "Szatmár megye",
      "name:ru": "Сату-Маре",
      "name:uk": "Сату-Маре",
      "boundary": "administrative",
      "place:ro": "județ",
      "ref:nuts": "RO115",
      "way_area": "0.529889",
      "wikidata": "Q165459",
      "ISO3166-2": "RO-SM",
      "ref:nuts:3": "RO115",
      "admin_level": "4",
      "is_in:country_code": "RO"
    }
  },
  {
    "osm_id": -2248573,
    "boundary": "administrative",
    "admin_level": 4,
    "parents": "-90689",
    "name": "Mureș",
    "local_name": "Mureș",
    "name_en": null,
    "all_tags": {
      "name": "Mureș",
      "place": "county",
      "name:de": "Mieresch",
      "name:hu": "Maros megye",
      "name:ro": "Mureș",
      "name:ru": "Муреш",
      "boundary": "administrative",
      "place:ro": "județ",
      "ref:nuts": "RO125",
      "way_area": "0.787726",
      "wikidata": "Q190711",
      "ISO3166-2": "RO-MS",
      "ref:nuts:3": "RO125",
      "admin_level": "4",
      "is_in:country_code": "RO"
    }
  },
  {
    "osm_id": -72481,
    "boundary": "administrative",
    "admin_level": 4,
    "parents": "-90689",
    "name": "Maramureș",
    "local_name": "Maramureș",
    "name_en": null,
    "all_tags": {
      "name": "Maramureș",
      "place": "county",
      "name:de": "Maramuresch",
      "name:hu": "Máramaros megye",
      "name:ru": "Марамуреш",
      "name:uk": "Марамуреш",
      "boundary": "administrative",
      "place:ro": "județ",
      "ref:nuts": "RO114",
      "way_area": "0.753749",
      "wikidata": "Q188813",
      "ISO3166-2": "RO-MM",
      "wikipedia": "ro:Județul Maramureș",
      "ref:nuts:3": "RO114",
      "admin_level": "4",
      "is_in:country_code": "RO"
    }
  },
  {
    "osm_id": -2355507,
    "boundary": "administrative",
    "admin_level": 4,
    "parents": "-90689",
    "name": "Prahova",
    "local_name": "Prahova",
    "name_en": null,
    "all_tags": {
      "name": "Prahova",
      "place": "county",
      "name:ru": "Прахова",
      "boundary": "administrative",
      "place:ro": "județ",
      "ref:nuts": "RO316",
      "way_area": "0.538396",
      "wikidata": "Q188665",
      "ISO3166-2": "RO-PH",
      "ref:nuts:3": "RO316",
      "admin_level": "4",
      "is_in:country_code": "RO"
    }
  },
  {
    "osm_id": -2248612,
    "boundary": "administrative",
    "admin_level": 4,
    "parents": "-90689",
    "name": "Brașov",
    "local_name": "Brașov",
    "name_en": null,
    "all_tags": {
      "name": "Brașov",
      "place": "county",
      "name:de": "Kronstadt",
      "name:hu": "Brassó megye",
      "name:ru": "Брашов",
      "boundary": "administrative",
      "place:ro": "județ",
      "ref:nuts": "RO122",
      "way_area": "0.620355",
      "wikidata": "Q182614",
      "ISO3166-2": "RO-BV",
      "ref:nuts:3": "RO122",
      "admin_level": "4",
      "is_in:country_code": "RO"
    }
  },
  {
    "osm_id": -2355511,
    "boundary": "administrative",
    "admin_level": 4,
    "parents": "-90689",
    "name": "Buzău",
    "local_name": "Buzău",
    "name_en": null,
    "all_tags": {
      "name": "Buzău",
      "place": "county",
      "name:ru": "Бузэу",
      "boundary": "administrative",
      "place:ro": "județ",
      "ref:nuts": "RO222",
      "way_area": "0.69962",
      "wikidata": "Q185309",
      "ISO3166-2": "RO-BZ",
      "ref:nuts:3": "RO222",
      "admin_level": "4",
      "is_in:country_code": "RO"
    }
  },
  {
    "osm_id": -2260187,
    "boundary": "administrative",
    "admin_level": 4,
    "parents": "-90689",
    "name": "Vrancea",
    "local_name": "Vrancea",
    "name_en": null,
    "all_tags": {
      "name": "Vrancea",
      "place": "county",
      "name:ru": "Вранча",
      "boundary": "administrative",
      "place:ro": "județ",
      "ref:nuts": "RO226",
      "way_area": "0.562502",
      "wikidata": "Q182778",
      "ISO3166-2": "RO-VN",
      "ref:nuts:3": "RO226",
      "admin_level": "4",
      "is_in:country_code": "RO"
    }
  },
  {
    "osm_id": -2260192,
    "boundary": "administrative",
    "admin_level": 4,
    "parents": "-90689",
    "name": "Galați",
    "local_name": "Galați",
    "name_en": "Galați",
    "all_tags": {
      "name": "Galați",
      "place": "county",
      "name:de": "Galatz",
      "name:en": "Galați",
      "name:hu": "Galac",
      "name:ro": "Galați",
      "name:ru": "Галац",
      "boundary": "administrative",
      "place:ro": "județ",
      "ref:nuts": "RO224",
      "way_area": "0.516399",
      "wikidata": "Q188796",
      "ISO3166-2": "RO-GL",
      "ref:nuts:3": "RO224",
      "admin_level": "4",
      "is_in:country_code": "RO"
    }
  },
  {
    "osm_id": -2248660,
    "boundary": "administrative",
    "admin_level": 4,
    "parents": "-90689",
    "name": "Harghita",
    "local_name": "Harghita",
    "name_en": null,
    "all_tags": {
      "name": "Harghita",
      "place": "county",
      "name:hu": "Hargita megye",
      "name:ru": "Харгита",
      "boundary": "administrative",
      "place:ro": "județ",
      "ref:nuts": "RO124",
      "way_area": "0.777738",
      "wikidata": "Q190702",
      "ISO3166-2": "RO-HR",
      "ref:nuts:3": "RO124",
      "admin_level": "4",
      "is_in:country_code": "RO"
    }
  },
  {
    "osm_id": -2077868,
    "boundary": "administrative",
    "admin_level": 4,
    "parents": "-90689",
    "name": "Suceava",
    "local_name": "Suceava",
    "name_en": "Suceava",
    "all_tags": {
      "name": "Suceava",
      "place": "county",
      "name:de": "Suczawa",
      "name:en": "Suceava",
      "name:pl": "Suczawa",
      "name:ru": "Сучава",
      "boundary": "administrative",
      "place:ro": "județ",
      "ref:nuts": "RO215",
      "way_area": "1.02322",
      "wikidata": "Q181209",
      "ISO3166-2": "RO-SV",
      "ref:nuts:3": "RO215",
      "admin_level": "4",
      "is_in:country_code": "RO"
    }
  },
  {
    "osm_id": -2248681,
    "boundary": "administrative",
    "admin_level": 4,
    "parents": "-90689",
    "name": "Bacău",
    "local_name": "Bacău",
    "name_en": null,
    "all_tags": {
      "name": "Bacău",
      "place": "county",
      "name:de": "Barchau",
      "name:hu": "Bákó megye",
      "name:ro": "Bacău",
      "name:ru": "Бакэу",
      "boundary": "administrative",
      "place:ro": "județ",
      "ref:nuts": "RO211",
      "way_area": "0.772669",
      "wikidata": "Q179779",
      "ISO3166-2": "RO-BC",
      "ref:nuts:3": "RO211",
      "admin_level": "4",
      "is_in:country_code": "RO"
    }
  },
  {
    "osm_id": -2256729,
    "boundary": "administrative",
    "admin_level": 4,
    "parents": "-90689",
    "name": "Botoșani",
    "local_name": "Botoșani",
    "name_en": null,
    "all_tags": {
      "name": "Botoșani",
      "place": "county",
      "name:de": "Botoschan",
      "name:lt": "Botošanis",
      "name:pl": "Okręg Botoszany",
      "name:ru": "Ботошани",
      "boundary": "administrative",
      "place:ro": "județ",
      "ref:nuts": "RO212",
      "way_area": "0.598954",
      "wikidata": "Q178861",
      "ISO3166-2": "RO-BT",
      "ref:nuts:3": "RO212",
      "admin_level": "4",
      "is_in:country_code": "RO"
    }
  },
  {
    "osm_id": -2367044,
    "boundary": "administrative",
    "admin_level": 4,
    "parents": "-90689",
    "name": "Tulcea",
    "local_name": "Tulcea",
    "name_en": "Tulcea",
    "all_tags": {
      "name": "Tulcea",
      "place": "county",
      "name:de": "Tultscha",
      "name:en": "Tulcea",
      "name:lt": "Tulča",
      "name:ru": "Тулча",
      "boundary": "administrative",
      "place:ro": "județ",
      "ref:nuts": "RO225",
      "way_area": "0.967631",
      "wikidata": "Q191078",
      "ISO3166-2": "RO-TL",
      "ref:nuts:3": "RO225",
      "admin_level": "4",
      "is_in:country_code": "RO"
    }
  },
  {
    "osm_id": -2355517,
    "boundary": "administrative",
    "admin_level": 4,
    "parents": "-90689",
    "name": "Ialomița",
    "local_name": "Ialomița",
    "name_en": null,
    "all_tags": {
      "name": "Ialomița",
      "place": "county",
      "name:lt": "Jalomica",
      "name:ru": "Яломица",
      "boundary": "administrative",
      "place:ro": "județ",
      "ref:nuts": "RO315",
      "way_area": "0.502727",
      "wikidata": "Q193044",
      "ISO3166-2": "RO-IL",
      "ref:nuts:3": "RO315",
      "admin_level": "4",
      "is_in:country_code": "RO"
    }
  },
  {
    "osm_id": -2355512,
    "boundary": "administrative",
    "admin_level": 4,
    "parents": "-90689",
    "name": "Brăila",
    "local_name": "Brăila",
    "name_en": null,
    "all_tags": {
      "name": "Brăila",
      "place": "county",
      "name:ru": "Брэила",
      "boundary": "administrative",
      "place:ro": "județ",
      "ref:nuts": "RO221",
      "way_area": "0.544599",
      "wikidata": "Q188503",
      "ISO3166-2": "RO-BR",
      "ref:nuts:3": "RO221",
      "admin_level": "4",
      "is_in:country_code": "RO"
    }
  },
  {
    "osm_id": -2367015,
    "boundary": "administrative",
    "admin_level": 4,
    "parents": "-90689",
    "name": "Călărași",
    "local_name": "Călărași",
    "name_en": null,
    "all_tags": {
      "name": "Călărași",
      "place": "county",
      "name:lt": "Kelerašis",
      "name:ru": "Кэлэраши",
      "boundary": "administrative",
      "place:ro": "județ",
      "ref:nuts": "RO312",
      "way_area": "0.574016",
      "wikidata": "Q188948",
      "ISO3166-2": "RO-CL",
      "ref:nuts:3": "RO312",
      "admin_level": "4",
      "is_in:country_code": "RO"
    }
  },
  {
    "osm_id": -2248675,
    "boundary": "administrative",
    "admin_level": 4,
    "parents": "-90689",
    "name": "Neamț",
    "local_name": "Neamț",
    "name_en": null,
    "all_tags": {
      "name": "Neamț",
      "place": "county",
      "name:ru": "Нямц",
      "boundary": "administrative",
      "place:ro": "județ",
      "ref:nuts": "RO214",
      "way_area": "0.698597",
      "wikidata": "Q188661",
      "ISO3166-2": "RO-NT",
      "ref:nuts:3": "RO214",
      "admin_level": "4",
      "is_in:country_code": "RO"
    }
  },
  {
    "osm_id": -2248586,
    "boundary": "administrative",
    "admin_level": 4,
    "parents": "-90689",
    "name": "Sibiu",
    "local_name": "Sibiu",
    "name_en": null,
    "all_tags": {
      "name": "Sibiu",
      "place": "county",
      "name:de": "Hermannstadt",
      "name:hu": "Szeben megye",
      "name:ru": "Сибиу",
      "boundary": "administrative",
      "place:ro": "județ",
      "ref:nuts": "RO126",
      "way_area": "0.629588",
      "wikidata": "Q184797",
      "ISO3166-2": "RO-SB",
      "ref:nuts:3": "RO126",
      "admin_level": "4",
      "is_in:country_code": "RO"
    }
  }
]
