[
  {
    "osm_id": -2959529,
    "boundary": "census",
    "admin_level": 5,
    "parents": "-1658166,-1741311",
    "name": "Southern and Eastern Serbia",
    "local_name": "Јужна и источна Србија",
    "name_en": "Southern and Eastern Serbia",
    "all_tags": {
      "name": "Јужна и источна Србија",
      "name:de": "Süd- und Ostserbien",
      "name:el": "Νότια και Ανατολική Σερβία",
      "name:en": "Southern and Eastern Serbia",
      "name:hr": "Južna i istočna Srbija",
      "name:hu": "Dél- és Kelet-Szerbia",
      "name:sr": "Јужна и источна Србија",
      "boundary": "census",
      "way_area": "2.92496",
      "wikidata": "Q3657372",
      "wikipedia": "en:Southern and Eastern Serbia",
      "ref:nuts:2": "RS22",
      "admin_level": "5",
      "name:sr-Latn": "Južna i istočna Srbija"
    }
  },
  {
    "osm_id": -1639496,
    "boundary": "administrative",
    "admin_level": 6,
    "parents": "-1279074,-1741311",
    "name": "South Banat Administrative District",
    "local_name": "Јужнобанатски управни округ",
    "name_en": "South Banat Administrative District",
    "all_tags": {
      "name": "Јужнобанатски управни округ",
      "name:de": "Bezirk Südbanat",
      "name:en": "South Banat Administrative District",
      "name:hr": "Južnobanatski upravni okrug",
      "name:hu": "Dél-bánsági körzet",
      "name:ro": "Districtul Banatul de Sud",
      "name:ru": "Южно-Банатский административный округ",
      "name:sr": "Јужнобанатски управни округ",
      "website": "http://juznobanatski.okrug.gov.rs/",
      "boundary": "administrative",
      "way_area": "0.485119",
      "wikidata": "Q720030",
      "ISO3166-2": "RS-04",
      "wikipedia": "en:South Banat District",
      "admin_level": "6",
      "name:sr-Latn": "Južnobanatski upravni okrug",
      "ref:RS:okrug": "04"
    }
  },
  {
    "osm_id": -2116926,
    "boundary": "administrative",
    "admin_level": 6,
    "parents": "-2959530,-1658166,-1741311",
    "name": "Raska Administrative District",
    "local_name": "Рашки управни округ",
    "name_en": "Raska Administrative District",
    "all_tags": {
      "name": "Рашки управни округ",
      "name:de": "Bezirk Raška",
      "name:el": "Περιφέρεια Ράσκα",
      "name:en": "Raska Administrative District",
      "name:hr": "Raški upravni okrug",
      "name:ru": "Рашский административный округ",
      "name:sr": "Рашки управни округ",
      "website": "http://raski.okrug.gov.rs/",
      "boundary": "administrative",
      "way_area": "0.435658",
      "wikidata": "Q1061082",
      "ISO3166-2": "RS-18",
      "wikipedia": "en:Raška District",
      "admin_level": "6",
      "name:sr-Latn": "Raški upravni okrug",
      "ref:RS:okrug": "18"
    }
  },
  {
    "osm_id": -1639341,
    "boundary": "administrative",
    "admin_level": 6,
    "parents": "-1279074,-1741311",
    "name": "Srem Administrative District",
    "local_name": "Сремски управни округ",
    "name_en": "Srem Administrative District",
    "all_tags": {
      "name": "Сремски управни округ",
      "name:de": "Bezirk Syrmien",
      "name:en": "Srem Administrative District",
      "name:hr": "Srijemski upravni okrug",
      "name:hu": "Szerémségi körzet",
      "name:ru": "Сремский административный округ",
      "name:sr": "Сремски управни округ",
      "website": "http://www.sremski.okrug.gov.rs/",
      "boundary": "administrative",
      "way_area": "0.39684",
      "wikidata": "Q217331",
      "ISO3166-2": "RS-07",
      "wikipedia": "en:Srem District",
      "admin_level": "6",
      "name:sr-Latn": "Sremski upravni okrug",
      "ref:RS:okrug": "07"
    }
  },
  {
    "osm_id": -1677007,
    "boundary": "administrative",
    "admin_level": 6,
    "parents": "-1658166,-1741311",
    "name": "City of Belgrade",
    "local_name": "Град Београд",
    "name_en": "City of Belgrade",
    "all_tags": {
      "name": "Град Београд",
      "name:af": "Belgrado",
      "name:am": "በልግራድ",
      "name:an": "Belgrado",
      "name:ar": "بلغراد",
      "name:az": "Belqrad",
      "name:be": "Горад Бялград",
      "name:bg": "Град Белград",
      "name:bn": "বেলগ্রেড",
      "name:bo": "བེལ་གེ་རེ་ཌི།",
      "name:br": "Beograd",
      "name:bs": "Grad Beograd",
      "name:ca": "Belgrad",
      "name:cs": "Bělehrad",
      "name:cu": "Бѣлъ Градъ · Срьбїи",
      "name:cv": "Белград",
      "name:cy": "Beograd",
      "name:da": "Beograd",
      "name:de": "Stadt Belgrad",
      "name:el": "Πόλη του Βελιγραδίου",
      "name:en": "City of Belgrade",
      "name:eo": "Beogrado",
      "name:es": "Belgrado",
      "name:fa": "بلگراد",
      "name:fo": "Beograd",
      "name:fr": "Ville de Belgrade",
      "name:fy": "Belgrado",
      "name:ga": "Béalgrád",
      "name:gd": "Belgrade",
      "name:gl": "Belgrado",
      "name:gv": "Belgraaid",
      "name:he": "בלגרד",
      "name:hi": "बॅलग्रेड",
      "name:hr": "Grad Beograd",
      "name:ht": "Bèlgrad",
      "name:hu": "Belgrád",
      "name:hy": "Բելգրադ",
      "name:id": "Beograd",
      "name:ie": "Beograd",
      "name:io": "Belgrade",
      "name:it": "Belgrado",
      "name:ja": "ベオグラード",
      "name:jv": "Beograd",
      "name:ka": "ბელგრადი",
      "name:kk": "Белград",
      "name:ko": "베오그라드",
      "name:kv": "Белград",
      "name:la": "Belgradum",
      "name:li": "Belgrado",
      "name:lt": "Belgradas",
      "name:lv": "Belgrada",
      "name:mi": "Belgrade",
      "name:mk": "Град Белград",
      "name:ml": "ബെൽഗ്രേഡ്",
      "name:mn": "Белград",
      "name:mr": "बेलग्रेड",
      "name:ms": "Belgrade",
      "name:nl": "Stad Belgrado",
      "name:nn": "Beograd",
      "name:no": "Beograd",
      "name:os": "Белград",
      "name:pl": "Belgrad",
      "name:pt": "Cidade de Belgrado",
      "name:qu": "Beograd",
      "name:ro": "Belgrad",
      "name:ru": "Город Белград",
      "name:sc": "Belgrado",
      "name:sh": "Beograd",
      "name:sk": "Belehgrad",
      "name:sl": "Beograd",
      "name:sm": "Belgrade",
      "name:so": "Belgaraad",
      "name:sq": "Belgradi",
      "name:sr": "Град Београд",
      "name:sv": "Belgrad",
      "name:ta": "பெல்கிறேட்",
      "name:tg": "Белград",
      "name:th": "เบลเกรด",
      "name:tl": "Belgrade",
      "name:tt": "Белград",
      "name:ty": "Beograd",
      "name:ug": "بېلگراد",
      "name:uk": "Белград",
      "name:ur": "بلغراد",
      "name:vi": "Beograd",
      "name:vo": "Beograd",
      "name:yi": "בעלגראד",
      "name:yo": "Belgrade",
      "name:zh": "贝尔格莱德市/貝爾格勒市/貝爾格萊德",
      "website": "https://www.beograd.rs",
      "boundary": "administrative",
      "name:ace": "Belgrade",
      "name:ast": "Belgráu",
      "name:ckb": "بێلگراد",
      "name:dsb": "Běłogrod",
      "name:ext": "Belgradu",
      "name:frp": "Bèlgrade",
      "name:hif": "Belgrade",
      "name:hsb": "Běłohród",
      "name:jbo": "be'ograd",
      "name:lad": "Belogrado",
      "name:lij": "Belgraddo",
      "name:nan": "Belgrade",
      "name:nov": "Beograd",
      "name:pap": "Belgrado",
      "name:pnb": "بلغراد",
      "name:sah": "Белград",
      "name:scn": "Belgradu",
      "name:sco": "Belgrade",
      "name:udm": "Белград",
      "name:vec": "Belgrado",
      "name:war": "Belgrade",
      "name:wuu": "贝尔格莱德",
      "name:yue": "貝爾格萊德",
      "way_area": "0.366966",
      "wikidata": "Q2074197",
      "ISO3166-2": "RS-00",
      "wikipedia": "sr:Град Београд",
      "admin_level": "6",
      "description": "Boundary of the City of Belgrade",
      "name:bat-smg": "Belgrads",
      "name:roa-rup": "Biligrad",
      "name:sr-Latn": "Grad Beograd",
      "name:zh-Hans": "贝尔格莱德市",
      "name:zh-Hant": "貝爾格勒市/貝爾格萊德",
      "ref:RS:okrug": "00",
      "name:be-tarask": "Бялград",
      "name:zh-Hant-HK": "貝爾格萊德",
      "name:zh-Hant-TW": "貝爾格勒市"
    }
  },
  {
    "osm_id": -2117027,
    "boundary": "administrative",
    "admin_level": 6,
    "parents": "-2959529,-1658166,-1741311",
    "name": "Jablanica Administrative District",
    "local_name": "Јабланички управни округ",
    "name_en": "Jablanica Administrative District",
    "all_tags": {
      "name": "Јабланички управни округ",
      "name:de": "Bezirk Jablanica",
      "name:en": "Jablanica Administrative District",
      "name:hu": "Jablanica körzet",
      "name:ru": "Ябланичский административный округ",
      "name:sr": "Јабланички управни округ",
      "website": "http://jablanicki.okrug.gov.rs/",
      "boundary": "administrative",
      "way_area": "0.305386",
      "wikidata": "Q876541",
      "ISO3166-2": "RS-23",
      "wikipedia": "en:Jablanica District",
      "admin_level": "6",
      "name:sr-Latn": "Jablanički upravni okrug",
      "ref:RS:okrug": "23"
    }
  },
  {
    "osm_id": -2109306,
    "boundary": "administrative",
    "admin_level": 6,
    "parents": "-2959530,-1658166,-1741311",
    "name": "Pomoravlje Administrative District",
    "local_name": "Поморавски управни округ",
    "name_en": "Pomoravlje Administrative District",
    "all_tags": {
      "name": "Поморавски управни округ",
      "name:en": "Pomoravlje Administrative District",
      "name:hr": "Pomoravski upravni okrug",
      "name:ru": "Поморавский административный округ",
      "name:sr": "Поморавски управни округ",
      "website": "http://www.pomoravski.okrug.gov.rs/",
      "boundary": "administrative",
      "way_area": "0.293279",
      "wikidata": "Q867816",
      "ISO3166-2": "RS-13",
      "wikipedia": "en:Pomoravlje District",
      "admin_level": "6",
      "name:sr-Latn": "Pomoravski upravni okrug",
      "ref:RS:okrug": "13"
    }
  },
  {
    "osm_id": -2109264,
    "boundary": "administrative",
    "admin_level": 6,
    "parents": "-2959530,-1658166,-1741311",
    "name": "Sumadija Administrative District",
    "local_name": "Шумадијски управни округ",
    "name_en": "Sumadija Administrative District",
    "all_tags": {
      "name": "Шумадијски управни округ",
      "name:en": "Sumadija Administrative District",
      "name:ru": "Шумадийский административный округ",
      "name:sr": "Шумадијски управни округ",
      "website": "http://www.sumadijski.okrug.gov.rs/",
      "boundary": "administrative",
      "way_area": "0.268378",
      "wikidata": "Q544118",
      "ISO3166-2": "RS-12",
      "wikipedia": "en:Šumadija District",
      "admin_level": "6",
      "name:sr-Latn": "Šumadijski upravni okrug",
      "ref:RS:okrug": "12"
    }
  },
  {
    "osm_id": -2109236,
    "boundary": "administrative",
    "admin_level": 6,
    "parents": "-2959529,-1658166,-1741311",
    "name": "Branicevo Administrative District",
    "local_name": "Браничевски управни округ",
    "name_en": "Branicevo Administrative District",
    "all_tags": {
      "name": "Браничевски управни округ",
      "name:de": "Bezirk Braničevo",
      "name:en": "Branicevo Administrative District",
      "name:hu": "Braničevo körzet",
      "name:ro": "Districtul Braničevo",
      "name:ru": "Браничевский административный округ",
      "name:sr": "Браничевски управни округ",
      "website": "http://branicevski.okrug.gov.rs/",
      "alt_name": "Браничевски округ",
      "boundary": "administrative",
      "way_area": "0.436417",
      "wikidata": "Q861539",
      "ISO3166-2": "RS-11",
      "wikipedia": "en:Braničevo District",
      "admin_level": "6",
      "name:sr-Latn": "Braničevski upravni okrug",
      "ref:RS:okrug": "11"
    }
  },
  {
    "osm_id": -2114082,
    "boundary": "administrative",
    "admin_level": 6,
    "parents": "-2959530,-1658166,-1741311",
    "name": "Moravica Administrative District",
    "local_name": "Моравички управни округ",
    "name_en": "Moravica Administrative District",
    "all_tags": {
      "name": "Моравички управни округ",
      "name:el": "Περιφέρεια Μοράβιτσα",
      "name:en": "Moravica Administrative District",
      "name:hr": "Moravički upravni okrug",
      "name:ru": "Моравичский административный округ",
      "name:sr": "Моравички управни округ",
      "website": "http://moravickiupravniokrug.org/",
      "boundary": "administrative",
      "way_area": "0.33732",
      "wikidata": "Q915380",
      "ISO3166-2": "RS-17",
      "wikipedia": "en:Moravica District",
      "admin_level": "6",
      "name:sr-Latn": "Moravički upravni okrug",
      "ref:RS:okrug": "17"
    }
  },
  {
    "osm_id": -1639617,
    "boundary": "administrative",
    "admin_level": 6,
    "parents": "-1279074,-1741311",
    "name": "North Banat Administrative District",
    "local_name": "Севернобанатски управни округ",
    "name_en": "North Banat Administrative District",
    "all_tags": {
      "name": "Севернобанатски управни округ",
      "name:de": "Bezirk Nordbanat",
      "name:en": "North Banat Administrative District",
      "name:hr": "Sjevernobanatski upravni okrug",
      "name:hu": "Észak-bánsági körzet",
      "name:ru": "Северно-Банатский административный округ",
      "name:sr": "Севернобанатски управни округ",
      "website": "http://www.severnobanatski.okrug.gov.rs/",
      "boundary": "administrative",
      "way_area": "0.269993",
      "wikidata": "Q728041",
      "ISO3166-2": "RS-03",
      "wikipedia": "en:North Banat District",
      "admin_level": "6",
      "name:sr-Latn": "Severnobanatski upravni okrug",
      "ref:RS:okrug": "03"
    }
  },
  {
    "osm_id": -2117179,
    "boundary": "administrative",
    "admin_level": 6,
    "parents": "-2959529,-1658166,-1741311",
    "name": "Nisava Administrative District",
    "local_name": "Нишавски управни округ",
    "name_en": "Nisava Administrative District",
    "all_tags": {
      "name": "Нишавски управни округ",
      "name:en": "Nisava Administrative District",
      "name:hr": "Nišavski upravni okrug",
      "name:ru": "Нишавский административный округ",
      "name:sr": "Нишавски управни округ",
      "website": "http://nis.okrug.gov.rs/",
      "boundary": "administrative",
      "way_area": "0.303273",
      "wikidata": "Q1061076",
      "ISO3166-2": "RS-20",
      "wikipedia": "en:Nišava District",
      "admin_level": "6",
      "name:sr-Latn": "Nišavski upravni okrug",
      "ref:RS:okrug": "20"
    }
  },
  {
    "osm_id": -2117109,
    "boundary": "administrative",
    "admin_level": 6,
    "parents": "-2959529,-1658166,-1741311",
    "name": "Toplica Administrative District",
    "local_name": "Топлички управни округ",
    "name_en": "Toplica Administrative District",
    "all_tags": {
      "name": "Топлички управни округ",
      "name:de": "Bezirk Toplica",
      "name:el": "Περιφέρεια Τόπλιτσα",
      "name:en": "Toplica Administrative District",
      "name:hr": "Toplički upravni okrug",
      "name:ru": "Топличский административный округ",
      "name:sr": "Топлички управни округ",
      "website": "http://www.toplicki.okrug.gov.rs/",
      "boundary": "administrative",
      "way_area": "0.246946",
      "wikidata": "Q1048184",
      "ISO3166-2": "RS-21",
      "wikipedia": "en:Toplica District",
      "admin_level": "6",
      "name:sr-Latn": "Toplički upravni okrug",
      "ref:RS:okrug": "21"
    }
  },
  {
    "osm_id": -2959530,
    "boundary": "census",
    "admin_level": 5,
    "parents": "-1658166,-1741311",
    "name": "Sumadija and Western Serbia",
    "local_name": "Шумадија и западна Србија",
    "name_en": "Sumadija and Western Serbia",
    "all_tags": {
      "name": "Шумадија и западна Србија",
      "name:de": "Sumadija und West-Serbien",
      "name:en": "Sumadija and Western Serbia",
      "name:hr": "Šumadija i Zapadna Srbija",
      "name:sr": "Шумадија и западна Србија",
      "boundary": "census",
      "way_area": "2.96586",
      "wikidata": "Q8082909",
      "wikipedia": "en:Šumadija and Western Serbia",
      "ref:nuts:2": "RS21",
      "admin_level": "5",
      "name:sr-Latn": "Šumadija i zapadna Srbija"
    }
  },
  {
    "osm_id": -1658166,
    "boundary": "administrative",
    "admin_level": 4,
    "parents": "-1741311",
    "name": "Central Serbia",
    "local_name": "Централна Србија",
    "name_en": "Central Serbia",
    "all_tags": {
      "name": "Централна Србија",
      "name:ar": "صربيا الوسطى",
      "name:ca": "Sèrbia central",
      "name:de": "Zentralserbien",
      "name:el": "κεντρική Σερβία",
      "name:en": "Central Serbia",
      "name:es": "Serbia Central",
      "name:fr": "Serbie centrale",
      "name:hr": "Središnja Srbija",
      "name:hu": "Közép-Szerbia",
      "name:nl": "Centraal-Servië",
      "name:pl": "Serbia Centralna",
      "name:ru": "Центральная Сербия",
      "name:sq": "Serbia Qëndrore",
      "name:sr": "Централна Србија",
      "name:sv": "Mellersta Serbien",
      "name:vi": "Trung Serbia",
      "boundary": "administrative",
      "way_area": "6.25793",
      "wikidata": "Q190773",
      "wikipedia": "en:Central Serbia",
      "admin_level": "4",
      "name:sr-Latn": "Centralna Srbija",
      "is_in:country": "Serbia",
      "is_in:continent": "Europe",
      "ref:RS:pokrajina": "RS-CS",
      "is_in:country_code": "RS"
    }
  },
  {
    "osm_id": -2107511,
    "boundary": "administrative",
    "admin_level": 6,
    "parents": "-2959530,-1658166,-1741311",
    "name": "Kolubara Administrative District",
    "local_name": "Колубарски управни округ",
    "name_en": "Kolubara Administrative District",
    "all_tags": {
      "name": "Колубарски управни округ",
      "name:en": "Kolubara Administrative District",
      "name:hr": "Kolubarski upravni okrug",
      "name:hu": "Kolubara körzet",
      "name:ru": "Колубарский административный округ",
      "name:sr": "Колубарски управни округ",
      "website": "http://www.kolubarski.okrug.gov.rs/",
      "boundary": "administrative",
      "way_area": "0.278999",
      "wikidata": "Q1048139",
      "ISO3166-2": "RS-09",
      "wikipedia": "en:Kolubara District",
      "admin_level": "6",
      "name:sr-Latn": "Kolubarski upravni okrug",
      "ref:RS:okrug": "09"
    }
  },
  {
    "osm_id": -1649671,
    "boundary": "administrative",
    "admin_level": 6,
    "parents": "-1279074,-1741311",
    "name": "South Backa Administrative District",
    "local_name": "Јужнобачки управни округ",
    "name_en": "South Backa Administrative District",
    "all_tags": {
      "name": "Јужнобачки управни округ",
      "name:de": "Bezirk Südliche Batschka",
      "name:en": "South Backa Administrative District",
      "name:hr": "Južnobački upravni okrug",
      "name:hu": "Dél-bácskai körzet",
      "name:ru": "Южно-Бачский административный округ",
      "name:sk": "Juhobáčsky okres",
      "name:sr": "Јужнобачки управни округ",
      "website": "http://juznobacki.okrug.gov.rs/",
      "boundary": "administrative",
      "way_area": "0.462641",
      "wikidata": "Q648718",
      "ISO3166-2": "RS-06",
      "wikipedia": "en:South Bačka District",
      "admin_level": "6",
      "name:sr-Latn": "Južnobački upravni okrug",
      "ref:RS:okrug": "06"
    }
  },
  {
    "osm_id": -1639908,
    "boundary": "administrative",
    "admin_level": 6,
    "parents": "-1279074,-1741311",
    "name": "West Backa Administrative District",
    "local_name": "Западнобачки управни округ",
    "name_en": "West Backa Administrative District",
    "all_tags": {
      "name": "Западнобачки управни округ",
      "name:de": "Bezirk Westliche Batschka",
      "name:en": "West Backa Administrative District",
      "name:hr": "Zapadnobački upravni okrug",
      "name:hu": "Nyugat-bácskai körzet",
      "name:ru": "Западно-Бачский административный округ",
      "name:sr": "Западнобачки управни округ",
      "website": "http://www.zapadnobacki.okrug.gov.rs/",
      "boundary": "administrative",
      "way_area": "0.287391",
      "wikidata": "Q735169",
      "ISO3166-2": "RS-05",
      "wikipedia": "en:West Bačka District",
      "admin_level": "6",
      "name:sr-Latn": "Zapadnobački upravni okrug",
      "ref:RS:okrug": "05"
    }
  },
  {
    "osm_id": -1639630,
    "boundary": "administrative",
    "admin_level": 6,
    "parents": "-1279074,-1741311",
    "name": "North Backa Administrative District",
    "local_name": "Севернобачки управни округ",
    "name_en": "North Backa Administrative District",
    "all_tags": {
      "name": "Севернобачки управни округ",
      "name:en": "North Backa Administrative District",
      "name:hr": "Sjevernobački upravni okrug",
      "name:hu": "Észak-bácskai körzet",
      "name:ru": "Северно-Бачский административный округ",
      "name:sr": "Севернобачки управни округ",
      "website": "http://www.severnobacki.okrug.gov.rs/",
      "boundary": "administrative",
      "way_area": "0.206986",
      "wikidata": "Q648758",
      "ISO3166-2": "RS-01",
      "wikipedia": "en:North Bačka District",
      "admin_level": "6",
      "name:sr-Latn": "Severnobački upravni okrug",
      "ref:RS:okrug": "01"
    }
  },
  {
    "osm_id": -1639821,
    "boundary": "administrative",
    "admin_level": 6,
    "parents": "-1279074,-1741311",
    "name": "Central Banat Administrative District",
    "local_name": "Средњобанатски управни округ",
    "name_en": "Central Banat Administrative District",
    "all_tags": {
      "name": "Средњобанатски управни округ",
      "name:de": "Bezirk Mittelbanat",
      "name:en": "Central Banat Administrative District",
      "name:hr": "Srednjobanatski upravni okrug",
      "name:hu": "Közép-bánsági körzet",
      "name:ru": "Средне-Банатский административный округ",
      "name:sr": "Средњобанатски управни округ",
      "website": "http://www.srednjobanatski.okrug.gov.rs/",
      "boundary": "administrative",
      "way_area": "0.37448",
      "wikidata": "Q425782",
      "ISO3166-2": "RS-02",
      "wikipedia": "en:Central Banat District",
      "admin_level": "6",
      "name:sr-Latn": "Srednjobanatski upravni okrug",
      "ref:RS:okrug": "02"
    }
  },
  {
    "osm_id": -2107619,
    "boundary": "administrative",
    "admin_level": 6,
    "parents": "-2959529,-1658166,-1741311",
    "name": "Podunavlje Administrative District",
    "local_name": "Подунавски управни округ",
    "name_en": "Podunavlje Administrative District",
    "all_tags": {
      "name": "Подунавски управни округ",
      "name:en": "Podunavlje Administrative District",
      "name:ru": "Подунайский административный округ",
      "name:sr": "Подунавски управни округ",
      "website": "http://www.podunavskiokrug.rs/",
      "boundary": "administrative",
      "way_area": "0.141478",
      "wikidata": "Q778561",
      "ISO3166-2": "RS-10",
      "wikipedia": "en:Podunavlje District",
      "admin_level": "6",
      "name:sr-Latn": "Podunavski upravni okrug",
      "ref:RS:okrug": "10"
    }
  },
  {
    "osm_id": -1279074,
    "boundary": "administrative",
    "admin_level": 4,
    "parents": "-1741311",
    "name": "Vojvodina",
    "local_name": "Војводина",
    "name_en": "Vojvodina",
    "all_tags": {
      "flag": "https://upload.wikimedia.org/wikipedia/commons/6/6b/Flag_of_Vojvodina.svg; https://upload.wikimedia.org/wikipedia/commons/9/9a/Tradicionalna_zastava_Vojvodine_sa_grbom.svg",
      "name": "Војводина",
      "name:ar": "فويفودينا",
      "name:ca": "Voivodina",
      "name:cs": "Vojvodina",
      "name:de": "Wojwodina",
      "name:en": "Vojvodina",
      "name:es": "Voivodina",
      "name:fr": "Voïvodine",
      "name:hr": "Vojvodina",
      "name:hu": "Vajdaság",
      "name:lt": "Voivodina",
      "name:mk": "Војводина",
      "name:nl": "Vojvodina",
      "name:pl": "Wojwodina",
      "name:ro": "Voivodina",
      "name:ru": "Воеводина",
      "name:sk": "Vojvodina",
      "name:sl": "Vojvodina",
      "name:sr": "Војводина",
      "boundary": "administrative",
      "name:hsb": "Wojwodina",
      "name:rue": "Войводина",
      "way_area": "2.4835",
      "wikidata": "Q44749",
      "ISO3166-2": "RS-VO",
      "wikipedia": "sr:Војводина",
      "admin_level": "4",
      "name:sr-Latn": "Vojvodina",
      "is_in:country": "Serbia",
      "official_name": "Аутономна Покрајина Војводина",
      "is_in:continent": "Europe",
      "official_name:cs": "Autonomní oblast Vojvodina",
      "official_name:de": "Autonome Provinz Wojwodina",
      "official_name:en": "Autonomous Province of Vojvodina",
      "official_name:es": "Provincia Autónoma de Voivodina",
      "official_name:fr": "Province autonome de Voïvodine",
      "official_name:hr": "Autonomna Pokrajina Vojvodina",
      "official_name:hu": "Vajdaság Autonóm Tartomány",
      "official_name:lt": "Autonominė Voivodinos provincija",
      "official_name:mk": "Автономна Покраина Војводина",
      "official_name:pl": "Prowincja Autonomiczna Wojwodiny",
      "official_name:ro": "Provincia Autonomă Voivodina",
      "official_name:ru": "Автономный край Воеводина",
      "official_name:sk": "Autonómna Pokrajina Vojvodina",
      "official_name:sr": "Аутономна Покрајина Војводина",
      "official_name:rue": "Автономна Покраїна Войводина",
      "is_in:country_code": "RS",
      "official_name:sr-Latn": "Autonomna Pokrajina Vojvodina"
    }
  },
  {
    "osm_id": -2114084,
    "boundary": "administrative",
    "admin_level": 6,
    "parents": "-2959530,-1658166,-1741311",
    "name": "Zlatibor Administrative District",
    "local_name": "Златиборски управни округ",
    "name_en": "Zlatibor Administrative District",
    "all_tags": {
      "name": "Златиборски управни округ",
      "place": "county",
      "name:el": "Περιφέρεια Ζλάτιμπορ",
      "name:en": "Zlatibor Administrative District",
      "name:hr": "Zlatiborski upravni okrug",
      "name:ru": "Златиборский административный округ",
      "name:sr": "Златиборски управни округ",
      "website": "zlatiborski.okrug.gov.rs/index.php/sr/",
      "alt_name": "Златиборски округ",
      "boundary": "administrative",
      "way_area": "0.684731",
      "wikidata": "Q478278",
      "ISO3166-2": "RS-16",
      "wikipedia": "en:Zlatibor District",
      "admin_level": "6",
      "name:sr-Latn": "Zlatiborski upravni okrug",
      "ref:RS:okrug": "16"
    }
  },
  {
    "osm_id": -2114083,
    "boundary": "administrative",
    "admin_level": 6,
    "parents": "-2959529,-1658166,-1741311",
    "name": "Zajecar Administrative District",
    "local_name": "Зајечарски управни округ",
    "name_en": "Zajecar Administrative District",
    "all_tags": {
      "name": "Зајечарски управни округ",
      "name:en": "Zajecar Administrative District",
      "name:ru": "Заечарский административный округ",
      "name:sr": "Зајечарски управни округ",
      "website": "http://zajecarski.okrug.gov.rs/",
      "boundary": "administrative",
      "way_area": "0.405025",
      "wikidata": "Q967339",
      "ISO3166-2": "RS-15",
      "wikipedia": "en:Zaječar District",
      "admin_level": "6",
      "name:sr-Latn": "Zaječarski upravni okrug",
      "ref:RS:okrug": "15"
    }
  },
  {
    "osm_id": -2117003,
    "boundary": "administrative",
    "admin_level": 6,
    "parents": "-2959529,-1658166,-1741311",
    "name": "Pirot Administrative District",
    "local_name": "Пиротски управни округ",
    "name_en": "Pirot Administrative District",
    "all_tags": {
      "name": "Пиротски управни округ",
      "name:bg": "Пиротски административен окръг",
      "name:en": "Pirot Administrative District",
      "name:ru": "Пиротский административный округ",
      "name:sr": "Пиротски управни округ",
      "website": "http://pirotski.okrug.gov.rs/",
      "boundary": "administrative",
      "way_area": "0.305492",
      "wikidata": "Q580069",
      "ISO3166-2": "RS-22",
      "wikipedia": "en:Pirot District",
      "admin_level": "6",
      "name:sr-Latn": "Pirotski upravni okrug",
      "ref:RS:okrug": "22"
    }
  },
  {
    "osm_id": -1765275,
    "boundary": "administrative",
    "admin_level": 6,
    "parents": "-2959530,-1658166,-1741311",
    "name": "Macva Administrative District",
    "local_name": "Мачвански управни округ",
    "name_en": "Macva Administrative District",
    "all_tags": {
      "name": "Мачвански управни округ",
      "name:de": "Bezirk Mačva",
      "name:en": "Macva Administrative District",
      "name:hr": "Mačvanski upravni okrug",
      "name:ru": "Мачванский административный округ",
      "name:sr": "Мачвански управни округ",
      "website": "http://macvanski.okrug.gov.rs/",
      "boundary": "administrative",
      "way_area": "0.370491",
      "wikidata": "Q867803",
      "ISO3166-2": "RS-08",
      "wikipedia": "en:Mačva District",
      "admin_level": "6",
      "name:sr-Latn": "Mačvanski upravni okrug",
      "ref:RS:okrug": "08"
    }
  },
  {
    "osm_id": -2015385,
    "boundary": "administrative",
    "admin_level": 6,
    "parents": "-2959529,-1658166,-1741311",
    "name": "Pcinja Administrative District",
    "local_name": "Пчињски управни округ",
    "name_en": "Pcinja Administrative District",
    "all_tags": {
      "name": "Пчињски управни округ",
      "name:bg": "Пчински административен окръг",
      "name:de": "Bezirk Pčinja",
      "name:el": "Περιφέρεια Πτσίνια",
      "name:en": "Pcinja Administrative District",
      "name:ru": "Пчиньский административный округ",
      "name:sr": "Пчињски управни округ",
      "website": "http://www.pcinjski.okrug.gov.rs/",
      "boundary": "administrative",
      "way_area": "0.385701",
      "wikidata": "Q1061099",
      "ISO3166-2": "RS-24",
      "wikipedia": "en:Pčinja District",
      "admin_level": "6",
      "name:sr-Latn": "Pčinjski upravni okrug",
      "ref:RS:okrug": "24"
    }
  },
  {
    "osm_id": -2117182,
    "boundary": "administrative",
    "admin_level": 6,
    "parents": "-2959530,-1658166,-1741311",
    "name": "Rasina Administrative District",
    "local_name": "Расински управни округ",
    "name_en": "Rasina Administrative District",
    "all_tags": {
      "name": "Расински управни округ",
      "name:de": "Bezirk Rasina",
      "name:en": "Rasina Administrative District",
      "name:hr": "Rasinski upravni okrug",
      "name:ru": "Расинский административный округ",
      "name:sr": "Расински управни округ",
      "website": "http://rasinskiokrug.org.rs/?lng=cir",
      "boundary": "administrative",
      "way_area": "0.296966",
      "wikidata": "Q1043446",
      "ISO3166-2": "RS-19",
      "wikipedia": "en:Rasina District",
      "admin_level": "6",
      "name:sr-Latn": "Rasinski upravni okrug",
      "ref:RS:okrug": "19"
    }
  },
  {
    "osm_id": -1708277,
    "boundary": "administrative",
    "admin_level": 6,
    "parents": "-2959529,-1658166,-1741311",
    "name": "Bor Administrative District",
    "local_name": "Борски управни округ",
    "name_en": "Bor Administrative District",
    "all_tags": {
      "name": "Борски управни округ",
      "name:de": "Bezirk Bor",
      "name:en": "Bor Administrative District",
      "name:hu": "Bor körzet",
      "name:ru": "Борский административный округ",
      "name:sr": "Борски управни округ",
      "website": "http://borski.okrug.gov.rs/",
      "boundary": "administrative",
      "way_area": "0.395224",
      "wikidata": "Q477586",
      "ISO3166-2": "RS-14",
      "wikipedia": "en:Bor District",
      "admin_level": "6",
      "name:sr-Latn": "Borski upravni okrug",
      "ref:RS:okrug": "14"
    }
  }
]
