[
  {
    "osm_id": -54367,
    "boundary": "administrative",
    "admin_level": 4,
    "parents": "-52822",
    "name": "Västra Götaland County",
    "local_name": "Västra Götalands län",
    "name_en": "Västra Götaland County",
    "all_tags": {
      "ref": "O",
      "name": "Västra Götalands län",
      "name:ar": "محافظة وسترا يوتالاند",
      "name:be": "Вестра-Гёталанд",
      "name:bs": "Kotar Västra Götaland",
      "name:ca": "Västra Götaland",
      "name:cs": "Västra Götaland",
      "name:de": "Provinz Västra Götaland",
      "name:el": "Κομητεία Βέστρα Γκέταλαντ",
      "name:en": "Västra Götaland County",
      "name:es": "Provincia de Västra Götaland",
      "name:et": "Västra Götalandi lään",
      "name:eu": "Västra Götalandeko konderria",
      "name:fa": "شهرستان وسترا یوتلاند",
      "name:fi": "Länsi-Götanmaan lääni",
      "name:fr": "Comté de Västra Götaland",
      "name:gl": "Condado de Västra Götaland",
      "name:he": "וסטרה ייטלנד",
      "name:hi": "वेस्त्रा योतालान्द लैन",
      "name:hr": "Županija Västra Götaland",
      "name:hu": "Västra Götaland megye",
      "name:id": "Daerah Västra Götaland",
      "name:it": "Contea di Västra Götaland",
      "name:ja": "ヴェストラ・イェータランド県",
      "name:ko": "베스트라예탈란드 주",
      "name:kw": "Konteth Västra Götaland",
      "name:la": "Gothiae Occidentalis Comitatus",
      "name:lt": "Vestra Jotalandas",
      "name:lv": "Vesterjētlandes lēne",
      "name:ms": "Daerah Västra Götaland",
      "name:os": "Вестрæ-Гёталанд",
      "name:pl": "Västra Götaland",
      "name:ru": "Вестра-Гёталанд",
      "name:sk": "Västra Götaland",
      "name:tr": "Västra Götaland ili",
      "name:uk": "Вестра-Йоталанд",
      "name:ur": "واسترا یوتالاند کاؤنٹی",
      "name:vo": "Götaläniän Vesüdik",
      "name:zh": "西约塔兰省",
      "boundary": "administrative",
      "ref:fips": "SW28",
      "ref:nuts": "SE232",
      "way_area": "5.30831",
      "wikidata": "Q103093",
      "ISO3166-2": "SE-O",
      "wikipedia": "sv:Västra Götalands län",
      "ref:nuts:3": "SE232",
      "ref:se:scb": "14",
      "admin_level": "4"
    }
  },
  {
    "osm_id": -52834,
    "boundary": "administrative",
    "admin_level": 4,
    "parents": "-52822",
    "name": "Dalecarlia",
    "local_name": "Dalarnas län",
    "name_en": "Dalecarlia",
    "all_tags": {
      "ref": "W",
      "name": "Dalarnas län",
      "name:ar": "مقاطعة دالرناس",
      "name:de": "Provinz Dalarna",
      "name:en": "Dalecarlia",
      "name:es": "Provincia de Dalarna",
      "name:fi": "Taalainmaan lääni",
      "name:fr": "Comté de Dalécarlie",
      "name:hu": "Dalarna megye",
      "name:lt": "Dalarnos lėnas",
      "name:ru": "Даларна",
      "boundary": "administrative",
      "int_name": "Dalecarlia",
      "ref:fips": "SW10",
      "ref:nuts": "SE312",
      "way_area": "5.03587",
      "wikidata": "Q103732",
      "ISO3166-2": "SE-W",
      "wikipedia": "sv:Dalarnas län",
      "ref:nuts:3": "SE312",
      "ref:se:scb": "20",
      "short_name": "Dalarna",
      "admin_level": "4",
      "is_in:country": "Sweden",
      "is_in:continent": "Europe",
      "is_in:country_code": "SE"
    }
  },
  {
    "osm_id": -54409,
    "boundary": "administrative",
    "admin_level": 4,
    "parents": "-52822",
    "name": "Skåne County",
    "local_name": "Skåne län",
    "name_en": "Skåne County",
    "all_tags": {
      "ref": "M",
      "name": "Skåne län",
      "gns_uni": "6257520",
      "name:ar": "محافظة اسكونه",
      "name:bs": "Kotar Skåne",
      "name:ca": "Comtat d'Escània",
      "name:cs": "Skåne",
      "name:de": "Provinz Schonen",
      "name:en": "Skåne County",
      "name:es": "Provincia de Escania",
      "name:et": "Skåne lään",
      "name:eu": "Eskaniako konderria",
      "name:fa": "شهرستان اسکونه",
      "name:fi": "Skånen lääni",
      "name:fr": "Comté de Scanie",
      "name:gl": "Condado de Escania",
      "name:he": "מחוז סקונה",
      "name:hi": "स्कॉने लैन",
      "name:hr": "Županija Skåne",
      "name:hu": "Skåne megye",
      "name:id": "County Skåne",
      "name:it": "Contea della Scania",
      "name:ja": "スコーネ県",
      "name:ka": "სკონე (ლენი)",
      "name:ko": "스코네 주",
      "name:kw": "Konteth Skåne",
      "name:lt": "Skonė",
      "name:lv": "Skones lēne",
      "name:ms": "Daerah Skåne",
      "name:os": "Сконе (лен)",
      "name:pl": "Skania",
      "name:pt": "Escânia",
      "name:ru": "Сконе",
      "name:se": "Skåne leatna",
      "name:sq": "Qarku Skåne",
      "name:th": "เทศมณฑลสกัวเนอ",
      "name:tr": "Skåne ili",
      "name:ur": "سکونہ کاؤنٹی",
      "name:zh": "斯科讷省",
      "boundary": "administrative",
      "ref:fips": "SW27",
      "ref:nuts": "SE224",
      "way_area": "2.54926",
      "wikidata": "Q103659",
      "ISO3166-2": "SE-M",
      "wikipedia": "sv:Skåne län",
      "ref:nuts:3": "SE224",
      "ref:se:scb": "12",
      "short_name": "Skåne",
      "admin_level": "4",
      "alt_name:pl": "Region Skania",
      "is_in:continent": "Europe",
      "gns_classification": "ADM1"
    }
  },
  {
    "osm_id": -54374,
    "boundary": "administrative",
    "admin_level": 4,
    "parents": "-52822",
    "name": "Jönköping County",
    "local_name": "Jönköpings län",
    "name_en": "Jönköping County",
    "all_tags": {
      "ref": "F",
      "name": "Jönköpings län",
      "name:ar": "محافظة يونشوبينغ",
      "name:bs": "Kotar Jönköping",
      "name:ca": "Comtat de Jönköping",
      "name:de": "Provinz Jönköping",
      "name:en": "Jönköping County",
      "name:es": "Provincia de Jönköping",
      "name:et": "Jönköpingi lään",
      "name:eu": "Jönköpingeko konderria",
      "name:fa": "شهرستان یونشوپینگ",
      "name:fi": "Jönköpingin lääni",
      "name:fr": "Comté de Jönköping",
      "name:gl": "Condado de Jönköping",
      "name:he": "מחוז ינשפינג",
      "name:hi": "योनशोपिंग लैन",
      "name:hr": "Županija Jönköping",
      "name:hu": "Jönköping megye",
      "name:id": "Daerah Jönköping",
      "name:it": "Contea di Jönköping",
      "name:ja": "ヨンショーピング県",
      "name:ko": "옌셰핑 주",
      "name:kw": "Konteth Jönköping",
      "name:la": "Iunecopiae Comitatus",
      "name:lt": "Jonšiopingo lėnas",
      "name:lv": "Jenšēpingas lēne",
      "name:ms": "Daerah Jönköping",
      "name:ru": "Йёнчёпинг",
      "name:tr": "Jönköping ili",
      "name:ur": "یونشوپنگ کاؤنٹی",
      "name:vo": "Yönköpingiän",
      "name:zh": "延雪平省",
      "boundary": "administrative",
      "ref:fips": "SW08",
      "ref:nuts": "SE211",
      "way_area": "1.76166",
      "wikidata": "Q103672",
      "ISO3166-2": "SE-F",
      "wikipedia": "sv:Jönköpings län",
      "ref:nuts:3": "SE211",
      "ref:se:scb": "06",
      "admin_level": "4"
    }
  },
  {
    "osm_id": -54386,
    "boundary": "administrative",
    "admin_level": 4,
    "parents": "-52822",
    "name": "Södermanland County",
    "local_name": "Södermanlands län",
    "name_en": "Södermanland County",
    "all_tags": {
      "ref": "D",
      "name": "Södermanlands län",
      "name:ar": "محافظة سودرمانلاند",
      "name:bs": "Kotar Södermanland",
      "name:ca": "Comtat de Södermanland",
      "name:cs": "Södermanland",
      "name:de": "Provinz Södermanland",
      "name:en": "Södermanland County",
      "name:es": "Provincia de Södermanland",
      "name:et": "Södermanlandi lään",
      "name:eu": "Södermanlandeko konderria",
      "name:fa": "شهرستان سودرمانلاند",
      "name:fi": "Södermanlandin lääni",
      "name:fr": "Comté de Södermanland",
      "name:gl": "Condado de Södermanland",
      "name:hi": "सोदरमानलान्द लैन",
      "name:hr": "Županija Södermanland",
      "name:hu": "Södermanland megye",
      "name:id": "Daerah Södermanland",
      "name:it": "Contea di Södermanland",
      "name:ja": "セーデルマンランド県",
      "name:ko": "쇠데르만란드 주",
      "name:kw": "Konteth Södermanland",
      "name:la": "Sudermanniae Comitatus",
      "name:lt": "Siodermanlando lėnas",
      "name:lv": "Sēdermanlandes lēne",
      "name:ms": "Daerah Södermanland",
      "name:pl": "Södermanland",
      "name:pt": "Södermanland (condado)",
      "name:ru": "Сёдерманланд",
      "name:se": "Södermanlándda leatna",
      "name:tr": "Södermanland ili",
      "name:ur": "سودرمنلاند کاؤنٹی",
      "name:zh": "南曼兰省",
      "boundary": "administrative",
      "ref:fips": "SW18",
      "ref:nuts": "SE122",
      "way_area": "1.36558",
      "wikidata": "Q106915",
      "ISO3166-2": "SE-D",
      "wikipedia": "sv:Södermanlands län",
      "ref:nuts:3": "SE122",
      "ref:se:scb": "04",
      "admin_level": "4"
    }
  },
  {
    "osm_id": -54403,
    "boundary": "administrative",
    "admin_level": 4,
    "parents": "-52822",
    "name": "Halland County",
    "local_name": "Hallands län",
    "name_en": "Halland County",
    "all_tags": {
      "ref": "N",
      "name": "Hallands län",
      "name:ar": "محافظة هاللاند",
      "name:bs": "Kotar Halland",
      "name:ca": "Comtat de Halland",
      "name:cs": "Halland",
      "name:de": "Provinz Halland",
      "name:en": "Halland County",
      "name:es": "Provincia de Halland",
      "name:et": "Hallandi lään",
      "name:eu": "Hallandeko konderria",
      "name:fa": "شهرستان هاللاند",
      "name:fi": "Hallandin lääni",
      "name:fr": "Comté de Halland",
      "name:gl": "Condado de Halland",
      "name:he": "הלנד",
      "name:hi": "हल्लान्द लैन",
      "name:hr": "Županija Halland",
      "name:hu": "Halland megye",
      "name:id": "Daerah Halland",
      "name:it": "Contea di Halland",
      "name:ja": "ハッランド県",
      "name:ko": "할란드 주",
      "name:kw": "Konteth Halland",
      "name:la": "Hallandiae Comitatus",
      "name:lt": "Halando lėnas",
      "name:lv": "Hallandes lēne",
      "name:ms": "Daerah Halland",
      "name:pt": "Halândia (condado)",
      "name:ru": "Халланд",
      "name:se": "Hallándda leatna",
      "name:tr": "Halland ili",
      "name:ur": "ہالاند کاؤنٹی",
      "name:vi": "Halland (hạt)",
      "name:vo": "Halläniän (provin)",
      "name:zh": "哈兰省",
      "boundary": "administrative",
      "ref:fips": "SW06",
      "ref:nuts": "SE231",
      "way_area": "1.36763",
      "wikidata": "Q103691",
      "ISO3166-2": "SE-N",
      "wikipedia": "sv:Hallands län",
      "ref:nuts:3": "SE231",
      "ref:se:scb": "13",
      "admin_level": "4"
    }
  },
  {
    "osm_id": -5825059,
    "boundary": "religious_administration",
    "admin_level": 4,
    "parents": "-52822",
    "name": "Diocese of Härnösand",
    "local_name": "Härnösands stift",
    "name_en": "Diocese of Härnösand",
    "all_tags": {
      "name": "Härnösands stift",
      "name:de": "Bistum Härnösand",
      "name:en": "Diocese of Härnösand",
      "name:sv": "Härnösands stift",
      "boundary": "religious_administration",
      "religion": "christian",
      "way_area": "14.6644",
      "wikidata": "Q869583",
      "admin_level": "4",
      "denomination": "church_of_sweden"
    }
  },
  {
    "osm_id": -52826,
    "boundary": "administrative",
    "admin_level": 4,
    "parents": "-52822",
    "name": "Jämtland County",
    "local_name": "Jämtlands län",
    "name_en": "Jämtland County",
    "all_tags": {
      "ref": "Z",
      "name": "Jämtlands län",
      "name:ar": "محافظة يمتلاند",
      "name:bs": "Kotar Jämtland",
      "name:ca": "Comtat de Jämtland",
      "name:de": "Provinz Jämtland",
      "name:en": "Jämtland County",
      "name:es": "Provincia de Jämtland",
      "name:et": "Jämtlandi lään",
      "name:eu": "Jämtlandeko konderria",
      "name:fa": "شهرستان یمتلاند",
      "name:fi": "Jämtlandin lääni",
      "name:fr": "Comté de Jämtland",
      "name:gl": "Condado de Jämtland",
      "name:he": "ימטלנד",
      "name:hi": "येम्तलान्द लैन",
      "name:hr": "Županija Jämtland",
      "name:hu": "Jämtland megye",
      "name:id": "Daerah Jämtland",
      "name:it": "Contea di Jämtland",
      "name:ja": "イェムトランド県",
      "name:ko": "옘틀란드 주",
      "name:kw": "Konteth Jämtland",
      "name:lt": "Jemtlando lėnas",
      "name:lv": "Jemtlandes lēne",
      "name:ms": "Daerah Jämtland",
      "name:pl": "Jämtland",
      "name:ru": "Емтланд",
      "name:se": "Jämtlándda leatna",
      "name:tr": "Jämtland ili",
      "name:ur": "جامتلنڈ کاؤنٹی",
      "name:zh": "耶姆特兰省",
      "boundary": "administrative",
      "ref:fips": "SW07",
      "ref:nuts": "SE322",
      "way_area": "9.6618",
      "wikidata": "Q103679",
      "ISO3166-2": "SE-Z",
      "wikipedia": "sv:Jämtlands län",
      "ref:nuts:3": "SE322",
      "ref:se:scb": "23",
      "admin_level": "4",
      "is_in:country": "Sweden",
      "is_in:continent": "Europe",
      "is_in:country_code": "SE"
    }
  },
  {
    "osm_id": -54391,
    "boundary": "administrative",
    "admin_level": 4,
    "parents": "-52822",
    "name": "Stockholm County",
    "local_name": "Stockholms län",
    "name_en": "Stockholm County",
    "all_tags": {
      "ref": "AB",
      "name": "Stockholms län",
      "name:ar": "محافظة ستوكهولم",
      "name:de": "Provinz Stockholm",
      "name:en": "Stockholm County",
      "name:es": "Provincia de Estocolmo",
      "name:fi": "Tukholman lääni",
      "name:fr": "Comté de Stockholm",
      "name:gl": "Provincia de Estocolmo",
      "name:hu": "Stockholm megye",
      "name:ru": "Стокгольм",
      "boundary": "administrative",
      "ref:fips": "SW26",
      "way_area": "2.66562",
      "wikidata": "Q104231",
      "ISO3166-2": "SE-AB",
      "wikipedia": "sv:Stockholms län",
      "ref:nuts:2": "SE11",
      "ref:nuts:3": "SE110",
      "ref:se:scb": "01",
      "admin_level": "4"
    }
  },
  {
    "osm_id": -941530,
    "boundary": "administrative",
    "admin_level": 4,
    "parents": "-52822",
    "name": "Gotland County",
    "local_name": "Gotlands län",
    "name_en": "Gotland County",
    "all_tags": {
      "ref": "I",
      "name": "Gotlands län",
      "name:de": "Provinz Gotland",
      "name:en": "Gotland County",
      "name:es": "Provincia de Gotland",
      "name:fi": "Gotlannin lääni",
      "name:fr": "Comté de Gotland",
      "name:hu": "Gotland megye",
      "name:lt": "Gotlando lėnas",
      "name:mk": "Готланд",
      "name:ru": "Готланд",
      "boundary": "administrative",
      "ref:fips": "SW05",
      "ref:nuts": "SE214",
      "way_area": "2.25293",
      "wikidata": "Q103738",
      "ISO3166-2": "SE-I",
      "wikipedia": "sv:Gotlands län",
      "ref:nuts:3": "SE214",
      "ref:se:scb": "09",
      "admin_level": "4"
    }
  },
  {
    "osm_id": -54221,
    "boundary": "administrative",
    "admin_level": 4,
    "parents": "-52822",
    "name": "Västmanland County",
    "local_name": "Västmanlands län",
    "name_en": "Västmanland County",
    "all_tags": {
      "ref": "U",
      "name": "Västmanlands län",
      "name:ar": "مقاطعة فستمانلاند",
      "name:bs": "Kotar Västmanland",
      "name:ca": "Comtat de Västmanland",
      "name:cs": "Västmanland",
      "name:de": "Provinz Västmanland",
      "name:en": "Västmanland County",
      "name:es": "Provincia de Västmanland",
      "name:et": "Västmanlandi lään",
      "name:eu": "Västmanlandeko konderria",
      "name:fa": "شهرستان وستمانلاند",
      "name:fi": "Västmanlandin lääni",
      "name:fr": "Comté de Västmanland",
      "name:gl": "Condado de Västmanland",
      "name:hi": "वेस्तमानलान्द लैन",
      "name:hr": "Županija Västmanland",
      "name:hu": "Västmanland megye",
      "name:id": "Daerah Västmanland",
      "name:it": "Contea di Västmanland",
      "name:ja": "ヴェストマンランド県",
      "name:ko": "베스트만란드 주",
      "name:kw": "Konteth Västmanland",
      "name:la": "Vestmanniae Comitatus",
      "name:lt": "Vestmanlandas",
      "name:lv": "Vestmanlandes lēne",
      "name:ms": "Daerah Västmanland",
      "name:pl": "Västmanland",
      "name:pt": "Västmanland (condado)",
      "name:ru": "Вестманланд",
      "name:se": "Västmanlándda leatna",
      "name:tr": "Västmanland ili",
      "name:ur": "ویستمانلاند کاؤنٹی",
      "name:zh": "西曼兰省",
      "boundary": "administrative",
      "ref:fips": "SW25",
      "ref:nuts": "SE125",
      "way_area": "0.908362",
      "wikidata": "Q105075",
      "ISO3166-2": "SE-U",
      "wikipedia": "sv:Västmanlands län",
      "ref:nuts:3": "SE125",
      "ref:se:scb": "19",
      "admin_level": "4"
    }
  },
  {
    "osm_id": -54413,
    "boundary": "administrative",
    "admin_level": 4,
    "parents": "-52822",
    "name": "Blekinge County",
    "local_name": "Blekinge län",
    "name_en": "Blekinge County",
    "all_tags": {
      "ref": "K",
      "name": "Blekinge län",
      "name:ar": "مقاطعة بليكينج",
      "name:bs": "Kotar Blekinge",
      "name:ca": "Comtat de Blekinge",
      "name:cv": "Блекинге ленĕ",
      "name:de": "Provinz Blekinge",
      "name:en": "Blekinge County",
      "name:es": "Provincia de Blekinge",
      "name:et": "Blekinge lään",
      "name:eu": "Blekingeko konderria",
      "name:fa": "شهرستان بلکینگه",
      "name:fi": "Blekingen lääni",
      "name:fr": "Comté de Blekinge",
      "name:gl": "Condado de Blekinge",
      "name:hi": "ब्लकिंगे लैन",
      "name:hr": "Županija Blekinge",
      "name:hu": "Blekinge megye",
      "name:id": "Daerah Blekinge",
      "name:it": "Contea di Blekinge",
      "name:ja": "ブレーキンゲ県",
      "name:ko": "블레킹에 주",
      "name:kw": "Konteth Blekinge",
      "name:la": "Blekingiae Comitatus",
      "name:lt": "Blekingės lėnas",
      "name:lv": "Blēkinges lēne",
      "name:ms": "Daerah Blekinge",
      "name:pl": "Blekinge",
      "name:ru": "Блекинге",
      "name:se": "Blekinge leatna",
      "name:th": "เทศมณฑลเบลียกิงเงอ",
      "name:tr": "Blekinge ili",
      "name:ur": "بلیکینے کاؤنٹی",
      "name:zh": "布萊金厄省",
      "boundary": "administrative",
      "ref:fips": "SW02",
      "ref:nuts": "SE221",
      "way_area": "1.00681",
      "wikidata": "Q102377",
      "ISO3166-2": "SE-K",
      "wikipedia": "sv:Blekinge län",
      "ref:nuts:3": "SE221",
      "ref:se:scb": "10",
      "admin_level": "4"
    }
  },
  {
    "osm_id": -52832,
    "boundary": "administrative",
    "admin_level": 4,
    "parents": "-52822",
    "name": "Gävleborg County",
    "local_name": "Gävleborgs län",
    "name_en": "Gävleborg County",
    "all_tags": {
      "ref": "X",
      "name": "Gävleborgs län",
      "name:ar": "مقاطعة يافلبورغ",
      "name:be": "Еўлебарг",
      "name:bs": "Kotar Gävleborg",
      "name:ca": "Comtat de Gävleborg",
      "name:cs": "Gävleborg",
      "name:de": "Provinz Gävleborg",
      "name:en": "Gävleborg County",
      "name:es": "Provincia de Gävleborg",
      "name:et": "Gävleborgi lään",
      "name:eu": "Gävleborgeko konderria",
      "name:fa": "شهرستان یولبوری",
      "name:fi": "Gävleborgin lääni",
      "name:fr": "Comté de Gävleborg",
      "name:gl": "Condado de Gävleborg",
      "name:he": "יבלבורג",
      "name:hi": "यैव्लेबॉर्य लैन",
      "name:hr": "Županija Gävleborg",
      "name:hu": "Gävleborg megye",
      "name:id": "Daerah Gävleborg",
      "name:it": "Contea di Gävleborg",
      "name:ja": "イェヴレボリ県",
      "name:ko": "예블레보리 주",
      "name:kw": "Konteth Gävleborg",
      "name:la": "Gävleborg Comitatus",
      "name:lt": "Jevleborgas",
      "name:lv": "Jēvleborjas lēne",
      "name:mk": "Јевлеборг",
      "name:ms": "Daerah Gävleborg",
      "name:pl": "Gävleborg",
      "name:pt": "Gävleborg",
      "name:ru": "Евлеборг",
      "name:se": "Gävleborgga leatna",
      "name:tr": "Gävleborg ili",
      "name:ur": "یاولیبوری کاؤنٹی",
      "name:vo": "Gävleborgiän",
      "name:zh": "耶夫勒堡省",
      "boundary": "administrative",
      "ref:fips": "SW03",
      "ref:nuts": "SE313",
      "way_area": "4.2421",
      "wikidata": "Q103699",
      "ISO3166-2": "SE-X",
      "wikipedia": "sv:Gävleborgs län",
      "ref:nuts:3": "SE313",
      "ref:se:scb": "21",
      "admin_level": "4",
      "is_in:country": "Sweden",
      "is_in:continent": "Europe",
      "is_in:country_code": "SE"
    }
  },
  {
    "osm_id": -54222,
    "boundary": "administrative",
    "admin_level": 4,
    "parents": "-52822",
    "name": "Örebro County",
    "local_name": "Örebro län",
    "name_en": "Örebro County",
    "all_tags": {
      "name": "Örebro län",
      "name:ar": "محافظة اوربرو",
      "name:bs": "Kotar Örebro",
      "name:ca": "Comtat d'Örebro",
      "name:de": "Provinz Örebro",
      "name:en": "Örebro County",
      "name:es": "Provincia de Örebro",
      "name:et": "Örebro lään",
      "name:eu": "Örebroko konderria",
      "name:fa": "شهرستان اوربرو",
      "name:fi": "Örebron lääni",
      "name:fr": "Comté d'Örebro",
      "name:gl": "Condado de Örebro",
      "name:he": "ארברו (מחוז)",
      "name:hi": "ओरेब्रो लैन",
      "name:hr": "Županija Örebro",
      "name:hu": "Örebro megye",
      "name:id": "Daerah Örebro",
      "name:it": "Contea di Örebro",
      "name:ja": "エレブルー県",
      "name:ko": "외레브로 주",
      "name:kw": "Konteth Örebro",
      "name:lt": "Erebru lėnas",
      "name:lv": "Erebrū lēne",
      "name:ms": "Daerah Örebro",
      "name:ru": "Эребру",
      "name:se": "Örebro leatna",
      "name:tr": "Örebro ili",
      "name:ur": "اوریبرو کاؤنٹی",
      "name:vo": "Lörebroiän",
      "name:zh": "厄勒布鲁省",
      "boundary": "administrative",
      "ref:fips": "SW15",
      "ref:nuts": "SE124",
      "way_area": "1.52864",
      "wikidata": "Q104257",
      "ISO3166-2": "SE-T",
      "wikipedia": "sv:Örebro län",
      "ref:nuts:3": "SE124",
      "ref:se:scb": "18",
      "admin_level": "4"
    }
  },
  {
    "osm_id": -54220,
    "boundary": "administrative",
    "admin_level": 4,
    "parents": "-52822",
    "name": "Uppsala County",
    "local_name": "Uppsala län",
    "name_en": "Uppsala County",
    "all_tags": {
      "ref": "C",
      "name": "Uppsala län",
      "name:ar": "محافظة اوبسالا",
      "name:de": "Provinz Uppsala",
      "name:en": "Uppsala County",
      "name:es": "Provincia de Upsala",
      "name:fi": "Uppsalan lääni",
      "name:fr": "Comté d'Uppsala",
      "name:hu": "Uppsala megye",
      "name:ru": "Уппсала",
      "boundary": "administrative",
      "ref:fips": "SW21",
      "ref:nuts": "SE121",
      "way_area": "1.94793",
      "wikidata": "Q104926",
      "ISO3166-2": "SE-C",
      "wikipedia": "sv:Uppsala län",
      "ref:nuts:3": "SE121",
      "ref:se:scb": "03",
      "admin_level": "4"
    }
  },
  {
    "osm_id": -52827,
    "boundary": "administrative",
    "admin_level": 4,
    "parents": "-52822",
    "name": "Västernorrland County",
    "local_name": "Västernorrlands län",
    "name_en": "Västernorrland County",
    "all_tags": {
      "ref": "Y",
      "name": "Västernorrlands län",
      "name:ar": "محافظة وسترنورلاند",
      "name:de": "Provinz Västernorrland",
      "name:en": "Västernorrland County",
      "name:es": "Provincia de Västernorrland",
      "name:fi": "Västernorrlandin lääni",
      "name:fr": "Comté de Västernorrland",
      "name:hu": "Västernorrland megye",
      "name:lt": "Vesternorlando lėnas",
      "name:ru": "Вестерноррланд",
      "name:sv": "Västernorrlands län",
      "boundary": "administrative",
      "ref:fips": "SW24",
      "ref:nuts": "SE321",
      "way_area": "5.00264",
      "wikidata": "Q104891",
      "ISO3166-2": "SE-Y",
      "wikipedia": "sv:Västernorrlands län",
      "ref:nuts:3": "SE321",
      "ref:se:scb": "22",
      "admin_level": "4",
      "is_in:country": "Sweden",
      "is_in:continent": "Europe",
      "is_in:country_code": "SE"
    }
  },
  {
    "osm_id": -52825,
    "boundary": "administrative",
    "admin_level": 4,
    "parents": "-52822",
    "name": "Västerbotten County",
    "local_name": "Västerbottens län",
    "name_en": "Västerbotten County",
    "all_tags": {
      "ref": "AC",
      "name": "Västerbottens län",
      "name:ar": "محافظة وستربوتن",
      "name:de": "Provinz Westbottnien",
      "name:en": "Västerbotten County",
      "name:es": "Provincia de Västerbotten",
      "name:fi": "Västerbottenin lääni",
      "name:fr": "Comté de Västerbotten",
      "name:hu": "Västerbotten megye",
      "name:lt": "Vesterboteno lėnas",
      "name:ru": "Вестерботтен",
      "boundary": "administrative",
      "ref:fips": "SW23",
      "ref:nuts": "SE331",
      "way_area": "12.6809",
      "wikidata": "Q104877",
      "ISO3166-2": "SE-AC",
      "wikipedia": "sv:Västerbottens län",
      "ref:nuts:3": "SE331",
      "ref:se:scb": "24",
      "admin_level": "4",
      "is_in:country": "Sweden",
      "is_in:continent": "Europe",
      "is_in:country_code": "SE"
    }
  },
  {
    "osm_id": -52824,
    "boundary": "administrative",
    "admin_level": 4,
    "parents": "-52822",
    "name": "Norrbotten County",
    "local_name": "Norrbottens län",
    "name_en": "Norrbotten County",
    "all_tags": {
      "ref": "BD",
      "name": "Norrbottens län",
      "name:ar": "محافظة نوربوتن",
      "name:de": "Provinz Norrbotten",
      "name:en": "Norrbotten County",
      "name:es": "Provincia de Norrbotten",
      "name:fi": "Norrbottenin lääni",
      "name:fr": "Comté de Norrbotten",
      "name:hu": "Norrbotten megye",
      "name:lt": "Norboteno lėnas",
      "name:ru": "Норрботтен",
      "name:sv": "Norrbottens län",
      "boundary": "administrative",
      "ref:fips": "SW14",
      "ref:nuts": "SE332",
      "way_area": "23.0992",
      "wikidata": "Q103686",
      "ISO3166-2": "SE-BD",
      "wikipedia": "sv:Norrbottens län",
      "ref:nuts:3": "SE332",
      "ref:se:scb": "25",
      "admin_level": "4",
      "alt_name:fi": "Pohjoispohjan lääni",
      "is_in:country": "Sweden",
      "is_in:continent": "Europe",
      "is_in:country_code": "SE"
    }
  },
  {
    "osm_id": -54412,
    "boundary": "administrative",
    "admin_level": 4,
    "parents": "-52822",
    "name": "Kronoberg County",
    "local_name": "Kronobergs län",
    "name_en": "Kronoberg County",
    "all_tags": {
      "ref": "G",
      "name": "Kronobergs län",
      "name:ar": "محافظة كرونوبري",
      "name:be": "Крунуберг",
      "name:bs": "Kotar Kronoberg",
      "name:ca": "Comtat de Kronoberg",
      "name:cs": "Kronoberg",
      "name:de": "Provinz Kronoberg",
      "name:en": "Kronoberg County",
      "name:es": "Provincia de Kronoberg",
      "name:et": "Kronobergi lään",
      "name:eu": "Kronobergeko konderria",
      "name:fa": "شهرستان کرونوبری",
      "name:fi": "Kronobergin lääni",
      "name:fr": "Comté de Kronoberg",
      "name:gl": "Condado de Kronoberg",
      "name:hi": "क्रूनुबैर्य लैन",
      "name:hr": "Županija Kronoberg",
      "name:hu": "Kronoberg megye",
      "name:id": "Daerah Kronoberg",
      "name:it": "Contea di Kronoberg",
      "name:ja": "クロノベリ県",
      "name:ko": "크로노베리 주",
      "name:kw": "Konteth Kronoberg",
      "name:la": "Cronobergiae Comitatus",
      "name:lt": "Kronobergo lėnas",
      "name:lv": "Krūnuberjas lēne",
      "name:ms": "Daerah Kronoberg",
      "name:os": "Крунуберг",
      "name:pl": "Kronoberg",
      "name:ru": "Крунуберг",
      "name:se": "Kronobergga leatna",
      "name:tr": "Kronoberg ili",
      "name:uk": "Крунуберг",
      "name:ur": "کرونوبری کاؤنٹی",
      "name:vo": "Kronobergiän",
      "name:zh": "克鲁努贝里省",
      "boundary": "administrative",
      "ref:fips": "SW12",
      "ref:nuts": "SE212",
      "way_area": "1.38605",
      "wikidata": "Q104746",
      "ISO3166-2": "SE-G",
      "wikipedia": "sv:Kronobergs län",
      "ref:nuts:3": "SE212",
      "ref:se:scb": "07",
      "admin_level": "4"
    }
  },
  {
    "osm_id": -54223,
    "boundary": "administrative",
    "admin_level": 4,
    "parents": "-52822",
    "name": "Värmland County",
    "local_name": "Värmlands län",
    "name_en": "Värmland County",
    "all_tags": {
      "ref": "S",
      "name": "Värmlands län",
      "name:ar": "محافظة ورملاند",
      "name:bs": "Kotar Värmland",
      "name:ca": "Comtat de Värmland",
      "name:de": "Provinz Värmland",
      "name:el": "Κομητεία Βέρμλαντ",
      "name:en": "Värmland County",
      "name:es": "Provincia de Värmland",
      "name:et": "Värmlandi lään",
      "name:eu": "Värmlandeko konderria",
      "name:fa": "شهرستان ورملاند",
      "name:fi": "Värmlannin lääni",
      "name:fr": "Comté de Värmland",
      "name:gl": "Condado de Värmland",
      "name:he": "ורמלנד",
      "name:hi": "वैर्मलान्द लैन",
      "name:hr": "Županija Värmland",
      "name:hu": "Värmland megye",
      "name:id": "Daerah Värmland",
      "name:it": "Contea di Värmland",
      "name:ja": "ヴェルムランド県",
      "name:ko": "베름란드 주",
      "name:kw": "Konteth Värmland",
      "name:la": "Varmelandiae Comitatus",
      "name:lt": "Vermlandas",
      "name:lv": "Vermlandes lēne",
      "name:ms": "Daerah Värmland",
      "name:pl": "Värmland",
      "name:ru": "Вермланд",
      "name:se": "Värmlándda leatna",
      "name:sk": "Värmland (provincia)",
      "name:su": "County Värmland",
      "name:tr": "Värmland ili",
      "name:ur": "وارملاند کاؤنٹی",
      "name:zh": "韦姆兰省",
      "boundary": "administrative",
      "ref:fips": "SW22",
      "ref:nuts": "SE311",
      "way_area": "3.50079",
      "wikidata": "Q106789",
      "ISO3166-2": "SE-S",
      "wikipedia": "sv:Värmlands län",
      "ref:nuts:3": "SE311",
      "ref:se:scb": "17",
      "admin_level": "4"
    }
  },
  {
    "osm_id": -940675,
    "boundary": "administrative",
    "admin_level": 4,
    "parents": "-52822",
    "name": "Östergötland County",
    "local_name": "Östergötlands län",
    "name_en": "Östergötland County",
    "all_tags": {
      "ref": "E",
      "name": "Östergötlands län",
      "name:ar": "مقاطعة أوسترغوتلاند",
      "name:bs": "Kotar Östergötland",
      "name:ca": "Comtat d'Östergötland",
      "name:cs": "Östergötland",
      "name:de": "Provinz Östergötland",
      "name:en": "Östergötland County",
      "name:es": "Provincia de Östergötland",
      "name:et": "Östergötlandi lään",
      "name:eu": "Östergötlandeko konderria",
      "name:fa": "شهرستان اوستریوتلاند",
      "name:fi": "Itä-Götanmaan lääni",
      "name:fr": "Comté d'Östergötland",
      "name:gl": "Condado de Östergötland",
      "name:he": "אסטרייטלנד",
      "name:hi": "ओस्तरयोतलान्द लैन",
      "name:hr": "Županija Östergötland",
      "name:hu": "Östergötland megye",
      "name:id": "Daerah Östergötland",
      "name:it": "Contea di Östergötland",
      "name:ja": "エステルイェータランド県",
      "name:ko": "외스테르예틀란드 주",
      "name:kw": "Konteth Östergötland",
      "name:la": "Gothiae Orientalis Comitatus",
      "name:lt": "Esterjotlando lėnas",
      "name:lv": "Esterjētlandes lēne",
      "name:ms": "Daerah Östergötland",
      "name:pl": "Östergötland",
      "name:ru": "Эстергётланд",
      "name:se": "Nuortagötlándda leatna",
      "name:tr": "Östergötland ili",
      "name:ur": "اوستریوتلاند کاؤنٹی",
      "name:zh": "东约特兰省",
      "boundary": "administrative",
      "ref:fips": "SW16",
      "ref:nuts": "SE123",
      "way_area": "2.25183",
      "wikidata": "Q104940",
      "ISO3166-2": "SE-E",
      "wikipedia": "sv:Östergötlands län",
      "ref:nuts:3": "SE123",
      "ref:se:scb": "05",
      "admin_level": "4"
    }
  },
  {
    "osm_id": -54417,
    "boundary": "administrative",
    "admin_level": 4,
    "parents": "-52822",
    "name": "Kalmar County",
    "local_name": "Kalmar län",
    "name_en": "Kalmar County",
    "all_tags": {
      "ref": "H",
      "name": "Kalmar län",
      "name:ar": "مقاطعة كالمار",
      "name:de": "Provinz Kalmar",
      "name:en": "Kalmar County",
      "name:es": "Provincia de Kalmar",
      "name:fi": "Kalmarin lääni",
      "name:fr": "Comté de Kalmar",
      "name:gl": "Condado de Kalmar",
      "name:hi": "कल्मार लैन",
      "name:hr": "Županija Kalmar",
      "name:hu": "Kalmar megye",
      "name:id": "Daerah Kalmar",
      "name:it": "Contea di Kalmar",
      "name:ja": "カルマル県",
      "name:ko": "칼마르 주",
      "name:kw": "Konteth Kalmar",
      "name:la": "Calmariae Comitatus",
      "name:lt": "Kalmaro lėnas",
      "name:lv": "Kalmaras lēne",
      "name:ms": "Daerah Kalmar",
      "name:ru": "Кальмар",
      "name:se": "Kalmara leatna",
      "name:vo": "Kalmariän",
      "boundary": "administrative",
      "ref:fips": "SW09",
      "ref:nuts": "SE213",
      "way_area": "3.05796",
      "wikidata": "Q103707",
      "ISO3166-2": "SE-H",
      "wikipedia": "sv:Kalmar län",
      "ref:nuts:3": "SE213",
      "ref:se:scb": "08",
      "admin_level": "4"
    }
  }
]
