[
  {
    "osm_id": -1703918,
    "boundary": "census",
    "admin_level": 5,
    "parents": "-1687223,-218657",
    "name": "Mura Statistical Region",
    "local_name": "Pomurska regija",
    "name_en": "Mura Statistical Region",
    "all_tags": {
      "name": "Pomurska regija",
      "name:cs": "Pomurský region",
      "name:de": "Statistische Region Murgebiet",
      "name:en": "Mura Statistical Region",
      "name:hu": "Muravidék statisztikai régió",
      "name:ru": "Помурска",
      "name:sl": "Pomurska regija",
      "website": "https://www.stat.si/obcine/Region/Index/1",
      "boundary": "census",
      "ref:nuts": "SI031",
      "way_area": "0.156999",
      "wikidata": "Q846162",
      "population": "114776",
      "ref:nuts:3": "SI031",
      "short_name": "Pomurska",
      "admin_level": "5",
      "is_in:country": "Slovenia",
      "official_name": "Pomurska statistična regija",
      "is_in:country_code": "SI"
    }
  },
  {
    "osm_id": -1703687,
    "boundary": "census",
    "admin_level": 5,
    "parents": "-1687223,-218657",
    "name": "Koroška regija",
    "local_name": "Koroška regija",
    "name_en": null,
    "all_tags": {
      "name": "Koroška regija",
      "name:cs": "Korutanský region",
      "name:es": "Carintia",
      "name:hu": "Karintia statisztikai régió",
      "name:sl": "Koroška regija",
      "website": "https://www.stat.si/obcine/Region/Index/3",
      "boundary": "census",
      "ref:nuts": "SI033",
      "way_area": "0.122068",
      "wikidata": "Q673562",
      "population": "70550",
      "ref:nuts:3": "SI033",
      "short_name": "Koroška",
      "admin_level": "5",
      "is_in:country": "Slovenia",
      "official_name": "Koroška statistična regija",
      "is_in:country_code": "SI"
    }
  },
  {
    "osm_id": -1703668,
    "boundary": "census",
    "admin_level": 5,
    "parents": "-1687223,-218657",
    "name": "Podravska regija",
    "local_name": "Podravska regija",
    "name_en": null,
    "all_tags": {
      "name": "Podravska regija",
      "name:cs": "Podrávský region",
      "name:de": "Draugebiet",
      "name:hu": "Drávavidék statisztikai régió",
      "name:ru": "Подравска",
      "name:sl": "Podravska regija",
      "website": "https://www.stat.si/obcine/Region/Index/2",
      "boundary": "census",
      "ref:nuts": "SI032",
      "way_area": "0.254189",
      "wikidata": "Q856328",
      "population": "322058",
      "ref:nuts:3": "SI032",
      "short_name": "Podravska",
      "admin_level": "5",
      "is_in:country": "Slovenia",
      "official_name": "Podravska statistična regija",
      "is_in:country_code": "SI"
    }
  },
  {
    "osm_id": -1703402,
    "boundary": "census",
    "admin_level": 5,
    "parents": "-1687223,-218657",
    "name": "Zasavska regija",
    "local_name": "Zasavska regija",
    "name_en": null,
    "all_tags": {
      "name": "Zasavska regija",
      "name:cs": "Zasávský region",
      "name:hu": "Felső Száva-menti statisztikai régió",
      "website": "https://www.stat.si/obcine/Region/Index/5",
      "boundary": "census",
      "ref:nuts": "SI035",
      "way_area": "0.0564549",
      "wikidata": "Q148188",
      "population": "57061",
      "ref:nuts:3": "SI035",
      "short_name": "Zasavska",
      "admin_level": "5",
      "is_in:country": "Slovenia",
      "official_name": "Zasavska statistična regija",
      "is_in:country_code": "SI"
    }
  },
  {
    "osm_id": -1703401,
    "boundary": "census",
    "admin_level": 5,
    "parents": "-1687223,-218657",
    "name": "Lower Sava Statistical Region",
    "local_name": "Posavska regija",
    "name_en": "Lower Sava Statistical Region",
    "all_tags": {
      "name": "Posavska regija",
      "name:cs": "Posávský region",
      "name:en": "Lower Sava Statistical Region",
      "name:hu": "Alsó Száva-menti statisztikai régió",
      "name:ru": "Нижняя Посавска",
      "name:sl": "Posavska regija",
      "website": "https://www.stat.si/obcine/Region/Index/6",
      "boundary": "census",
      "old_name": "spodnjeposavska;spodnjeposavska statistična regija",
      "ref:nuts": "SI036",
      "way_area": "0.112422",
      "wikidata": "Q913773",
      "population": "75359",
      "ref:nuts:3": "SI036",
      "short_name": "Posavska",
      "admin_level": "5",
      "is_in:country": "Slovenia",
      "official_name": "Posavska statistična regija",
      "is_in:country_code": "SI"
    }
  },
  {
    "osm_id": -1703400,
    "boundary": "census",
    "admin_level": 5,
    "parents": "-1687223,-218657",
    "name": "Savinja Statistical Region",
    "local_name": "Savinjska regija",
    "name_en": "Savinja Statistical Region",
    "all_tags": {
      "name": "Savinjska regija",
      "name:cs": "Sávský region",
      "name:de": "Statistische Region Sann-Gegend",
      "name:en": "Savinja Statistical Region",
      "name:hu": "Savinja-vidék statisztikai régió",
      "name:ru": "Савиньска",
      "name:sl": "Savinjska regija",
      "website": "https://www.stat.si/obcine/Region/Index/4",
      "boundary": "census",
      "ref:nuts": "SI034",
      "way_area": "0.268592",
      "wikidata": "Q549369",
      "population": "254760",
      "ref:nuts:3": "SI034",
      "short_name": "Savinjska",
      "admin_level": "5",
      "is_in:country": "Slovenia",
      "official_name": "Savinjska statistična regija",
      "is_in:country_code": "SI"
    }
  },
  {
    "osm_id": -1703387,
    "boundary": "census",
    "admin_level": 5,
    "parents": "-1687224,-218657",
    "name": "Osrednjeslovenska regija",
    "local_name": "Osrednjeslovenska regija",
    "name_en": null,
    "all_tags": {
      "name": "Osrednjeslovenska regija",
      "name:cs": "Středoslovinský region",
      "name:de": "Zentralslowenien",
      "name:hu": "Közép-Szlovénia",
      "name:sl": "Osrednjeslovenska regija",
      "website": "https://www.stat.si/obcine/Region/Index/8",
      "boundary": "census",
      "ref:nuts": "SI041",
      "way_area": "0.271245",
      "wikidata": "Q205926",
      "population": "542306",
      "ref:nuts:3": "SI041",
      "short_name": "Osrednjeslovenska",
      "admin_level": "5",
      "is_in:country": "Slovenia",
      "official_name": "Osrednjeslovenska statistična regija",
      "is_in:country_code": "SI"
    }
  },
  {
    "osm_id": -1699230,
    "boundary": "census",
    "admin_level": 5,
    "parents": "-1687224,-218657",
    "name": "Upper Carniola Statistical Region",
    "local_name": "Gorenjska regija",
    "name_en": "Upper Carniola Statistical Region",
    "all_tags": {
      "name": "Gorenjska regija",
      "name:cs": "Hornokraňský region",
      "name:de": "Statistische Region Oberkrain",
      "name:en": "Upper Carniola Statistical Region",
      "name:hu": "Hegyvidék statisztikai régió",
      "name:ru": "Гореньска",
      "name:sl": "Gorenjska regija",
      "website": "https://www.stat.si/obcine/Region/Index/9",
      "boundary": "census",
      "ref:nuts": "SI042",
      "way_area": "0.249537",
      "wikidata": "Q659845",
      "population": "203636",
      "ref:nuts:3": "SI042",
      "short_name": "Gorenjska",
      "admin_level": "5",
      "is_in:country": "Slovenia",
      "official_name": "Gorenjska statistična regija",
      "is_in:country_code": "SI"
    }
  },
  {
    "osm_id": -1699148,
    "boundary": "census",
    "admin_level": 5,
    "parents": "-1687224,-218657",
    "name": "Goriška regija",
    "local_name": "Goriška regija",
    "name_en": null,
    "all_tags": {
      "name": "Goriška regija",
      "name:cs": "Gorický region",
      "name:de": "Görz",
      "name:hu": "Gorizia statisztikai régió",
      "name:it": "Goriziano",
      "name:ru": "Горишка",
      "name:sl": "Goriška regija",
      "website": "https://www.stat.si/obcine/Region/Index/11",
      "boundary": "census",
      "ref:nuts": "SI043",
      "way_area": "0.270489",
      "wikidata": "Q858792",
      "population": "117260",
      "ref:nuts:3": "SI043",
      "short_name": "Goriška",
      "admin_level": "5",
      "is_in:country": "Slovenia",
      "official_name": "Goriška statistična regija",
      "is_in:country_code": "SI"
    }
  },
  {
    "osm_id": -541729,
    "boundary": "census",
    "admin_level": 5,
    "parents": "-1687223,-218657",
    "name": "Jugovzhodna Slovenija",
    "local_name": "Jugovzhodna Slovenija",
    "name_en": null,
    "all_tags": {
      "name": "Jugovzhodna Slovenija",
      "name:cs": "Jihovýchodní slovinský region",
      "name:de": "Südost-Slowenien",
      "name:hr": "Jugozapadna Slovenija",
      "name:hu": "Délkelet-Szlovénia",
      "name:ru": "Юго-Восточная Словения",
      "name:sl": "Jugovzhodna Slovenija",
      "website": "https://www.stat.si/obcine/Region/Index/7",
      "boundary": "census",
      "ref:nuts": "SI037",
      "way_area": "0.309147",
      "wikidata": "Q856299",
      "population": "142819",
      "ref:nuts:3": "SI037",
      "admin_level": "5",
      "is_in:country": "Slovenia",
      "is_in:country_code": "SI"
    }
  },
  {
    "osm_id": -541722,
    "boundary": "census",
    "admin_level": 5,
    "parents": "-1687224,-218657",
    "name": "Obalno-kraška regija",
    "local_name": "Obalno-kraška regija",
    "name_en": null,
    "all_tags": {
      "name": "Obalno-kraška regija",
      "name:cs": "Pobřežně-krasový region",
      "name:de": "Küste und Karst",
      "name:hu": "Partvidék és Karszt statisztikai régió",
      "name:it": "Litorale-Carso",
      "name:ru": "Обално-Крашка",
      "name:sl": "Obalno-kraška regija",
      "website": "https://www.stat.si/obcine/Region/Index/12",
      "boundary": "census",
      "ref:nuts": "SI044",
      "way_area": "0.145815",
      "wikidata": "Q833534",
      "population": "113961",
      "ref:nuts:3": "SI044",
      "short_name": "Obalno-kraška",
      "admin_level": "5",
      "is_in:country": "Slovenia",
      "official_name": "Obalno-kraška statistična regija",
      "is_in:country_code": "SI"
    }
  },
  {
    "osm_id": -541718,
    "boundary": "census",
    "admin_level": 5,
    "parents": "-1687223,-218657",
    "name": "Littoral–Inner Carniola Region",
    "local_name": "Primorsko-notranjska regija",
    "name_en": "Littoral–Inner Carniola Region",
    "all_tags": {
      "name": "Primorsko-notranjska regija",
      "name:cs": "Přímořsko-vnitrokraňský region",
      "name:de": "Küstenland-Innerkrain",
      "name:en": "Littoral–Inner Carniola Region",
      "name:it": "Carniola Interna-Carso",
      "name:ru": "Нотраньска-Крашка",
      "name:sl": "Primorsko-notranjska regija",
      "website": "https://www.stat.si/obcine/Region/Index/10",
      "boundary": "census",
      "old_name": "notranjsko-kraška;notranjsko-kraška statistična regija",
      "ref:nuts": "SI038",
      "way_area": "0.168183",
      "wikidata": "Q375299",
      "population": "52334",
      "ref:nuts:3": "SI038",
      "short_name": "Primorsko-notranjska",
      "admin_level": "5",
      "is_in:country": "Slovenia",
      "official_name": "Primorsko-notranjska statistična regija",
      "is_in:country_code": "SI"
    }
  }
]
