[
  {
    "osm_id": -1702499,
    "boundary": "administrative",
    "admin_level": 6,
    "parents": "-388265,-14296",
    "name": "Bratislava",
    "local_name": "Bratislava",
    "name_en": null,
    "all_tags": {
      "name": "Bratislava",
      "name:ar": "براتيسلافا",
      "name:de": "Bratislava",
      "name:eo": "Bratislavo",
      "name:hu": "Pozsony",
      "name:lt": "Bratislava",
      "name:pl": "Bratysława",
      "name:ru": "Братислава",
      "boundary": "administrative",
      "way_area": "0.0444238",
      "wikidata": "Q1780",
      "wikipedia": "sk:Bratislava",
      "admin_level": "6",
      "old_name:de": "Pressburg"
    }
  },
  {
    "osm_id": -388265,
    "boundary": "administrative",
    "admin_level": 4,
    "parents": "-14296",
    "name": "Region of Bratislava",
    "local_name": "Bratislavský kraj",
    "name_en": "Region of Bratislava",
    "all_tags": {
      "ref": "SK010",
      "name": "Bratislavský kraj",
      "NUTS3": "SK010",
      "name:ar": "إقليم براتيسلافا",
      "name:de": "Bratislavaer Landschaftsverband",
      "name:en": "Region of Bratislava",
      "name:es": "Región de Bratislava",
      "name:fr": "Région de Bratislava",
      "name:hr": "Bratislavski kraj",
      "name:hu": "Pozsonyi kerület",
      "name:pl": "Kraj bratysławski",
      "name:ru": "Братиславский край",
      "name:uk": "Братиславський край",
      "boundary": "administrative",
      "ref:nuts": "SK01;SK010",
      "way_area": "0.248773",
      "wikidata": "Q183498",
      "ISO3166-2": "SK-BL",
      "wikipedia": "sk:Bratislavský kraj",
      "ref:nuts:2": "SK01",
      "ref:nuts:3": "SK010",
      "admin_level": "4",
      "old_name:de": "Bratislavaer Landschaftsverband",
      "is_in:country": "Slovakia",
      "is_in:continent": "Europe",
      "is_in:country_code": "SK"
    }
  },
  {
    "osm_id": -388266,
    "boundary": "administrative",
    "admin_level": 4,
    "parents": "-946157,-14296",
    "name": "Region of Trnava",
    "local_name": "Trnavský kraj",
    "name_en": "Region of Trnava",
    "all_tags": {
      "ref": "SK021",
      "name": "Trnavský kraj",
      "NUTS3": "SK021",
      "name:ar": "إقليم ترنافا",
      "name:de": "Tyrnauer Landschaftsverband",
      "name:en": "Region of Trnava",
      "name:es": "Región de Trnava",
      "name:fi": "Trnavan alue",
      "name:fr": "Région de Trnava",
      "name:hr": "Trnavski kraj",
      "name:hu": "Nagyszombati kerület",
      "name:lt": "Trnavos kraštas",
      "name:pl": "Kraj trnawski",
      "name:ru": "Трнавский край",
      "name:uk": "Трнавський край",
      "boundary": "administrative",
      "ref:nuts": "SK021",
      "way_area": "0.503",
      "wikidata": "Q181342",
      "ISO3166-2": "SK-TA",
      "wikipedia": "sk:Trnavský kraj",
      "ref:nuts:3": "SK021",
      "admin_level": "4",
      "is_in:country": "Slovakia",
      "is_in:continent": "Europe",
      "is_in:country_code": "SK"
    }
  },
  {
    "osm_id": -388267,
    "boundary": "administrative",
    "admin_level": 4,
    "parents": "-946157,-14296",
    "name": "Region of Trenčín",
    "local_name": "Trenčiansky kraj",
    "name_en": "Region of Trenčín",
    "all_tags": {
      "ref": "SK022",
      "name": "Trenčiansky kraj",
      "NUTS3": "SK022",
      "name:ar": "إقليم ترنتشين",
      "name:de": "Trentschiner Landschaftsverband",
      "name:en": "Region of Trenčín",
      "name:es": "Región de Trenčín",
      "name:fr": "Région de Trenčín",
      "name:hr": "Trenčinski kraj",
      "name:hu": "Trencséni kerület",
      "name:pl": "Kraj trenczyński",
      "name:ru": "Тренчинский край",
      "name:uk": "Тренчинський край",
      "boundary": "administrative",
      "ref:nuts": "SK022",
      "way_area": "0.551677",
      "wikidata": "Q183139",
      "ISO3166-2": "SK-TC",
      "wikipedia": "sk:Trenčiansky kraj",
      "ref:nuts:3": "SK022",
      "admin_level": "4",
      "is_in:country": "Slovakia",
      "is_in:continent": "Europe",
      "is_in:country_code": "SK"
    }
  },
  {
    "osm_id": -388268,
    "boundary": "administrative",
    "admin_level": 4,
    "parents": "-946157,-14296",
    "name": "Region of Nitra",
    "local_name": "Nitriansky kraj",
    "name_en": "Region of Nitra",
    "all_tags": {
      "ref": "SK023",
      "name": "Nitriansky kraj",
      "NUTS3": "SK023",
      "name:ar": "إقليم نيترا",
      "name:de": "Neutraer Landschaftsverband",
      "name:en": "Region of Nitra",
      "name:es": "Región de Nitra",
      "name:fr": "Région de Nitra",
      "name:hr": "Nitranski kraj",
      "name:hu": "Nyitrai kerület",
      "name:pl": "Kraj nitrzański",
      "name:ru": "Нитранский край",
      "name:uk": "Нітранський край",
      "boundary": "administrative",
      "ref:nuts": "SK023",
      "way_area": "0.766317",
      "wikidata": "Q184548",
      "ISO3166-2": "SK-NI",
      "wikipedia": "sk:Nitriansky kraj",
      "ref:nuts:3": "SK023",
      "admin_level": "4",
      "is_in:country": "Slovakia",
      "is_in:continent": "Europe",
      "is_in:country_code": "SK"
    }
  },
  {
    "osm_id": -388270,
    "boundary": "administrative",
    "admin_level": 4,
    "parents": "-946158,-14296",
    "name": "Region of Banská Bystrica",
    "local_name": "Banskobystrický kraj",
    "name_en": "Region of Banská Bystrica",
    "all_tags": {
      "ref": "SK032",
      "name": "Banskobystrický kraj",
      "name:ar": "إقليم بانسكا بيستريتسا",
      "name:de": "Neusohler Landschaftsverband",
      "name:en": "Region of Banská Bystrica",
      "name:es": "Región de Banská Bystrica",
      "name:fr": "Région de Banská Bystrica",
      "name:hr": "Banskobistrički kraj",
      "name:hu": "Besztercebányai kerület",
      "name:pl": "Kraj bańskobystrzycki",
      "name:ru": "Банскобистрицкий край",
      "name:uk": "Банськобистрицький край",
      "boundary": "administrative",
      "ref:nuts": "SK032",
      "way_area": "1.15085",
      "wikidata": "Q183640",
      "ISO3166-2": "SK-BC",
      "ref:nuts:3": "SK032",
      "admin_level": "4",
      "is_in:country": "Slovakia",
      "is_in:continent": "Europe",
      "is_in:country_code": "SK"
    }
  },
  {
    "osm_id": -388269,
    "boundary": "administrative",
    "admin_level": 4,
    "parents": "-946158,-14296",
    "name": "Region of Žilina",
    "local_name": "Žilinský kraj",
    "name_en": "Region of Žilina",
    "all_tags": {
      "ref": "SK031",
      "name": "Žilinský kraj",
      "NUTS3": "SK031",
      "name:ar": "إقليم جيلينا",
      "name:de": "Silleiner Landschaftsverband",
      "name:en": "Region of Žilina",
      "name:es": "Región de Žilina",
      "name:fr": "Région de Žilina",
      "name:hr": "Žilinski kraj",
      "name:hu": "Zsolnai kerület",
      "name:pl": "Kraj żyliński",
      "name:ru": "Жилинский край",
      "name:uk": "Жилінський край",
      "boundary": "administrative",
      "ref:nuts": "SK031",
      "way_area": "0.839459",
      "wikidata": "Q184228",
      "ISO3166-2": "SK-ZI",
      "wikipedia": "sk:Žilinský kraj",
      "ref:nuts:3": "SK031",
      "admin_level": "4",
      "is_in:country": "Slovakia",
      "is_in:continent": "Europe",
      "is_in:country_code": "SK"
    }
  },
  {
    "osm_id": -388272,
    "boundary": "administrative",
    "admin_level": 4,
    "parents": "-946159,-14296",
    "name": "Region of Košice",
    "local_name": "Košický kraj",
    "name_en": "Region of Košice",
    "all_tags": {
      "ref": "SK042",
      "name": "Košický kraj",
      "NUTS3": "SK042",
      "name:ar": "إقليم كوشيتسه",
      "name:de": "Kaschauer Landschaftsverband",
      "name:en": "Region of Košice",
      "name:es": "Región de Košice",
      "name:fr": "Région de Košice",
      "name:hr": "Košički kraj",
      "name:hu": "Kassai kerület",
      "name:pl": "Kraj koszycki",
      "name:ro": "Regiunea Košice",
      "name:ru": "Кошицкий край",
      "name:sk": "Košický kraj",
      "name:uk": "Кошицький край",
      "boundary": "administrative",
      "ref:nuts": "SK042",
      "way_area": "0.824803",
      "wikidata": "Q186295",
      "ISO3166-2": "SK-KI",
      "ref:nuts:3": "SK042",
      "admin_level": "4",
      "is_in:country": "Slovakia",
      "is_in:continent": "Europe",
      "is_in:country_code": "SK"
    }
  },
  {
    "osm_id": -1690324,
    "boundary": "administrative",
    "admin_level": 6,
    "parents": "-388272,-946159,-14296",
    "name": "Košice",
    "local_name": "Košice",
    "name_en": null,
    "all_tags": {
      "name": "Košice",
      "name:ar": "كوشيتسه",
      "name:de": "Kaschau",
      "name:el": "Κόσιτσε",
      "name:fa": "کوشیتسه",
      "name:hu": "Kassa",
      "name:hy": "Կոշիցե",
      "name:pl": "Koszyce",
      "name:ps": "کوشیتسه",
      "name:uk": "Кошиці",
      "name:ur": "کوشیسہ",
      "name:zh": "科希策",
      "boundary": "administrative",
      "name:azb": "کوشیتسه",
      "name:pnb": "کوشیسے",
      "way_area": "0.0289658",
      "wikidata": "Q25409",
      "wikipedia": "sk:Košice",
      "admin_level": "6",
      "name:az-Arab": "کوشیتسه",
      "name:pa-Arab": "کوشیسے"
    }
  },
  {
    "osm_id": -388271,
    "boundary": "administrative",
    "admin_level": 4,
    "parents": "-946159,-14296",
    "name": "Region of Prešov",
    "local_name": "Prešovský kraj",
    "name_en": "Region of Prešov",
    "all_tags": {
      "ref": "SK041",
      "name": "Prešovský kraj",
      "NUTS3": "SK041",
      "name:ar": "إقليم بريشوف",
      "name:de": "Eperieser Landschaftsverband",
      "name:en": "Region of Prešov",
      "name:es": "Región de Prešov",
      "name:fr": "Région de Prešov",
      "name:hr": "Prešovski kraj",
      "name:hu": "Eperjesi kerület",
      "name:pl": "Kraj preszowski",
      "name:ru": "Прешовский край",
      "name:uk": "Пряшівський край",
      "boundary": "administrative",
      "ref:nuts": "SK041",
      "way_area": "1.10524",
      "wikidata": "Q189001",
      "ISO3166-2": "SK-PV",
      "ref:nuts:3": "SK041",
      "admin_level": "4",
      "is_in:country": "Slovakia",
      "is_in:continent": "Europe",
      "is_in:country_code": "SK"
    }
  }
]
