[
  {
    "osm_id": -13702732,
    "boundary": "administrative",
    "admin_level": 4,
    "parents": "-192799",
    "name": "Jubaland",
    "local_name": "Jubaland جوبالاند",
    "name_en": "Jubaland",
    "all_tags": {
      "name": "Jubaland جوبالاند",
      "name:ar": "جوبالاند",
      "name:en": "Jubaland",
      "name:so": "Jubaland",
      "boundary": "administrative",
      "way_area": "9.763",
      "wikidata": "Q949280",
      "admin_level": "4"
    }
  },
  {
    "osm_id": -13702731,
    "boundary": "administrative",
    "admin_level": 4,
    "parents": "-192799",
    "name": "South West",
    "local_name": "Koonfur Galbeed جنوب غرب",
    "name_en": "South West",
    "all_tags": {
      "name": "Koonfur Galbeed جنوب غرب",
      "name:ar": "جنوب غرب",
      "name:en": "South West",
      "name:so": "Koonfur Galbeed",
      "boundary": "administrative",
      "way_area": "8.18914",
      "wikidata": "Q1136259",
      "admin_level": "4"
    }
  },
  {
    "osm_id": -13702730,
    "boundary": "administrative",
    "admin_level": 4,
    "parents": "-192799",
    "name": "Hirshabelle",
    "local_name": "Hirshabeelle هيرشابيل",
    "name_en": "Hirshabelle",
    "all_tags": {
      "name": "Hirshabeelle هيرشابيل",
      "name:ar": "هيرشابيل",
      "name:en": "Hirshabelle",
      "name:so": "Hirshabeelle",
      "boundary": "administrative",
      "way_area": "4.7196",
      "wikidata": "Q30322863",
      "admin_level": "4"
    }
  },
  {
    "osm_id": -13702729,
    "boundary": "administrative",
    "admin_level": 4,
    "parents": "-192799",
    "name": "Galmudug",
    "local_name": "Galmudug غامدوغ",
    "name_en": "Galmudug",
    "all_tags": {
      "name": "Galmudug غامدوغ",
      "name:ar": "غامدوغ",
      "name:en": "Galmudug",
      "name:so": "Galmudug",
      "boundary": "administrative",
      "way_area": "4.37295",
      "wikidata": "Q927467",
      "admin_level": "4"
    }
  },
  {
    "osm_id": -13702728,
    "boundary": "administrative",
    "admin_level": 4,
    "parents": "-192799",
    "name": "Puntland",
    "local_name": "Puntland أرض البنط",
    "name_en": "Puntland",
    "all_tags": {
      "name": "Puntland أرض البنط",
      "name:ar": "أرض البنط",
      "name:en": "Puntland",
      "name:so": "Puntland",
      "boundary": "administrative",
      "way_area": "9.56422",
      "wikidata": "Q485112",
      "admin_level": "4"
    }
  },
  {
    "osm_id": -13316065,
    "boundary": "administrative",
    "admin_level": 5,
    "parents": "-3586169,-192799",
    "name": "Sahil",
    "local_name": "Saaxil ساحل",
    "name_en": "Sahil",
    "all_tags": {
      "name": "Saaxil ساحل",
      "name:ar": "الساحل",
      "name:de": "Saaxil",
      "name:en": "Sahil",
      "name:es": "Sáhil",
      "name:fa": "ساهیل",
      "name:fr": "Saaxil",
      "boundary": "administrative",
      "way_area": "1.47329",
      "wikidata": "Q281589",
      "wikipedia": "ar:الساحل (صوماليلاند)",
      "admin_level": "5",
      "boundary_type": "administrative",
      "official_name": "منطقة الساحل",
      "official_name:ar": "منطقة الساحل",
      "official_name:es": "Región de Sáhil"
    }
  },
  {
    "osm_id": -1720142,
    "boundary": "administrative",
    "admin_level": 6,
    "parents": "-1720051,-3586169,-192799",
    "name": "Zeila District",
    "local_name": "Zeylac زيلع",
    "name_en": "Zeila District",
    "all_tags": {
      "name": "Zeylac زيلع",
      "name:ar": "زيلع",
      "name:en": "Zeila District",
      "name:fr": "Zeila",
      "name:nl": "Zeila",
      "name:so": "Degmada Saylac",
      "name:uk": "Сайле",
      "name:zh": "塞拉區",
      "name:zu": "Zeila District",
      "boundary": "administrative",
      "way_area": "0.696874",
      "wikidata": "Q8068572",
      "wikipedia": "en:Zeila District",
      "admin_level": "6"
    }
  },
  {
    "osm_id": -1720141,
    "boundary": "administrative",
    "admin_level": 6,
    "parents": "-1720052,-13702731,-192799",
    "name": "Hudur District",
    "local_name": "Xudur حودور",
    "name_en": "Hudur District",
    "all_tags": {
      "name": "Xudur حودور",
      "name:ar": "حودور",
      "name:en": "Hudur District",
      "name:fr": "Hudur",
      "boundary": "administrative",
      "way_area": "0.442316",
      "wikidata": "Q5929115",
      "admin_level": "6"
    }
  },
  {
    "osm_id": -1720140,
    "boundary": "administrative",
    "admin_level": 6,
    "parents": "-1720066,-3586169,-192799",
    "name": "Xudun District",
    "local_name": "Xudun",
    "name_en": "Xudun District",
    "all_tags": {
      "name": "Xudun",
      "name:en": "Xudun District",
      "name:fr": "Xudun",
      "boundary": "administrative",
      "way_area": "0.749043",
      "wikidata": "Q8045197",
      "admin_level": "6"
    }
  },
  {
    "osm_id": -1720139,
    "boundary": "administrative",
    "admin_level": 6,
    "parents": "-1720063,-192799",
    "name": "Harardhere District",
    "local_name": "Xarardheere",
    "name_en": "Harardhere District",
    "all_tags": {
      "name": "Xarardheere",
      "name:en": "Harardhere District",
      "name:fr": "Harardhere",
      "boundary": "administrative",
      "way_area": "0.583444",
      "wikidata": "Q5654198",
      "admin_level": "6"
    }
  },
  {
    "osm_id": -1720138,
    "boundary": "administrative",
    "admin_level": 6,
    "parents": "-1720060,-13702731,-192799",
    "name": "Wanlaweyn District",
    "local_name": "Wanle Weyne ونلوين",
    "name_en": "Wanlaweyn District",
    "all_tags": {
      "name": "Wanle Weyne ونلوين",
      "name:ar": "ونلوين",
      "name:en": "Wanlaweyn District",
      "name:fr": "Wanlaweyn",
      "boundary": "administrative",
      "way_area": "0.464826",
      "wikidata": "Q17071407",
      "admin_level": "6"
    }
  },
  {
    "osm_id": -1720137,
    "boundary": "administrative",
    "admin_level": 6,
    "parents": "-1720052,-13702731,-192799",
    "name": "Wajid District",
    "local_name": "Waajid وااجيد",
    "name_en": "Wajid District",
    "all_tags": {
      "name": "Waajid وااجيد",
      "name:ar": "وااجيد",
      "name:en": "Wajid District",
      "name:fr": "Wajid",
      "boundary": "administrative",
      "way_area": "0.228261",
      "wikidata": "Q7960700",
      "admin_level": "6"
    }
  },
  {
    "osm_id": -1720136,
    "boundary": "administrative",
    "admin_level": 6,
    "parents": "-1720052,-13702731,-192799",
    "name": "Tiyeglow District",
    "local_name": "Tayeeglow",
    "name_en": "Tiyeglow District",
    "all_tags": {
      "name": "Tayeeglow",
      "name:en": "Tiyeglow District",
      "name:fr": "Tiyeglow",
      "boundary": "administrative",
      "way_area": "0.537113",
      "wikidata": "Q7810503",
      "admin_level": "6"
    }
  },
  {
    "osm_id": -1720135,
    "boundary": "administrative",
    "admin_level": 6,
    "parents": "-1720066,-3586169,-192799",
    "name": "Taleh District",
    "local_name": "Taleex تلأ ح",
    "name_en": "Taleh District",
    "all_tags": {
      "name": "Taleex تلأ ح",
      "name:ar": "تلأ ح",
      "name:en": "Taleh District",
      "name:fr": "Taleh",
      "boundary": "administrative",
      "way_area": "0.706664",
      "wikidata": "Q7679147",
      "admin_level": "6"
    }
  },
  {
    "osm_id": -1720134,
    "boundary": "administrative",
    "admin_level": 6,
    "parents": "-13316065,-3586169,-192799",
    "name": "Sheikh District",
    "local_name": "Sheikh شيخ",
    "name_en": "Sheikh District",
    "all_tags": {
      "name": "Sheikh شيخ",
      "name:ar": "شيخ",
      "name:en": "Sheikh District",
      "name:fr": "Sheikh",
      "name:ur": "شیخ",
      "boundary": "administrative",
      "way_area": "0.244211",
      "wikidata": "Q7492913",
      "admin_level": "6"
    }
  },
  {
    "osm_id": -1720133,
    "boundary": "administrative",
    "admin_level": 6,
    "parents": "-1720060,-13702731,-192799",
    "name": "Sablale District",
    "local_name": "Sablaale",
    "name_en": "Sablale District",
    "all_tags": {
      "name": "Sablaale",
      "name:en": "Sablale District",
      "name:fr": "Sablale",
      "boundary": "administrative",
      "way_area": "0.487067",
      "wikidata": "Q7396240",
      "admin_level": "6"
    }
  },
  {
    "osm_id": -1720132,
    "boundary": "administrative",
    "admin_level": 6,
    "parents": "-1720061,-13702732,-192799",
    "name": "Sakow District",
    "local_name": "Saakow سااكوو",
    "name_en": "Sakow District",
    "all_tags": {
      "name": "Saakow سااكوو",
      "name:ar": "سااكوو",
      "name:en": "Sakow District",
      "name:fr": "Sakow",
      "boundary": "administrative",
      "way_area": "0.654055",
      "wikidata": "Q7403067",
      "admin_level": "6"
    }
  },
  {
    "osm_id": -1720131,
    "boundary": "administrative",
    "admin_level": 6,
    "parents": "-1720052,-13702731,-192799",
    "name": "Rabdhure District",
    "local_name": "Rab Dhuure",
    "name_en": "Rabdhure District",
    "all_tags": {
      "name": "Rab Dhuure",
      "name:en": "Rabdhure District",
      "name:fr": "Rabdhure",
      "boundary": "administrative",
      "way_area": "0.269614",
      "wikidata": "Q17069671",
      "admin_level": "6"
    }
  },
  {
    "osm_id": -1720130,
    "boundary": "administrative",
    "admin_level": 6,
    "parents": "-1720060,-13702731,-192799",
    "name": "Qoriyoley District",
    "local_name": "Qoryooley قوريولي",
    "name_en": "Qoriyoley District",
    "all_tags": {
      "name": "Qoryooley قوريولي",
      "name:ar": "قوريولي",
      "name:en": "Qoriyoley District",
      "name:fr": "Qoriyoley",
      "boundary": "administrative",
      "way_area": "0.261233",
      "wikidata": "Q7268118",
      "admin_level": "6"
    }
  },
  {
    "osm_id": -1720129,
    "boundary": "administrative",
    "admin_level": 6,
    "parents": "-1720054,-13702728,-192799",
    "name": "Qardho District",
    "local_name": "Qardho قرضو",
    "name_en": "Qardho District",
    "all_tags": {
      "name": "Qardho قرضو",
      "name:ar": "قرضو",
      "name:en": "Qardho District",
      "name:fr": "Qardho",
      "boundary": "administrative",
      "way_area": "1.53434",
      "wikidata": "Q7266781",
      "admin_level": "6",
      "alt_name:ar": "غاردو"
    }
  },
  {
    "osm_id": -1720128,
    "boundary": "administrative",
    "admin_level": 6,
    "parents": "-1720055,-13702731,-192799",
    "name": "Qasahdhere District",
    "local_name": "Qansax Dheere",
    "name_en": "Qasahdhere District",
    "all_tags": {
      "name": "Qansax Dheere",
      "name:en": "Qasahdhere District",
      "name:fr": "Qasahdhere",
      "boundary": "administrative",
      "way_area": "0.265715",
      "wikidata": "Q7266915",
      "admin_level": "6"
    }
  },
  {
    "osm_id": -1720127,
    "boundary": "administrative",
    "admin_level": 6,
    "parents": "-1720054,-13702728,-192799",
    "name": "Qandala District",
    "local_name": "Qandala كاندالة",
    "name_en": "Qandala District",
    "all_tags": {
      "name": "Qandala كاندالة",
      "name:ar": "كاندالة",
      "name:en": "Qandala District",
      "name:fr": "Qandala",
      "boundary": "administrative",
      "way_area": "0.780458",
      "wikidata": "Q7266481",
      "admin_level": "6"
    }
  },
  {
    "osm_id": -1720126,
    "boundary": "administrative",
    "admin_level": 6,
    "parents": "-1720067,-3586169,-192799",
    "name": "Oodweyne District",
    "local_name": "Owdweyne عودوين",
    "name_en": "Oodweyne District",
    "all_tags": {
      "name": "Owdweyne عودوين",
      "name:ar": "عودوين",
      "name:en": "Oodweyne District",
      "name:fr": "Oodweyne",
      "name:so": "Owdweyne",
      "boundary": "administrative",
      "way_area": "0.685716",
      "wikidata": "Q7095261",
      "admin_level": "6"
    }
  },
  {
    "osm_id": -1720125,
    "boundary": "administrative",
    "admin_level": 6,
    "parents": "-1720053,-192799",
    "name": "Mogadishu District",
    "local_name": "Mogadishu مقديشو",
    "name_en": "Mogadishu District",
    "all_tags": {
      "name": "Mogadishu مقديشو",
      "name:ar": "مقديشو",
      "name:en": "Mogadishu District",
      "name:fr": "Mogadiscio",
      "boundary": "administrative",
      "way_area": "0.102478",
      "admin_level": "6"
    }
  },
  {
    "osm_id": -1720124,
    "boundary": "administrative",
    "admin_level": 6,
    "parents": "-1720060,-13702731,-192799",
    "name": "Merca District",
    "local_name": "Marka",
    "name_en": "Merca District",
    "all_tags": {
      "name": "Marka",
      "name:ar": "مركة",
      "name:en": "Merca District",
      "name:fr": "Merca",
      "boundary": "administrative",
      "way_area": "0.226452",
      "wikidata": "Q17076015",
      "admin_level": "6"
    }
  },
  {
    "osm_id": -1720123,
    "boundary": "administrative",
    "admin_level": 6,
    "parents": "-1720057,-13702732,-192799",
    "name": "Luuq District",
    "local_name": "Luuq لوق",
    "name_en": "Luuq District",
    "all_tags": {
      "name": "Luuq لوق",
      "name:ar": "لوق",
      "name:en": "Luuq District",
      "name:fr": "Luuq",
      "boundary": "administrative",
      "way_area": "0.673169",
      "wikidata": "Q6706074",
      "admin_level": "6"
    }
  },
  {
    "osm_id": -1720122,
    "boundary": "administrative",
    "admin_level": 6,
    "parents": "-1720051,-3586169,-192799",
    "name": "Lughaya District",
    "local_name": "لوغايا Lughaye",
    "name_en": "Lughaya District",
    "all_tags": {
      "name": "لوغايا Lughaye",
      "name:ar": "لوغايا",
      "name:en": "Lughaya District",
      "name:fr": "Lughaya",
      "name:hi": "लुगहा जिला",
      "name:pt": "Lughaya",
      "name:so": "Degmada Lughaya",
      "name:uk": "Лугуа",
      "name:zh": "盧加雅區",
      "name:zu": "Lughaya District",
      "boundary": "administrative",
      "way_area": "0.370051",
      "wikidata": "Q13582480",
      "wikipedia": "en:Lughaya District",
      "admin_level": "6"
    }
  },
  {
    "osm_id": -1720121,
    "boundary": "administrative",
    "admin_level": 6,
    "parents": "-1720065,-3586169,-192799",
    "name": "Las Khorey District",
    "local_name": "Laasqoray لاسقرى",
    "name_en": "Las Khorey District",
    "all_tags": {
      "name": "Laasqoray لاسقرى",
      "name:ar": "لاسقرى",
      "name:en": "Las Khorey District",
      "name:fr": "Las Khorey",
      "boundary": "administrative",
      "way_area": "1.23038",
      "wikidata": "Q6492262",
      "admin_level": "6"
    }
  },
  {
    "osm_id": -1720120,
    "boundary": "administrative",
    "admin_level": 6,
    "parents": "-1720066,-3586169,-192799",
    "name": "Las Anod District",
    "local_name": "Laas Caanood لاس عانود",
    "name_en": "Las Anod District",
    "all_tags": {
      "name": "Laas Caanood لاس عانود",
      "name:ar": "لاس عانود",
      "name:en": "Las Anod District",
      "name:fr": "Las Anod",
      "boundary": "administrative",
      "way_area": "1.02615",
      "wikidata": "Q6492047",
      "admin_level": "6"
    }
  },
  {
    "osm_id": -1720119,
    "boundary": "administrative",
    "admin_level": 6,
    "parents": "-1720060,-13702731,-192799",
    "name": "Kurtunwarey District",
    "local_name": "Kurtunwaarey",
    "name_en": "Kurtunwarey District",
    "all_tags": {
      "name": "Kurtunwaarey",
      "name:en": "Kurtunwarey District",
      "name:fr": "Kurtunwarey",
      "boundary": "administrative",
      "way_area": "0.20693",
      "wikidata": "Q17067784",
      "admin_level": "6"
    }
  },
  {
    "osm_id": -1720118,
    "boundary": "administrative",
    "admin_level": 6,
    "parents": "-1720059,-13702732,-192799",
    "name": "Kismayo District",
    "local_name": "Kismayo",
    "name_en": "Kismayo District",
    "all_tags": {
      "name": "Kismayo",
      "name:en": "Kismayo District",
      "name:fr": "Kismayo",
      "boundary": "administrative",
      "way_area": "0.754401",
      "wikidata": "Q6416795",
      "admin_level": "6"
    }
  },
  {
    "osm_id": -1720117,
    "boundary": "administrative",
    "admin_level": 6,
    "parents": "-1720062,-13702730,-192799",
    "name": "Jowhar District",
    "local_name": "Jowhar جوهر",
    "name_en": "Jowhar District",
    "all_tags": {
      "name": "Jowhar جوهر",
      "name:ar": "جوهر",
      "name:en": "Jowhar District",
      "name:fr": "Jowhar",
      "boundary": "administrative",
      "way_area": "0.377259",
      "wikidata": "Q17065589",
      "admin_level": "6"
    }
  },
  {
    "osm_id": -1720116,
    "boundary": "administrative",
    "admin_level": 6,
    "parents": "-1720061,-13702732,-192799",
    "name": "Jilib District",
    "local_name": "Jilib جيليب",
    "name_en": "Jilib District",
    "all_tags": {
      "name": "Jilib جيليب",
      "name:ar": "جيليب",
      "name:en": "Jilib District",
      "name:fr": "Jilib",
      "boundary": "administrative",
      "way_area": "0.518139",
      "wikidata": "Q17064919",
      "admin_level": "6"
    }
  },
  {
    "osm_id": -1720115,
    "boundary": "administrative",
    "admin_level": 6,
    "parents": "-1720063,-192799",
    "name": "Jariban District",
    "local_name": "Jariiban جاريبان",
    "name_en": "Jariban District",
    "all_tags": {
      "name": "Jariiban جاريبان",
      "name:ar": "جاريبان",
      "name:en": "Jariban District",
      "name:fr": "Jariban",
      "boundary": "administrative",
      "way_area": "1.06941",
      "wikidata": "Q6160216",
      "admin_level": "6"
    }
  },
  {
    "osm_id": -1720114,
    "boundary": "administrative",
    "admin_level": 6,
    "parents": "-1720059,-13702732,-192799",
    "name": "Jamame District",
    "local_name": "Jamaame جمامة",
    "name_en": "Jamame District",
    "all_tags": {
      "name": "Jamaame جمامة",
      "name:ar": "جمامة",
      "name:en": "Jamame District",
      "name:fr": "Jamame",
      "boundary": "administrative",
      "way_area": "0.17267",
      "wikidata": "Q6127707",
      "admin_level": "6"
    }
  },
  {
    "osm_id": -1720113,
    "boundary": "administrative",
    "admin_level": 6,
    "parents": "-1720058,-13702730,-192799",
    "name": "Jalalaqsi District",
    "local_name": "Jalalaqsi",
    "name_en": "Jalalaqsi District",
    "all_tags": {
      "name": "Jalalaqsi",
      "name:en": "Jalalaqsi District",
      "name:fr": "Jalalaqsi",
      "boundary": "administrative",
      "way_area": "0.253072",
      "wikidata": "Q6125943",
      "admin_level": "6"
    }
  },
  {
    "osm_id": -1720112,
    "boundary": "administrative",
    "admin_level": 6,
    "parents": "-1720054,-13702728,-192799",
    "name": "Iskushuban",
    "local_name": "Iskushuban",
    "name_en": null,
    "all_tags": {
      "name": "Iskushuban",
      "boundary": "administrative",
      "way_area": "1.99976",
      "wikidata": "Q17064553",
      "wikipedia": "en:Iskushuban District",
      "admin_level": "6"
    }
  },
  {
    "osm_id": -1720111,
    "boundary": "administrative",
    "admin_level": 6,
    "parents": "-1720063,-192799",
    "name": "Hobyo District",
    "local_name": "Hobyo هبيا",
    "name_en": "Hobyo District",
    "all_tags": {
      "name": "Hobyo هبيا",
      "name:ar": "هبيا",
      "name:en": "Hobyo District",
      "name:fr": "Hobyo",
      "boundary": "administrative",
      "way_area": "2.43912",
      "wikidata": "Q17061979",
      "admin_level": "6"
    }
  },
  {
    "osm_id": -1720110,
    "boundary": "administrative",
    "admin_level": 6,
    "parents": "-1720068,-3586169,-192799",
    "name": "Hargeisa District",
    "local_name": "Hargeysa هرجيسا",
    "name_en": "Hargeisa District",
    "all_tags": {
      "name": "Hargeysa هرجيسا",
      "name:ar": "هرجيسا",
      "name:en": "Hargeisa District",
      "name:fr": "Hargeisa",
      "boundary": "administrative",
      "way_area": "1.12841",
      "wikidata": "Q5657036",
      "wikipedia": "en:Hargeisa District",
      "admin_level": "6"
    }
  },
  {
    "osm_id": -1720109,
    "boundary": "administrative",
    "admin_level": 6,
    "parents": "-1720064,-13702728,-192799",
    "name": "Garowe District",
    "local_name": "Garowe غاروي",
    "name_en": "Garowe District",
    "all_tags": {
      "name": "Garowe غاروي",
      "name:ar": "غاروي",
      "name:en": "Garowe District",
      "name:fr": "Garowe",
      "boundary": "administrative",
      "way_area": "0.628036",
      "wikidata": "Q5523756",
      "admin_level": "6"
    }
  },
  {
    "osm_id": -1720108,
    "boundary": "administrative",
    "admin_level": 6,
    "parents": "-1720057,-13702732,-192799",
    "name": "Garbaharey District",
    "local_name": "Garbahaarey غاربهاارآي",
    "name_en": "Garbaharey District",
    "all_tags": {
      "name": "Garbahaarey غاربهاارآي",
      "name:ar": "غاربهاارآي",
      "name:en": "Garbaharey District",
      "name:fr": "Garbaharey",
      "boundary": "administrative",
      "way_area": "0.67684",
      "wikidata": "Q5521998",
      "admin_level": "6"
    }
  },
  {
    "osm_id": -1720107,
    "boundary": "administrative",
    "admin_level": 6,
    "parents": "-1720063,-192799",
    "name": "Galkayo District",
    "local_name": "Galkaacyo جالكعيو",
    "name_en": "Galkayo District",
    "all_tags": {
      "name": "Galkaacyo جالكعيو",
      "name:ar": "جالكعيو",
      "name:en": "Galkayo District",
      "name:fr": "Galkayo",
      "boundary": "administrative",
      "way_area": "1.26194",
      "wikidata": "Q5518793",
      "wikipedia": "en:Galkayo District",
      "admin_level": "6"
    }
  },
  {
    "osm_id": -1720106,
    "boundary": "administrative",
    "admin_level": 6,
    "parents": "-1720063,-192799",
    "name": "Galdogob District",
    "local_name": "Galdogob جلدجب",
    "name_en": "Galdogob District",
    "all_tags": {
      "name": "Galdogob جلدجب",
      "name:ar": "جلدجب",
      "name:en": "Galdogob District",
      "name:fr": "Galdogob",
      "boundary": "administrative",
      "way_area": "0.182977",
      "wikidata": "Q5518248",
      "admin_level": "6"
    }
  },
  {
    "osm_id": -1720105,
    "boundary": "administrative",
    "admin_level": 6,
    "parents": "-1720068,-3586169,-192799",
    "name": "Gabiley District",
    "local_name": "Gabiley غابيلي",
    "name_en": "Gabiley District",
    "all_tags": {
      "name": "Gabiley غابيلي",
      "name:ar": "غابيلي",
      "name:en": "Gabiley District",
      "name:fr": "Gabiley",
      "boundary": "administrative",
      "way_area": "0.246561",
      "wikidata": "Q5515405",
      "wikipedia": "en:Gabiley District",
      "admin_level": "6"
    }
  },
  {
    "osm_id": -1720104,
    "boundary": "administrative",
    "admin_level": 6,
    "parents": "-1720064,-13702728,-192799",
    "name": "Eyl District",
    "local_name": "Eyl ايل",
    "name_en": "Eyl District",
    "all_tags": {
      "name": "Eyl ايل",
      "name:ar": "ايل",
      "name:en": "Eyl District",
      "name:fr": "Eyl",
      "boundary": "administrative",
      "way_area": "0.988326",
      "wikidata": "Q5422900",
      "admin_level": "6",
      "long_name:ar": "مقاطعة ايل"
    }
  },
  {
    "osm_id": -1720103,
    "boundary": "administrative",
    "admin_level": 6,
    "parents": "-1720057,-13702732,-192799",
    "name": "El Wak District",
    "local_name": "El Waq",
    "name_en": "El Wak District",
    "all_tags": {
      "name": "El Waq",
      "name:en": "El Wak District",
      "name:fr": "El Wak",
      "boundary": "administrative",
      "way_area": "0.638206",
      "wikidata": "Q5352349",
      "admin_level": "6"
    }
  },
  {
    "osm_id": -1720102,
    "boundary": "administrative",
    "admin_level": 6,
    "parents": "-1720057,-13702732,-192799",
    "name": "Dolow District",
    "local_name": "Doolow دولو",
    "name_en": "Dolow District",
    "all_tags": {
      "name": "Doolow دولو",
      "name:ar": "دولو",
      "name:en": "Dolow District",
      "name:fr": "Dolow",
      "boundary": "administrative",
      "way_area": "0.132754",
      "wikidata": "Q5289583",
      "admin_level": "6"
    }
  },
  {
    "osm_id": -1720101,
    "boundary": "administrative",
    "admin_level": 6,
    "parents": "-1720055,-13702731,-192799",
    "name": "Dinsoor District",
    "local_name": "Diinsoor",
    "name_en": "Dinsoor District",
    "all_tags": {
      "name": "Diinsoor",
      "name:en": "Dinsoor District",
      "name:fr": "Dinsoor",
      "boundary": "administrative",
      "way_area": "0.79126",
      "wikidata": "Q5278730",
      "admin_level": "6"
    }
  },
  {
    "osm_id": -1720100,
    "boundary": "administrative",
    "admin_level": 6,
    "parents": "-1720056,-13702729,-192799",
    "name": "Dhusamareb District",
    "local_name": "Dhuusamarreeb دوسمريب",
    "name_en": "Dhusamareb District",
    "all_tags": {
      "name": "Dhuusamarreeb دوسمريب",
      "name:ar": "دوسمريب",
      "name:en": "Dhusamareb District",
      "name:fr": "Dhusamareb",
      "name:nl": "Dhusamarreeb",
      "name:ur": "دھوسا مارب ضلع",
      "name:zh": "杜薩馬雷卜區",
      "name:zu": "Dusmareb District",
      "boundary": "administrative",
      "way_area": "1.03947",
      "wikidata": "Q5269916",
      "wikipedia": "en:Dusmareb District",
      "admin_level": "6"
    }
  },
  {
    "osm_id": -1720099,
    "boundary": "administrative",
    "admin_level": 6,
    "parents": "-1720065,-3586169,-192799",
    "name": "Erigavo District",
    "local_name": "Ceerigaabo عيرجابو",
    "name_en": "Erigavo District",
    "all_tags": {
      "name": "Ceerigaabo عيرجابو",
      "name:ar": "عيرجابو",
      "name:en": "Erigavo District",
      "name:fr": "Erigavo",
      "boundary": "administrative",
      "way_area": "2.44391",
      "wikidata": "Q5388375",
      "admin_level": "6"
    }
  },
  {
    "osm_id": -1720098,
    "boundary": "administrative",
    "admin_level": 6,
    "parents": "-1720056,-13702729,-192799",
    "name": "El Dher District",
    "local_name": "Ceel Dheer",
    "name_en": "El Dher District",
    "all_tags": {
      "name": "Ceel Dheer",
      "name:en": "El Dher District",
      "name:fr": "El Dher",
      "boundary": "administrative",
      "way_area": "1.07572",
      "wikidata": "Q5351134",
      "admin_level": "6"
    }
  },
  {
    "osm_id": -1720097,
    "boundary": "administrative",
    "admin_level": 6,
    "parents": "-1720056,-13702729,-192799",
    "name": "El Buur District",
    "local_name": "Ceel Buur",
    "name_en": "El Buur District",
    "all_tags": {
      "name": "Ceel Buur",
      "name:en": "El Buur District",
      "name:fr": "El Buur",
      "boundary": "administrative",
      "way_area": "1.08872",
      "wikidata": "Q5350846",
      "admin_level": "6"
    }
  },
  {
    "osm_id": -1720096,
    "boundary": "administrative",
    "admin_level": 6,
    "parents": "-1720052,-13702731,-192799",
    "name": "El Barde District",
    "local_name": "Ceel Barde",
    "name_en": "El Barde District",
    "all_tags": {
      "name": "Ceel Barde",
      "name:en": "El Barde District",
      "name:fr": "El Barde",
      "boundary": "administrative",
      "way_area": "0.616999",
      "wikidata": "Q5350806",
      "admin_level": "6"
    }
  },
  {
    "osm_id": -1720095,
    "boundary": "administrative",
    "admin_level": 6,
    "parents": "-1720065,-3586169,-192799",
    "name": "El Afweyn District",
    "local_name": "Ceel Afweyn الأفوين",
    "name_en": "El Afweyn District",
    "all_tags": {
      "name": "Ceel Afweyn الأفوين",
      "name:ar": "الأفوين",
      "name:en": "El Afweyn District",
      "name:fr": "El Afweyn",
      "name:ur": "الافوین",
      "boundary": "administrative",
      "way_area": "1.44325",
      "wikidata": "Q5350698",
      "admin_level": "6"
    }
  },
  {
    "osm_id": -1720094,
    "boundary": "administrative",
    "admin_level": 6,
    "parents": "-1720066,-3586169,-192799",
    "name": "Aynabo District",
    "local_name": "Caynabo",
    "name_en": "Aynabo District",
    "all_tags": {
      "name": "Caynabo",
      "name:en": "Aynabo District",
      "name:fr": "Aynabo",
      "boundary": "administrative",
      "way_area": "0.664258",
      "wikidata": "Q4831514",
      "admin_level": "6"
    }
  },
  {
    "osm_id": -1720093,
    "boundary": "administrative",
    "admin_level": 6,
    "parents": "-1720054,-13702728,-192799",
    "name": "Alula District",
    "local_name": "Caluula علولة",
    "name_en": "Alula District",
    "all_tags": {
      "name": "Caluula علولة",
      "name:ar": "علولة",
      "name:en": "Alula District",
      "name:fr": "Alula",
      "name:so": "Caluula",
      "name:ur": "علولہ",
      "name:zh": "阿魯拉區",
      "name:zu": "Alula District",
      "boundary": "administrative",
      "way_area": "0.732311",
      "wikidata": "Q4737316",
      "admin_level": "6",
      "alt_name:ar": "بندر علولة"
    }
  },
  {
    "osm_id": -1720092,
    "boundary": "administrative",
    "admin_level": 6,
    "parents": "-1720062,-13702730,-192799",
    "name": "Adale District",
    "local_name": "Cadale عضلة",
    "name_en": "Adale District",
    "all_tags": {
      "name": "Cadale عضلة",
      "name:ar": "عضلة",
      "name:en": "Adale District",
      "name:fr": "Adale",
      "boundary": "administrative",
      "way_area": "0.650146",
      "wikidata": "Q4678551",
      "admin_level": "6"
    }
  },
  {
    "osm_id": -1720091,
    "boundary": "administrative",
    "admin_level": 6,
    "parents": "-1720056,-13702729,-192799",
    "name": "Adado District",
    "local_name": "Cadaado",
    "name_en": "Adado District",
    "all_tags": {
      "name": "Cadaado",
      "name:en": "Adado District",
      "name:fr": "Adado",
      "boundary": "administrative",
      "way_area": "0.52817",
      "wikidata": "Q4678348",
      "admin_level": "6"
    }
  },
  {
    "osm_id": -1720090,
    "boundary": "administrative",
    "admin_level": 6,
    "parents": "-1720056,-13702729,-192799",
    "name": "Abudwak District",
    "local_name": "Cabudwaaq",
    "name_en": "Abudwak District",
    "all_tags": {
      "name": "Cabudwaaq",
      "name:en": "Abudwak District",
      "name:fr": "Abudwak",
      "name:nl": "Abudwak",
      "name:zh": "阿布德瓦克區",
      "name:zu": "Abudwak District",
      "boundary": "administrative",
      "way_area": "0.640874",
      "wikidata": "Q4670532",
      "wikipedia": "en:Abudwak District",
      "admin_level": "6"
    }
  },
  {
    "osm_id": -1720089,
    "boundary": "administrative",
    "admin_level": 6,
    "parents": "-1720055,-13702731,-192799",
    "name": "Burhakaba District",
    "local_name": "Buur Hakaba بورحكب",
    "name_en": "Burhakaba District",
    "all_tags": {
      "name": "Buur Hakaba بورحكب",
      "name:ar": "بورحكب",
      "name:en": "Burhakaba District",
      "name:fr": "Burhakaba",
      "name:zh": "布爾哈卡巴區",
      "name:zu": "Burhakaba District",
      "boundary": "administrative",
      "way_area": "1.4657",
      "wikidata": "Q4998745",
      "wikipedia": "en:Burhakaba District",
      "admin_level": "6"
    }
  },
  {
    "osm_id": -1720088,
    "boundary": "administrative",
    "admin_level": 6,
    "parents": "-1720067,-3586169,-192799",
    "name": "Buhoodle District",
    "local_name": "Buuhoodle",
    "name_en": "Buhoodle District",
    "all_tags": {
      "name": "Buuhoodle",
      "name:en": "Buhoodle District",
      "name:fr": "Buhoodle",
      "name:ru": "Буходле",
      "name:zh": "布胡德雷區",
      "name:zu": "Buhoodle District",
      "boundary": "administrative",
      "way_area": "0.557944",
      "wikidata": "Q4100542",
      "wikipedia": "en:Buhoodle District",
      "admin_level": "6"
    }
  },
  {
    "osm_id": -1720087,
    "boundary": "administrative",
    "admin_level": 6,
    "parents": "-1720064,-13702728,-192799",
    "name": "Burtinle District",
    "local_name": "Burtinle",
    "name_en": "Burtinle District",
    "all_tags": {
      "name": "Burtinle",
      "name:en": "Burtinle District",
      "name:fr": "Burtinle",
      "name:zh": "布爾提恩雷區",
      "name:zu": "Burtinle District",
      "boundary": "administrative",
      "way_area": "0.793824",
      "wikidata": "Q5000751",
      "wikipedia": "en:Burtinle District",
      "admin_level": "6"
    }
  },
  {
    "osm_id": -1720086,
    "boundary": "administrative",
    "admin_level": 6,
    "parents": "-1720067,-3586169,-192799",
    "name": "Burao District",
    "local_name": "Burco برعو",
    "name_en": "Burao District",
    "all_tags": {
      "name": "Burco برعو",
      "name:ar": "برعو",
      "name:de": "Burao",
      "name:en": "Burao District",
      "name:fr": "Burao",
      "name:zh": "布拉奧區",
      "name:zu": "Burao District",
      "boundary": "administrative",
      "way_area": "1.32129",
      "wikidata": "Q4998120",
      "wikipedia": "en:Burao District",
      "admin_level": "6"
    }
  },
  {
    "osm_id": -1720085,
    "boundary": "administrative",
    "admin_level": 6,
    "parents": "-1720058,-13702730,-192799",
    "name": "Buloburde District",
    "local_name": "Bulo Burti بولو بورتي",
    "name_en": "Buloburde District",
    "all_tags": {
      "name": "Bulo Burti بولو بورتي",
      "name:ar": "بولو بورتي",
      "name:en": "Buloburde District",
      "name:fr": "Buloburde",
      "name:zh": "布洛布爾德區",
      "name:zu": "Buloburde District",
      "boundary": "administrative",
      "way_area": "1.31827",
      "wikidata": "Q4997126",
      "wikipedia": "en:Buloburde District",
      "admin_level": "6"
    }
  },
  {
    "osm_id": -1720084,
    "boundary": "administrative",
    "admin_level": 6,
    "parents": "-1720061,-13702732,-192799",
    "name": "Bu'ale District",
    "local_name": "Bu'aale بوأل",
    "name_en": "Bu'ale District",
    "all_tags": {
      "name": "Bu'aale بوأل",
      "name:ar": "بوأل",
      "name:en": "Bu'ale District",
      "name:fr": "Bu'ale",
      "name:zh": "布阿萊區",
      "name:zu": "Bu'ale District",
      "boundary": "administrative",
      "way_area": "0.446151",
      "wikidata": "Q4982040",
      "wikipedia": "en:Bu'ale District",
      "admin_level": "6"
    }
  },
  {
    "osm_id": -1720083,
    "boundary": "administrative",
    "admin_level": 6,
    "parents": "-1720054,-13702728,-192799",
    "name": "Bosaso District",
    "local_name": "Bossaso بوصاصو",
    "name_en": "Bosaso District",
    "all_tags": {
      "name": "Bossaso بوصاصو",
      "name:ar": "بوصاصو",
      "name:en": "Bosaso District",
      "name:fr": "Bosaso",
      "name:it": "Distretto di Bosaso",
      "name:zh": "博薩索區",
      "name:zu": "Bosaso District",
      "boundary": "administrative",
      "way_area": "0.789901",
      "wikidata": "Q4947118",
      "wikipedia": "en:Bosaso District",
      "admin_level": "6"
    }
  },
  {
    "osm_id": -1720082,
    "boundary": "administrative",
    "admin_level": 6,
    "parents": "-1720051,-3586169,-192799",
    "name": "Borama District",
    "local_name": "Borama بوراما",
    "name_en": "Borama District",
    "all_tags": {
      "name": "Borama بوراما",
      "name:ar": "بوراما",
      "name:en": "Borama District",
      "name:fr": "Borama",
      "name:pt": "Borama",
      "name:so": "Degmada Boorama",
      "name:uk": "Борама",
      "name:zh": "博拉馬區",
      "name:zu": "Borama District",
      "boundary": "administrative",
      "way_area": "0.262475",
      "wikidata": "Q4944292",
      "wikipedia": "en:Borama District",
      "admin_level": "6"
    }
  },
  {
    "osm_id": -1720081,
    "boundary": "administrative",
    "admin_level": 6,
    "parents": "-13316065,-3586169,-192799",
    "name": "Berbera",
    "local_name": "Berbera بربرة",
    "name_en": "Berbera",
    "all_tags": {
      "name": "Berbera بربرة",
      "name:ar": "بربرة",
      "name:en": "Berbera",
      "name:es": "Berbera",
      "name:fa": "بربرا",
      "name:fr": "Berbera",
      "name:nl": "Berbera",
      "name:ur": "بربرہ",
      "name:zh": "柏培拉區",
      "name:zu": "Berbera",
      "boundary": "administrative",
      "way_area": "1.22908",
      "wikidata": "Q4891035",
      "admin_level": "6"
    }
  },
  {
    "osm_id": -1720080,
    "boundary": "administrative",
    "admin_level": 6,
    "parents": "-1720057,-13702732,-192799",
    "name": "Beled Hawo District",
    "local_name": "Belet Xaawo",
    "name_en": "Beled Hawo District",
    "all_tags": {
      "name": "Belet Xaawo",
      "name:en": "Beled Hawo District",
      "name:fr": "Beled Hawo",
      "name:zh": "貝雷德哈沃區",
      "name:zu": "Beled Hawo District",
      "alt_name": "Beled Xaawo;Beled Hawo;Balad Hawo;Beledxaawo;Buuloxaawo",
      "boundary": "administrative",
      "way_area": "0.318668",
      "wikidata": "Q4882142",
      "wikipedia": "en:Beled Hawo District",
      "admin_level": "6"
    }
  },
  {
    "osm_id": -1720079,
    "boundary": "administrative",
    "admin_level": 6,
    "parents": "-1720058,-13702730,-192799",
    "name": "Beledweyne District",
    "local_name": "Belet Weyne بلد وين",
    "name_en": "Beledweyne District",
    "all_tags": {
      "name": "Belet Weyne بلد وين",
      "name:ar": "بلد وين",
      "name:en": "Beledweyne District",
      "name:fr": "Beledweyne",
      "name:zh": "貝蘭德文區",
      "name:zu": "Beledweyne District",
      "boundary": "administrative",
      "way_area": "1.24459",
      "wikidata": "Q4882144",
      "wikipedia": "en:Beledweyne District",
      "admin_level": "6"
    }
  },
  {
    "osm_id": -1720078,
    "boundary": "administrative",
    "admin_level": 6,
    "parents": "-1720060,-13702731,-192799",
    "name": "Barawa District",
    "local_name": "Baraawe مدينة ﺑَﺮَﺍﻭَة",
    "name_en": "Barawa District",
    "all_tags": {
      "name": "Baraawe مدينة ﺑَﺮَﺍﻭَة",
      "name:ar": "مدينة ﺑَﺮَﺍﻭَة",
      "name:en": "Barawa District",
      "name:fr": "Barawa",
      "name:zh": "巴拉韋區",
      "name:zu": "Barawa District",
      "boundary": "administrative",
      "way_area": "0.525728",
      "wikidata": "Q4858520",
      "wikipedia": "en:Barawa District",
      "admin_level": "6"
    }
  },
  {
    "osm_id": -1720077,
    "boundary": "administrative",
    "admin_level": 6,
    "parents": "-1720054,-13702728,-192799",
    "name": "Bayla District",
    "local_name": "Bandarbayla",
    "name_en": "Bayla District",
    "all_tags": {
      "name": "Bandarbayla",
      "name:en": "Bayla District",
      "name:fr": "Bayla",
      "name:it": "Distretto di Bender Beila",
      "name:ur": "بیلا ضلع",
      "name:zh": "班德貝拉區",
      "name:zu": "Bayla District",
      "boundary": "administrative",
      "way_area": "1.31726",
      "wikidata": "Q4874551",
      "wikipedia": "en:Bayla District",
      "admin_level": "6"
    }
  },
  {
    "osm_id": -1720076,
    "boundary": "administrative",
    "admin_level": 6,
    "parents": "-1720062,-13702730,-192799",
    "name": "Balad District",
    "local_name": "Balcad بلعد",
    "name_en": "Balad District",
    "all_tags": {
      "name": "Balcad بلعد",
      "name:ar": "بلعد",
      "name:en": "Balad District",
      "name:fr": "Balad",
      "name:ro": "Balad",
      "name:so": "Balcad",
      "name:sw": "Baalcad",
      "name:ur": "بلد ضلع،",
      "name:zh": "巴勒阿德區",
      "name:zu": "Balad District",
      "boundary": "administrative",
      "way_area": "0.47263",
      "wikidata": "Q2057551",
      "wikipedia": "en:Balad District, Somalia",
      "admin_level": "6"
    }
  },
  {
    "osm_id": -1720075,
    "boundary": "administrative",
    "admin_level": 6,
    "parents": "-1720051,-3586169,-192799",
    "name": "Baki District",
    "local_name": "باكي Baki",
    "name_en": "Baki District",
    "all_tags": {
      "name": "باكي Baki",
      "name:ar": "باكي",
      "name:en": "Baki District",
      "name:fr": "Baki",
      "boundary": "administrative",
      "way_area": "0.438222",
      "wikidata": "Q4849428",
      "admin_level": "6"
    }
  },
  {
    "osm_id": -1720074,
    "boundary": "administrative",
    "admin_level": 6,
    "parents": "-1720055,-13702731,-192799",
    "name": "Baidoa District",
    "local_name": "Baidoa بيدوا",
    "name_en": "Baidoa District",
    "all_tags": {
      "name": "Baidoa بيدوا",
      "name:ar": "بيدوا",
      "name:en": "Baidoa District",
      "name:fr": "Baidoa",
      "name:ur": "بیدوا ضلع",
      "name:zh": "拜达博区",
      "name:zu": "Baidoa District",
      "boundary": "administrative",
      "way_area": "1.0506",
      "wikidata": "Q4843182",
      "wikipedia": "en:Baidoa District",
      "admin_level": "6"
    }
  },
  {
    "osm_id": -1720073,
    "boundary": "administrative",
    "admin_level": 6,
    "parents": "-1720059,-13702732,-192799",
    "name": "Badhadhe District",
    "local_name": "Badhaadhe بدهاذ",
    "name_en": "Badhadhe District",
    "all_tags": {
      "name": "Badhaadhe بدهاذ",
      "name:ar": "بدهاذ",
      "name:en": "Badhadhe District",
      "name:fr": "Badhadhe",
      "name:nl": "Badhaadhe",
      "name:so": "Badhaadhe",
      "name:ur": "بادہدہ ضلع",
      "name:zh": "巴達德區",
      "name:zu": "Badhadhe District",
      "boundary": "administrative",
      "way_area": "0.794622",
      "wikidata": "Q4840886",
      "wikipedia": "en:Badhadhe District",
      "admin_level": "6"
    }
  },
  {
    "osm_id": -1720072,
    "boundary": "administrative",
    "admin_level": 6,
    "parents": "-1720057,-13702732,-192799",
    "name": "Baardheere بااردىرآ",
    "local_name": "Baardheere بااردىرآ",
    "name_en": null,
    "all_tags": {
      "name": "Baardheere بااردىرآ",
      "name:ar": "بااردىرآ",
      "name:de": "Bardera District",
      "name:fr": "Bardhere",
      "name:ur": "باردیرا ضلع",
      "name:zh": "巴爾代雷區",
      "name:zu": "Bardhere District",
      "boundary": "administrative",
      "way_area": "1.2441",
      "wikidata": "Q4860129",
      "wikipedia": "en:Bardhere District",
      "admin_level": "6"
    }
  },
  {
    "osm_id": -1720071,
    "boundary": "administrative",
    "admin_level": 6,
    "parents": "-1720059,-13702732,-192799",
    "name": "Afmadow District",
    "local_name": "Afmadow افمادوو",
    "name_en": "Afmadow District",
    "all_tags": {
      "name": "Afmadow افمادوو",
      "name:ar": "افمادوو",
      "name:en": "Afmadow District",
      "name:fr": "Afmadow",
      "name:ur": "افمادوو ضلع",
      "name:zh": "阿夫瑪道區",
      "name:zu": "Afmadow District",
      "boundary": "administrative",
      "way_area": "2.1752",
      "wikidata": "Q4689288",
      "wikipedia": "en:Afmadow District",
      "admin_level": "6"
    }
  },
  {
    "osm_id": -1720070,
    "boundary": "administrative",
    "admin_level": 6,
    "parents": "-1720060,-13702731,-192799",
    "name": "Afgooye District",
    "local_name": "Afgooye أفجوي",
    "name_en": "Afgooye District",
    "all_tags": {
      "name": "Afgooye أفجوي",
      "name:ar": "أفجوي",
      "name:en": "Afgooye District",
      "name:fr": "Afgooye",
      "name:ur": "افجویی ضلع",
      "name:zh": "阿弗戈耶區",
      "name:zu": "Afgooye District",
      "boundary": "administrative",
      "way_area": "0.349322",
      "wikidata": "Q4689229",
      "wikipedia": "en:Afgooye District",
      "admin_level": "6"
    }
  },
  {
    "osm_id": -1720069,
    "boundary": "administrative",
    "admin_level": 6,
    "parents": "-1720062,-13702730,-192799",
    "name": "Adan Yabal District",
    "local_name": "Adan Yabaal",
    "name_en": "Adan Yabal District",
    "all_tags": {
      "name": "Adan Yabaal",
      "name:en": "Adan Yabal District",
      "name:fr": "Adan Yabal",
      "name:so": "Aadan Yabaal",
      "name:zh": "阿丹雅巴勒區",
      "name:zu": "Adan Yabal District",
      "boundary": "administrative",
      "way_area": "0.403636",
      "wikidata": "Q4680599",
      "wikipedia": "en:Adan Yabal District",
      "admin_level": "6"
    }
  },
  {
    "osm_id": -1720068,
    "boundary": "administrative",
    "admin_level": 5,
    "parents": "-3586169,-192799",
    "name": "Woqooyi Galbeed",
    "local_name": "وقويي جالبيد Woqooyi Galbeed",
    "name_en": "Woqooyi Galbeed",
    "all_tags": {
      "name": "وقويي جالبيد Woqooyi Galbeed",
      "name:ar": "وقويي جالبيد",
      "name:de": "Woqooyi Galbeed",
      "name:en": "Woqooyi Galbeed",
      "name:es": "Woqooyi Galbeed",
      "name:fr": "Woqooyi Galbeed",
      "name:ru": "Вокуй-Гальбид",
      "name:zh": "馬魯迪耶州",
      "alt_name": "Awdal",
      "boundary": "administrative",
      "way_area": "1.37497",
      "wikidata": "Q877021",
      "ISO3166-2": "SO-WO",
      "wikipedia": "ar:وقويي جالبيد",
      "admin_level": "5",
      "name:zh-Hant": "馬魯迪耶州"
    }
  },
  {
    "osm_id": -1720067,
    "boundary": "administrative",
    "admin_level": 5,
    "parents": "-3586169,-192799",
    "name": "Togdheer",
    "local_name": "توجدير Togdheer",
    "name_en": "Togdheer",
    "all_tags": {
      "name": "توجدير Togdheer",
      "name:ar": "توجدير",
      "name:de": "Togdheer",
      "name:en": "Togdheer",
      "name:es": "Togdheer",
      "name:fr": "Togdheer",
      "name:ru": "Тогдер",
      "boundary": "administrative",
      "way_area": "2.56495",
      "wikidata": "Q865590",
      "ISO3166-2": "SO-TO",
      "wikipedia": "ar:توجدير",
      "admin_level": "5"
    }
  },
  {
    "osm_id": -1720066,
    "boundary": "administrative",
    "admin_level": 5,
    "parents": "-3586169,-192799",
    "name": "Sool",
    "local_name": "Sool سول",
    "name_en": "Sool",
    "all_tags": {
      "name": "Sool سول",
      "name:ar": "سول",
      "name:de": "Sool",
      "name:en": "Sool",
      "name:es": "Sool",
      "name:fr": "Sool",
      "name:ru": "Соль",
      "boundary": "administrative",
      "way_area": "3.14612",
      "wikidata": "Q848864",
      "ISO3166-2": "SO-SO",
      "wikipedia": "ar:صول (الصومال)",
      "admin_level": "5"
    }
  },
  {
    "osm_id": -1720065,
    "boundary": "administrative",
    "admin_level": 5,
    "parents": "-3586169,-192799",
    "name": "Sanaag",
    "local_name": "سناج Sanaag",
    "name_en": "Sanaag",
    "all_tags": {
      "name": "سناج Sanaag",
      "name:ar": "سناج",
      "name:de": "Sanaag",
      "name:en": "Sanaag",
      "name:es": "Sanaag",
      "name:fr": "Sanaag",
      "name:ru": "Санаг",
      "boundary": "administrative",
      "way_area": "5.11754",
      "wikidata": "Q751387",
      "ISO3166-2": "SO-SA",
      "wikipedia": "ar:سناج (محافظة)",
      "admin_level": "5"
    }
  },
  {
    "osm_id": -1720064,
    "boundary": "administrative",
    "admin_level": 5,
    "parents": "-13702728,-192799",
    "name": "Nugaal",
    "local_name": "Nugaal نوجال",
    "name_en": "Nugaal",
    "all_tags": {
      "name": "Nugaal نوجال",
      "name:ar": "نوجال",
      "name:de": "Nugaal",
      "name:en": "Nugaal",
      "name:es": "Nugaal",
      "name:fr": "Nugaal",
      "name:ru": "Нугал",
      "boundary": "administrative",
      "way_area": "2.41019",
      "wikidata": "Q1046329",
      "ISO3166-2": "SO-NU",
      "wikipedia": "ar:نوجال",
      "admin_level": "5"
    }
  },
  {
    "osm_id": -1720063,
    "boundary": "administrative",
    "admin_level": 5,
    "parents": "-192799",
    "name": "Mudug",
    "local_name": "Mudug مدج",
    "name_en": "Mudug",
    "all_tags": {
      "name": "Mudug مدج",
      "name:ar": "مدج",
      "name:de": "Mudug",
      "name:en": "Mudug",
      "name:es": "Mudug",
      "name:fr": "Mudug",
      "name:ru": "Мудуг",
      "boundary": "administrative",
      "way_area": "5.53689",
      "wikidata": "Q877034",
      "ISO3166-2": "SO-MU",
      "wikipedia": "ar:مدج",
      "admin_level": "5"
    }
  },
  {
    "osm_id": -1720062,
    "boundary": "administrative",
    "admin_level": 5,
    "parents": "-13702730,-192799",
    "name": "Middle Shebelle",
    "local_name": "Shabeellaha Dhexe شبيلي الوسطى",
    "name_en": "Middle Shebelle",
    "all_tags": {
      "name": "Shabeellaha Dhexe شبيلي الوسطى",
      "name:ar": "شبيلي الوسطى",
      "name:de": "Mittel-Shabelle",
      "name:en": "Middle Shebelle",
      "name:es": "Shabeellaha Dhexe",
      "name:fr": "Shabeellaha Dhexe",
      "name:it": "Medio Scebeli",
      "name:ru": "Средняя Шабелле",
      "boundary": "administrative",
      "way_area": "1.90367",
      "wikidata": "Q678435",
      "ISO3166-2": "SO-SD",
      "wikipedia": "ar:شبيلي الوسطى",
      "admin_level": "5"
    }
  },
  {
    "osm_id": -1720061,
    "boundary": "administrative",
    "admin_level": 5,
    "parents": "-13702732,-192799",
    "name": "Middle Juba",
    "local_name": "Jubbada Dhexe جوبا الوسطى",
    "name_en": "Middle Juba",
    "all_tags": {
      "name": "Jubbada Dhexe جوبا الوسطى",
      "name:ar": "جوبا الوسطى",
      "name:de": "Mittel-Jubba",
      "name:en": "Middle Juba",
      "name:es": "Jubbada Dhexe",
      "name:fr": "Jubbada Dhexe",
      "name:it": "Medio Giuba",
      "name:ru": "Средняя Джубба",
      "boundary": "administrative",
      "way_area": "1.61834",
      "wikidata": "Q1046324",
      "ISO3166-2": "SO-JD",
      "wikipedia": "ar:جوبا الوسطى",
      "admin_level": "5"
    }
  },
  {
    "osm_id": -1720060,
    "boundary": "administrative",
    "admin_level": 5,
    "parents": "-13702731,-192799",
    "name": "Lower Shabelle",
    "local_name": "Shabeellaha Hoose شبيلي السفلى",
    "name_en": "Lower Shabelle",
    "all_tags": {
      "name": "Shabeellaha Hoose شبيلي السفلى",
      "name:ar": "شبيلي السفلى",
      "name:de": "Unter-Shabelle",
      "name:en": "Lower Shabelle",
      "name:es": "Shabeellaha Hoose",
      "name:fr": "Shabeellaha Hoose",
      "name:it": "Basso Scebeli",
      "name:ru": "Нижняя Шабелле",
      "name:so": "Shabeellaha Hoose",
      "boundary": "administrative",
      "way_area": "2.52156",
      "wikidata": "Q877028",
      "ISO3166-2": "SO-SH",
      "wikipedia": "ar:شبيلي السفلى",
      "admin_level": "5"
    }
  },
  {
    "osm_id": -1720059,
    "boundary": "administrative",
    "admin_level": 5,
    "parents": "-13702732,-192799",
    "name": "Lower Juba",
    "local_name": "Jubbada Hoose جوبا السفلى",
    "name_en": "Lower Juba",
    "all_tags": {
      "name": "Jubbada Hoose جوبا السفلى",
      "name:ar": "جوبا السفلى",
      "name:de": "Unter-Jubba",
      "name:en": "Lower Juba",
      "name:es": "Jubbada Hoose",
      "name:fr": "Jubbada Hoose",
      "name:it": "Basso Giuba",
      "name:ru": "Нижняя Джубба",
      "boundary": "administrative",
      "way_area": "4.46092",
      "wikidata": "Q877042",
      "ISO3166-2": "SO-JH",
      "wikipedia": "ar:جوبا السفلى",
      "admin_level": "5"
    }
  },
  {
    "osm_id": -1720058,
    "boundary": "administrative",
    "admin_level": 5,
    "parents": "-13702730,-192799",
    "name": "Hiiraan",
    "local_name": "Hiiraan هيران",
    "name_en": "Hiiraan",
    "all_tags": {
      "name": "Hiiraan هيران",
      "name:ar": "هيران",
      "name:de": "Hiiraan",
      "name:en": "Hiiraan",
      "name:es": "Hiiraan",
      "name:fr": "Hiiraan",
      "name:ru": "Хиран",
      "boundary": "administrative",
      "way_area": "2.81593",
      "wikidata": "Q660040",
      "ISO3166-2": "SO-HI",
      "wikipedia": "ar:هيران",
      "admin_level": "5"
    }
  },
  {
    "osm_id": -1720057,
    "boundary": "administrative",
    "admin_level": 5,
    "parents": "-13702732,-192799",
    "name": "Gedo",
    "local_name": "Gedo جدو",
    "name_en": "Gedo",
    "all_tags": {
      "name": "Gedo جدو",
      "name:ar": "جدو",
      "name:de": "Gedo",
      "name:en": "Gedo",
      "name:es": "Gedo",
      "name:fr": "Gedo",
      "name:it": "Ghedo",
      "name:ru": "Гедо",
      "boundary": "administrative",
      "way_area": "3.68374",
      "wikidata": "Q856719",
      "ISO3166-2": "SO-GE",
      "wikipedia": "ar:جدو",
      "admin_level": "5"
    }
  },
  {
    "osm_id": -1720056,
    "boundary": "administrative",
    "admin_level": 5,
    "parents": "-13702729,-192799",
    "name": "Galgaduud",
    "local_name": "Galgaduud جلجدود",
    "name_en": "Galgaduud",
    "all_tags": {
      "name": "Galgaduud جلجدود",
      "name:ar": "جلجدود",
      "name:de": "Galguduud",
      "name:en": "Galgaduud",
      "name:es": "Galguduud",
      "name:fr": "Galguduud",
      "name:ru": "Галгудуд",
      "boundary": "administrative",
      "way_area": "4.37295",
      "wikidata": "Q876772",
      "ISO3166-2": "SO-GA",
      "wikipedia": "ar:جلجدود",
      "admin_level": "5"
    }
  },
  {
    "osm_id": -1720055,
    "boundary": "administrative",
    "admin_level": 5,
    "parents": "-13702731,-192799",
    "name": "Bay",
    "local_name": "Bay باي",
    "name_en": "Bay",
    "all_tags": {
      "name": "Bay باي",
      "name:ar": "باي",
      "name:de": "Bay",
      "name:en": "Bay",
      "name:es": "Bay",
      "name:fr": "Bay",
      "name:it": "Bai",
      "name:ru": "Бей",
      "boundary": "administrative",
      "way_area": "3.57328",
      "wikidata": "Q812064",
      "ISO3166-2": "SO-BY",
      "wikipedia": "ar:باي (الصومال)",
      "admin_level": "5"
    }
  },
  {
    "osm_id": -1720054,
    "boundary": "administrative",
    "admin_level": 5,
    "parents": "-13702728,-192799",
    "name": "Bari",
    "local_name": "Bariباري",
    "name_en": "Bari",
    "all_tags": {
      "name": "Bariباري",
      "name:ar": "باري",
      "name:de": "Bari",
      "name:en": "Bari",
      "name:es": "Bari",
      "name:fr": "Bari",
      "name:ru": "Бари",
      "boundary": "administrative",
      "way_area": "7.15403",
      "wikidata": "Q729170",
      "ISO3166-2": "SO-BR",
      "wikipedia": "ar:باري (الصومال)",
      "admin_level": "5"
    }
  },
  {
    "osm_id": -1720053,
    "boundary": "administrative",
    "admin_level": 4,
    "parents": "-192799",
    "name": "Banaadir",
    "local_name": "Banaadir بنادر",
    "name_en": "Banaadir",
    "all_tags": {
      "name": "Banaadir بنادر",
      "name:ar": "بنادر",
      "name:de": "Banaadir",
      "name:en": "Banaadir",
      "name:es": "Benadir",
      "name:fr": "Banaadir",
      "name:ru": "Бенадир",
      "name:so": "Banaadir",
      "boundary": "administrative",
      "way_area": "0.102478",
      "wikidata": "Q806070",
      "ISO3166-2": "SO-BN",
      "wikipedia": "ar:بنادر",
      "admin_level": "4"
    }
  },
  {
    "osm_id": -1720052,
    "boundary": "administrative",
    "admin_level": 5,
    "parents": "-13702731,-192799",
    "name": "Bakool",
    "local_name": "Bakool باكول",
    "name_en": "Bakool",
    "all_tags": {
      "name": "Bakool باكول",
      "name:ar": "باكول",
      "name:de": "Bakool",
      "name:en": "Bakool",
      "name:es": "Bakool",
      "name:fr": "Bakool",
      "name:ru": "Баколь",
      "boundary": "administrative",
      "way_area": "2.0943",
      "wikidata": "Q282471",
      "ISO3166-2": "SO-BK",
      "wikipedia": "ar:بكول",
      "admin_level": "5"
    }
  },
  {
    "osm_id": -1720051,
    "boundary": "administrative",
    "admin_level": 5,
    "parents": "-3586169,-192799",
    "name": "Awdal",
    "local_name": "عدل Awdal",
    "name_en": "Awdal",
    "all_tags": {
      "name": "عدل Awdal",
      "name:ar": "عدل",
      "name:de": "Awdal",
      "name:en": "Awdal",
      "name:es": "Awdal",
      "name:fr": "Awdal",
      "name:ru": "Авдал",
      "boundary": "administrative",
      "way_area": "1.76762",
      "wikidata": "Q791667",
      "ISO3166-2": "SO-AW",
      "wikipedia": "ar:أودال",
      "admin_level": "5"
    }
  }
]
