[
  {
    "osm_id": -7016937,
    "boundary": "administrative",
    "admin_level": 4,
    "parents": "-2361304",
    "name": "East Ennedi",
    "local_name": "Ennedi Est إنيدي الشرقية",
    "name_en": "East Ennedi",
    "all_tags": {
      "name": "Ennedi Est إنيدي الشرقية",
      "name:ar": "إنيدي الشرقية",
      "name:de": "Ost-Ennedi",
      "name:en": "East Ennedi",
      "name:es": "Ennedi Est",
      "name:fr": "Ennedi Est",
      "name:pl": "Ennedi Est",
      "name:ru": "Эннеди",
      "name:uk": "Еннеді",
      "name:ur": "انیدی مشرقی",
      "boundary": "administrative",
      "way_area": "7.04358",
      "wikidata": "Q16632169",
      "ISO3166-2": "TD-EE",
      "population": "113862",
      "admin_level": "4",
      "official_name": "إقليم إنيدي الشرقية",
      "population:date": "2009",
      "official_name:ar": "إقليم إنيدي الشرقية"
    }
  },
  {
    "osm_id": -6597881,
    "boundary": "administrative",
    "admin_level": 6,
    "parents": "-3718330,-2361304",
    "name": "1er Arrondissement / الدائرة الأولى",
    "local_name": "1er Arrondissement / الدائرة الأولى",
    "name_en": null,
    "all_tags": {
      "name": "1er Arrondissement / الدائرة الأولى",
      "name:ar": "الدائرة الأولى",
      "name:fr": "1er Arrondissement",
      "boundary": "administrative",
      "way_area": "0.00529539",
      "admin_level": "6"
    }
  },
  {
    "osm_id": -3718330,
    "boundary": "administrative",
    "admin_level": 4,
    "parents": "-2361304",
    "name": "N'Djamena",
    "local_name": "N'Djaména انجمينا",
    "name_en": "N'Djamena",
    "all_tags": {
      "name": "N'Djaména انجمينا",
      "name:ar": "انجمينا",
      "name:en": "N'Djamena",
      "name:es": "Yamena",
      "name:fr": "N'Djaména",
      "name:pl": "Ndżamena",
      "name:ru": "Нджамена",
      "name:uk": "Нджамена",
      "alt_name": "انْجَمِينا;نجامينا;إنجامينا;ندجاملينا",
      "boundary": "administrative",
      "name:arc": "ܢܓܡܝܢܐ",
      "name:syc": "ܢܓܡܝܢܐ",
      "way_area": "0.032494",
      "wikidata": "Q3659",
      "ISO3166-2": "TD-ND",
      "wikipedia": "ar:انجمينا",
      "population": "1092066",
      "admin_level": "4",
      "alt_name:ar": "انْجَمِينا;نجامينا;إنجامينا;ندجاملينا",
      "wikipedia:ar": "انجمينا",
      "population:date": "2012"
    }
  },
  {
    "osm_id": -3218254,
    "boundary": "administrative",
    "admin_level": 4,
    "parents": "-2361304",
    "name": "Tandjilé",
    "local_name": "Tandjilé تانجلي",
    "name_en": "Tandjilé",
    "all_tags": {
      "name": "Tandjilé تانجلي",
      "name:ar": "تانجلي",
      "name:en": "Tandjilé",
      "name:pl": "Tandjilé",
      "name:ru": "Танджиле",
      "name:uk": "Танджиле",
      "boundary": "administrative",
      "way_area": "1.43652",
      "wikidata": "Q867856",
      "ISO3166-2": "TD-TA",
      "wikipedia": "fr:Tandjilé",
      "population": "682817",
      "admin_level": "4",
      "population:date": "2009-06-20"
    }
  },
  {
    "osm_id": -3218253,
    "boundary": "administrative",
    "admin_level": 4,
    "parents": "-2361304",
    "name": "Moyen-Chari",
    "local_name": "Moyen-Chari شاري الأوسط",
    "name_en": "Moyen-Chari",
    "all_tags": {
      "name": "Moyen-Chari شاري الأوسط",
      "name:ar": "شاري الأوسط",
      "name:de": "Region Mittel-Schari",
      "name:en": "Moyen-Chari",
      "name:es": "Moyen-Chari",
      "name:fr": "Moyen-Chari",
      "name:pl": "Szari Środkowe",
      "name:ru": "Среднее Шари",
      "name:uk": "Середнє Шарі",
      "boundary": "administrative",
      "way_area": "3.41697",
      "wikidata": "Q177799",
      "ISO3166-2": "TD-MC",
      "wikipedia": "fr:Moyen-Chari",
      "population": "598284",
      "admin_level": "4",
      "population:date": "2009-06-20"
    }
  },
  {
    "osm_id": -3218252,
    "boundary": "administrative",
    "admin_level": 4,
    "parents": "-2361304",
    "name": "Mayo-Kebbi Ouest",
    "local_name": "Mayo-Kebbi Ouest مايو كيبي الغربية",
    "name_en": "Mayo-Kebbi Ouest",
    "all_tags": {
      "name": "Mayo-Kebbi Ouest مايو كيبي الغربية",
      "name:ar": "مايو كيبي الغربية",
      "name:de": "Mayo-Kebbi West",
      "name:en": "Mayo-Kebbi Ouest",
      "name:es": "Mayo-Kebbi Oeste",
      "name:fr": "Mayo-Kebbi Ouest",
      "name:pl": "Mayo-Kebbi Ouest",
      "name:ru": "Западное Майо-Кеби",
      "name:uk": "Західний Майо-Кебі",
      "boundary": "administrative",
      "way_area": "1.03249",
      "wikidata": "Q910393",
      "ISO3166-2": "TD-MO",
      "wikipedia": "fr:Mayo-Kebbi Ouest",
      "population": "569087",
      "admin_level": "4",
      "long_name:ar": "منطقة مايو كيبي الغربي",
      "population:date": "2009-06-20",
      "official_name:ar": "منطقة مايو كيبي الغربي"
    }
  },
  {
    "osm_id": -3218251,
    "boundary": "administrative",
    "admin_level": 4,
    "parents": "-2361304",
    "name": "Mayo-Kebbi Est",
    "local_name": "Mayo-Kebbi Est مايو كيبي الشرقية",
    "name_en": "Mayo-Kebbi Est",
    "all_tags": {
      "name": "Mayo-Kebbi Est مايو كيبي الشرقية",
      "name:ar": "مايو كيبي الشرقية",
      "name:de": "Mayo-Kebbi Ost",
      "name:en": "Mayo-Kebbi Est",
      "name:es": "Mayo-Kebbi Este",
      "name:fr": "Mayo-Kebbi Est",
      "name:pl": "Mayo-Kebbi Est",
      "name:ru": "Восточное Майо-Кеби",
      "name:uk": "Східний Майо-Кебі",
      "boundary": "administrative",
      "way_area": "1.49493",
      "wikidata": "Q911421",
      "ISO3166-2": "TD-ME",
      "wikipedia": "fr:Mayo-Kebbi Est",
      "population": "769198",
      "admin_level": "4",
      "long_name:ar": "منطقة مايو كيبي الشرقي",
      "population:date": "2009-06-20",
      "official_name:ar": "منطقة مايو كيبي الشرقي"
    }
  },
  {
    "osm_id": -3218250,
    "boundary": "administrative",
    "admin_level": 4,
    "parents": "-2361304",
    "name": "Mandoul",
    "local_name": "Mandoul ماندول",
    "name_en": "Mandoul",
    "all_tags": {
      "name": "Mandoul ماندول",
      "name:ar": "ماندول",
      "name:en": "Mandoul",
      "name:es": "Mandoul",
      "name:fr": "Mandoul",
      "name:pl": "Mandoul",
      "name:ru": "Мандуль",
      "name:uk": "Мандул",
      "boundary": "administrative",
      "way_area": "1.4304",
      "wikidata": "Q597410",
      "ISO3166-2": "TD-MA",
      "wikipedia": "fr:Mandoul",
      "population": "637086",
      "admin_level": "4",
      "long_name:ar": "منطقة ماندول",
      "population:date": "2009-06-20"
    }
  },
  {
    "osm_id": -3218249,
    "boundary": "administrative",
    "admin_level": 4,
    "parents": "-2361304",
    "name": "Logone Oriental",
    "local_name": "Logone Oriental لوقون الشرقية",
    "name_en": "Logone Oriental",
    "all_tags": {
      "name": "Logone Oriental لوقون الشرقية",
      "name:ar": "لوقون الشرقية",
      "name:de": "Logone Ost",
      "name:en": "Logone Oriental",
      "name:es": "Logone Oriental",
      "name:fr": "Logone Oriental",
      "name:pl": "Logon Wschodni",
      "name:ru": "Восточный Логон",
      "name:uk": "Східний Логон",
      "name:ur": "لوقون مشرقی",
      "boundary": "administrative",
      "way_area": "1.92292",
      "wikidata": "Q167514",
      "ISO3166-2": "TD-LR",
      "wikipedia": "ar:إقليم لوقون الشرقي",
      "population": "796453",
      "admin_level": "4",
      "official_name": "إقليم لوقون الشرقي",
      "population:date": "2009-06-20",
      "official_name:ar": "إقليم لوقون الشرقي",
      "official_name:de": "Region Logone Ost",
      "official_name:es": "Región de Logone Oriental",
      "official_name:ur": "لوقون مشرقی علاقہ"
    }
  },
  {
    "osm_id": -3218248,
    "boundary": "administrative",
    "admin_level": 4,
    "parents": "-2361304",
    "name": "Logone Occidental",
    "local_name": "لوقون الغربية Logone Occidental",
    "name_en": "Logone Occidental",
    "all_tags": {
      "name": "لوقون الغربية Logone Occidental",
      "name:ar": "لوقون الغربية",
      "name:de": "Logone West",
      "name:en": "Logone Occidental",
      "name:es": "Logone Occidental",
      "name:fr": "Logone Occidental",
      "name:pl": "Logon Zachodni",
      "name:ru": "Западный Логон",
      "name:uk": "Західний Логон",
      "boundary": "administrative",
      "way_area": "0.748012",
      "wikidata": "Q305257",
      "ISO3166-2": "TD-LO",
      "wikipedia": "fr:Logone Occidental",
      "population": "683293",
      "admin_level": "4",
      "population:date": "2009-06-20"
    }
  },
  {
    "osm_id": -3217119,
    "boundary": "administrative",
    "admin_level": 4,
    "parents": "-2361304",
    "name": "Lac",
    "local_name": "Lac البحيرة",
    "name_en": "Lac",
    "all_tags": {
      "name": "Lac البحيرة",
      "name:ar": "البحيرة",
      "name:de": "Region See",
      "name:en": "Lac",
      "name:es": "Lac",
      "name:fr": "Lac",
      "name:pl": "Lac",
      "name:ru": "Лак",
      "name:uk": "Лак",
      "boundary": "administrative",
      "way_area": "1.65305",
      "wikidata": "Q867869",
      "ISO3166-2": "TD-LC",
      "wikipedia": "fr:Lac (province)",
      "population": "451369",
      "admin_level": "4",
      "long_name:ar": "منطقة البحيرة",
      "population:date": "2009-06-20"
    }
  },
  {
    "osm_id": -3106626,
    "boundary": "administrative",
    "admin_level": 4,
    "parents": "-2361304",
    "name": "Chari-Baguirmi",
    "local_name": "Chari-Baguirmi شاري باقرمي",
    "name_en": "Chari-Baguirmi",
    "all_tags": {
      "name": "Chari-Baguirmi شاري باقرمي",
      "name:ar": "شاري باقرمي",
      "name:en": "Chari-Baguirmi",
      "name:es": "Chari-Baguirmi",
      "name:fr": "Chari-Baguirmi",
      "name:pl": "Szari-Bagirmi",
      "name:ru": "Шари-Багирми",
      "name:uk": "Шарі-Багірмі",
      "boundary": "administrative",
      "way_area": "3.81951",
      "wikidata": "Q843975",
      "ISO3166-2": "TD-CB",
      "wikipedia": "fr:Chari-Baguirmi",
      "population": "621785",
      "admin_level": "4",
      "population:date": "2009-06-20"
    }
  },
  {
    "osm_id": -3106623,
    "boundary": "administrative",
    "admin_level": 4,
    "parents": "-2361304",
    "name": "Kanem",
    "local_name": "Kanem كانم",
    "name_en": "Kanem",
    "all_tags": {
      "name": "Kanem كانم",
      "name:ar": "كانم",
      "name:en": "Kanem",
      "name:es": "Kanem",
      "name:fr": "Kanem",
      "name:pl": "Kanem",
      "name:ru": "Канем",
      "name:uk": "Канем",
      "boundary": "administrative",
      "way_area": "5.6905",
      "wikidata": "Q849841",
      "ISO3166-2": "TD-KA",
      "wikipedia": "fr:Kanem (province)",
      "population": "354603",
      "admin_level": "4",
      "long_name:ar": "منطقة كانم",
      "population:date": "2009-06-20"
    }
  },
  {
    "osm_id": -3106619,
    "boundary": "administrative",
    "admin_level": 4,
    "parents": "-2361304",
    "name": "Bahr el Gazel",
    "local_name": "Barh el Gazel بحر الغزال",
    "name_en": "Bahr el Gazel",
    "all_tags": {
      "name": "Barh el Gazel بحر الغزال",
      "name:ar": "بحر الغزال",
      "name:en": "Bahr el Gazel",
      "name:fr": "Barh el Gazel",
      "name:pl": "Barh El Gazel",
      "name:ru": "Бахр-эль-Газаль",
      "alt_name": "Bahr el Gazel",
      "boundary": "administrative",
      "way_area": "4.72279",
      "wikidata": "Q1050621",
      "ISO3166-2": "TD-BG",
      "wikipedia": "ar:بحر الغزال (تشاد)",
      "population": "260865",
      "admin_level": "4",
      "long_name:ar": "منطقة بحر الغزال",
      "population:date": "2009-06-20"
    }
  },
  {
    "osm_id": -3106606,
    "boundary": "administrative",
    "admin_level": 4,
    "parents": "-2361304",
    "name": "Hadjer-Lamis",
    "local_name": "Hadjer-Lamis حجر لميس",
    "name_en": "Hadjer-Lamis",
    "all_tags": {
      "name": "Hadjer-Lamis حجر لميس",
      "name:ar": "حجر لميس",
      "name:en": "Hadjer-Lamis",
      "name:es": "Hadjer-Lamis",
      "name:fr": "Hadjer-Lamis",
      "name:pl": "Hadjer-Lamis",
      "name:ru": "Хаджер-Ламис",
      "name:uk": "Хаджер-Ламі",
      "alt_name": "Hadjer Lamis",
      "boundary": "administrative",
      "way_area": "2.52364",
      "wikidata": "Q1042437",
      "ISO3166-2": "TD-HL",
      "wikipedia": "fr:Hadjer-Lamis",
      "population": "562957",
      "admin_level": "4",
      "population:date": "2009-06-20"
    }
  },
  {
    "osm_id": -3106605,
    "boundary": "administrative",
    "admin_level": 4,
    "parents": "-2361304",
    "name": "Batha",
    "local_name": "Batha البطحة",
    "name_en": "Batha",
    "all_tags": {
      "name": "Batha البطحة",
      "name:ar": "البطحة",
      "name:de": "Batha",
      "name:en": "Batha",
      "name:es": "Batha",
      "name:fr": "Batha",
      "name:pl": "Batha",
      "name:ru": "Батха",
      "name:uk": "Батха",
      "boundary": "administrative",
      "way_area": "7.56397",
      "wikidata": "Q180414",
      "ISO3166-2": "TD-BA",
      "wikipedia": "en:Batha (region)",
      "population": "527031",
      "admin_level": "4",
      "population:date": "2009-06-20"
    }
  },
  {
    "osm_id": -3106508,
    "boundary": "administrative",
    "admin_level": 4,
    "parents": "-2361304",
    "name": "Guéra",
    "local_name": "Guéra قيرا",
    "name_en": "Guéra",
    "all_tags": {
      "name": "Guéra قيرا",
      "name:ar": "قيرا",
      "name:en": "Guéra",
      "name:es": "Guéra",
      "name:fr": "Guéra",
      "name:pl": "Guéra",
      "name:ru": "Гера",
      "name:uk": "Гера",
      "boundary": "administrative",
      "way_area": "5.05792",
      "wikidata": "Q175706",
      "ISO3166-2": "TD-GR",
      "wikipedia": "fr:Guéra",
      "population": "553795",
      "admin_level": "4",
      "population:date": "2009-06-20"
    }
  },
  {
    "osm_id": -3106500,
    "boundary": "administrative",
    "admin_level": 4,
    "parents": "-2361304",
    "name": "Ouaddaï",
    "local_name": "Ouaddaï وداي",
    "name_en": "Ouaddaï",
    "all_tags": {
      "name": "Ouaddaï وداي",
      "name:ar": "وداي",
      "name:de": "Region Wadai",
      "name:en": "Ouaddaï",
      "name:es": "Ouaddaï",
      "name:fr": "Ouaddaï",
      "name:pl": "Wadaj",
      "name:ru": "Ваддай",
      "name:uk": "Вадаї",
      "boundary": "administrative",
      "way_area": "2.51154",
      "wikidata": "Q841338",
      "ISO3166-2": "TD-OD",
      "wikipedia": "fr:Ouaddaï",
      "population": "731679",
      "admin_level": "4",
      "alt_name:es": "Waddaí",
      "long_name:ar": "مقاطعة وداي",
      "population:date": "2009-06-20"
    }
  },
  {
    "osm_id": -3106495,
    "boundary": "administrative",
    "admin_level": 4,
    "parents": "-2361304",
    "name": "Sila",
    "local_name": "Sila سيلا",
    "name_en": "Sila",
    "all_tags": {
      "name": "Sila سيلا",
      "name:ar": "سيلا",
      "name:en": "Sila",
      "name:es": "Sila",
      "name:fr": "Sila",
      "name:pl": "Sila",
      "name:ru": "Сила",
      "alt_name": "Dar Sila",
      "boundary": "administrative",
      "name:ar1": "دار سيلا",
      "way_area": "3.01262",
      "wikidata": "Q1149611",
      "ISO3166-2": "TD-SI",
      "wikipedia": "fr:Sila (Tchad)",
      "population": "289776",
      "admin_level": "4",
      "alt_name:fr": "Dar Sila",
      "long_name:ar": "منطقة سيلا",
      "population:date": "2009-06-20"
    }
  },
  {
    "osm_id": -3106489,
    "boundary": "administrative",
    "admin_level": 4,
    "parents": "-2361304",
    "name": "Salamat",
    "local_name": "Salamat سلامات",
    "name_en": "Salamat",
    "all_tags": {
      "name": "Salamat سلامات",
      "name:ar": "سلامات",
      "name:en": "Salamat",
      "name:es": "Salamat",
      "name:fr": "Salamat",
      "name:pl": "Salamat",
      "name:ru": "Саламат",
      "name:uk": "Саламат",
      "boundary": "administrative",
      "way_area": "5.61415",
      "wikidata": "Q385584",
      "ISO3166-2": "TD-SA",
      "wikipedia": "fr:Salamat",
      "population": "308605",
      "admin_level": "4",
      "long_name:ar": "منطقة سلامات",
      "population:date": "2009-06-20"
    }
  },
  {
    "osm_id": -2537750,
    "boundary": "administrative",
    "admin_level": 4,
    "parents": "-2361304",
    "name": "Wadi Fira",
    "local_name": "Wadi Fira وادي فيرا",
    "name_en": "Wadi Fira",
    "all_tags": {
      "name": "Wadi Fira وادي فيرا",
      "name:ar": "وادي فيرا",
      "name:en": "Wadi Fira",
      "name:es": "Wadi Fira",
      "name:fr": "Wadi Fira",
      "name:pl": "Wadi Fira",
      "name:ru": "Вади-Фера",
      "name:uk": "Ваді-Фіра",
      "alt_name": "Ouaddi Fira",
      "boundary": "administrative",
      "way_area": "4.54042",
      "wikidata": "Q860813",
      "ISO3166-2": "TD-WF",
      "wikipedia": "fr:Wadi Fira",
      "population": "494993",
      "admin_level": "4",
      "alt_name:fr": "Ouaddi Fira",
      "long_name:ar": "مقاطعة وادي فيرا",
      "population:date": "2009-06-20"
    }
  },
  {
    "osm_id": -2537745,
    "boundary": "administrative",
    "admin_level": 4,
    "parents": "-2361304",
    "name": "Ennedi-Ouest",
    "local_name": "Ennedi Ouest إنيدي الغربية",
    "name_en": "Ennedi-Ouest",
    "all_tags": {
      "name": "Ennedi Ouest إنيدي الغربية",
      "name:ar": "إنيدي الغربية",
      "name:de": "West-Ennedi",
      "name:en": "Ennedi-Ouest",
      "name:es": "Ennedi Ouest",
      "name:fr": "Ennedi Ouest",
      "name:pl": "Ennedi",
      "name:ru": "Эннеди",
      "name:uk": "Еннеді",
      "boundary": "administrative",
      "way_area": "10.5813",
      "wikidata": "Q16632172",
      "ISO3166-2": "TD-EO",
      "wikipedia": "fr:Ennedi Ouest (province)",
      "population": "59744",
      "admin_level": "4",
      "long_name:ar": "مقاطعة إنيدي الغربية",
      "population:date": "2009-06-20"
    }
  },
  {
    "osm_id": -2537744,
    "boundary": "administrative",
    "admin_level": 4,
    "parents": "-2361304",
    "name": "Borkou",
    "local_name": "Borkou بوركو",
    "name_en": "Borkou",
    "all_tags": {
      "name": "Borkou بوركو",
      "name:ar": "بوركو",
      "name:de": "Borkou",
      "name:en": "Borkou",
      "name:es": "Borkou",
      "name:fr": "Borkou",
      "name:pl": "Borku",
      "name:ru": "Борку",
      "name:uk": "Борку",
      "boundary": "administrative",
      "way_area": "12.7786",
      "wikidata": "Q1139666",
      "ISO3166-2": "TD-BO",
      "wikipedia": "en:Borkou (region of Chad)",
      "population": "97251",
      "admin_level": "4",
      "long_name:ar": "مقاطعة بوركو",
      "population:date": "2009-06-20"
    }
  },
  {
    "osm_id": -2537732,
    "boundary": "administrative",
    "admin_level": 4,
    "parents": "-2361304",
    "name": "Tibesti",
    "local_name": "Tibesti تيبستي",
    "name_en": "Tibesti",
    "all_tags": {
      "name": "Tibesti تيبستي",
      "name:ar": "تيبستي",
      "name:de": "Tibesti",
      "name:en": "Tibesti",
      "name:es": "Tibesti",
      "name:fa": "تیبستی",
      "name:fr": "Tibesti",
      "name:pl": "Tibesti",
      "name:ru": "Тибести",
      "name:uk": "Тібесті",
      "name:ur": "تیبستی",
      "alt_name": "تيبستي;إقليم تبستي;إقليم تابستي;منطقة تبستي;مقاطعة تيبستي",
      "boundary": "administrative",
      "way_area": "18.7681",
      "wikidata": "Q737711",
      "ISO3166-2": "TD-TI",
      "wikipedia": "ar:مقاطعة تيبستي",
      "population": "21970",
      "admin_level": "4",
      "alt_name:ar": "تيبستي;إقليم تبستي;إقليم تابستي;منطقة تبستي;مقاطعة تيبستي",
      "wikipedia:ar": "مقاطعة تيبستي",
      "population:date": "2009-06-20"
    }
  }
]
