{"type" : "FeatureCollection", "features" : [{"type": "Feature", "geometry": {"type":"MultiPolygon","coordinates":[[[[1.1996314,6.1123604],[1.1841291,6.1985609],[1.2984815,6.1784596],[1.2920662,6.1339171],[1.1996314,6.1123604]]]]}, "properties": {"osm_id": -6607308, "boundary": "administrative", "admin_level": 4, "parents": "-192782", "name": "Lomé", "local_name": "Lomé", "name_en": "Lomé", "all_tags": {"name": "Lomé", "place": "city", "capital": "yes", "name:am": "ሎሜ", "name:ar": "لومي", "name:az": "Lome", "name:be": "Ламэ", "name:bg": "Ломе", "name:bo": "ལཱོ་མེ།", "name:de": "Lomé", "name:el": "Λομέ", "name:en": "Lomé", "name:eo": "Lomeo", "name:eu": "Lome", "name:fa": "لومه", "name:fr": "Lomé", "name:fy": "Lomee", "name:he": "לומה", "name:ht": "Lomé", "name:hy": "Լոմե", "name:io": "Lome", "name:is": "Lomé", "name:ja": "ロメ", "name:ka": "ლომე", "name:ko": "로메", "name:ky": "Ломе", "name:la": "Lome", "name:lt": "Lomė", "name:lv": "Lome", "name:mk": "Ломе", "name:mr": "लोमे", "name:pl": "Lomé", "name:ps": "لوم", "name:ru": "Ломе", "name:so": "Lome", "name:sr": "Ломе", "name:sv": "Lomé", "name:sw": "Lome", "name:ta": "லோமே", "name:tg": "Ломе", "name:th": "โลเม", "name:ug": "لومې", "name:uk": "Ломе", "name:ur": "لومے", "name:zh": "洛美", "website": "http://villedelome.com/", "boundary": "administrative", "name:arz": "لوميه", "name:ckb": "لۆمێ", "name:mrj": "Ломе", "name:nov": "Lome", "name:pnb": "لوم", "name:udm": "Ломе", "way_area": "0.00749751", "wikidata": "Q3792", "wikipedia": "fr:Lomé", "population": "837437", "admin_level": "4", "name:be-tarask": "Ломэ"}}}, {"type": "Feature", "geometry": {"type":"MultiPolygon","coordinates":[[[[1.3056748,6.152028],[0.7169632,6.5176461],[1.5773692,6.9224483],[1.808356,6.2867856],[1.3056748,6.152028]]]]}, "properties": {"osm_id": -3338188, "boundary": "administrative", "admin_level": 4, "parents": "-192782", "name": "Maritime Region", "local_name": "Région Maritime", "name_en": "Maritime Region", "all_tags": {"name": "Région Maritime", "name:ar": "إقليم البحرية", "name:de": "Region Maritime", "name:en": "Maritime Region", "name:fr": "Région Maritime", "name:ru": "Приморская область", "name:uk": "Марітіме", "boundary": "administrative", "way_area": "0.506497", "wikidata": "Q316291", "ISO3166-2": "TG-M", "wikipedia": "en:Maritime (Togolese region)", "admin_level": "4"}}}, {"type": "Feature", "geometry": {"type":"MultiPolygon","coordinates":[[[[0.782286241,6.532018329],[0.6206079,7.9056882],[1.613056,8.374722],[1.6425,6.995556],[0.782286241,6.532018329]]]]}, "properties": {"osm_id": -3338185, "boundary": "administrative", "admin_level": 4, "parents": "-192782", "name": "Plateaux Region", "local_name": "Région des Plateaux", "name_en": "Plateaux Region", "all_tags": {"name": "Région des Plateaux", "name:ar": "إقليم السهول الواسعة", "name:de": "Region Plateaux", "name:en": "Plateaux Region", "name:fr": "Région des Plateaux", "name:ru": "Плато", "name:uk": "Плато", "boundary": "administrative", "way_area": "1.41021", "wikidata": "Q316306", "ISO3166-2": "TG-P", "wikipedia": "en:Plateaux Region, Togo", "admin_level": "4"}}}, {"type": "Feature", "geometry": {"type":"MultiPolygon","coordinates":[[[[0.8820911,9.0022929],[1.2642472,8.6677693],[1.449167,9.284444],[1.0040877,9.2094815],[0.8820911,9.0022929]]]]}, "properties": {"osm_id": -3338162, "boundary": "administrative", "admin_level": 6, "parents": "-3338091,-192782", "name": "Tchaoudjo", "local_name": "Tchaoudjo", "name_en": null, "all_tags": {"name": "Tchaoudjo", "name:ar": "محافظة شوجو", "name:fr": "Préfecture de Tchaoudjo", "boundary": "administrative", "way_area": "0.197293", "wikidata": "Q3910188", "admin_level": "6"}}}, {"type": "Feature", "geometry": {"type":"MultiPolygon","coordinates":[[[[1.2246897,8.4502985],[1.660833,8.491667],[1.449167,9.284444],[1.2544638,8.7036743],[1.2246897,8.4502985]]]]}, "properties": {"osm_id": -3338161, "boundary": "administrative", "admin_level": 6, "parents": "-3338091,-192782", "name": "Tchamba", "local_name": "Tchamba", "name_en": null, "all_tags": {"name": "Tchamba", "name:fr": "Préfecture de Tchamba", "boundary": "administrative", "way_area": "0.256711", "wikidata": "Q12264843", "wikipedia": "en:Tchamba (prefecture)", "admin_level": "6"}}}, {"type": "Feature", "geometry": {"type":"MultiPolygon","coordinates":[[[[0.373824,8.754676],[0.6206079,7.9056882],[1.2427255,8.0071669],[1.1976001,8.7370814],[0.373824,8.754676]],[[0.963178,8.3483101],[1.0019216,8.40383],[1.0328831,8.3322117],[0.9801712,8.3028792],[0.963178,8.3483101]]]]}, "properties": {"osm_id": -3338160, "boundary": "administrative", "admin_level": 6, "parents": "-3338091,-192782", "name": "Sotouboua", "local_name": "Sotouboua", "name_en": null, "all_tags": {"name": "Sotouboua", "name:fr": "Préfecture de Sotouboua", "boundary": "administrative", "way_area": "0.628254", "wikidata": "Q8841307", "admin_level": "6"}}}, {"type": "Feature", "geometry": {"type":"MultiPolygon","coordinates":[[[[0.963178,8.3483101],[0.9801712,8.3028792],[1.0328831,8.3322117],[1.0019216,8.40383],[0.963178,8.3483101]]]]}, "properties": {"osm_id": -3338159, "boundary": "administrative", "admin_level": 6, "parents": "-3338091,-192782", "name": "Blitta", "local_name": "Blitta", "name_en": null, "all_tags": {"name": "Blitta", "name:fr": "Préfecture de Blitta", "boundary": "administrative", "way_area": "0.00514099", "wikidata": "Q15075944", "wikipedia": "en:Blitta", "admin_level": "6"}}}, {"type": "Feature", "geometry": {"type":"MultiPolygon","coordinates":[[[[0.373824,8.754676],[0.6206079,7.9056882],[1.660833,8.491667],[1.435,9.298056],[0.373824,8.754676]]]]}, "properties": {"osm_id": -3338091, "boundary": "administrative", "admin_level": 4, "parents": "-192782", "name": "Centrale Region", "local_name": "Région Centrale", "name_en": "Centrale Region", "all_tags": {"name": "Région Centrale", "name:ar": "الإقليم الأوسط", "name:de": "Region Centrale", "name:en": "Centrale Region", "name:fr": "Région Centrale", "name:ru": "Центральная область", "name:uk": "Центральний регіон", "boundary": "administrative", "way_area": "1.0874", "wikidata": "Q316220", "ISO3166-2": "TG-C", "wikipedia": "en:Centrale Region, Togo", "admin_level": "4"}}}, {"type": "Feature", "geometry": {"type":"MultiPolygon","coordinates":[[[[0.9187254,9.6428229],[1.0192857,9.4108988],[1.398056,9.430278],[1.2142416,9.7745825],[0.9187254,9.6428229]]]]}, "properties": {"osm_id": -3338072, "boundary": "administrative", "admin_level": 6, "parents": "-3338038,-192782", "name": "Kozah", "local_name": "Kozah", "name_en": null, "all_tags": {"name": "Kozah", "name:ar": "محافظة كوزاه", "name:fr": "Préfecture de Kozah", "boundary": "administrative", "way_area": "0.090381", "wikidata": "Q3910171", "wikipedia": "en:Kozah, Togo", "admin_level": "6"}}}, {"type": "Feature", "geometry": {"type":"MultiPolygon","coordinates":[[[[0.2270527,9.4783821],[0.5670034,9.4059263],[0.7553405,9.486252],[0.8514817,9.8852592],[0.2270527,9.4783821]]]]}, "properties": {"osm_id": -3338071, "boundary": "administrative", "admin_level": 6, "parents": "-3338038,-192782", "name": "Dankpen", "local_name": "Dankpen", "name_en": null, "all_tags": {"name": "Dankpen", "name:fr": "Préfecture de Dankpen", "boundary": "administrative", "way_area": "0.23936", "wikidata": "Q3910165", "wikipedia": "en:Dankpen", "admin_level": "6"}}}, {"type": "Feature", "geometry": {"type":"MultiPolygon","coordinates":[[[[1.2142416,9.7745825],[1.2703284,9.5364083],[1.361111,9.485556],[1.3588463,9.914139],[1.2142416,9.7745825]]]]}, "properties": {"osm_id": -3338070, "boundary": "administrative", "admin_level": 6, "parents": "-3338038,-192782", "name": "Bimah", "local_name": "Bimah", "name_en": null, "all_tags": {"name": "Bimah", "name:fr": "Préfecture de Bimah", "boundary": "administrative", "way_area": "0.0365239", "wikidata": "Q3910160", "wikipedia": "en:Bimah (prefecture)", "admin_level": "6"}}}, {"type": "Feature", "geometry": {"type":"MultiPolygon","coordinates":[[[[0.456238,9.043858],[0.9681667,9.0218588],[1.0139204,9.5982708],[0.5670034,9.4059263],[0.456238,9.043858]]]]}, "properties": {"osm_id": -3338069, "boundary": "administrative", "admin_level": 6, "parents": "-3338038,-192782", "name": "Bassar", "local_name": "Bassar", "name_en": null, "all_tags": {"name": "Bassar", "name:fr": "Préfecture de Bassar", "boundary": "administrative", "way_area": "0.248716", "wikidata": "Q3910159", "wikipedia": "en:Bassar (prefecture)", "admin_level": "6"}}}, {"type": "Feature", "geometry": {"type":"MultiPolygon","coordinates":[[[[0.9393921,9.3401123],[1.0220182,9.2144497],[1.435,9.298056],[1.3778038,9.4478815],[0.9393921,9.3401123]]]]}, "properties": {"osm_id": -3338068, "boundary": "administrative", "admin_level": 6, "parents": "-3338038,-192782", "name": "Assoli", "local_name": "Assoli", "name_en": null, "all_tags": {"name": "Assoli", "name:fr": "Préfecture d'Assoli", "boundary": "administrative", "way_area": "0.0832388", "wikidata": "Q3910155", "wikipedia": "en:Assoli", "admin_level": "6"}}}, {"type": "Feature", "geometry": {"type":"MultiPolygon","coordinates":[[[[0.2270527,9.4783821],[0.9648123,9.0200567],[1.355,9.995278],[0.3633517,10.0340806],[0.2270527,9.4783821]]]]}, "properties": {"osm_id": -3338038, "boundary": "administrative", "admin_level": 4, "parents": "-192782", "name": "Kara Region", "local_name": "Région de la Kara", "name_en": "Kara Region", "all_tags": {"name": "Région de la Kara", "name:ar": "إقليم كارا", "name:de": "Region Kara", "name:en": "Kara Region", "name:fr": "Région de la Kara", "name:ru": "Кара", "name:uk": "Кара", "boundary": "administrative", "way_area": "0.94088", "wikidata": "Q316216", "ISO3166-2": "TG-K", "wikipedia": "en:Kara Region", "admin_level": "4"}}}, {"type": "Feature", "geometry": {"type":"MultiPolygon","coordinates":[[[[0.6634834,9.9267013],[1.0579082,9.8530962],[1.1758135,10.1066244],[0.7619837,10.1822238],[0.6634834,9.9267013]]]]}, "properties": {"osm_id": -3338037, "boundary": "administrative", "admin_level": 6, "parents": "-3338038,-192782", "name": "Kéran", "local_name": "Kéran", "name_en": null, "all_tags": {"name": "Kéran", "name:fr": "Préfecture de Kéran", "boundary": "administrative", "way_area": "0.136629", "wikidata": "Q3408886", "wikipedia": "en:Kéran", "admin_level": "6"}}}, {"type": "Feature", "geometry": {"type":"MultiPolygon","coordinates":[[[[0.8376916,9.8333497],[1.0896716,9.6617779],[1.355,9.995278],[1.1758135,10.1066244],[0.8376916,9.8333497]]]]}, "properties": {"osm_id": -3338036, "boundary": "administrative", "admin_level": 6, "parents": "-3338038,-192782", "name": "Doufelgou", "local_name": "Doufelgou", "name_en": null, "all_tags": {"name": "Doufelgou", "name:fr": "Préfecture de Doufelgou", "boundary": "administrative", "way_area": "0.106031", "wikidata": "Q385600", "wikipedia": "en:Doufelgou", "admin_level": "6"}}}, {"type": "Feature", "geometry": {"type":"MultiPolygon","coordinates":[[[[0.4711942,10.7532246],[0.801389,10.708056],[0.9122091,10.9961705],[0.4998942,10.9317163],[0.4711942,10.7532246]]]]}, "properties": {"osm_id": -402980, "boundary": "administrative", "admin_level": 6, "parents": "-402968,-192782", "name": "Préfecture de Tône", "local_name": "Préfecture de Tône", "name_en": null, "all_tags": {"name": "Préfecture de Tône", "name:ar": "محافظة تون", "boundary": "administrative", "way_area": "0.121374", "admin_level": "6"}}}, {"type": "Feature", "geometry": {"type":"MultiPolygon","coordinates":[[[[0.915049976,10.279373375],[0.5663329,9.8856677],[0.145092,10.5190371],[0.801389,10.708056],[0.915049976,10.279373375]]]]}, "properties": {"osm_id": -402979, "boundary": "administrative", "admin_level": 6, "parents": "-402968,-192782", "name": "Préfecture de l'Oti", "local_name": "Préfecture de l'Oti", "name_en": null, "all_tags": {"name": "Préfecture de l'Oti", "name:ar": "محافظة أوتي", "name:fr": "Préfecture de l'Oti", "name:lt": "Oti prefektūra", "boundary": "administrative", "way_area": "0.335926", "wikidata": "Q3408904", "admin_level": "6"}}}, {"type": "Feature", "geometry": {"type":"MultiPolygon","coordinates":[[[[-0.090165,10.708313],[0.145092,10.5190371],[0.3471161,10.5716782],[0.0177399,10.8169247],[-0.090165,10.708313]]]]}, "properties": {"osm_id": -402976, "boundary": "administrative", "admin_level": 6, "parents": "-402968,-192782", "name": "Préfecture de Tandjouaré", "local_name": "Préfecture de Tandjouaré", "name_en": null, "all_tags": {"name": "Préfecture de Tandjouaré", "name:fr": "Préfecture de Tandjouaré", "name:lt": "Tandžuarės prefektūra", "boundary": "administrative", "way_area": "0.0724877", "wikidata": "Q3408895", "admin_level": "6"}}}, {"type": "Feature", "geometry": {"type":"MultiPolygon","coordinates":[[[[-0.1439746,11.1177848],[-0.0231831,10.8257385],[0.4828629,10.6238796],[0.5048348,11.0093433],[-0.1439746,11.1177848]]]]}, "properties": {"osm_id": -402970, "boundary": "administrative", "admin_level": 6, "parents": "-402968,-192782", "name": "Préfecture de Kpendjal", "local_name": "Préfecture de Kpendjal", "name_en": null, "all_tags": {"name": "Préfecture de Kpendjal", "name:ar": "محافظة كبنجال", "name:fr": "Préfecture de Kpendjal", "name:lt": "Kpendžalės prefektūra", "boundary": "administrative", "way_area": "0.186225", "admin_level": "6"}}}, {"type": "Feature", "geometry": {"type":"MultiPolygon","coordinates":[[[[0.915049976,10.279373375],[0.4313292,9.9669672],[-0.1362307,11.1395102],[0.9122091,10.9961705],[0.915049976,10.279373375]]]]}, "properties": {"osm_id": -402968, "boundary": "administrative", "admin_level": 4, "parents": "-192782", "name": "Savanes Region", "local_name": "Région des Savanes", "name_en": "Savanes Region", "all_tags": {"name": "Région des Savanes", "name:ar": "إقليم السهول العشبية", "name:de": "Region Savanes", "name:en": "Savanes Region", "name:fr": "Région des Savanes", "name:lt": "Savanų regionas", "name:ru": "Саванн", "name:uk": "Саванн", "boundary": "administrative", "way_area": "0.716013", "wikidata": "Q279945", "ISO3166-2": "TG-S", "wikipedia": "en:Savanes Region, Togo", "admin_level": "4", "alt_name:ar": "إقليم سافانس"}}}]}