{"type" : "FeatureCollection", "features" : [{"type": "Feature", "geometry": {"type":"MultiPolygon","coordinates":[[[[68.6576614,38.5894432],[68.6708374,38.4510994],[68.9642334,38.5176773],[68.9409027,38.6109543],[68.6576614,38.5894432]]]]}, "properties": {"osm_id": -7328360, "boundary": "administrative", "admin_level": 4, "parents": "-214626", "name": "Dushanbe", "local_name": "Душанбе", "name_en": "Dushanbe", "all_tags": {"name": "Душанбе", "name:af": "Doesjanbe", "name:am": "ዱሻንቤ", "name:ar": "دوشنبه", "name:az": "Düşənbə", "name:be": "Душанбэ", "name:bg": "Душанбе", "name:bn": "দুশান্‌বে", "name:bo": "དུ་ཤང་པེ།", "name:br": "Douchanbe", "name:bs": "Dušanbe", "name:ca": "Duixanbe", "name:cs": "Dušanbe", "name:cy": "Dushanbe", "name:da": "Dusjanbe", "name:de": "Duschanbe", "name:el": "Ντουσαμπέ", "name:en": "Dushanbe", "name:eo": "Duŝanbeo", "name:es": "Dusambé", "name:et": "Dušanbe", "name:eu": "Dushanbe", "name:fa": "دوشنبه", "name:fi": "Dušanbe", "name:fr": "Douchanbé", "name:fy": "Doesjanbe", "name:ga": "Dushanbe", "name:gd": "Dushanbe", "name:gl": "Dushanbe", "name:he": "דושנבה", "name:hi": "दुशान्बे", "name:hr": "Dušanbe", "name:ht": "Douchanbe", "name:hu": "Dusanbe", "name:hy": "Դուշանբե", "name:id": "Dushanbe", "name:ie": "Dushanbe", "name:io": "Dushanbe", "name:is": "Dúshanbe", "name:it": "Dušanbe", "name:ja": "ドゥシャンベ", "name:ka": "დუშანბე", "name:kk": "Душанбе", "name:kn": "ದುಶಾಂಬೆ", "name:ko": "두샨베", "name:ku": "Duşenbe", "name:kv": "Душанбе", "name:ky": "Душанбе", "name:lt": "Dušanbė", "name:lv": "Dušanbe", "name:mk": "Душанбе", "name:ml": "ദുഷാൻബെ", "name:mn": "Душанбе", "name:mr": "दुशांबे", "name:nl": "Doesjanbe", "name:nn": "Dusjanbe", "name:no": "Dusjanbe", "name:oc": "Doshambe", "name:os": "Душанбе", "name:pl": "Duszanbe", "name:ps": "دوشنبه", "name:pt": "Duchambe", "name:ro": "Dușanbe", "name:ru": "Душанбе", "name:sh": "Dušanbe", "name:sk": "Dušanbe", "name:sl": "Dušanbej", "name:sq": "Dushanbe", "name:sr": "Душанбе", "name:sv": "Dusjanbe", "name:sw": "Dushanbe", "name:ta": "துசான்பே", "name:tg": "Душанбе", "name:th": "ดูชานเบ", "name:tl": "Dushanbe", "name:tr": "Duşanbe", "name:tt": "Дүшәнбе", "name:ug": "Düshenbe", "name:uk": "Душанбе", "name:ur": "دوشنبہ", "name:uz": "Dushanbe", "name:vi": "Dushanbe", "name:yi": "דושאנבע", "name:yo": "Dushanbe", "name:zh": "杜尚别", "boundary": "administrative", "int_name": "Dushanbe", "name:ace": "Dushanbe", "name:ckb": "دوشەنبە", "name:gag": "Duşanbe", "name:hif": "Dushanbe", "name:hsb": "Dušanbe", "name:lad": "Dushanbe", "name:lmo": "Dušanbe", "name:mhr": "Душанбе", "name:nan": "Dushanbe", "name:nov": "Dushanbe", "name:pap": "Dusjanbe", "name:pms": "Dušanbe", "name:sah": "Душанбе", "name:sco": "Dushanbe", "name:udm": "Душанбе", "name:war": "Dushanbe", "way_area": "0.0378677", "wikidata": "Q9365", "ISO3166-2": "TJ-DU", "wikipedia": "en:Dushanbe", "name:short": "RRP", "admin_level": "4", "name:simple": "Dushanbe", "is_in:country": "Tadjikistan", "name:be-tarask": "Душанбэ", "is_in:continent": "Asia", "is_in:country_code": "TJ"}}}, {"type": "Feature", "geometry": {"type":"MultiPolygon","coordinates":[[[[69.7940112,37.7573669],[70.265853,37.6114002],[70.3447068,38.3964518],[69.979889,37.8545492],[69.7940112,37.7573669]]]]}, "properties": {"osm_id": -6870523, "boundary": "administrative", "admin_level": 6, "parents": "-3279616,-214626", "name": "Ноҳияи Шамсиддин Шоҳин", "local_name": "Ноҳияи Шамсиддин Шоҳин", "name_en": null, "all_tags": {"name": "Ноҳияи Шамсиддин Шоҳин", "name:fa": "شهرستان شمس الدین شاهین", "name:ru": "Шамсиддин-Шохинский район", "name:tg": "Ноҳияи Шамсиддин Шоҳин", "boundary": "administrative", "old_name": "Ноҳияи Шурабад", "way_area": "0.21915", "wikidata": "Q7482813", "wikipedia": "tg:Ноҳияи Шамсиддин Шоҳин", "admin_level": "6", "old_name:fa": "شهرستان شور آباد", "old_name:ru": "Шурабадский район"}}}, {"type": "Feature", "geometry": {"type":"MultiPolygon","coordinates":[[[[68.2699753,37.9134802],[69.0156093,38.4235715],[68.9409027,38.6109543],[68.6576614,38.5894432],[68.2699753,37.9134802]]]]}, "properties": {"osm_id": -3281973, "boundary": "administrative", "admin_level": 6, "parents": "-214626", "name": "Rudaki District", "local_name": "Ноҳияи Рӯдакӣ", "name_en": "Rudaki District", "all_tags": {"ref": "22", "name": "Ноҳияи Рӯдакӣ", "name:en": "Rudaki District", "name:fa": "ناحیهٔ رودکی", "name:ru": "Район Рудаки", "name:tg": "Ноҳияи Рӯдакӣ", "boundary": "administrative", "way_area": "0.161762", "wikidata": "Q2669438", "wikipedia": "en:Rudaki District", "population": "394200", "admin_level": "6", "addr:district": "Rudaki District", "addr:postcode": "735100"}}}, {"type": "Feature", "geometry": {"type":"MultiPolygon","coordinates":[[[[70.1315167,38.5860634],[71.4415099,38.4751506],[72.0710385,38.8110877],[71.1822886,39.1125575],[70.1315167,38.5860634]]]]}, "properties": {"osm_id": -3281972, "boundary": "administrative", "admin_level": 6, "parents": "-3279615,-214626", "name": "Tavildara District", "local_name": "Ноҳияи Тавилдара", "name_en": "Tavildara District", "all_tags": {"ref": "27", "name": "Ноҳияи Тавилдара", "name:en": "Tavildara District", "name:fa": "شهرستان طویل‌دره", "name:ru": "Тавильдаринский район", "name:tg": "Ноҳияи Тавилдара", "boundary": "administrative", "way_area": "0.567023", "wikidata": "Q2507856", "wikipedia": "en:Tavildara District", "population": "19400", "admin_level": "6"}}}, {"type": "Feature", "geometry": {"type":"MultiPolygon","coordinates":[[[[71.4289536,37.0716062],[71.8421639,36.6801794],[72.9547413,37.2913831],[71.5056857,37.3119496],[71.4289536,37.0716062]]]]}, "properties": {"osm_id": -3281971, "boundary": "administrative", "admin_level": 6, "parents": "-3279614,-214626", "name": "Ishkoshim District", "local_name": "Ноҳияи Ишкошим", "name_en": "Ishkoshim District", "all_tags": {"ref": "57", "name": "Ноҳияи Ишкошим", "name:de": "Bezirk Ischkoschim", "name:en": "Ishkoshim District", "name:fa": "ناحیۀاشکاشم", "name:ru": "Ишкашимский район", "name:tg": "Ноҳияи Ишкошим", "boundary": "administrative", "way_area": "0.319244", "wikidata": "Q261843", "wikipedia": "en:Ishkoshim District", "population": "28400", "admin_level": "6"}}}, {"type": "Feature", "geometry": {"type":"MultiPolygon","coordinates":[[[[68.9256516,38.497509],[69.1068319,38.4220193],[69.9181128,39.0469122],[69.0368433,39.0338266],[68.9256516,38.497509]]]]}, "properties": {"osm_id": -3281970, "boundary": "administrative", "admin_level": 6, "parents": "-3279615,-214626", "name": "Vahdat District", "local_name": "Ноҳияи Ваҳдат", "name_en": "Vahdat District", "all_tags": {"ref": "19", "name": "Ноҳияи Ваҳдат", "name:en": "Vahdat District", "name:fa": "ناحیۀ وحدت", "name:ru": "Вахдатский район", "name:tg": "Ноҳияи Ваҳдат", "boundary": "administrative", "way_area": "0.377803", "wikidata": "Q2640253", "wikipedia": "en:Vahdat District", "population": "240500", "admin_level": "6", "addr:district": "Ноҳияи Ваҳдат", "addr:postcode": "735400"}}}, {"type": "Feature", "geometry": {"type":"MultiPolygon","coordinates":[[[[70.2555825,37.9948154],[70.5061531,38.1222905],[70.695293,38.4190788],[71.2787839,38.4998086],[70.2555825,37.9948154]]]]}, "properties": {"osm_id": -3281969, "boundary": "administrative", "admin_level": 6, "parents": "-3279614,-214626", "name": "Darvoz District", "local_name": "Ноҳияи Дарвоз", "name_en": "Darvoz District", "all_tags": {"ref": "52", "name": "Ноҳияи Дарвоз", "name:en": "Darvoz District", "name:fa": "شهرستان درواز‎", "name:ru": "Дарвазский район", "name:tg": "Ноҳияи Дарвоз", "boundary": "administrative", "way_area": "0.295811", "wikidata": "Q2605259", "wikipedia": "en:Darvoz district", "population": "23600", "admin_level": "6"}}}, {"type": "Feature", "geometry": {"type":"MultiPolygon","coordinates":[[[[69.6639158,39.2762544],[70.2923406,38.8795354],[71.0626103,39.4123462],[70.6931805,39.5192543],[69.6639158,39.2762544]]]]}, "properties": {"osm_id": -3281968, "boundary": "administrative", "admin_level": 6, "parents": "-3279615,-214626", "name": "Rasht District", "local_name": "Ноҳияи Рашт", "name_en": "Rasht District", "all_tags": {"ref": "20", "name": "Ноҳияи Рашт", "name:en": "Rasht District", "name:fa": "ناحیهٔ راشت", "name:ru": "Раштский район", "name:tg": "Ноҳияи Рашт", "boundary": "administrative", "way_area": "0.490062", "wikidata": "Q2657690", "wikipedia": "en:Rasht District", "population": "102800", "admin_level": "6", "addr:district": "Ноҳияи Рашт", "addr:postcode": "735450"}}}, {"type": "Feature", "geometry": {"type":"MultiPolygon","coordinates":[[[[71.47487,37.387917],[72.8234329,37.3810005],[72.8866806,37.5697403],[72.5340042,37.9312325],[71.47487,37.387917]]]]}, "properties": {"osm_id": -3281967, "boundary": "administrative", "admin_level": 6, "parents": "-3279614,-214626", "name": "Shughnon District", "local_name": "Ноҳияи Шуғнон", "name_en": "Shughnon District", "all_tags": {"ref": "55", "name": "Ноҳияи Шуғнон", "name:de": "Bezirk Schughnon", "name:en": "Shughnon District", "name:fa": "ناحیۀ شغنان", "name:ru": "Шугнанский район", "name:tg": "Ноҳияи Шуғнон", "boundary": "administrative", "way_area": "0.518487", "wikidata": "Q2669442", "wikipedia": "tg:Ноҳияи Шуғнон", "population": "38000", "admin_level": "6"}}}, {"type": "Feature", "geometry": {"type":"MultiPolygon","coordinates":[[[[69.0568542,37.4557114],[69.4216298,37.1917663],[69.5577469,37.5875664],[69.3595505,37.7777596],[69.0568542,37.4557114]]]]}, "properties": {"osm_id": -3281966, "boundary": "administrative", "admin_level": 6, "parents": "-3279616,-214626", "name": "Farkhor District", "local_name": "Ноҳияи Фархор", "name_en": "Farkhor District", "all_tags": {"ref": "49", "name": "Ноҳияи Фархор", "name:en": "Farkhor District", "name:fa": "شهرستان فرخار‎", "name:ja": "ファルホール", "name:ru": "Фархорский район", "name:tg": "Ноҳияи Фархор", "alt_name": "Parkhar", "boundary": "administrative", "way_area": "0.138633", "wikidata": "Q2391254", "wikipedia": "en:Farkhor District", "population": "137400", "admin_level": "6"}}}, {"type": "Feature", "geometry": {"type":"MultiPolygon","coordinates":[[[[69.0535812,37.9655914],[69.4120865,37.7692223],[69.3895151,38.2538957],[69.0952107,38.2685459],[69.0535812,37.9655914]]]]}, "properties": {"osm_id": -3281965, "boundary": "administrative", "admin_level": 6, "parents": "-3279616,-214626", "name": "Danghara District", "local_name": "Ноҳияи Данғара", "name_en": "Danghara District", "all_tags": {"ref": "35", "name": "Ноҳияи Данғара", "name:en": "Danghara District", "name:fa": "ناحیۀ دنغره", "name:ru": "Дангаринский район", "name:tg": "Ноҳияи Данғара", "boundary": "administrative", "way_area": "0.137067", "wikidata": "Q2565377", "wikipedia": "en:Danghara District", "population": "122500", "admin_level": "6"}}}, {"type": "Feature", "geometry": {"type":"MultiPolygon","coordinates":[[[[68.3147964,37.1347427],[68.6195953,37.2005403],[68.6624603,37.494545],[68.4096025,37.9181509],[68.3147964,37.1347427]]]]}, "properties": {"osm_id": -3281964, "boundary": "administrative", "admin_level": 6, "parents": "-3279616,-214626", "name": "Jilikul District", "local_name": "Ноҳияи Ҷиликӯл", "name_en": "Jilikul District", "all_tags": {"ref": "46", "name": "Ноҳияи Ҷиликӯл", "name:en": "Jilikul District", "name:fa": "شهرستان جیلیکل", "name:ru": "Джиликульский район", "name:tg": "Ноҳияи Ҷиликӯл", "boundary": "administrative", "way_area": "0.123781", "wikidata": "Q2588386", "wikipedia": "en:Jilikul District", "population": "90000", "admin_level": "6"}}}, {"type": "Feature", "geometry": {"type":"MultiPolygon","coordinates":[[[[69.4453192,38.3823297],[69.6782761,38.2567368],[70.1897836,38.6530458],[70.0307669,38.7927764],[69.4453192,38.3823297]]]]}, "properties": {"osm_id": -3281963, "boundary": "administrative", "admin_level": 6, "parents": "-3279616,-214626", "name": "Baljuvon District", "local_name": "Ноҳияи Балҷувон", "name_en": "Baljuvon District", "all_tags": {"ref": "31", "name": "Ноҳияи Балҷувон", "name:en": "Baljuvon District", "name:fa": "ناحیۀ بلجوان", "name:ru": "Бальджуванский район", "name:tg": "Ноҳияи Балҷувон", "boundary": "administrative", "way_area": "0.163124", "wikidata": "Q2565358", "wikipedia": "en:Baljuvon District", "population": "24400", "admin_level": "6"}}}, {"type": "Feature", "geometry": {"type":"MultiPolygon","coordinates":[[[[69.606726,38.2824741],[69.935585,38.1165924],[70.4842726,38.5578519],[70.2726865,38.6462734],[69.606726,38.2824741]]]]}, "properties": {"osm_id": -3281962, "boundary": "administrative", "admin_level": 6, "parents": "-3279616,-214626", "name": "Khovaling District", "local_name": "Ноҳияи Ховалинг", "name_en": "Khovaling District", "all_tags": {"ref": "32", "name": "Ноҳияи Ховалинг", "name:en": "Khovaling District", "name:fa": "شهرستان خاوَلِنگ‎", "name:ru": "Хуросонский район", "name:tg": "Ноҳияи Ховалинг", "boundary": "administrative", "way_area": "0.187329", "wikidata": "Q6402653", "wikipedia": "en:Khovaling District", "population": "48800", "admin_level": "6"}}}, {"type": "Feature", "geometry": {"type":"MultiPolygon","coordinates":[[[[68.00844,36.9308513],[68.275,37.012222],[68.4959259,37.3239784],[68.3733095,37.9120208],[68.00844,36.9308513]]]]}, "properties": {"osm_id": -3281961, "boundary": "administrative", "admin_level": 6, "parents": "-3279616,-214626", "name": "Qabodiyon District", "local_name": "Ноҳияи Қабодиён", "name_en": "Qabodiyon District", "all_tags": {"ref": "45", "name": "Ноҳияи Қабодиён", "name:en": "Qabodiyon District", "name:fa": "شهرستان قبادیان‎", "name:ru": "Кабодиёнский район", "name:tg": "Ноҳияи Қабодиён", "boundary": "administrative", "way_area": "0.208031", "wikidata": "Q2628807", "wikipedia": "en:Qabodiyon District", "population": "148300", "admin_level": "6", "alt_name:ru": "Кубадиянский район;Кабодиянский район"}}}, {"type": "Feature", "geometry": {"type":"MultiPolygon","coordinates":[[[[68.8115616,38.1337776],[69.0585556,38.0304947],[69.0765721,38.416778],[68.8900766,38.3819673],[68.8115616,38.1337776]]]]}, "properties": {"osm_id": -3281960, "boundary": "administrative", "admin_level": 6, "parents": "-3279616,-214626", "name": "Yovon District", "local_name": "Ноҳияи Ёвон", "name_en": "Yovon District", "all_tags": {"ref": "29", "name": "Ноҳияи Ёвон", "name:en": "Yovon District", "name:fa": "ناحیۀ یاوان", "name:ru": "Яванский район", "name:tg": "Ноҳияи Ёвон", "boundary": "administrative", "way_area": "0.0839275", "wikidata": "Q2980110", "wikipedia": "en:Yovon District", "population": "178800", "admin_level": "6"}}}, {"type": "Feature", "geometry": {"type":"MultiPolygon","coordinates":[[[[69.0636555,38.3071351],[69.3046396,38.2756047],[69.4782853,38.3538918],[69.1398416,38.4313228],[69.0636555,38.3071351]]]]}, "properties": {"osm_id": -3281959, "boundary": "administrative", "admin_level": 6, "parents": "-3279616,-214626", "name": "Norak District", "local_name": "Ноҳияи Норак", "name_en": "Norak District", "all_tags": {"ref": "30", "name": "Ноҳияи Норак", "name:en": "Norak District", "name:fa": "ناحیۀ نارک", "name:ru": "Нурекский район", "name:tg": "Ноҳияи Норак", "boundary": "administrative", "way_area": "0.0464119", "wikidata": "Q3500767", "wikipedia": "en:Norak District", "population": "24200", "admin_level": "6"}}}, {"type": "Feature", "geometry": {"type":"MultiPolygon","coordinates":[[[[68.9302139,37.3853836],[69.2424821,37.0971953],[69.4216298,37.1917663],[69.219841,37.5318222],[68.9302139,37.3853836]]]]}, "properties": {"osm_id": -3281958, "boundary": "administrative", "admin_level": 6, "parents": "-3279616,-214626", "name": "Panj District", "local_name": "Ноҳияи Панҷ", "name_en": "Panj District", "all_tags": {"ref": "50", "name": "Ноҳияи Панҷ", "name:en": "Panj District", "name:fa": "شهرستان پنج", "name:ru": "Пянджский район", "name:tg": "Ноҳияи Панҷ", "name:uk": "Па́ндзький район", "boundary": "administrative", "way_area": "0.0875299", "wikidata": "Q2564823", "wikipedia": "en:Panj District", "population": "93700", "admin_level": "6"}}}, {"type": "Feature", "geometry": {"type":"MultiPolygon","coordinates":[[[[70.955653,39.1567799],[71.7152701,38.9181677],[72.2320422,39.1369921],[71.5147733,39.6114907],[70.955653,39.1567799]]]]}, "properties": {"osm_id": -3281957, "boundary": "administrative", "admin_level": 6, "parents": "-3279615,-214626", "name": "Lakhsh", "local_name": "Лахш", "name_en": "Lakhsh", "all_tags": {"name": "Лахш", "name:en": "Lakhsh", "boundary": "administrative", "way_area": "0.482539", "wikidata": "Q2669474", "wikipedia": "tg:Ноҳияи Лахш", "admin_level": "6"}}}, {"type": "Feature", "geometry": {"type":"MultiPolygon","coordinates":[[[[71.1493975,38.3900804],[71.5880203,38.0130501],[72.3613493,38.5041532],[72.0980687,38.8363156],[71.1493975,38.3900804]]]]}, "properties": {"osm_id": -3281956, "boundary": "administrative", "admin_level": 6, "parents": "-3279614,-214626", "name": "Vanj District", "local_name": "Ноҳияи Ванҷ", "name_en": "Vanj District", "all_tags": {"ref": "53", "name": "Ноҳияи Ванҷ", "name:en": "Vanj District", "name:fa": "ناحیۀ ونج", "name:ru": "Ванчский район", "name:tg": "Ноҳияи Ванҷ", "boundary": "administrative", "way_area": "0.506927", "wikidata": "Q2669456", "wikipedia": "en:Vanj district", "population": "30400", "admin_level": "6"}}}, {"type": "Feature", "geometry": {"type":"MultiPolygon","coordinates":[[[[69.3508133,37.9493009],[69.6736526,37.7152481],[69.8648834,38.1372032],[69.6720489,38.166814],[69.3508133,37.9493009]]]]}, "properties": {"osm_id": -3281955, "boundary": "administrative", "admin_level": 6, "parents": "-3279616,-214626", "name": "Vose' District", "local_name": "Ноҳияи Восеъ", "name_en": "Vose' District", "all_tags": {"ref": "40", "name": "Ноҳияи Восеъ", "name:en": "Vose' District", "name:fa": "ناحیۀ واسع‎", "name:ru": "Восейский район", "name:tg": "Ноҳияи Восеъ", "boundary": "administrative", "way_area": "0.111614", "wikidata": "Q2565339", "wikipedia": "en:Vose' District", "population": "177600", "admin_level": "6", "addr:district": "Ноҳияи Восеъ", "addr:postcode": "735330"}}}, {"type": "Feature", "geometry": {"type":"MultiPolygon","coordinates":[[[[68.6144028,37.7124557],[68.76754,37.6576653],[68.8799591,37.801342],[68.7047729,37.9146461],[68.6144028,37.7124557]]]]}, "properties": {"osm_id": -3281954, "boundary": "administrative", "admin_level": 6, "parents": "-3279616,-214626", "name": "Bokhtar District", "local_name": "Ноҳияи Бохтар", "name_en": "Bokhtar District", "all_tags": {"ref": "38", "name": "Ноҳияи Бохтар", "name:en": "Bokhtar District", "name:fa": "منطقه باختر", "name:ru": "Бохтарский район", "name:tg": "Ноҳияи Бохтар", "boundary": "administrative", "old_name": "Oktyabr;Октябр", "way_area": "0.0366675", "wikidata": "Q2669480", "wikipedia": "en:Bokhtar District", "population": "217700", "admin_level": "6"}}}, {"type": "Feature", "geometry": {"type":"MultiPolygon","coordinates":[[[[68.5668716,37.5877609],[68.9819717,37.38451],[69.1055298,37.57761],[68.6973572,37.7074699],[68.5668716,37.5877609]]]]}, "properties": {"osm_id": -3281953, "boundary": "administrative", "admin_level": 6, "parents": "-3279616,-214626", "name": "Jalaladdin Balkhi  District", "local_name": "Ноҳияи Ҷалолиддин Балхӣ", "name_en": "Jalaladdin Balkhi  District", "all_tags": {"ref": "48", "name": "Ноҳияи Ҷалолиддин Балхӣ", "name:en": "Jalaladdin Balkhi  District", "name:fa": "شهرستان جلال الدین بلخی", "name:ru": "Район Джалолиддина Балхи", "name:tg": "Ноҳияи Ҷалолиддин Балхӣ", "alt_name": "Ноҳияи Ҷалолиддин Румӣ", "boundary": "administrative", "old_name": "Колхозабадский район", "way_area": "0.0803981", "wikidata": "Q3563282", "wikipedia": "en:Rumi District", "population": "157700", "admin_level": "6", "alt_name:ru": "Район им. Джалаледдина Руми", "alt_name:tg": "Ноҳияи Ҷалолиддин Румӣ"}}}, {"type": "Feature", "geometry": {"type":"MultiPolygon","coordinates":[[[[69.4320526,37.6791573],[69.8237427,37.5709246],[69.861002,37.8467844],[69.6736526,37.7152481],[69.4320526,37.6791573]]]]}, "properties": {"osm_id": -3281951, "boundary": "administrative", "admin_level": 6, "parents": "-3279616,-214626", "name": "Hamadoni District", "local_name": "Ноҳияи Ҳамадонӣ", "name_en": "Hamadoni District", "all_tags": {"ref": "51", "name": "Ноҳияи Ҳамадонӣ", "name:en": "Hamadoni District", "name:fa": "شهرستان همدانی", "name:ru": "Район им. Мир Саида Али Хамадани", "name:tg": "Ноҳияи Ҳамадонӣ", "boundary": "administrative", "way_area": "0.0619986", "wikidata": "Q3564819", "wikipedia": "en:Hamadoni District", "population": "123900", "admin_level": "6"}}}, {"type": "Feature", "geometry": {"type":"MultiPolygon","coordinates":[[[[69.3167265,38.2778399],[69.3508133,37.9493009],[69.613707,37.9715866],[69.606726,38.2824741],[69.3167265,38.2778399]]]]}, "properties": {"osm_id": -3281950, "boundary": "administrative", "admin_level": 6, "parents": "-3279616,-214626", "name": "Temurmalik District", "local_name": "Ноҳияи Темурмалик", "name_en": "Temurmalik District", "all_tags": {"ref": "36", "name": "Ноҳияи Темурмалик", "name:en": "Temurmalik District", "name:ru": "Темурмаликский район", "name:tg": "Ноҳияи Темурмалик", "boundary": "administrative", "old_name": "Qizil-Mazor;Sovetskiy", "way_area": "0.085161", "wikidata": "Q7482815", "wikipedia": "en:Temurmalik District", "population": "58700", "admin_level": "6"}}}, {"type": "Feature", "geometry": {"type":"MultiPolygon","coordinates":[[[[69.6910712,38.8882257],[70.1897836,38.6530458],[70.5827723,38.8580543],[69.8667093,39.0029073],[69.6910712,38.8882257]]]]}, "properties": {"osm_id": -3281949, "boundary": "administrative", "admin_level": 6, "parents": "-3279615,-214626", "name": "Nurobod District", "local_name": "Ноҳияи Нуробод", "name_en": "Nurobod District", "all_tags": {"ref": "25", "name": "Ноҳияи Нуробод", "name:en": "Nurobod District", "name:fa": "ناحیۀ نورآباد", "name:ru": "Нурабадский район", "name:tg": "Ноҳияи Нуробод", "boundary": "administrative", "way_area": "0.130034", "wikidata": "Q2507842", "wikipedia": "en:Nurobod district, Tajikistan", "population": "66000", "admin_level": "6", "addr:district": "Ноҳияи Нуробод", "addr:postcode": "735420"}}}, {"type": "Feature", "geometry": {"type":"MultiPolygon","coordinates":[[[[68.1772961,38.8816524],[68.2994279,38.8385118],[68.4039525,38.1989095],[68.5576913,38.9346584],[68.1772961,38.8816524]]]]}, "properties": {"osm_id": -3281948, "boundary": "administrative", "admin_level": 6, "parents": "-3279615,-214626", "name": "Sharinav District", "local_name": "Ноҳияи Шаҳринав", "name_en": "Sharinav District", "all_tags": {"ref": "16", "name": "Ноҳияи Шаҳринав", "name:en": "Sharinav District", "name:fa": "ناحیهٔ شهرنو", "name:ru": "Шахринавский район", "name:tg": "Ноҳияи Шаҳринав", "boundary": "administrative", "way_area": "0.139652", "wikidata": "Q2990697", "wikipedia": "en:Shahrinaw District", "population": "96600", "admin_level": "6", "addr:district": "Ноҳияи Шаҳринав", "addr:postcode": "735020"}}}, {"type": "Feature", "geometry": {"type":"MultiPolygon","coordinates":[[[[69.6936951,37.8617668],[69.9707051,37.8445864],[70.0754748,38.0036157],[69.8648834,38.1372032],[69.6936951,37.8617668]]]]}, "properties": {"osm_id": -3281947, "boundary": "administrative", "admin_level": 6, "parents": "-3279616,-214626", "name": "Kulob District", "local_name": "Ноҳияи Кӯлоб", "name_en": "Kulob District", "all_tags": {"ref": "41", "name": "Ноҳияи Кӯлоб", "name:en": "Kulob District", "name:fa": "شهرستان کولاب", "name:ru": "Кулябский район", "name:tg": "Ноҳияи Кӯлоб", "boundary": "administrative", "way_area": "0.0578723", "wikidata": "Q2564862", "wikipedia": "en:Kulob District", "population": "86400", "admin_level": "6", "addr:district": "Ноҳияи Кӯлоб", "addr:postcode": "735360"}}}, {"type": "Feature", "geometry": {"type":"MultiPolygon","coordinates":[[[[68.4617462,37.2008629],[68.919444,37.275556],[68.9390259,37.4174347],[68.6507721,37.4436302],[68.4617462,37.2008629]]]]}, "properties": {"osm_id": -3281946, "boundary": "administrative", "admin_level": 6, "parents": "-3279616,-214626", "name": "Qumsangir District", "local_name": "Ноҳияи Қумсангир", "name_en": "Qumsangir District", "all_tags": {"ref": "47", "name": "Ноҳияи Қумсангир", "name:en": "Qumsangir District", "name:fa": "شهرستان قوم سنگیر‎", "name:ru": "Кумсангирский район", "name:tg": "Ноҳияи Қумсангир", "boundary": "administrative", "old_name": "Molotovobod", "way_area": "0.0672669", "wikidata": "Q7272789", "wikipedia": "en:Qumsangir District", "population": "110400", "admin_level": "6"}}}, {"type": "Feature", "geometry": {"type":"MultiPolygon","coordinates":[[[[68.4606588,37.9101669],[68.6186218,37.7020149],[68.8229895,38.3360089],[68.5754501,38.3159164],[68.4606588,37.9101669]]]]}, "properties": {"osm_id": -3281945, "boundary": "administrative", "admin_level": 6, "parents": "-3279616,-214626", "name": "Khuroson District", "local_name": "Ноҳияи Ғозималик", "name_en": "Khuroson District", "all_tags": {"ref": "28", "name": "Ноҳияи Ғозималик", "name:en": "Khuroson District", "name:ru": "Хуросонский район", "name:tg": "Ноҳияи Ғозималик", "boundary": "administrative", "old_name": "Ghozimalik", "way_area": "0.135545", "wikidata": "Q5263385", "wikipedia": "en:Khuroson District", "population": "92000", "admin_level": "6", "addr:district": "Khuroson District", "addr:postcode": "735411"}}}, {"type": "Feature", "geometry": {"type":"MultiPolygon","coordinates":[[[[68.0566902,38.7145692],[68.0619145,38.3927255],[68.3683685,38.221626],[68.2983902,38.8403036],[68.0566902,38.7145692]]]]}, "properties": {"osm_id": -3281944, "boundary": "administrative", "admin_level": 6, "parents": "-3279615,-214626", "name": "Tursunzoda District", "local_name": "Ноҳияи Турсунзода", "name_en": "Tursunzoda District", "all_tags": {"ref": "15", "name": "Ноҳияи Турсунзода", "name:en": "Tursunzoda District", "name:fa": "ناحیۀ ترسن زاده", "name:ru": "Турсунзадевский район", "name:tg": "Ноҳияи Турсунзода", "alt_name": "Tursunzade", "boundary": "administrative", "way_area": "0.113423", "wikidata": "Q2669425", "wikipedia": "en:Tursunzoda District", "population": "195000", "admin_level": "6", "addr:district": "Ноҳияи Турсунзода", "addr:postcode": "735000"}}}, {"type": "Feature", "geometry": {"type":"MultiPolygon","coordinates":[[[[68.7121964,37.6787186],[68.9071274,37.5342598],[69.1055298,37.57761],[69.1496429,37.9181824],[68.7121964,37.6787186]]]]}, "properties": {"osm_id": -3281943, "boundary": "administrative", "admin_level": 6, "parents": "-3279616,-214626", "name": "Vakhsh District", "local_name": "Ноҳияи Вахш", "name_en": "Vakhsh District", "all_tags": {"ref": "39", "name": "Ноҳияи Вахш", "name:en": "Vakhsh District", "name:fa": "ناحیۀ وخش", "name:ru": "Вахшский район", "name:tg": "Ноҳияи Вахш", "boundary": "administrative", "way_area": "0.0836644", "wikidata": "Q2565367", "wikipedia": "en:Vakhsh District", "population": "159500", "admin_level": "6"}}}, {"type": "Feature", "geometry": {"type":"MultiPolygon","coordinates":[[[[71.2520615,37.9314275],[72.6977234,37.9177246],[72.7047119,38.4803963],[72.3752709,38.5176027],[71.2520615,37.9314275]]]]}, "properties": {"osm_id": -3281942, "boundary": "administrative", "admin_level": 6, "parents": "-3279614,-214626", "name": "Rushon District", "local_name": "Ноҳияи Рӯшон", "name_en": "Rushon District", "all_tags": {"ref": "54", "name": "Ноҳияи Рӯшон", "name:en": "Rushon District", "name:fa": "ناحیۀ روشان‎", "name:ja": "ルション地区", "name:ru": "Рушанский район", "name:tg": "Ноҳияи Рӯшон", "name:uk": "Рушанська нохія", "boundary": "administrative", "name:pnb": "ضلع روشان", "way_area": "0.594188", "wikidata": "Q2507868", "wikipedia": "en:Rushon district", "population": "25300", "admin_level": "6", "name:tg_latn": "Nohijai Rūşon"}}}, {"type": "Feature", "geometry": {"type":"MultiPolygon","coordinates":[[[[68.7047729,37.9146461],[68.8535767,37.8512001],[69.0670853,38.0181503],[68.820282,38.2262688],[68.7047729,37.9146461]]]]}, "properties": {"osm_id": -3281941, "boundary": "administrative", "admin_level": 6, "parents": "-3279616,-214626", "name": "Dzhami District", "local_name": "Ноҳияи Абдураҳмони Ҷомӣ", "name_en": "Dzhami District", "all_tags": {"ref": "33", "name": "Ноҳияи Абдураҳмони Ҷомӣ", "name:en": "Dzhami District", "name:ru": "Район им. Абдурахмана Джами", "name:tg": "Ноҳияи Абдураҳмони Ҷомӣ", "alt_name": "Jomi District", "boundary": "administrative", "old_name": "Hojamaston;Kuybyshevsk;Kuybyshev", "way_area": "0.0591696", "wikidata": "Q3564843", "wikipedia": "en:Dzhami District", "population": "135500", "admin_level": "6"}}}, {"type": "Feature", "geometry": {"type":"MultiPolygon","coordinates":[[[[68.8521252,37.8469338],[69.0573654,37.7788048],[69.1819916,37.9770927],[68.945015,37.9369316],[68.8521252,37.8469338]]]]}, "properties": {"osm_id": -3281940, "boundary": "administrative", "admin_level": 6, "parents": "-3279616,-214626", "name": "Sarband District", "local_name": "Ноҳияи Сарбанд", "name_en": "Sarband District", "all_tags": {"ref": "34", "name": "Ноҳияи Сарбанд", "name:en": "Sarband District", "name:fa": "ناحیۀ سربند‎", "name:ru": "Сарбандский район", "name:tg": "Ноҳияи Сарбанд", "boundary": "administrative", "way_area": "0.0405927", "wikidata": "Q7423507", "wikipedia": "en:Sarband District", "population": "24700", "admin_level": "6"}}}, {"type": "Feature", "geometry": {"type":"MultiPolygon","coordinates":[[[[68.5242055,38.9808575],[68.6576614,38.5894432],[68.9815903,38.630043],[69.0328178,39.0573206],[68.5242055,38.9808575]]]]}, "properties": {"osm_id": -3281939, "boundary": "administrative", "admin_level": 6, "parents": "-3279615,-214626", "name": "Varzob District", "local_name": "Ноҳияи Варзоб", "name_en": "Varzob District", "all_tags": {"ref": "18", "name": "Ноҳияи Варзоб", "name:en": "Varzob District", "name:fa": "ناحیۀ ورزاب", "name:ru": "Варзобский район", "name:tg": "Ноҳияи Варзоб", "boundary": "administrative", "way_area": "0.186439", "wikidata": "Q2669430", "wikipedia": "en:Varzob District", "population": "65300", "admin_level": "6", "addr:district": "Ноҳияи Варзоб", "addr:postcode": "735103"}}}, {"type": "Feature", "geometry": {"type":"MultiPolygon","coordinates":[[[[69.8851395,38.0541611],[70.0798518,38.0079129],[70.2292185,38.3181931],[70.0060654,38.2534142],[69.8851395,38.0541611]]]]}, "properties": {"osm_id": -3281938, "boundary": "administrative", "admin_level": 6, "parents": "-3279616,-214626", "name": "Muminobod District", "local_name": "Ноҳияи Мӯъминобод", "name_en": "Muminobod District", "all_tags": {"ref": "37", "name": "Ноҳияи Мӯъминобод", "name:en": "Muminobod District", "name:fa": "ناحیۀ مومن آباد", "name:ru": "Муминабадский район", "name:tg": "Ноҳияи Мӯъминобод", "boundary": "administrative", "way_area": "0.0567867", "wikidata": "Q2565327", "wikipedia": "en:Muminobod District", "population": "77700", "admin_level": "6"}}}, {"type": "Feature", "geometry": {"type":"MultiPolygon","coordinates":[[[[69.4997334,38.6989605],[69.6193367,38.4961725],[69.9480506,38.7391697],[69.702236,38.862665],[69.4997334,38.6989605]]]]}, "properties": {"osm_id": -3281937, "boundary": "administrative", "admin_level": 6, "parents": "-3279615,-214626", "name": "Roghun District", "local_name": "Ноҳияи Роғун", "name_en": "Roghun District", "all_tags": {"ref": "24", "name": "Ноҳияи Роғун", "name:en": "Roghun District", "name:fa": "ناحیهٔ راغون", "name:ru": "Рогунский район", "name:tg": "Ноҳияи Роғун", "boundary": "administrative", "way_area": "0.080711", "wikidata": "Q2669485", "wikipedia": "en:Roghun District", "population": "22600", "admin_level": "6", "addr:district": "Ноҳияи Роғун", "addr:postcode": "735417"}}}, {"type": "Feature", "geometry": {"type":"MultiPolygon","coordinates":[[[[69.1068319,38.4220193],[69.3834525,38.3316238],[69.5832672,38.6416092],[69.2851891,38.6340224],[69.1068319,38.4220193]]]]}, "properties": {"osm_id": -3281936, "boundary": "administrative", "admin_level": 6, "parents": "-3279615,-214626", "name": "Faizobod District", "local_name": "Ноҳияи Файзобод", "name_en": "Faizobod District", "all_tags": {"ref": "23", "name": "Ноҳияи Файзобод", "name:en": "Faizobod District", "name:fa": "ناحیۀ فیض‌آباد", "name:ru": "Файзабадский район", "name:tg": "Ноҳияи Файзобод", "boundary": "administrative", "way_area": "0.100328", "wikidata": "Q2669448", "wikipedia": "en:Faizobod District", "population": "82300", "admin_level": "6", "addr:district": "Ноҳияи Файзобод", "addr:postcode": "735412"}}}, {"type": "Feature", "geometry": {"type":"MultiPolygon","coordinates":[[[[68.4784123,38.857603],[68.4841614,38.4130859],[68.5453262,38.345047],[68.6642654,38.7724292],[68.4784123,38.857603]]]]}, "properties": {"osm_id": -3281935, "boundary": "administrative", "admin_level": 6, "parents": "-3279615,-214626", "name": "Hisor District", "local_name": "Ноҳияи Ҳисор", "name_en": "Hisor District", "all_tags": {"ref": "17", "name": "Ноҳияи Ҳисор", "name:en": "Hisor District", "name:fa": "ناحیۀ حصار‎", "name:ru": "Гиссарский район", "name:tg": "Ноҳияи Ҳисор", "alt_name": "Hissar;Gissar", "boundary": "administrative", "way_area": "0.0801811", "wikidata": "Q2592671", "wikipedia": "en:Hisor District", "population": "244000", "admin_level": "6", "addr:district": "Ноҳияи Ҳисор", "addr:postcode": "735020"}}}, {"type": "Feature", "geometry": {"type":"MultiPolygon","coordinates":[[[[67.7901605,37.418203],[68.0194016,37.4479103],[67.9451964,36.9939475],[68.0441521,36.9425242],[68.2547818,37.9205424],[67.7901605,37.418203]]]]}, "properties": {"osm_id": -3281934, "boundary": "administrative", "admin_level": 6, "parents": "-3279616,-214626", "name": "Shahrtuz District", "local_name": "Ноҳияи Шаҳртуз", "name_en": "Shahrtuz District", "all_tags": {"ref": "44", "name": "Ноҳияи Шаҳртуз", "name:en": "Shahrtuz District", "name:fa": "شهرستان توس", "name:ru": "Шаартузский район", "name:tg": "Ноҳияи Шаҳртуз", "alt_name": "Ноҳияи Шаҳритус", "boundary": "administrative", "way_area": "0.174833", "wikidata": "Q2588405", "wikipedia": "en:Shahrtuz District", "population": "101900", "admin_level": "6", "alt_name:ru": "Шахритусский район.", "alt_name:tg": "Ноҳияи Шаҳритус"}}}, {"type": "Feature", "geometry": {"type":"MultiPolygon","coordinates":[[[[73.405876191,39.452665037],[74.6954183,38.425102],[75.1251392,37.3157118],[72.8515549,37.2948227],[71.9976532,38.889333],[73.405876191,39.452665037]]]]}, "properties": {"osm_id": -3281933, "boundary": "administrative", "admin_level": 6, "parents": "-3279614,-214626", "name": "Murghob District", "local_name": "Ноҳияи Мурғоб", "name_en": "Murghob District", "all_tags": {"ref": "58", "name": "Ноҳияи Мурғоб", "name:de": "Bezirk Murghob", "name:en": "Murghob District", "name:fa": "ناحیۀ مرغاب", "name:ru": "Мургабский район", "name:tg": "Ноҳияи Мурғоб", "name:uk": "Мурґабський район", "boundary": "administrative", "way_area": "3.81425", "wikidata": "Q2992189", "wikipedia": "en:Murghob District", "population": "16900", "admin_level": "6"}}}, {"type": "Feature", "geometry": {"type":"MultiPolygon","coordinates":[[[[67.778889,37.101667],[67.9451964,36.9939475],[68.0078583,37.4616928],[67.8114289,37.26457],[67.778889,37.101667]]]]}, "properties": {"osm_id": -3281932, "boundary": "administrative", "admin_level": 6, "parents": "-3279616,-214626", "name": "Nosiri Khusrav District", "local_name": "Ноҳияи Носири Хусрав", "name_en": "Nosiri Khusrav District", "all_tags": {"ref": "43", "name": "Ноҳияи Носири Хусрав", "name:en": "Nosiri Khusrav District", "name:fa": "شهرستان ناصرخسرو", "name:ru": "Район им. Насира Хусрава", "name:tg": "Ноҳияи Носири Хусрав", "boundary": "administrative", "old_name": "Beshkent District", "way_area": "0.0724376", "wikidata": "Q3565034", "wikipedia": "en:Nosiri Khisrav District", "population": "30300", "admin_level": "6"}}}, {"type": "Feature", "geometry": {"type":"MultiPolygon","coordinates":[[[[70.6190675,39.046751],[70.8564516,38.9667266],[71.2230225,39.1470299],[70.871727,39.1491966],[70.6190675,39.046751]]]]}, "properties": {"osm_id": -3281931, "boundary": "administrative", "admin_level": 6, "parents": "-3279615,-214626", "name": "Tojikobod District", "local_name": "Ноҳияи Тоҷикобод", "name_en": "Tojikobod District", "all_tags": {"ref": "26", "name": "Ноҳияи Тоҷикобод", "name:en": "Tojikobod District", "name:fa": "ناحیهٔ تاجیک‌آباد", "name:ru": "Таджикабадский район", "name:tg": "Ноҳияи Тоҷикобод", "boundary": "administrative", "way_area": "0.0635702", "wikidata": "Q2507677", "wikipedia": "en:Tojikobod District", "population": "37400", "admin_level": "6"}}}, {"type": "Feature", "geometry": {"type":"MultiPolygon","coordinates":[[[[71.5095749,37.4449692],[71.7789459,36.9384346],[72.6878357,37.2383919],[72.5307846,37.4531326],[71.5095749,37.4449692]]]]}, "properties": {"osm_id": -3281930, "boundary": "administrative", "admin_level": 6, "parents": "-3279614,-214626", "name": "Roshtqal'a District", "local_name": "Ноҳияи Роштқалъа", "name_en": "Roshtqal'a District", "all_tags": {"ref": "56", "name": "Ноҳияи Роштқалъа", "name:de": "Bezirk Roschtqala", "name:en": "Roshtqal'a District", "name:fa": "ناحیۀ راشت قلعه", "name:ru": "Рошткалинский район", "name:tg": "Ноҳияи Роштқалъа", "alt_name": "Roshtkala", "boundary": "administrative", "way_area": "0.396332", "wikidata": "Q2507734", "wikipedia": "en:Roshtqal'a District", "population": "24400", "admin_level": "6"}}}, {"type": "Feature", "geometry": {"type":"MultiPolygon","coordinates":[[[[69.4346217,39.9245979],[69.460083,40.2258568],[69.5903371,40.2436842],[69.5403999,39.9341813],[69.4346217,39.9245979]],[[69.5422214,40.065003],[69.546651,40.0594824],[69.5483348,40.0762143],[69.5444828,40.0760081],[69.5422214,40.065003]]]]}, "properties": {"osm_id": -3281014, "boundary": "administrative", "admin_level": 6, "parents": "-3279374,-214626", "name": "Jabbor Rasulov District", "local_name": "Ноҳияи Ҷаббор Расулов", "name_en": "Jabbor Rasulov District", "all_tags": {"ref": "6", "name": "Ноҳияи Ҷаббор Расулов", "name:en": "Jabbor Rasulov District", "name:fa": "ناحیۀ جبار رسولاو", "name:ru": "Джаббар-Расуловский район", "name:tg": "Ноҳияи Ҷаббор Расулов", "boundary": "administrative", "way_area": "0.0291833", "wikidata": "Q2990701", "wikipedia": "en:Jabbor Rasulov District", "admin_level": "6", "addr:district": "Ноҳияи Ҷаббор Расулов", "addr:postcode": "735820"}}}, {"type": "Feature", "geometry": {"type":"MultiPolygon","coordinates":[[[[68.8565201,40.0469704],[68.8836699,39.8458057],[69.134346,39.7982299],[69.2113266,40.1337318],[68.8565201,40.0469704]]]]}, "properties": {"osm_id": -3281013, "boundary": "administrative", "admin_level": 6, "parents": "-3279374,-214626", "name": "Istaravshan District", "local_name": "Ноҳияи Истаравшан", "name_en": "Istaravshan District", "all_tags": {"ref": "9", "name": "Ноҳияи Истаравшан", "name:en": "Istaravshan District", "name:fa": "ناحیۀ استروشن", "name:ru": "Истаравшанский район", "name:tg": "Ноҳияи Истаравшан", "alt_name": "Uroteppa;Ura-Tyube;Уротеппа;Ура-Тюбе", "boundary": "administrative", "way_area": "0.0657518", "wikidata": "Q1034071", "wikipedia": "en:Istaravshan District", "admin_level": "6", "addr:district": "Ноҳияи Истаравшан", "addr:postcode": "735610"}}}, {"type": "Feature", "geometry": {"type":"MultiPolygon","coordinates":[[[[69.318779,40.2396545],[69.5184401,40.080154],[69.5370182,40.1169382],[69.6742536,40.1224265],[70.3276138,40.3589897],[70.3690353,40.3932987],[69.318779,40.2396545]]]]}, "properties": {"osm_id": -3280693, "boundary": "administrative", "admin_level": 6, "parents": "-3279374,-214626", "name": "Ghafurov District", "local_name": "Ноҳияи Ғафуров", "name_en": "Ghafurov District", "all_tags": {"ref": "2", "name": "Ноҳияи Ғафуров", "name:en": "Ghafurov District", "name:fa": "ناحیۀ غفورف", "name:ru": "Гафуровский район", "name:tg": "Ноҳияи Ғафуров", "boundary": "administrative", "old_name": "Khodzhent District", "way_area": "0.281368", "wikidata": "Q2592692", "wikipedia": "en:Ghafurov District", "population": "295000", "admin_level": "6", "addr:district": "Ноҳияи Ғафуров", "addr:postcode": "735690"}}}, {"type": "Feature", "geometry": {"type":"MultiPolygon","coordinates":[[[[67.9874997,39.0765354],[68.3722542,38.9353654],[69.6463972,39.1031091],[69.6946692,39.2396052],[67.9874997,39.0765354]]]]}, "properties": {"osm_id": -3280692, "boundary": "administrative", "admin_level": 6, "parents": "-3279374,-214626", "name": "Ayni District", "local_name": "Ноҳияи Айнӣ", "name_en": "Ayni District", "all_tags": {"ref": "13", "name": "Ноҳияи Айнӣ", "name:en": "Ayni District", "name:fa": "ناحیۀ عینی", "name:ru": "Айнинский район", "name:tg": "Ноҳияи Айнӣ", "boundary": "administrative", "way_area": "0.520403", "wikidata": "Q2592677", "wikipedia": "en:Ayni District", "admin_level": "6"}}}, {"type": "Feature", "geometry": {"type":"MultiPolygon","coordinates":[[[[69.2110309,40.5467856],[69.300419,40.1966526],[69.3924767,40.200942],[69.9070243,40.7197535],[69.2110309,40.5467856]]]]}, "properties": {"osm_id": -3280691, "boundary": "administrative", "admin_level": 6, "parents": "-3279374,-214626", "name": "Mastchoh District", "local_name": "Ноҳияи Мастчоҳ", "name_en": "Mastchoh District", "all_tags": {"ref": "1", "name": "Ноҳияи Мастчоҳ", "name:en": "Mastchoh District", "name:fa": "ناحیۀ مستچاه", "name:ru": "Матчинский район", "name:tg": "Ноҳияи Мастчоҳ", "boundary": "administrative", "way_area": "0.113001", "wikidata": "Q2588397", "wikipedia": "en:Mastchoh District", "population": "98000", "admin_level": "6"}}}, {"type": "Feature", "geometry": {"type":"MultiPolygon","coordinates":[[[[68.7885332,39.5108616],[69.3472411,39.5543201],[69.2479324,40.1202583],[69.134346,39.7982299],[68.7885332,39.5108616]]]]}, "properties": {"osm_id": -3280690, "boundary": "administrative", "admin_level": 6, "parents": "-3279374,-214626", "name": "Ghonchi District", "local_name": "Ноҳияи Ғончӣ", "name_en": "Ghonchi District", "all_tags": {"ref": "11", "name": "Ноҳияи Ғончӣ", "name:en": "Ghonchi District", "name:ru": "Ганчинский район", "name:tg": "Ноҳияи Ғончӣ", "boundary": "administrative", "way_area": "0.216497", "wikidata": "Q2592619", "wikipedia": "en:Ghonchi District", "admin_level": "6", "addr:district": "Ноҳияи Ғончӣ", "addr:postcode": "735620"}}}, {"type": "Feature", "geometry": {"type":"MultiPolygon","coordinates":[[[[68.5307877,40.1182878],[68.6332364,40.0766773],[69.3165629,40.1887812],[69.0357496,40.2287339],[68.5307877,40.1182878]]]]}, "properties": {"osm_id": -3280689, "boundary": "administrative", "admin_level": 6, "parents": "-3279374,-214626", "name": "Zafarobod District", "local_name": "Ноҳияи Зафаробод", "name_en": "Zafarobod District", "all_tags": {"ref": "4", "name": "Ноҳияи Зафаробод", "name:en": "Zafarobod District", "name:fa": "ناحیۀ ظفرآباد", "name:ru": "Зафарабадский район", "name:tg": "Ноҳияи Зафаробод", "boundary": "administrative", "way_area": "0.0494682", "wikidata": "Q2669481", "wikipedia": "en:Zafarobod District, Tajikistan", "admin_level": "6"}}}, {"type": "Feature", "geometry": {"type":"MultiPolygon","coordinates":[[[[69.2113266,40.1337318],[69.4319188,39.9882811],[69.4344794,39.9231432],[69.460083,40.2258568],[69.2113266,40.1337318]]],[[[69.2466118,40.2954433],[69.2904306,40.2195012],[69.3449659,40.3023193],[69.3073004,40.2818402],[69.2466118,40.2954433]]]]}, "properties": {"osm_id": -3280688, "boundary": "administrative", "admin_level": 6, "parents": "-3279374,-214626", "name": "Spitamen District", "local_name": "Ноҳияи Спитаман", "name_en": "Spitamen District", "all_tags": {"ref": "5", "name": "Ноҳияи Спитаман", "name:en": "Spitamen District", "name:fa": "ناحیۀ اسپیتمن", "name:ru": "Спитаменский район", "name:tg": "Ноҳияи Спитаман", "boundary": "administrative", "way_area": "0.0444389", "wikidata": "Q2669476", "wikipedia": "en:Spitamen District", "admin_level": "6", "addr:postcode": "735830"}}}, {"type": "Feature", "geometry": {"type":"MultiPolygon","coordinates":[[[[67.3332775,39.3042293],[67.7155354,38.9962612],[68.2960796,39.3247537],[67.707976,39.6596577],[67.3332775,39.3042293]]]]}, "properties": {"osm_id": -3280687, "boundary": "administrative", "admin_level": 6, "parents": "-3279374,-214626", "name": "Panjakent District", "local_name": "Ноҳияи Панҷакент", "name_en": "Panjakent District", "all_tags": {"ref": "12", "name": "Ноҳияи Панҷакент", "name:en": "Panjakent District", "name:fa": "ناحیۀ پنجکنت", "name:ru": "Пенджикентский район", "name:tg": "Ноҳияи Панҷакент", "name:uk": "Панджакентська нохія", "boundary": "administrative", "way_area": "0.410072", "wikidata": "Q2592634", "wikipedia": "en:Panjakent District", "population": "230000", "admin_level": "6"}}}, {"type": "Feature", "geometry": {"type":"MultiPolygon","coordinates":[[[[69.1178987,39.2557309],[69.7921104,39.2630079],[70.6940371,39.5236521],[69.4035794,39.5630464],[69.1178987,39.2557309]]]]}, "properties": {"osm_id": -3280686, "boundary": "administrative", "admin_level": 6, "parents": "-3279374,-214626", "name": "Kuhistoni Mastchoh District", "local_name": "Ноҳияи Кӯҳистони Мастчоҳ", "name_en": "Kuhistoni Mastchoh District", "all_tags": {"ref": "14", "name": "Ноҳияи Кӯҳистони Мастчоҳ", "name:en": "Kuhistoni Mastchoh District", "name:fa": "ناحیۀ کوهستان مستچاه", "name:ru": "Горно-Матчинский район", "name:tg": "Ноҳияи Кӯҳистони Мастчоҳ", "boundary": "administrative", "way_area": "0.357245", "wikidata": "Q3500783", "wikipedia": "en:Kuhistoni Mastchoh District", "admin_level": "6"}}}, {"type": "Feature", "geometry": {"type":"MultiPolygon","coordinates":[[[[68.5356863,39.571321],[68.9530244,39.6727047],[68.824398,39.9867011],[68.6368678,39.8549058],[68.5356863,39.571321]]]]}, "properties": {"osm_id": -3280685, "boundary": "administrative", "admin_level": 6, "parents": "-3279374,-214626", "name": "Shahriston District", "local_name": "Ноҳияи Шаҳристон", "name_en": "Shahriston District", "all_tags": {"ref": "10", "name": "Ноҳияи Шаҳристон", "name:en": "Shahriston District", "name:fa": "ناحیۀ شهرستان", "name:ru": "Шахристанский район", "name:tg": "Ноҳияи Шаҳристон", "boundary": "administrative", "way_area": "0.106057", "wikidata": "Q2669467", "wikipedia": "en:Shahriston District", "admin_level": "6", "addr:district": "Ноҳияи Шаҳристон", "addr:postcode": "735610"}}}, {"type": "Feature", "geometry": {"type":"MultiPolygon","coordinates":[[[[69.995469,40.2346763],[70.3849358,40.0811089],[70.5819695,40.338905],[70.3690353,40.3932987],[69.995469,40.2346763]]]]}, "properties": {"osm_id": -3280684, "boundary": "administrative", "admin_level": 6, "parents": "-3279374,-214626", "name": "Konibodom District", "local_name": "Ноҳияи Конибодом", "name_en": "Konibodom District", "all_tags": {"ref": "7", "name": "Ноҳияи Конибодом", "name:en": "Konibodom District", "name:fa": "ناحیۀ کان بادام", "name:ru": "Канибадамский район", "name:tg": "Ноҳияи Конибодом", "alt_name": "Kanibadam", "boundary": "administrative", "way_area": "0.0798508", "wikidata": "Q2588415", "wikipedia": "en:Konibodom District", "admin_level": "6"}}}, {"type": "Feature", "geometry": {"type":"MultiPolygon","coordinates":[[[[70.3536301,40.1561089],[70.5615973,39.9572314],[70.8939214,40.2314054],[70.5578613,40.3126678],[70.3536301,40.1561089]]],[[[70.5211966,39.8690723],[70.6095916,39.8184852],[70.6240174,39.860381],[70.537274,39.891552],[70.5211966,39.8690723]]]]}, "properties": {"osm_id": -3280683, "boundary": "administrative", "admin_level": 6, "parents": "-3279374,-214626", "name": "Isfara District", "local_name": "Ноҳияи Исфара", "name_en": "Isfara District", "all_tags": {"ref": "8", "name": "Ноҳияи Исфара", "name:en": "Isfara District", "name:fa": "ناحیۀ اسفره", "name:ru": "Исфаринский район", "name:tg": "Ноҳияи Исфара", "boundary": "administrative", "way_area": "0.0712411", "wikidata": "Q2474029", "wikipedia": "en:Isfara District", "admin_level": "6"}}}, {"type": "Feature", "geometry": {"type":"MultiPolygon","coordinates":[[[[70.604710823,40.9160827],[70.7351275,40.6576632],[70.0044937,40.421917],[69.9406235,40.7193219],[70.604710823,40.9160827]]],[[[70.670542501,40.9160827],[70.656662,40.918425],[70.5993032,40.9774034],[70.549701,40.995271],[70.5670953,41.0057956],[70.670542501,40.9160827]]]]}, "properties": {"osm_id": -3280682, "boundary": "administrative", "admin_level": 6, "parents": "-3279374,-214626", "name": "Asht District", "local_name": "Ноҳияи Ашт", "name_en": "Asht District", "all_tags": {"ref": "3", "name": "Ноҳияи Ашт", "name:en": "Asht District", "name:fa": "ناحیۀ اشت", "name:ru": "Аштский район", "name:tg": "Ноҳияи Ашт", "boundary": "administrative", "way_area": "0.305822", "wikidata": "Q2396963", "wikipedia": "en:Asht_District", "admin_level": "6"}}}, {"type": "Feature", "geometry": {"type":"MultiPolygon","coordinates":[[[[67.778889,37.101667],[70.1707039,37.5305175],[70.4817885,38.564962],[68.5901667,38.3283199],[67.778889,37.101667]]]]}, "properties": {"osm_id": -3279616, "boundary": "administrative", "admin_level": 4, "parents": "-214626", "name": "Khatlon Region", "local_name": "Вилояти Хатлон", "name_en": "Khatlon Region", "all_tags": {"name": "Вилояти Хатлон", "name:de": "Provinz Chatlon", "name:en": "Khatlon Region", "name:es": "Provincia de Khatlon", "name:fa": "استان خَتلان", "name:fr": "Khatlon", "name:ja": "ハトロン", "name:lt": "Chatlono provincija", "name:pl": "Wilajet chatloński", "name:ru": "Хатлонская область", "name:tg": "Вилояти Хатлон", "boundary": "administrative", "int_name": "Khatlon", "way_area": "2.51899", "wikidata": "Q633511", "ISO3166-2": "TJ-KT", "wikipedia": "en:Khatlon Region", "name:short": "Khatlon", "population": "2580000", "admin_level": "4", "addr:country": "TJ", "addr:province": "Вилояти Хатлон", "is_in:country": "Tadjikistan", "is_in:continent": "Asia", "is_in:country_code": "TJ"}}}, {"type": "Feature", "geometry": {"type":"MultiPolygon","coordinates":[[[[68.0566902,38.7145692],[68.4350273,37.9031389],[72.2308782,39.1500169],[71.5035724,39.6109122],[68.0566902,38.7145692]],[[68.6576614,38.5894432],[68.9409027,38.6109543],[68.9642334,38.5176773],[68.6708374,38.4510994],[68.6576614,38.5894432]]]]}, "properties": {"osm_id": -3279615, "boundary": "administrative", "admin_level": 4, "parents": "-214626", "name": "Districts of Republican Subordination", "local_name": "Ноҳияҳои тобеи ҷумҳурӣ", "name_en": "Districts of Republican Subordination", "all_tags": {"name": "Ноҳияҳои тобеи ҷумҳурӣ", "name:de": "Der Republik unterstellte Gebiete", "name:en": "Districts of Republican Subordination", "name:es": "Región bajo subordinación republicana", "name:fa": "شهرستان های تابع جمهوری", "name:fr": "Nohiyahoi tobei Jumhurii", "name:ja": "共和国直轄地", "name:lt": "Tiesioginio pavaldumo regionas", "name:pl": "Rejony administrowane centralnie", "name:ru": "Районы республиканского подчинения", "name:tg": "Ноҳияҳои тобеи ҷумҳурӣ", "boundary": "administrative", "int_name": "Districts of Republican Subordination", "way_area": "2.93566", "wikidata": "Q633490", "ISO3166-2": "TJ-RA", "wikipedia": "en:Districts of Republican Subordination", "name:short": "RRP", "population": "1600000", "admin_level": "4", "addr:province": "Ноҳияҳои тобеи ҷумҳурӣ", "is_in:country": "Tadjikistan", "is_in:continent": "Asia", "is_in:country_code": "TJ"}}}, {"type": "Feature", "geometry": {"type":"MultiPolygon","coordinates":[[[[73.405829444,37.45760385],[71.6752772,36.6712385],[70.3253079,38.3657025],[73.5900409,39.4684975],[75.1539563,37.4095637],[73.405829444,37.45760385]]]]}, "properties": {"osm_id": -3279614, "boundary": "administrative", "admin_level": 4, "parents": "-214626", "name": "Gorno-Badakhshan Autonomous Region", "local_name": "Вилояти Мухтори Кӯҳистони Бадахшон", "name_en": "Gorno-Badakhshan Autonomous Region", "all_tags": {"name": "Вилояти Мухтори Кӯҳистони Бадахшон", "name:de": "Autonome Provinz Berg-Badachschan", "name:en": "Gorno-Badakhshan Autonomous Region", "name:es": "Provincia de Alto Badajshán", "name:fa": "استان خودمختار بدخشان کوهستانی", "name:fr": "Haut-Badakhchan", "name:ja": "ゴルノ・バダフシャン自治州", "name:lt": "Kalnų Badachšano autonominė provincija", "name:pl": "Górskobadachszański Wilajet Autonomiczny", "name:ru": "Горно-Бадахшанская автономная область", "name:tg": "Вилояти Мухтори Кӯҳистони Бадахшон", "boundary": "administrative", "way_area": "6.44524", "wikidata": "Q207319", "ISO3166-2": "TJ-GB", "wikipedia": "ru:Горно-Бадахшанская автономная область", "name:short": "GBAO", "admin_level": "4", "is_in:country": "Tadjikistan", "short_name:pl": "Górski Badachszan", "is_in:continent": "Asia", "is_in:country_code": "TJ"}}}, {"type": "Feature", "geometry": {"type":"MultiPolygon","coordinates":[[[[70.670542501,40.9160827],[70.656662,40.918425],[70.5993032,40.9774034],[70.549701,40.995271],[70.5670953,41.0057956],[70.670542501,40.9160827]]],[[[70.5211966,39.8690723],[70.537274,39.891552],[70.6240174,39.860381],[70.6095916,39.8184852],[70.5211966,39.8690723]]],[[[70.604710823,40.9160827],[69.2649523,39.8060382],[70.5854882,39.4344001],[67.3429526,39.2316728],[70.604710823,40.9160827]],[[69.5422214,40.065003],[69.546651,40.0594824],[69.5483348,40.0762143],[69.5444828,40.0760081],[69.5422214,40.065003]]]]}, "properties": {"osm_id": -3279374, "boundary": "administrative", "admin_level": 4, "parents": "-214626", "name": "Sughd Region", "local_name": "Вилояти Суғд", "name_en": "Sughd Region", "all_tags": {"name": "Вилояти Суғд", "name:de": "Provinz Sughd", "name:en": "Sughd Region", "name:es": "Provincia de Sughd", "name:fa": "ولایت سغد", "name:fr": "Sughd", "name:ja": "ソグド", "name:lt": "Sugdo provincija", "name:pl": "Wilajet sogdyjski", "name:ru": "Согдийская область", "name:tg": "Вилояти Суғд", "name:uk": "Согдійська область", "boundary": "administrative", "int_name": "Sughd", "way_area": "2.6504", "wikidata": "Q241582", "ISO3166-2": "TJ-SU", "wikipedia": "en:Sughd Region", "name:short": "Sughd", "admin_level": "4", "addr:province": "Вилояти Суғд", "is_in:country": "Tadjikistan", "is_in:continent": "Asia", "is_in:country_code": "TJ"}}}]}