[
  {
    "osm_id": -7328329,
    "boundary": "administrative",
    "admin_level": 4,
    "parents": "-223026",
    "name": "Ashgabat",
    "local_name": "Aşgabat",
    "name_en": "Ashgabat",
    "all_tags": {
      "name": "Aşgabat",
      "name:af": "Asjchabat",
      "name:am": "አሽጋባት",
      "name:ar": "عشق آباد",
      "name:az": "Aşqabad",
      "name:be": "Ашхабад",
      "name:bg": "Ашхабад",
      "name:bn": "আশখাবাদ",
      "name:bo": "ཨ་ཧྲི་ཁ་པད​།",
      "name:bs": "Ashgabat",
      "name:cs": "Ašchabad",
      "name:cy": "Ashgabat",
      "name:da": "Asjkhabad",
      "name:de": "Aschgabat",
      "name:el": "Ασγκαμπάτ",
      "name:en": "Ashgabat",
      "name:eo": "Aŝgabato",
      "name:es": "Asjabad",
      "name:eu": "Ashgabat",
      "name:fa": "اشک آباد",
      "name:fi": "Ašgabat",
      "name:fr": "Achgabat",
      "name:fy": "Asjchabad",
      "name:gd": "Ashgabat",
      "name:gl": "Achkhabad - Aşgabat",
      "name:he": "אשגאבט",
      "name:hi": "अश्क़ाबाद",
      "name:hr": "Ašgabat",
      "name:ht": "Achgabat",
      "name:hy": "Աշխաբադ",
      "name:id": "Ashgabat",
      "name:ie": "Ashgabat",
      "name:io": "Ashgabat",
      "name:is": "Asgabat",
      "name:ja": "アシガバート",
      "name:ka": "აშხაბადი",
      "name:kk": "Ашғабад",
      "name:kn": "ಅಶ್ಗಾಬಾತ್",
      "name:ko": "아시가바트",
      "name:kv": "Ашхабад",
      "name:lb": "Aschchabad",
      "name:lt": "Ašchabadas",
      "name:lv": "Ašgabata",
      "name:mk": "Ашхабад",
      "name:ml": "അഷ്ഗാബാദ്",
      "name:mn": "Ашгабат",
      "name:mr": "अश्गाबाद",
      "name:ms": "Ashgabat",
      "name:nl": "Asjchabad",
      "name:nn": "Asjkhabad",
      "name:no": "Asjkhabad",
      "name:oc": "Ashgabat",
      "name:os": "Ашхабад",
      "name:pl": "Aszchabad",
      "name:pt": "Asgabate",
      "name:ru": "Ашхабад",
      "name:sk": "Ašchabad",
      "name:sl": "Ašhabad",
      "name:sq": "Aschgabat",
      "name:sr": "Ашхабад",
      "name:sv": "Asjchabad",
      "name:sw": "Ashgabat",
      "name:ta": "அசுகாபாத்",
      "name:tg": "Ишқобод",
      "name:th": "อาชกาบัต",
      "name:tl": "Ashgabat",
      "name:tr": "Aşkabat",
      "name:tt": "Ашкабад",
      "name:ug": "Ashxabad",
      "name:uk": "Ашґабат",
      "name:ur": "اشک آباد",
      "name:uz": "Ashxobod",
      "name:vi": "Ashgabat",
      "name:yi": "אשגאבאט",
      "name:yo": "Ashgabat",
      "name:zh": "阿什哈巴德",
      "boundary": "administrative",
      "name:ace": "Ashgabat",
      "name:arz": "عشق اباد",
      "name:ckb": "عیشقاباد",
      "name:crh": "Aşğabat",
      "name:dsb": "Ašchabad",
      "name:hif": "Ashgabat",
      "name:hsb": "Ašchabad",
      "name:koi": "Ашхабад",
      "name:mhr": "Ашхабад",
      "name:myv": "Ашхабад ош",
      "name:nan": "Ashgabat",
      "name:nov": "Ashgabat",
      "name:pms": "Ashgabat",
      "name:sah": "Ашгабат",
      "name:sco": "Ashgabat",
      "name:udm": "Ашхабад",
      "name:vep": "Ašhabad",
      "name:war": "Ashgabat",
      "name:wuu": "阿什哈巴德",
      "way_area": "0.100396",
      "wikidata": "Q23438",
      "ISO3166-2": "TM-S",
      "wikipedia": "en:Ashgabat",
      "admin_level": "4",
      "name:roa-rup": "Ashgabat",
      "is_in:country": "Turkmenistan",
      "name:be-tarask": "Ашгабад",
      "is_in:continent": "Asia",
      "is_in:country_code": "TM"
    }
  },
  {
    "osm_id": -223032,
    "boundary": "administrative",
    "admin_level": 4,
    "parents": "-223026",
    "name": "Balkan Region",
    "local_name": "Balkan welaýaty",
    "name_en": "Balkan Region",
    "all_tags": {
      "name": "Balkan welaýaty",
      "name:ar": "ولاية بلقان",
      "name:de": "Provinz Balkan",
      "name:en": "Balkan Region",
      "name:es": "Provincia de Balkan",
      "name:fr": "Balkan",
      "name:ja": "バルカン州",
      "name:pl": "Wilajet balkanski",
      "name:ru": "Балканский велаят",
      "name:tk": "Balkan welaýaty",
      "boundary": "administrative",
      "way_area": "15.9467",
      "wikidata": "Q486073",
      "ISO3166-2": "TM-B",
      "wikipedia": "ru:Балканский велаят",
      "admin_level": "4",
      "is_in:country": "Turkmenistan",
      "is_in:continent": "Asia",
      "is_in:country_code": "TM"
    }
  },
  {
    "osm_id": -223031,
    "boundary": "administrative",
    "admin_level": 4,
    "parents": "-223026",
    "name": "Ahal Region",
    "local_name": "Ahal welaýaty",
    "name_en": "Ahal Region",
    "all_tags": {
      "name": "Ahal welaýaty",
      "name:de": "Provinz Ahal",
      "name:en": "Ahal Region",
      "name:es": "Provincia de Ahal",
      "name:fr": "Ahal",
      "name:ja": "アハル州",
      "name:pl": "Wilajet achalski",
      "name:ru": "Ахалский велаят",
      "name:tk": "Ahal welaýaty",
      "name:uk": "Агалський велаят",
      "boundary": "administrative",
      "way_area": "10.0733",
      "wikidata": "Q399899",
      "ISO3166-2": "TM-A",
      "wikipedia": "ru:Ахалский велаят",
      "admin_level": "4",
      "old_name:uk": "Ахалський велаят",
      "is_in:country": "Turkmenistan",
      "is_in:continent": "Asia",
      "is_in:country_code": "TM"
    }
  },
  {
    "osm_id": -223030,
    "boundary": "administrative",
    "admin_level": 4,
    "parents": "-223026",
    "name": "Mary Region",
    "local_name": "Mary welaýaty",
    "name_en": "Mary Region",
    "all_tags": {
      "name": "Mary welaýaty",
      "name:de": "Provinz Mary",
      "name:en": "Mary Region",
      "name:es": "Provincia de Mary",
      "name:fa": "استان مرو",
      "name:fr": "Mary",
      "name:ja": "マル州",
      "name:lt": "Maro velajatas",
      "name:pl": "Wilajet maryjski",
      "name:ps": "ماري ولايت",
      "name:ru": "Марыйский велаят",
      "name:tk": "Mary welaýaty",
      "name:tr": "Merv",
      "boundary": "administrative",
      "way_area": "8.74963",
      "wikidata": "Q487401",
      "ISO3166-2": "TM-M",
      "wikipedia": "ru:Марыйский велаят",
      "admin_level": "4",
      "is_in:country": "Turkmenistan",
      "is_in:continent": "Asia",
      "is_in:country_code": "TM"
    }
  },
  {
    "osm_id": -223029,
    "boundary": "administrative",
    "admin_level": 4,
    "parents": "-223026",
    "name": "Lebap Region",
    "local_name": "Lebap welaýaty",
    "name_en": "Lebap Region",
    "all_tags": {
      "name": "Lebap welaýaty",
      "name:de": "Provinz Lebap",
      "name:en": "Lebap Region",
      "name:es": "Provincia de Lebap",
      "name:fa": "استان لب آب",
      "name:fr": "Lebap",
      "name:ja": "レバプ州",
      "name:lt": "Lebapo velajatas",
      "name:pl": "Wilajet lebapski",
      "name:ru": "Лебапский велаят",
      "name:tk": "Lebap welaýaty",
      "boundary": "administrative",
      "way_area": "10.079",
      "wikidata": "Q487389",
      "ISO3166-2": "TM-L",
      "wikipedia": "tk:Lebap welaýaty",
      "admin_level": "4",
      "is_in:country": "Turkmenistan",
      "is_in:continent": "Asia",
      "is_in:country_code": "TM"
    }
  },
  {
    "osm_id": -223028,
    "boundary": "administrative",
    "admin_level": 4,
    "parents": "-223026",
    "name": "Daşoguz Region",
    "local_name": "Daşoguz welaýaty",
    "name_en": "Daşoguz Region",
    "all_tags": {
      "name": "Daşoguz welaýaty",
      "name:de": "Provinz Daşoguz",
      "name:en": "Daşoguz Region",
      "name:es": "Provincia de Daşoguz",
      "name:fr": "Daşoguz",
      "name:ja": "ダショグズ州",
      "name:pl": "Wilajet daszoguski",
      "name:ru": "Дашогузский велаят",
      "name:tk": "Daşoguz welaýaty",
      "name:uk": "Дашогузький велаят",
      "boundary": "administrative",
      "way_area": "7.88816",
      "wikidata": "Q487393",
      "ISO3166-2": "TM-D",
      "wikipedia": "tk:Daşoguz welaýaty",
      "admin_level": "4",
      "is_in:country": "Turkmenistan",
      "is_in:continent": "Asia",
      "is_in:country_code": "TM"
    }
  }
]
