[
  {
    "osm_id": -2775815,
    "boundary": "administrative",
    "admin_level": 6,
    "parents": "-3777248,-449220",
    "name": "Pingtung County",
    "local_name": "屏東縣",
    "name_en": "Pingtung County",
    "all_tags": {
      "name": "屏東縣",
      "name:ar": "مقاطعة بينغتونغ",
      "name:de": "Landkreis Pingtung",
      "name:en": "Pingtung County",
      "name:es": "Condado de Pingtung",
      "name:fr": "Comté de Pingtung",
      "name:id": "Kabupaten Pingtung",
      "name:it": "Contea di Pingtung",
      "name:ja": "屏東県",
      "name:ko": "핑둥 현",
      "name:pl": "Pingdong",
      "name:ru": "Пиндун",
      "name:vi": "Huyện Bình Đông",
      "name:zh": "屏東縣",
      "nat_ref": "10013",
      "boundary": "administrative",
      "name:cdo": "Bìng-dĕ̤ng",
      "name:frr": "Pingtung",
      "name:hak": "Phìn-tûng-yen",
      "name:nan": "Pîn-tong-koān",
      "name:yue": "屏東縣",
      "way_area": "0.245019",
      "wikidata": "Q194989",
      "ISO3166-2": "TW-PIF",
      "wikipedia": "zh:屏東縣",
      "admin_level": "6",
      "name:nan-HJ": "屏東縣",
      "name:nan-TL": "Pîn-tong-kuān",
      "name:nan-POJ": "Pîn-tong-koān",
      "name:zh-Hans": "屏东县",
      "name:zh-Hant": "屏東縣"
    }
  },
  {
    "osm_id": -2783510,
    "boundary": "administrative",
    "admin_level": 5,
    "parents": "-1527220,-449220",
    "name": "Banqiao District",
    "local_name": "板橋區",
    "name_en": "Banqiao District",
    "all_tags": {
      "name": "板橋區",
      "name:de": "Banqiao",
      "name:en": "Banqiao District",
      "name:fr": "Panchiao",
      "name:it": "Distretto di Banqiao",
      "name:ja": "板橋区",
      "name:ko": "반차오 구",
      "name:vi": "Bản Kiều",
      "name:zh": "板橋區",
      "nat_ref": "65000010",
      "boundary": "administrative",
      "name:hak": "Piông-khièu-khî",
      "name:lzh": "板橋區",
      "name:nan": "Pang-kiô-khu",
      "name:yue": "板橋區",
      "way_area": "0.00190034",
      "wikidata": "Q570090",
      "wikipedia": "zh:板橋區 (台灣)",
      "admin_level": "5",
      "name:nan-HJ": "枋橋區",
      "name:nan-TL": "Pang-kiô-khu",
      "name:nan-POJ": "Pang-kiô-khu",
      "name:zh-Hans": "板桥区",
      "name:zh-Hant": "板橋區"
    }
  },
  {
    "osm_id": -2418506,
    "boundary": "administrative",
    "admin_level": 4,
    "parents": "-449220",
    "name": "Tainan",
    "local_name": "臺南市",
    "name_en": "Tainan",
    "all_tags": {
      "name": "臺南市",
      "name:ar": "تاينان",
      "name:da": "Tainan",
      "name:de": "Tainan",
      "name:en": "Tainan",
      "name:et": "Tainan",
      "name:fr": "Tainan",
      "name:hr": "Tainan",
      "name:id": "Kota Tainan",
      "name:it": "Tainan",
      "name:ja": "台南市",
      "name:ko": "타이난 시",
      "name:pl": "Tainan",
      "name:pt": "Tainan",
      "name:ru": "Тайнань",
      "name:th": "ไถหนาน",
      "name:vi": "Đài Nam",
      "name:zh": "臺南市",
      "nat_ref": "67",
      "boundary": "administrative",
      "name:cdo": "Dài-nàng",
      "name:hak": "Thòi-nàm-sṳ",
      "name:nan": "Tâi-lâm-chhī",
      "name:wuu": "台南市",
      "name:yue": "臺南",
      "way_area": "0.198585",
      "wikidata": "Q140631",
      "ISO3166-2": "TW-TNN",
      "wikipedia": "zh:臺南市",
      "admin_level": "4",
      "name:nan-HJ": "臺南市",
      "name:nan-TL": "Tâi-lâm-tshī",
      "name:nan-POJ": "Tâi-lâm-chhī",
      "name:zh-Hans": "台南市",
      "name:zh-Hant": "臺南市",
      "name:zh_pinyin": "Táinán Shì"
    }
  },
  {
    "osm_id": -3777250,
    "boundary": "administrative",
    "admin_level": 4,
    "parents": "-449220",
    "name": "Fukien Province",
    "local_name": "福建省",
    "name_en": "Fukien Province",
    "all_tags": {
      "name": "福建省",
      "name:cs": "Fu-ťien",
      "name:de": "Provinz Fukien",
      "name:en": "Fukien Province",
      "name:fr": "Province du Fukien",
      "name:it": "Fujian",
      "name:ja": "福建省",
      "name:ko": "푸젠성",
      "name:pl": "Fukien",
      "name:ru": "Фуцзянь",
      "name:zh": "福建省",
      "nat_ref": "09",
      "boundary": "administrative",
      "name:cdo": "Hók-gióng-sēng",
      "name:hak": "Fuk-kian",
      "name:nan": "Hok-kiàn-séng",
      "name:yue": "福建省",
      "way_area": "0.176065",
      "wikidata": "Q63698",
      "ISO3166-1": "TW",
      "wikipedia": "zh:福建省 (中華民國)",
      "admin_level": "4",
      "alt_name:en": "Fukien Province;Fukien;Fujian",
      "name:nan-HJ": "福建省",
      "name:nan-TL": "Hok-kiàn-síng",
      "name:nan-POJ": "Hok-kiàn-séng",
      "name:zh-Hans": "福建省",
      "name:zh-Hant": "福建省",
      "name:zh_pinyin": "Fújiɑ̀n Shěng"
    }
  },
  {
    "osm_id": -2106668,
    "boundary": "administrative",
    "admin_level": 5,
    "parents": "-2127079,-449220",
    "name": "Qijin District",
    "local_name": "旗津區",
    "name_en": "Qijin District",
    "all_tags": {
      "name": "旗津區",
      "is_in": "臺灣高雄市",
      "name:de": "Qijin",
      "name:en": "Qijin District",
      "name:ja": "旗津区",
      "name:ko": "치진구",
      "name:vi": "Kỳ Tân",
      "name:zh": "旗津區",
      "nat_ref": "64000100",
      "boundary": "administrative",
      "name:hak": "Khì-chîn",
      "name:nan": "Kî-tin-khu",
      "way_area": "0.121676",
      "wikidata": "Q706704",
      "wikipedia": "zh:旗津區",
      "is_in:city": "高雄市",
      "admin_level": "5",
      "alt_name:vi": "Kì Tân",
      "name:nan-HJ": "旗津區",
      "name:nan-TL": "Kî-tin-khu",
      "postal_code": "805",
      "name:nan-POJ": "Kî-tin-khu",
      "is_in:country": "TW"
    }
  },
  {
    "osm_id": -3339695,
    "boundary": "administrative",
    "admin_level": 6,
    "parents": "-3777250,-449220",
    "name": "Kinmen",
    "local_name": "金門縣",
    "name_en": "Kinmen",
    "all_tags": {
      "name": "金門縣",
      "name:ar": "كنمن",
      "name:cs": "Ťin-men",
      "name:de": "Kinmen",
      "name:en": "Kinmen",
      "name:es": "Kinmen",
      "name:et": "Jinmen",
      "name:fr": "Kinmen",
      "name:id": "Kabupaten Kinmen",
      "name:it": "Kinmen",
      "name:ja": "金門県",
      "name:ko": "진먼현",
      "name:ml": "കിന്മെൻ",
      "name:pl": "Kinmen",
      "name:ru": "Цзиньмэнь",
      "name:th": "หมู่เกาะจินเหมิน",
      "name:uk": "Цзіньмень",
      "name:zh": "金門縣",
      "nat_ref": "09020",
      "boundary": "administrative",
      "name:cdo": "Gĭng-muòng",
      "name:ceb": "Kinmen",
      "name:hak": "Kîm-mùn-yen",
      "name:lzh": "金門縣",
      "name:nan": "Kim-mn̂g-koān",
      "name:wuu": "金門縣",
      "name:yue": "金門",
      "way_area": "0.0887335",
      "wikidata": "Q249870",
      "ISO3166-2": "TW-KIN",
      "wikipedia": "zh:金門縣",
      "admin_level": "6",
      "name:nan-HJ": "金門縣",
      "name:nan-TL": "Kim-mn̂g-kuān",
      "name:nan-POJ": "Kim-mn̂g-koān",
      "name:zh-Hans": "金门县",
      "name:zh-Hant": "金門縣",
      "name:zh_pinyin": "Jīnmén Xiɑ̀n"
    }
  },
  {
    "osm_id": -3777249,
    "boundary": "administrative",
    "admin_level": 6,
    "parents": "-3777250,-449220",
    "name": "Lienchiang County",
    "local_name": "連江縣",
    "name_en": "Lienchiang County",
    "all_tags": {
      "name": "連江縣",
      "name:cs": "Lien-ťiang",
      "name:en": "Lienchiang County",
      "name:ja": "連江県",
      "name:ko": "롄장현",
      "name:zh": "連江縣",
      "nat_ref": "09007",
      "alt_name": "馬祖列島",
      "boundary": "administrative",
      "name:nan": "Liân-kang-koān",
      "way_area": "0.0873314",
      "wikidata": "Q249872",
      "ISO3166-2": "TW-LIE",
      "wikipedia": "zh:連江縣 (中華民國)",
      "admin_level": "6",
      "alt_name:cs": "Ma-cu",
      "alt_name:de": "Matsu-Inseln",
      "alt_name:en": "Matsu Islands",
      "alt_name:es": "Islas Matsu",
      "alt_name:et": "Matsu saared",
      "alt_name:fr": "Îles Matsu",
      "alt_name:ja": "馬祖島",
      "alt_name:ko": "마쭈 열도",
      "alt_name:pl": "Mazu Liedao",
      "alt_name:pt": "Ilhas Matsu",
      "alt_name:ru": "Мацзу",
      "alt_name:uk": "Мацзу",
      "alt_name:vi": "Quần đảo Mã Tổ",
      "alt_name:zh": "馬祖列島",
      "name:nan-HJ": "連江縣",
      "name:nan-TL": "Liân-kang-kuān",
      "alt_name:cdo": "Mā-cū Liĕk-dō̤",
      "alt_name:hak": "Mâ-chú-tó",
      "alt_name:nan": "Má-chó͘ Lia̍t-tó",
      "alt_name:yue": "馬祖",
      "name:nan-POJ": "Liân-kang-koān",
      "name:zh-Hans": "连江县",
      "name:zh-Hant": "連江縣",
      "name:zh_pinyin": "Liɑ́njiɑ̄ng Xiɑ̀n"
    }
  },
  {
    "osm_id": 9210703,
    "boundary": "administrative",
    "admin_level": 4,
    "parents": "-449220",
    "name": "Dongyuping Island",
    "local_name": "東嶼坪嶼",
    "name_en": "Dongyuping Island",
    "all_tags": {
      "area": "yes",
      "name": "東嶼坪嶼",
      "place": "islet",
      "name:en": "Dongyuping Island",
      "name:zh": "東嶼坪嶼",
      "boundary": "administrative",
      "way_area": "4.89664e-05",
      "admin_level": "4"
    }
  },
  {
    "osm_id": 9209704,
    "boundary": "administrative",
    "admin_level": 4,
    "parents": "-449220",
    "name": "馬鞍嶼",
    "local_name": "馬鞍嶼",
    "name_en": null,
    "all_tags": {
      "area": "yes",
      "name": "馬鞍嶼",
      "boundary": "administrative",
      "way_area": "5.5848e-06",
      "admin_level": "4"
    }
  },
  {
    "osm_id": 9216785,
    "boundary": "administrative",
    "admin_level": 4,
    "parents": "-449220",
    "name": "小烈嶼",
    "local_name": "小烈嶼",
    "name_en": null,
    "all_tags": {
      "area": "yes",
      "name": "小烈嶼",
      "place": "islet",
      "boundary": "administrative",
      "way_area": "8.12192e-07",
      "admin_level": "4"
    }
  },
  {
    "osm_id": 9210589,
    "boundary": "administrative",
    "admin_level": 4,
    "parents": "-449220",
    "name": "鳥嶼",
    "local_name": "鳥嶼",
    "name_en": null,
    "all_tags": {
      "area": "yes",
      "name": "鳥嶼",
      "boundary": "administrative",
      "way_area": "3.14391e-05",
      "wikidata": "Q11173672",
      "wikipedia": "zh:鳥嶼",
      "admin_level": "4"
    }
  },
  {
    "osm_id": 9212313,
    "boundary": "administrative",
    "admin_level": 4,
    "parents": "-449220",
    "name": "姑婆嶼",
    "local_name": "姑婆嶼",
    "name_en": null,
    "all_tags": {
      "area": "yes",
      "name": "姑婆嶼",
      "place": "islet",
      "boundary": "administrative",
      "way_area": "2.53527e-05",
      "wikidata": "Q19852325",
      "admin_level": "4"
    }
  },
  {
    "osm_id": 9212790,
    "boundary": "administrative",
    "admin_level": 4,
    "parents": "-449220",
    "name": "員貝嶼",
    "local_name": "員貝嶼",
    "name_en": null,
    "all_tags": {
      "area": "yes",
      "name": "員貝嶼",
      "place": "islet",
      "boundary": "administrative",
      "way_area": "2.2492e-05",
      "wikidata": "Q9647818",
      "admin_level": "4"
    }
  },
  {
    "osm_id": 9210334,
    "boundary": "administrative",
    "admin_level": 4,
    "parents": "-449220",
    "name": "大倉嶼",
    "local_name": "大倉嶼",
    "name_en": null,
    "all_tags": {
      "area": "yes",
      "name": "大倉嶼",
      "place": "islet",
      "boundary": "administrative",
      "way_area": "1.77214e-05",
      "admin_level": "4"
    }
  },
  {
    "osm_id": -2869399,
    "boundary": "administrative",
    "admin_level": 5,
    "parents": "-1527220,-449220",
    "name": "Sanchong District",
    "local_name": "三重區",
    "name_en": "Sanchong District",
    "all_tags": {
      "name": "三重區",
      "name:de": "Sanchong",
      "name:en": "Sanchong District",
      "name:fr": "Sanchong",
      "name:it": "Distretto di Sanchong",
      "name:ja": "三重区",
      "name:ko": "싼충 구",
      "name:vi": "Tam Trọng",
      "name:zh": "三重區",
      "nat_ref": "65000020",
      "boundary": "administrative",
      "name:hak": "Sâm-chhùng-khî",
      "name:nan": "Sam-tiông-khu",
      "name:yue": "三重區",
      "way_area": "0.00161242",
      "wikidata": "Q570267",
      "wikipedia": "zh:三重區",
      "admin_level": "5",
      "name:nan-HJ": "三重區",
      "name:nan-TL": "Sam-tiông-khu",
      "name:nan-POJ": "Sam-tiông-khu"
    }
  },
  {
    "osm_id": 9212806,
    "boundary": "administrative",
    "admin_level": 4,
    "parents": "-449220",
    "name": "Chutou Island",
    "local_name": "鋤頭嶼",
    "name_en": "Chutou Island",
    "all_tags": {
      "area": "yes",
      "name": "鋤頭嶼",
      "place": "islet",
      "name:en": "Chutou Island",
      "name:zh": "鋤頭嶼",
      "boundary": "administrative",
      "way_area": "1.29781e-05",
      "admin_level": "4"
    }
  },
  {
    "osm_id": -2119950,
    "boundary": "administrative",
    "admin_level": 5,
    "parents": "-2127079,-449220",
    "name": "Mituo District",
    "local_name": "彌陀區",
    "name_en": "Mituo District",
    "all_tags": {
      "name": "彌陀區",
      "is_in": "臺灣高雄市",
      "name:en": "Mituo District",
      "name:it": "Distretto di Mituo",
      "name:ja": "弥陀区",
      "name:ko": "미퉈구",
      "name:pl": "Mituo",
      "name:vi": "Di Đà",
      "name:zh": "彌陀區",
      "nat_ref": "64000280",
      "boundary": "administrative",
      "name:hak": "Mì-thò-khî",
      "name:nan": "Mî-tô-khu",
      "way_area": "0.00130571",
      "wikidata": "Q707772",
      "wikipedia": "zh:彌陀區",
      "is_in:city": "高雄市",
      "admin_level": "5",
      "postal_code": "827",
      "is_in:country": "TW"
    }
  },
  {
    "osm_id": 9211430,
    "boundary": "administrative",
    "admin_level": 4,
    "parents": "-449220",
    "name": "屈爪嶼",
    "local_name": "屈爪嶼",
    "name_en": null,
    "all_tags": {
      "area": "yes",
      "name": "屈爪嶼",
      "place": "islet",
      "boundary": "administrative",
      "way_area": "3.457e-06",
      "admin_level": "4"
    }
  },
  {
    "osm_id": 9211867,
    "boundary": "administrative",
    "admin_level": 4,
    "parents": "-449220",
    "name": "小白沙嶼",
    "local_name": "小白沙嶼",
    "name_en": null,
    "all_tags": {
      "area": "yes",
      "name": "小白沙嶼",
      "place": "islet",
      "boundary": "administrative",
      "way_area": "4.42443e-06",
      "admin_level": "4"
    }
  },
  {
    "osm_id": 9210725,
    "boundary": "administrative",
    "admin_level": 4,
    "parents": "-449220",
    "name": "雞善嶼",
    "local_name": "雞善嶼",
    "name_en": null,
    "all_tags": {
      "area": "yes",
      "name": "雞善嶼",
      "place": "islet",
      "boundary": "administrative",
      "way_area": "3.58215e-06",
      "admin_level": "4"
    }
  },
  {
    "osm_id": 9211082,
    "boundary": "administrative",
    "admin_level": 6,
    "parents": "-449220",
    "name": "雞頭嶼",
    "local_name": "雞頭嶼",
    "name_en": null,
    "all_tags": {
      "area": "yes",
      "name": "雞頭嶼",
      "place": "islet",
      "boundary": "administrative",
      "way_area": "7.29406e-08",
      "admin_level": "6"
    }
  },
  {
    "osm_id": 479016758,
    "boundary": "administrative",
    "admin_level": 4,
    "parents": "-449220",
    "name": "毛司嶼",
    "local_name": "毛司嶼",
    "name_en": null,
    "all_tags": {
      "area": "yes",
      "name": "毛司嶼",
      "place": "islet",
      "boundary": "administrative",
      "way_area": "2.7287e-06",
      "admin_level": "4"
    }
  },
  {
    "osm_id": 483406037,
    "boundary": "administrative",
    "admin_level": 4,
    "parents": "-449220",
    "name": "Xiji Island",
    "local_name": "西吉嶼",
    "name_en": "Xiji Island",
    "all_tags": {
      "area": "yes",
      "name": "西吉嶼",
      "place": "islet",
      "name:en": "Xiji Island",
      "name:zh": "西吉嶼",
      "boundary": "administrative",
      "way_area": "2.59521e-07",
      "admin_level": "4"
    }
  },
  {
    "osm_id": 829394065,
    "boundary": "administrative",
    "admin_level": 4,
    "parents": "-449220",
    "name": "查母嶼",
    "local_name": "查母嶼",
    "name_en": null,
    "all_tags": {
      "area": "yes",
      "name": "查母嶼",
      "place": "islet",
      "boundary": "administrative",
      "way_area": "2.05084e-06",
      "admin_level": "4"
    }
  },
  {
    "osm_id": 9210668,
    "boundary": "administrative",
    "admin_level": 4,
    "parents": "-449220",
    "name": "鐵砧嶼",
    "local_name": "鐵砧嶼",
    "name_en": null,
    "all_tags": {
      "area": "yes",
      "name": "鐵砧嶼",
      "place": "islet",
      "boundary": "administrative",
      "way_area": "1.74671e-06",
      "admin_level": "4"
    }
  },
  {
    "osm_id": 483406043,
    "boundary": "administrative",
    "admin_level": 4,
    "parents": "-449220",
    "name": "頭巾嶼",
    "local_name": "頭巾嶼",
    "name_en": null,
    "all_tags": {
      "area": "yes",
      "name": "頭巾嶼",
      "place": "islet",
      "boundary": "administrative",
      "way_area": "1.98361e-07",
      "admin_level": "4"
    }
  },
  {
    "osm_id": 480636655,
    "boundary": "administrative",
    "admin_level": 4,
    "parents": "-449220",
    "name": "小貓嶼",
    "local_name": "小貓嶼",
    "name_en": null,
    "all_tags": {
      "area": "yes",
      "name": "小貓嶼",
      "place": "islet",
      "boundary": "administrative",
      "way_area": "1.31044e-06",
      "admin_level": "4"
    }
  },
  {
    "osm_id": 9213607,
    "boundary": "administrative",
    "admin_level": 4,
    "parents": "-449220",
    "name": "中央嶼",
    "local_name": "中央嶼",
    "name_en": null,
    "all_tags": {
      "area": "yes",
      "name": "中央嶼",
      "place": "islet",
      "boundary": "administrative",
      "way_area": "1.20723e-06",
      "admin_level": "4"
    }
  },
  {
    "osm_id": 828734341,
    "boundary": "administrative",
    "admin_level": 4,
    "parents": "-449220",
    "name": "牛母件嶼",
    "local_name": "牛母件嶼",
    "name_en": null,
    "all_tags": {
      "area": "yes",
      "name": "牛母件嶼",
      "place": "islet",
      "boundary": "administrative",
      "way_area": "1.18687e-06",
      "admin_level": "4"
    }
  },
  {
    "osm_id": 9210888,
    "boundary": "administrative",
    "admin_level": 4,
    "parents": "-449220",
    "name": "雁情嶼",
    "local_name": "雁情嶼",
    "name_en": null,
    "all_tags": {
      "area": "yes",
      "name": "雁情嶼",
      "place": "islet",
      "alt_name": "雁淨嶼;雁崢嶼;黿龍嶼;顏靖嶼;目鏡嶼",
      "boundary": "administrative",
      "way_area": "5.63119e-07",
      "admin_level": "4"
    }
  },
  {
    "osm_id": 9216568,
    "boundary": "administrative",
    "admin_level": 4,
    "parents": "-449220",
    "name": "小屈爪嶼",
    "local_name": "小屈爪嶼",
    "name_en": null,
    "all_tags": {
      "area": "yes",
      "name": "小屈爪嶼",
      "place": "islet",
      "boundary": "administrative",
      "way_area": "5.97347e-07",
      "admin_level": "4"
    }
  },
  {
    "osm_id": 294455800,
    "boundary": "administrative",
    "admin_level": 4,
    "parents": "-449220",
    "name": "小台灣",
    "local_name": "小台灣",
    "name_en": null,
    "all_tags": {
      "area": "yes",
      "name": "小台灣",
      "place": "islet",
      "name:zh": "小台灣",
      "tourism": "attraction",
      "boundary": "administrative",
      "name:nan": "Sió-tâi-uân",
      "way_area": "1.44409e-07",
      "admin_level": "4"
    }
  },
  {
    "osm_id": -2106383,
    "boundary": "administrative",
    "admin_level": 5,
    "parents": "-2127079,-449220",
    "name": "Sanmin District",
    "local_name": "三民區",
    "name_en": "Sanmin District",
    "all_tags": {
      "name": "三民區",
      "is_in": "臺灣高雄市",
      "name:de": "Sanmin",
      "name:en": "Sanmin District",
      "name:ja": "三民区",
      "name:ko": "싼민구",
      "name:pl": "Distretto di Sanmin",
      "name:vi": "Tam Dân",
      "name:zh": "三民區",
      "nat_ref": "64000050",
      "boundary": "administrative",
      "name:hak": "Sân-mìn",
      "name:nan": "Sam-bîn-khu",
      "way_area": "0.00149127",
      "wikidata": "Q713142",
      "wikipedia": "zh:三民區",
      "is_in:city": "高雄市",
      "admin_level": "5",
      "name:nan-HJ": "三民區",
      "name:nan-TL": "Sam-bîn-khu",
      "postal_code": "807",
      "name:nan-POJ": "Sam-bîn-khu",
      "is_in:country": "TW"
    }
  },
  {
    "osm_id": -3507527,
    "boundary": "administrative",
    "admin_level": 5,
    "parents": "-2770986,-449220",
    "name": "Guanyin District",
    "local_name": "觀音區",
    "name_en": "Guanyin District",
    "all_tags": {
      "name": "觀音區",
      "name:en": "Guanyin District",
      "name:it": "Distretto di Guanyin",
      "name:ja": "観音区",
      "name:ko": "관인 구",
      "name:vi": "Quan Âm",
      "name:zh": "觀音區",
      "nat_ref": "68000120",
      "boundary": "administrative",
      "name:hak": "Kôn-yîm-khî",
      "name:nan": "Koan-im-khu",
      "way_area": "0.00817179",
      "wikidata": "Q712931",
      "wikipedia": "zh:觀音區",
      "admin_level": "5"
    }
  },
  {
    "osm_id": -2119028,
    "boundary": "administrative",
    "admin_level": 5,
    "parents": "-2127079,-449220",
    "name": "Meinong District",
    "local_name": "美濃區",
    "name_en": "Meinong District",
    "all_tags": {
      "name": "美濃區",
      "is_in": "臺灣高雄市",
      "name:de": "Meinong",
      "name:en": "Meinong District",
      "name:fr": "Meinong",
      "name:it": "Distretto di Meinong",
      "name:ja": "美濃区",
      "name:ko": "메이눙구",
      "name:vi": "Mỹ Nùng",
      "name:zh": "美濃區",
      "nat_ref": "64000310",
      "boundary": "administrative",
      "name:hak": "Mî-nùng-khî",
      "name:nan": "Bi-long-khu",
      "way_area": "0.0103974",
      "wikidata": "Q706754",
      "wikipedia": "zh:美濃區",
      "is_in:city": "高雄市",
      "admin_level": "5",
      "alt_name:vi": "Mĩ Nùng",
      "postal_code": "843",
      "is_in:country": "TW"
    }
  },
  {
    "osm_id": -2106566,
    "boundary": "administrative",
    "admin_level": 5,
    "parents": "-2127079,-449220",
    "name": "Xinxing District",
    "local_name": "新興區",
    "name_en": "Xinxing District",
    "all_tags": {
      "name": "新興區",
      "is_in": "臺灣高雄市",
      "name:en": "Xinxing District",
      "name:it": "Distretto di Xinxing",
      "name:ja": "新興区",
      "name:ko": "신싱구",
      "name:vi": "Tân Hưng",
      "name:zh": "新興區",
      "nat_ref": "64000060",
      "boundary": "administrative",
      "name:hak": "Sîn-hîn",
      "name:nan": "Sin-heng-khu",
      "way_area": "0.000222548",
      "wikidata": "Q712856",
      "wikipedia": "zh:新興區 (台灣)",
      "is_in:city": "高雄市",
      "admin_level": "5",
      "postal_code": "800",
      "is_in:country": "TW"
    }
  },
  {
    "osm_id": -2266782,
    "boundary": "administrative",
    "admin_level": 5,
    "parents": "-2418506,-449220",
    "name": "Madou District",
    "local_name": "麻豆區",
    "name_en": "Madou District",
    "all_tags": {
      "name": "麻豆區",
      "is_in": "臺灣臺南市",
      "name:de": "Madou",
      "name:en": "Madou District",
      "name:it": "Distretto di Madou",
      "name:ja": "麻豆区",
      "name:ko": "마더우구",
      "name:vi": "Ma Đậu",
      "name:zh": "麻豆區",
      "nat_ref": "67000070",
      "boundary": "administrative",
      "name:hak": "Mà-theu-khî",
      "name:nan": "Moâ-tāu-khu",
      "name:yue": "麻豆區",
      "way_area": "0.00484734",
      "wikidata": "Q706732",
      "wikipedia": "zh:麻豆區",
      "is_in:city": "臺南市",
      "admin_level": "5",
      "postal_code": "721",
      "is_in:country": "TW"
    }
  },
  {
    "osm_id": 258738389,
    "boundary": "administrative",
    "admin_level": 4,
    "parents": "-449220",
    "name": "凹門礁",
    "local_name": "凹門礁",
    "name_en": null,
    "all_tags": {
      "area": "yes",
      "name": "凹門礁",
      "place": "islet",
      "boundary": "administrative",
      "way_area": "3.91501e-08",
      "admin_level": "4"
    }
  },
  {
    "osm_id": -2961859,
    "boundary": "administrative",
    "admin_level": 5,
    "parents": "-2921154,-449220",
    "name": "North District",
    "local_name": "北區",
    "name_en": "North District",
    "all_tags": {
      "name": "北區",
      "name:en": "North District",
      "name:it": "Distretto Settentrionale",
      "name:ja": "北区",
      "name:ko": "베이구",
      "name:vi": "Quận Bắc",
      "name:zh": "北區",
      "nat_ref": "66000050",
      "boundary": "administrative",
      "name:hak": "Pet",
      "name:nan": "Pak-khu",
      "way_area": "0.000676247",
      "wikidata": "Q569469",
      "wikipedia": "zh:北區 (臺中市)",
      "admin_level": "5",
      "postal_code": "404"
    }
  },
  {
    "osm_id": -3339738,
    "boundary": "administrative",
    "admin_level": 6,
    "parents": "-3777248,-449220",
    "name": "Penghu",
    "local_name": "澎湖縣",
    "name_en": "Penghu",
    "all_tags": {
      "name": "澎湖縣",
      "name:ar": "بسكادورز",
      "name:de": "Landkreis Penghu",
      "name:en": "Penghu",
      "name:es": "Islas Pescadores",
      "name:id": "Kabupaten Penghu",
      "name:it": "Contea di Penghu",
      "name:ja": "澎湖県",
      "name:ko": "펑후 현",
      "name:ms": "Penghu",
      "name:ru": "Уезд Пэнху",
      "name:th": "เผิงหู",
      "name:vi": "Bành Hồ",
      "name:zh": "澎湖縣",
      "nat_ref": "10016",
      "boundary": "administrative",
      "name:cdo": "Pàng-hù-gâing",
      "name:hak": "Phàng-fù-yen",
      "name:nan": "Phêⁿ-ô͘-koān",
      "name:wuu": "澎湖县",
      "name:yue": "澎湖縣",
      "way_area": "0.0117389",
      "wikidata": "Q198525",
      "ISO3166-2": "TW-PEN",
      "wikipedia": "zh:澎湖縣",
      "admin_level": "6",
      "name:nan-HJ": "澎湖縣",
      "name:nan-TL": "Phênn-ôo-kuān",
      "name:nan-POJ": "Phêⁿ-ô͘-koān",
      "name:zh-Hans": "澎湖县",
      "name:zh-Hant": "澎湖縣",
      "name:zh_pinyin": "Pénghú Xiɑ̀n"
    }
  },
  {
    "osm_id": -2162097,
    "boundary": "administrative",
    "admin_level": 5,
    "parents": "-2418506,-449220",
    "name": "Rende District",
    "local_name": "仁德區",
    "name_en": "Rende District",
    "all_tags": {
      "name": "仁德區",
      "is_in": "臺灣臺南市",
      "name:de": "Rende",
      "name:en": "Rende District",
      "name:fr": "District de Rende",
      "name:it": "Distretto di Rende",
      "name:ja": "仁徳区",
      "name:ko": "런더구",
      "name:vi": "Nhân Đức",
      "name:zh": "仁德區",
      "nat_ref": "67000270",
      "boundary": "administrative",
      "name:hak": "Yìn-tet-khî",
      "name:nan": "Jîn-tek-khu",
      "name:yue": "仁德區",
      "way_area": "0.00443947",
      "wikidata": "Q708437",
      "wikipedia": "zh:仁德區",
      "is_in:city": "臺南市",
      "admin_level": "5",
      "postal_code": "717",
      "is_in:country": "TW"
    }
  },
  {
    "osm_id": -2153465,
    "boundary": "administrative",
    "admin_level": 5,
    "parents": "-2418506,-449220",
    "name": "South District",
    "local_name": "南區",
    "name_en": "South District",
    "all_tags": {
      "name": "南區",
      "is_in": "臺灣臺南市",
      "name:en": "South District",
      "name:it": "Distretto Meridionale",
      "name:ja": "南区",
      "name:ko": "난구",
      "name:vi": "Quận Nam",
      "name:zh": "南區",
      "nat_ref": "67000330",
      "boundary": "administrative",
      "name:hak": "Nàm",
      "name:nan": "Lâm-khu",
      "way_area": "0.00246172",
      "wikidata": "Q710222",
      "wikipedia": "zh:南區 (臺南市)",
      "is_in:city": "臺南市",
      "admin_level": "5",
      "postal_code": "702",
      "is_in:country": "TW"
    }
  },
  {
    "osm_id": -2162104,
    "boundary": "administrative",
    "admin_level": 5,
    "parents": "-2418506,-449220",
    "name": "Eastern District",
    "local_name": "東區",
    "name_en": "Eastern District",
    "all_tags": {
      "name": "東區",
      "name:en": "Eastern District",
      "name:fr": "District Est",
      "name:id": "Distrik Timur",
      "name:it": "Distretto Orientale",
      "name:ja": "東区",
      "name:ko": "둥구",
      "name:vi": "Quận Đông",
      "name:zh": "東區",
      "nat_ref": "67000320",
      "boundary": "administrative",
      "name:hak": "Tûng",
      "name:nan": "Tang-khu",
      "name:yue": "東區",
      "way_area": "0.00113571",
      "wikidata": "Q710281",
      "wikipedia": "zh:東區 (臺南市)",
      "admin_level": "5",
      "postal_code": "701",
      "is_in:county": "臺南市",
      "is_in:country": "TW"
    }
  },
  {
    "osm_id": -2222077,
    "boundary": "administrative",
    "admin_level": 5,
    "parents": "-2418506,-449220",
    "name": "Anding District",
    "local_name": "安定區",
    "name_en": "Anding District",
    "all_tags": {
      "name": "安定區",
      "is_in": "臺灣臺南市",
      "name:de": "Anding",
      "name:en": "Anding District",
      "name:fr": "District de Anding",
      "name:it": "Distretto di Anding",
      "name:ja": "安定区",
      "name:ko": "안딩구",
      "name:vi": "An Định",
      "name:zh": "安定區",
      "nat_ref": "67000210",
      "boundary": "administrative",
      "name:hak": "Ôn-thin-khî",
      "name:nan": "An-tēng-khu",
      "name:yue": "安定區",
      "way_area": "0.00280461",
      "wikidata": "Q708441",
      "wikipedia": "zh:安定區 (台灣)",
      "is_in:city": "臺南市",
      "admin_level": "5",
      "postal_code": "745",
      "is_in:country": "TW"
    }
  },
  {
    "osm_id": -2106835,
    "boundary": "administrative",
    "admin_level": 5,
    "parents": "-2127079,-449220",
    "name": "Fengshan District",
    "local_name": "鳳山區",
    "name_en": "Fengshan District",
    "all_tags": {
      "name": "鳳山區",
      "is_in": "臺灣高雄市",
      "name:de": "Fengshan",
      "name:en": "Fengshan District",
      "name:fr": "Fengshan",
      "name:it": "Fengshan",
      "name:ja": "鳳山区",
      "name:ko": "펑산구",
      "name:pl": "Fengshan",
      "name:vi": "Phượng Sơn",
      "name:zh": "鳳山區",
      "nat_ref": "64000120",
      "boundary": "administrative",
      "name:hak": "Fung-sân-khî",
      "name:nan": "Hōng-soaⁿ-khu",
      "way_area": "0.00245432",
      "wikidata": "Q633500",
      "wikipedia": "zh:鳳山區",
      "is_in:city": "高雄市",
      "admin_level": "5",
      "name:nan-HJ": "鳳山區",
      "name:nan-TL": "Hōng-suann-khu",
      "postal_code": "830",
      "name:nan-POJ": "Hōng-soaⁿ-khu",
      "is_in:country": "TW"
    }
  },
  {
    "osm_id": -2118793,
    "boundary": "administrative",
    "admin_level": 5,
    "parents": "-2127079,-449220",
    "name": "Daliao District",
    "local_name": "大寮區",
    "name_en": "Daliao District",
    "all_tags": {
      "name": "大寮區",
      "is_in": "臺灣高雄市",
      "name:en": "Daliao District",
      "name:it": "Distretto di Daliao",
      "name:ja": "大寮区",
      "name:ko": "다랴오구",
      "name:pl": "Daliao",
      "name:vi": "Đại Liêu",
      "name:zh": "大寮區",
      "nat_ref": "64000140",
      "boundary": "administrative",
      "name:hak": "Thai-liàu-khî",
      "name:nan": "Tōa-liâu-khu",
      "way_area": "0.00615571",
      "wikidata": "Q713385",
      "wikipedia": "zh:大寮區",
      "is_in:city": "高雄市",
      "admin_level": "5",
      "name:nan-HJ": "大寮區",
      "name:nan-TL": "Tuā-liâu-khu",
      "postal_code": "831",
      "name:nan-POJ": "Tōa-liâu-khu",
      "is_in:country": "TW"
    }
  },
  {
    "osm_id": -2106341,
    "boundary": "administrative",
    "admin_level": 5,
    "parents": "-2127079,-449220",
    "name": "Qiaotou District",
    "local_name": "橋頭區",
    "name_en": "Qiaotou District",
    "all_tags": {
      "name": "橋頭區",
      "is_in": "臺灣高雄市",
      "name:en": "Qiaotou District",
      "name:it": "Distretto di Qiaotou",
      "name:ja": "橋頭区",
      "name:ko": "차오터우구",
      "name:vi": "Kiều Đầu",
      "name:zh": "橋頭區",
      "nat_ref": "64000200",
      "boundary": "administrative",
      "name:hak": "Khiâu-thèu-khî",
      "name:nan": "Kiô-thâu-khu",
      "way_area": "0.00213139",
      "wikidata": "Q708216",
      "wikipedia": "zh:橋頭區",
      "is_in:city": "高雄市",
      "admin_level": "5",
      "postal_code": "825",
      "is_in:country": "TW"
    }
  },
  {
    "osm_id": -2106956,
    "boundary": "administrative",
    "admin_level": 5,
    "parents": "-2127079,-449220",
    "name": "Renwu District",
    "local_name": "仁武區",
    "name_en": "Renwu District",
    "all_tags": {
      "name": "仁武區",
      "is_in": "臺灣高雄市",
      "name:en": "Renwu District",
      "name:it": "Distretto di Renwu",
      "name:ja": "仁武区",
      "name:ko": "런우구",
      "name:pl": "Renwu",
      "name:vi": "Nhân Vũ",
      "name:zh": "仁武區",
      "nat_ref": "64000170",
      "boundary": "administrative",
      "name:hak": "Yìn-vú-khî",
      "name:nan": "Jîn-bú-khu",
      "way_area": "0.00331995",
      "wikidata": "Q708657",
      "wikipedia": "zh:仁武區",
      "is_in:city": "高雄市",
      "admin_level": "5",
      "name:nan-HJ": "仁武區",
      "name:nan-TL": "Jîn-bú-khu",
      "postal_code": "814",
      "name:nan-POJ": "Jîn-bú-khu",
      "is_in:country": "TW"
    }
  },
  {
    "osm_id": -2106973,
    "boundary": "administrative",
    "admin_level": 5,
    "parents": "-2127079,-449220",
    "name": "Dashe District",
    "local_name": "大社區",
    "name_en": "Dashe District",
    "all_tags": {
      "name": "大社區",
      "is_in": "臺灣高雄市",
      "name:en": "Dashe District",
      "name:it": "Distretto di Dashe",
      "name:ja": "大社区",
      "name:ko": "다서구",
      "name:pl": "Dashe",
      "name:vi": "Đại Xã",
      "name:zh": "大社區",
      "nat_ref": "64000160",
      "boundary": "administrative",
      "name:hak": "Thai-sa-khî",
      "name:nan": "Tōa-siā-khu",
      "way_area": "0.00222818",
      "wikidata": "Q708219",
      "wikipedia": "zh:大社區",
      "is_in:city": "高雄市",
      "admin_level": "5",
      "name:nan-HJ": "大社區",
      "name:nan-TL": "Tuā-siā-khu",
      "postal_code": "815",
      "name:nan-POJ": "Tōa-siā-khu",
      "is_in:country": "TW"
    }
  },
  {
    "osm_id": -2108620,
    "boundary": "administrative",
    "admin_level": 5,
    "parents": "-2127079,-449220",
    "name": "Gangshan District",
    "local_name": "岡山區",
    "name_en": "Gangshan District",
    "all_tags": {
      "name": "岡山區",
      "is_in": "臺灣高雄市",
      "name:de": "Gangshan",
      "name:en": "Gangshan District",
      "name:fr": "Gangshan",
      "name:it": "Distretto di Gangshan",
      "name:ja": "岡山区",
      "name:ko": "강산구",
      "name:vi": "Cương Sơn",
      "name:zh": "岡山區",
      "nat_ref": "64000190",
      "boundary": "administrative",
      "name:hak": "Kông-sân-khî",
      "name:nan": "Kong-san-khu",
      "name:yue": "岡山區",
      "way_area": "0.00437534",
      "wikidata": "Q706517",
      "wikipedia": "zh:岡山區",
      "is_in:city": "高雄市",
      "admin_level": "5",
      "postal_code": "820",
      "is_in:country": "TW"
    }
  },
  {
    "osm_id": -2108621,
    "boundary": "administrative",
    "admin_level": 5,
    "parents": "-2127079,-449220",
    "name": "Yanchao District",
    "local_name": "燕巢區",
    "name_en": "Yanchao District",
    "all_tags": {
      "name": "燕巢區",
      "is_in": "臺灣高雄市",
      "name:en": "Yanchao District",
      "name:it": "Distretto di Yanchao",
      "name:ja": "燕巣区",
      "name:ko": "옌차오구",
      "name:th": "Yanchao",
      "name:vi": "Yên Sào",
      "name:zh": "燕巢區",
      "nat_ref": "64000210",
      "boundary": "administrative",
      "name:hak": "Yèn-chhâu-khî",
      "name:nan": "Iàn-châu-khu",
      "way_area": "0.00599366",
      "wikidata": "Q707836",
      "wikipedia": "zh:燕巢區",
      "is_in:city": "高雄市",
      "admin_level": "5",
      "postal_code": "824",
      "is_in:country": "TW"
    }
  },
  {
    "osm_id": -2116392,
    "boundary": "administrative",
    "admin_level": 5,
    "parents": "-2127079,-449220",
    "name": "Dashu District",
    "local_name": "大樹區",
    "name_en": "Dashu District",
    "all_tags": {
      "name": "大樹區",
      "is_in": "臺灣高雄市",
      "name:en": "Dashu District",
      "name:es": "Dashu",
      "name:it": "Distretto di Dashu",
      "name:ja": "大樹区",
      "name:ko": "다수구",
      "name:pl": "Dashu",
      "name:vi": "Đại Thụ",
      "name:zh": "大樹區",
      "nat_ref": "64000150",
      "boundary": "administrative",
      "name:hak": "Thai-su-khî",
      "name:nan": "Tōa-chhiū-khu",
      "way_area": "0.00593699",
      "wikidata": "Q706696",
      "wikipedia": "zh:大樹區",
      "is_in:city": "高雄市",
      "admin_level": "5",
      "name:nan-HJ": "大樹區",
      "name:nan-TL": "Tuā-tshiū-khu",
      "postal_code": "840",
      "name:nan-POJ": "Tōa-chhiū-khu",
      "is_in:country": "TW"
    }
  },
  {
    "osm_id": -2119900,
    "boundary": "administrative",
    "admin_level": 5,
    "parents": "-2127079,-449220",
    "name": "Luzhu District",
    "local_name": "路竹區",
    "name_en": "Luzhu District",
    "all_tags": {
      "name": "路竹區",
      "is_in": "臺灣高雄市",
      "name:en": "Luzhu District",
      "name:it": "Distretto di Luzhu",
      "name:ja": "路竹区",
      "name:ko": "루주구",
      "name:pl": "Luzhu",
      "name:vi": "Lộ Trúc",
      "name:zh": "路竹區",
      "nat_ref": "64000240",
      "boundary": "administrative",
      "name:hak": "Lu-tsuk-khî",
      "name:nan": "Lō͘-tek-khu",
      "name:yue": "路竹區",
      "way_area": "0.00445063",
      "wikidata": "Q707897",
      "wikipedia": "zh:路竹區",
      "is_in:city": "高雄市",
      "admin_level": "5",
      "postal_code": "821",
      "is_in:country": "TW"
    }
  },
  {
    "osm_id": -2119901,
    "boundary": "administrative",
    "admin_level": 5,
    "parents": "-2127079,-449220",
    "name": "Alian District",
    "local_name": "阿蓮區",
    "name_en": "Alian District",
    "all_tags": {
      "name": "阿蓮區",
      "is_in": "臺灣高雄市",
      "name:en": "Alian District",
      "name:it": "Distretto di Alian",
      "name:ja": "阿蓮区",
      "name:ko": "아롄구",
      "name:pl": "Alian",
      "name:vi": "A Liên",
      "name:zh": "阿蓮區",
      "nat_ref": "64000230",
      "boundary": "administrative",
      "name:hak": "Â-lièn-khî",
      "name:nan": "A-lian-khu",
      "name:yue": "阿蓮區",
      "way_area": "0.00310702",
      "wikidata": "Q708264",
      "wikipedia": "zh:阿蓮區",
      "is_in:city": "高雄市",
      "admin_level": "5",
      "postal_code": "822",
      "is_in:country": "TW"
    }
  },
  {
    "osm_id": -2162418,
    "boundary": "administrative",
    "admin_level": 5,
    "parents": "-2418506,-449220",
    "name": "Guiren District",
    "local_name": "歸仁區",
    "name_en": "Guiren District",
    "all_tags": {
      "name": "歸仁區",
      "is_in": "臺灣臺南市",
      "name:de": "Guiren",
      "name:en": "Guiren District",
      "name:fr": "District de Guiren",
      "name:it": "Distretto di Guiren",
      "name:ja": "帰仁区",
      "name:ko": "구이런구",
      "name:vi": "Quy Nhân",
      "name:zh": "歸仁區",
      "nat_ref": "67000280",
      "boundary": "administrative",
      "name:hak": "Kûi-yìn-khî",
      "name:nan": "Kui-jîn-khu",
      "name:yue": "歸仁區",
      "way_area": "0.00483884",
      "wikidata": "Q708718",
      "wikipedia": "zh:歸仁區",
      "is_in:city": "臺南市",
      "admin_level": "5",
      "alt_name:vi": "Qui Nhân",
      "postal_code": "711",
      "is_in:country": "TW"
    }
  },
  {
    "osm_id": -2162513,
    "boundary": "administrative",
    "admin_level": 5,
    "parents": "-2418506,-449220",
    "name": "Guanmiao District",
    "local_name": "關廟區",
    "name_en": "Guanmiao District",
    "all_tags": {
      "name": "關廟區",
      "is_in": "臺灣臺南市",
      "name:de": "Guanmiao",
      "name:en": "Guanmiao District",
      "name:it": "Distretto di Guanmiao",
      "name:ja": "関廟区",
      "name:vi": "Quan Miếu",
      "name:zh": "關廟區",
      "nat_ref": "67000290",
      "boundary": "administrative",
      "name:hak": "Kûan-meu-khî",
      "name:nan": "Koan-biō-khu",
      "name:yue": "關廟區",
      "way_area": "0.00471406",
      "wikidata": "Q1186591",
      "wikipedia": "zh:關廟區",
      "is_in:city": "臺南市",
      "admin_level": "5",
      "postal_code": "718",
      "is_in:country": "TW"
    }
  },
  {
    "osm_id": -2119089,
    "boundary": "administrative",
    "admin_level": 5,
    "parents": "-2127079,-449220",
    "name": "Neimen District",
    "local_name": "內門區",
    "name_en": "Neimen District",
    "all_tags": {
      "name": "內門區",
      "is_in": "臺灣高雄市",
      "name:en": "Neimen District",
      "name:it": "Distretto di Neimen",
      "name:ja": "内門区",
      "name:ko": "네이먼구",
      "name:vi": "Nội Môn",
      "name:zh": "內門區",
      "nat_ref": "64000350",
      "boundary": "administrative",
      "name:hak": "Nui-mùn-khî",
      "name:nan": "Lāi-mn̂g-khu",
      "way_area": "0.00822443",
      "wikidata": "Q708258",
      "wikipedia": "zh:內門區",
      "is_in:city": "高雄市",
      "admin_level": "5",
      "name:nan-HJ": "內門區",
      "name:nan-TL": "Lāi-mn̂g-khu",
      "postal_code": "845",
      "name:nan-POJ": "Lāi-mn̂g-khu",
      "is_in:country": "TW"
    }
  },
  {
    "osm_id": -2120013,
    "boundary": "administrative",
    "admin_level": 5,
    "parents": "-2127079,-449220",
    "name": "Shanlin District",
    "local_name": "杉林區",
    "name_en": "Shanlin District",
    "all_tags": {
      "name": "杉林區",
      "is_in": "臺灣高雄市",
      "name:en": "Shanlin District",
      "name:it": "Distretto di Shanlin",
      "name:ja": "杉林区",
      "name:pl": "Shanlin",
      "name:vi": "Sam Lâm",
      "name:zh": "杉林區",
      "nat_ref": "64000340",
      "boundary": "administrative",
      "name:hak": "Chham-lìm-khî",
      "name:nan": "Sam-nâ-khu",
      "way_area": "0.0090949",
      "wikidata": "Q707749",
      "wikipedia": "zh:杉林區",
      "is_in:city": "高雄市",
      "admin_level": "5",
      "postal_code": "846",
      "is_in:country": "TW"
    }
  },
  {
    "osm_id": -2162448,
    "boundary": "administrative",
    "admin_level": 5,
    "parents": "-2418506,-449220",
    "name": "Yongkang District",
    "local_name": "永康區",
    "name_en": "Yongkang District",
    "all_tags": {
      "name": "永康區",
      "is_in": "臺灣臺南市",
      "name:de": "Yongkang",
      "name:en": "Yongkang District",
      "name:fr": "District de Yongkang",
      "name:it": "Yongkang",
      "name:ja": "永康区",
      "name:ko": "융캉구",
      "name:uk": "Юнкан",
      "name:vi": "Vĩnh Khang",
      "name:zh": "永康區",
      "nat_ref": "67000310",
      "boundary": "administrative",
      "name:hak": "Yún-không-khî",
      "name:nan": "Éng-khong-khu",
      "name:yue": "永康區",
      "way_area": "0.00359755",
      "wikidata": "Q706511",
      "wikipedia": "zh:永康區",
      "is_in:city": "臺南市",
      "admin_level": "5",
      "postal_code": "710",
      "is_in:country": "TW"
    }
  },
  {
    "osm_id": -2210364,
    "boundary": "administrative",
    "admin_level": 5,
    "parents": "-2418506,-449220",
    "name": "Xinshi District",
    "local_name": "新市區",
    "name_en": "Xinshi District",
    "all_tags": {
      "name": "新市區",
      "is_in": "臺灣臺南市新市",
      "name:de": "Xinshi",
      "name:en": "Xinshi District",
      "name:it": "Xinshi",
      "name:ja": "新市区",
      "name:ko": "신스구",
      "name:vi": "Tân Thị",
      "name:zh": "新市區",
      "nat_ref": "67000200",
      "boundary": "administrative",
      "name:hak": "Sîn-sṳ-khî",
      "name:nan": "Sin-chhī-khu",
      "name:yue": "新市區",
      "way_area": "0.00444509",
      "wikidata": "Q706439",
      "wikipedia": "zh:新市區 (台灣)",
      "is_in:city": "臺南市",
      "admin_level": "5",
      "postal_code": "744",
      "is_in:country": "TW"
    }
  },
  {
    "osm_id": -2168869,
    "boundary": "administrative",
    "admin_level": 5,
    "parents": "-2418506,-449220",
    "name": "Xinhua District",
    "local_name": "新化區",
    "name_en": "Xinhua District",
    "all_tags": {
      "name": "新化區",
      "is_in": "臺灣臺南市",
      "name:de": "Xinhua",
      "name:en": "Xinhua District",
      "name:it": "Distretto di Xinhua",
      "name:ja": "新化区",
      "name:ko": "신화구",
      "name:vi": "Tân Hóa",
      "name:zh": "新化區",
      "nat_ref": "67000180",
      "boundary": "administrative",
      "name:hak": "Sîn-fa-khî",
      "name:nan": "Sin-hoà-khu",
      "name:yue": "新化區",
      "way_area": "0.00545606",
      "wikidata": "Q1186585",
      "wikipedia": "zh:新化區",
      "is_in:city": "臺南市",
      "admin_level": "5",
      "postal_code": "712",
      "is_in:country": "TW"
    }
  },
  {
    "osm_id": -2221999,
    "boundary": "administrative",
    "admin_level": 5,
    "parents": "-2418506,-449220",
    "name": "Shanshang District",
    "local_name": "山上區",
    "name_en": "Shanshang District",
    "all_tags": {
      "name": "山上區",
      "is_in": "臺灣臺南市",
      "name:de": "Shanshang",
      "name:en": "Shanshang District",
      "name:it": "Distretto di Shanshang",
      "name:ja": "山上区",
      "name:ko": "산상구",
      "name:vi": "Sơn Thượng",
      "name:zh": "山上區",
      "nat_ref": "67000220",
      "boundary": "administrative",
      "name:hak": "Sân-song-khî",
      "name:nan": "San-siōng-khu",
      "name:yue": "山上區",
      "way_area": "0.0024394",
      "wikidata": "Q708701",
      "wikipedia": "zh:山上區",
      "is_in:city": "臺南市",
      "admin_level": "5",
      "postal_code": "743",
      "is_in:country": "TW"
    }
  },
  {
    "osm_id": -2222051,
    "boundary": "administrative",
    "admin_level": 5,
    "parents": "-2418506,-449220",
    "name": "Shanhua District",
    "local_name": "善化區",
    "name_en": "Shanhua District",
    "all_tags": {
      "name": "善化區",
      "is_in": "臺灣臺南市",
      "name:de": "Shanhua",
      "name:en": "Shanhua District",
      "name:it": "Distretto di Shanhua",
      "name:ja": "善化区",
      "name:ko": "산화구",
      "name:vi": "Thiện Hóa",
      "name:zh": "善化區",
      "nat_ref": "67000190",
      "boundary": "administrative",
      "name:hak": "San-fa-khî",
      "name:nan": "Siān-hoà-khu",
      "name:yue": "善化區",
      "way_area": "0.00473355",
      "wikidata": "Q708672",
      "wikipedia": "zh:善化區",
      "is_in:city": "臺南市",
      "admin_level": "5",
      "postal_code": "741",
      "is_in:country": "TW"
    }
  },
  {
    "osm_id": -2223533,
    "boundary": "administrative",
    "admin_level": 5,
    "parents": "-2418506,-449220",
    "name": "Danei District",
    "local_name": "大內區",
    "name_en": "Danei District",
    "all_tags": {
      "name": "大內區",
      "is_in": "臺灣臺南市",
      "name:de": "Danei",
      "name:en": "Danei District",
      "name:it": "Distretto di Danei",
      "name:ja": "大内区",
      "name:ko": "다네이구",
      "name:vi": "Đại Nội",
      "name:zh": "大內區",
      "nat_ref": "67000110",
      "boundary": "administrative",
      "name:hak": "Thai-nui-khî",
      "name:nan": "Toā-lāi-khu",
      "name:yue": "大內區",
      "way_area": "0.00624781",
      "wikidata": "Q709013",
      "wikipedia": "zh:大內區",
      "is_in:city": "臺南市",
      "admin_level": "5",
      "postal_code": "742",
      "is_in:country": "TW"
    }
  },
  {
    "osm_id": -2236948,
    "boundary": "administrative",
    "admin_level": 5,
    "parents": "-2418506,-449220",
    "name": "Guantian District",
    "local_name": "官田區",
    "name_en": "Guantian District",
    "all_tags": {
      "name": "官田區",
      "is_in": "臺灣臺南市",
      "name:de": "Guantian",
      "name:en": "Guantian District",
      "name:it": "Distretto di Guantian",
      "name:ja": "官田区",
      "name:ko": "관톈구",
      "name:vi": "Quan Điền",
      "name:zh": "官田區",
      "nat_ref": "67000100",
      "boundary": "administrative",
      "name:hak": "Kôn-thièn-khî",
      "name:nan": "Koaⁿ-tiān-khu",
      "name:yue": "官田區",
      "way_area": "0.00637182",
      "wikidata": "Q709018",
      "wikipedia": "zh:官田區",
      "is_in:city": "臺南市",
      "admin_level": "5",
      "postal_code": "720",
      "is_in:country": "TW"
    }
  },
  {
    "osm_id": -2222126,
    "boundary": "administrative",
    "admin_level": 5,
    "parents": "-2418506,-449220",
    "name": "Yujing District",
    "local_name": "玉井區",
    "name_en": "Yujing District",
    "all_tags": {
      "name": "玉井區",
      "is_in": "臺灣臺南市",
      "name:de": "Yujing",
      "name:en": "Yujing District",
      "name:it": "Distretto di Yujing",
      "name:ja": "玉井区",
      "name:ko": "위징 구",
      "name:ue": "玉井區",
      "name:vi": "Ngọc Tĩnh",
      "name:zh": "玉井區",
      "nat_ref": "67000230",
      "boundary": "administrative",
      "name:hak": "Ngiu̍k-tsiáng-khî",
      "name:nan": "Gio̍k-chéⁿ-khu",
      "way_area": "0.00662227",
      "wikidata": "Q708690",
      "wikipedia": "zh:玉井區",
      "is_in:city": "臺南市",
      "admin_level": "5",
      "postal_code": "714",
      "is_in:country": "TW"
    }
  },
  {
    "osm_id": -2221998,
    "boundary": "administrative",
    "admin_level": 5,
    "parents": "-2418506,-449220",
    "name": "Nanhua District",
    "local_name": "南化區",
    "name_en": "Nanhua District",
    "all_tags": {
      "name": "南化區",
      "is_in": "臺灣臺南市",
      "name:de": "Nanhua",
      "name:en": "Nanhua District",
      "name:it": "Distretto di Nanhua",
      "name:ja": "南化区",
      "name:ko": "난화구",
      "name:vi": "Nam Hóa",
      "name:zh": "南化區",
      "nat_ref": "67000250",
      "boundary": "administrative",
      "name:hak": "Nàm-fa-khî",
      "name:nan": "Lâm-hoà-khu",
      "name:yue": "南化區",
      "way_area": "0.0151097",
      "wikidata": "Q708375",
      "wikipedia": "zh:南化區",
      "is_in:city": "臺南市",
      "admin_level": "5",
      "alt_name:vi": "Nam Hoá",
      "postal_code": "716",
      "is_in:country": "TW"
    }
  },
  {
    "osm_id": -2124825,
    "boundary": "administrative",
    "admin_level": 5,
    "parents": "-2127079,-449220",
    "name": "Maolin District",
    "local_name": "茂林區",
    "name_en": "Maolin District",
    "all_tags": {
      "name": "茂林區",
      "is_in": "臺灣高雄市",
      "name:de": "Maolin",
      "name:en": "Maolin District",
      "name:it": "Distretto di Maolin",
      "name:ja": "茂林区",
      "name:ko": "마오린구",
      "name:pl": "Maolin",
      "name:vi": "Mậu Lâm",
      "name:zh": "茂林區",
      "nat_ref": "64000360",
      "boundary": "administrative",
      "name:hak": "Meu-lìm-khî",
      "name:nan": "Bō͘-lîm-khu",
      "old_name": "多納鄉",
      "way_area": "0.0212476",
      "wikidata": "Q708142",
      "wikipedia": "zh:茂林區",
      "is_in:city": "高雄市",
      "admin_level": "5",
      "postal_code": "851",
      "is_in:country": "TW"
    }
  },
  {
    "osm_id": -2120043,
    "boundary": "administrative",
    "admin_level": 5,
    "parents": "-2127079,-449220",
    "name": "Liugui District",
    "local_name": "六龜區",
    "name_en": "Liugui District",
    "all_tags": {
      "name": "六龜區",
      "is_in": "臺灣高雄市",
      "name:de": "Liugui",
      "name:en": "Liugui District",
      "name:it": "Distretto di Liugui",
      "name:ja": "六亀区",
      "name:ko": "류구이구",
      "name:vi": "Lựu Khưu",
      "name:zh": "六龜區",
      "nat_ref": "64000320",
      "boundary": "administrative",
      "name:hak": "Liuk-kuî-khî",
      "name:nan": "La̍k-ku-khu",
      "way_area": "0.0163889",
      "wikidata": "Q712920",
      "wikipedia": "zh:六龜區",
      "is_in:city": "高雄市",
      "admin_level": "5",
      "name:nan-HJ": "六龜區",
      "name:nan-TL": "La̍k-ku-khu",
      "postal_code": "844",
      "name:nan-POJ": "La̍k-ku-khu",
      "is_in:country": "TW"
    }
  },
  {
    "osm_id": 483406038,
    "boundary": "administrative",
    "admin_level": 4,
    "parents": "-449220",
    "name": "Xiji Island",
    "local_name": "西吉嶼",
    "name_en": "Xiji Island",
    "all_tags": {
      "area": "yes",
      "name": "西吉嶼",
      "place": "islet",
      "name:en": "Xiji Island",
      "name:zh": "西吉嶼",
      "boundary": "administrative",
      "way_area": "6.35936e-07",
      "admin_level": "4"
    }
  },
  {
    "osm_id": -2417980,
    "boundary": "administrative",
    "admin_level": 5,
    "parents": "-2418506,-449220",
    "name": "Beimen District",
    "local_name": "北門區",
    "name_en": "Beimen District",
    "all_tags": {
      "name": "北門區",
      "is_in": "臺灣臺南市",
      "name:en": "Beimen District",
      "name:fr": "District de Beimen",
      "name:id": "Distrik Beimen",
      "name:it": "Distretto di Beimen",
      "name:ja": "北門区",
      "name:vi": "Bắc Môn",
      "name:zh": "北門區",
      "nat_ref": "67000170",
      "boundary": "administrative",
      "name:hak": "Pet-mùn-khî",
      "name:nan": "Pak-mn̂g-khu",
      "name:yue": "北門區",
      "way_area": "0.00556599",
      "wikidata": "Q706308",
      "wikipedia": "zh:北門區",
      "is_in:city": "臺南市",
      "admin_level": "5",
      "postal_code": "727",
      "is_in:country": "TW"
    }
  },
  {
    "osm_id": -2414949,
    "boundary": "administrative",
    "admin_level": 5,
    "parents": "-2418506,-449220",
    "name": "Xuejia District",
    "local_name": "學甲區",
    "name_en": "Xuejia District",
    "all_tags": {
      "name": "學甲區",
      "is_in": "臺灣臺南市",
      "name:de": "Xuejia",
      "name:en": "Xuejia District",
      "name:fr": "District de Xuejia",
      "name:ja": "学甲区",
      "name:ko": "쉐자구",
      "name:ru": "Distretto di Xuejia",
      "name:vi": "Học Giáp",
      "name:zh": "學甲區",
      "nat_ref": "67000130",
      "boundary": "administrative",
      "name:hak": "Ho̍k-kap-khî",
      "name:nan": "Ha̍k-kah-khu",
      "name:yue": "學甲區",
      "way_area": "0.00481157",
      "wikidata": "Q708188",
      "wikipedia": "zh:學甲區",
      "is_in:city": "臺南市",
      "admin_level": "5",
      "postal_code": "726",
      "is_in:country": "TW"
    }
  },
  {
    "osm_id": 9210596,
    "boundary": "administrative",
    "admin_level": 4,
    "parents": "-449220",
    "name": "小嶼",
    "local_name": "小嶼",
    "name_en": null,
    "all_tags": {
      "area": "yes",
      "name": "小嶼",
      "place": "islet",
      "boundary": "administrative",
      "way_area": "3.42481e-07",
      "admin_level": "4"
    }
  },
  {
    "osm_id": -2375336,
    "boundary": "administrative",
    "admin_level": 5,
    "parents": "-2418506,-449220",
    "name": "Xiaying District",
    "local_name": "下營區",
    "name_en": "Xiaying District",
    "all_tags": {
      "name": "下營區",
      "is_in": "臺灣臺南市",
      "name:de": "Xiaying",
      "name:en": "Xiaying District",
      "name:it": "Distretto di Xiaying",
      "name:ja": "下営区",
      "name:ko": "샤잉구",
      "name:vi": "Hạ Doanh",
      "name:zh": "下營區",
      "nat_ref": "67000080",
      "boundary": "administrative",
      "name:hak": "Ha-yàng-khî",
      "name:nan": "Ē-iâⁿ-khu",
      "name:yue": "下營區",
      "way_area": "0.00294804",
      "wikidata": "Q708705",
      "wikipedia": "zh:下營區",
      "is_in:city": "臺南市",
      "admin_level": "5",
      "alt_name:en": "Siaying",
      "postal_code": "735",
      "is_in:country": "TW"
    }
  },
  {
    "osm_id": -2411099,
    "boundary": "administrative",
    "admin_level": 5,
    "parents": "-2418506,-449220",
    "name": "Xinying District",
    "local_name": "新營區",
    "name_en": "Xinying District",
    "all_tags": {
      "name": "新營區",
      "is_in": "臺灣臺南市",
      "name:de": "Xinying",
      "name:en": "Xinying District",
      "name:fr": "District de Xinying",
      "name:it": "Xinying",
      "name:ja": "新営区",
      "name:vi": "Tân Doanh",
      "name:zh": "新營區",
      "nat_ref": "67000010",
      "boundary": "administrative",
      "name:hak": "Sîn-yàng-khî",
      "name:nan": "Sin-iâⁿ-khu",
      "name:yue": "新營區",
      "way_area": "0.00340449",
      "wikidata": "Q701497",
      "wikipedia": "zh:新營區",
      "is_in:city": "臺南市",
      "admin_level": "5",
      "postal_code": "730",
      "is_in:country": "TW"
    }
  },
  {
    "osm_id": -2411098,
    "boundary": "administrative",
    "admin_level": 5,
    "parents": "-2418506,-449220",
    "name": "Houbi District",
    "local_name": "後壁區",
    "name_en": "Houbi District",
    "all_tags": {
      "name": "後壁區",
      "is_in": "臺灣臺南市",
      "name:de": "Houbi",
      "name:en": "Houbi District",
      "name:fr": "District de Houbi",
      "name:it": "Distretto di Houbi",
      "name:ja": "後壁区",
      "name:ko": "허우비 구",
      "name:vi": "Hậu Bích",
      "name:zh": "後壁區",
      "nat_ref": "67000050",
      "boundary": "administrative",
      "name:hak": "Heu-piak-khî",
      "name:nan": "Āu-piah-khu",
      "name:yue": "後壁區",
      "way_area": "0.00638615",
      "wikidata": "Q709000",
      "wikipedia": "zh:後壁區",
      "is_in:city": "臺南市",
      "admin_level": "5",
      "postal_code": "731",
      "is_in:country": "TW"
    }
  },
  {
    "osm_id": -2375766,
    "boundary": "administrative",
    "admin_level": 5,
    "parents": "-2418506,-449220",
    "name": "Dongshan District",
    "local_name": "東山區",
    "name_en": "Dongshan District",
    "all_tags": {
      "name": "東山區",
      "is_in": "臺灣臺南市",
      "name:de": "Dongshan",
      "name:en": "Dongshan District",
      "name:es": "Dongshan",
      "name:fr": "District de Dongshan",
      "name:it": "Distretto di Dongshan",
      "name:ja": "東山区",
      "name:vi": "Đông Sơn",
      "name:zh": "東山區",
      "nat_ref": "67000060",
      "boundary": "administrative",
      "name:hak": "Tûng-sân-khî",
      "name:nan": "Tong-san-khu",
      "name:yue": "東山區",
      "way_area": "0.0109497",
      "wikidata": "Q703924",
      "wikipedia": "zh:東山區 (臺南市)",
      "is_in:city": "臺南市",
      "admin_level": "5",
      "postal_code": "733",
      "is_in:country": "TW"
    }
  },
  {
    "osm_id": -2908173,
    "boundary": "administrative",
    "admin_level": 6,
    "parents": "-3777248,-449220",
    "name": "Chiayi County",
    "local_name": "嘉義縣",
    "name_en": "Chiayi County",
    "all_tags": {
      "name": "嘉義縣",
      "name:ar": "مقاطعة شياي",
      "name:de": "Landkreis Chiayi",
      "name:en": "Chiayi County",
      "name:es": "Condado de Chiayi",
      "name:fr": "Comté de Chiayi",
      "name:id": "Kabupaten Chiayi",
      "name:it": "Contea di Chiayi",
      "name:ja": "嘉義県",
      "name:ko": "자이 현",
      "name:pt": "Condado de Chiayi",
      "name:ru": "Цзяи",
      "name:th": "เจียอี้",
      "name:vi": "Gia Nghĩa",
      "name:zh": "嘉義縣",
      "nat_ref": "10010",
      "boundary": "administrative",
      "name:cdo": "Gă-ngiê",
      "name:ceb": "Chiayi",
      "name:hak": "Kâ-ngi-yen",
      "name:nan": "Ka-gī-koān",
      "name:yue": "嘉義縣",
      "way_area": "0.176877",
      "wikidata": "Q166977",
      "ISO3166-2": "TW-CYQ",
      "wikipedia": "zh:嘉義縣",
      "admin_level": "6",
      "name:nan-HJ": "嘉義縣",
      "name:nan-TL": "Ka-gī-kuān",
      "name:nan-POJ": "Ka-gī-koān",
      "name:zh-Hans": "嘉义县",
      "name:zh-Hant": "嘉義縣",
      "name:zh_pinyin": "Jiɑ̄yì Xiàn"
    }
  },
  {
    "osm_id": -2790418,
    "boundary": "administrative",
    "admin_level": 6,
    "parents": "-3777248,-449220",
    "name": "Chiayi",
    "local_name": "嘉義市",
    "name_en": "Chiayi",
    "all_tags": {
      "name": "嘉義市",
      "name:ar": "شيا يي",
      "name:de": "Chiayi",
      "name:en": "Chiayi",
      "name:fr": "Chiayi",
      "name:id": "Kota Chiayi",
      "name:it": "Chiayi",
      "name:ja": "嘉義市",
      "name:ko": "자이 시",
      "name:pl": "Jiayi",
      "name:ru": "Цзяи",
      "name:th": "นครเจียอี้",
      "name:zh": "嘉義市",
      "nat_ref": "10020",
      "boundary": "administrative",
      "name:cdo": "Gă-ngiê",
      "name:ceb": "Chiayi",
      "name:hak": "Kâ-ngi-sṳ",
      "name:nan": "Ka-gī-chhī",
      "name:yue": "嘉義市",
      "way_area": "0.00527907",
      "wikidata": "Q249995",
      "ISO3166-2": "TW-CYI",
      "wikipedia": "zh:嘉義市",
      "admin_level": "6",
      "name:nan-HJ": "嘉義市",
      "name:nan-TL": "Ka-gī-tshī",
      "name:nan-POJ": "Ka-gī-chhī",
      "name:zh-Hans": "嘉义市",
      "name:zh-Hant": "嘉義市",
      "wikipedia:ru": "Цзяи",
      "name:zh_pinyin": "Jiɑ̄yì Shì"
    }
  },
  {
    "osm_id": -2124744,
    "boundary": "administrative",
    "admin_level": 5,
    "parents": "-2127079,-449220",
    "name": "Taoyuan District",
    "local_name": "桃源區",
    "name_en": "Taoyuan District",
    "all_tags": {
      "name": "桃源區",
      "is_in": "臺灣高雄市",
      "name:de": "Tauyuan",
      "name:en": "Taoyuan District",
      "name:ja": "桃源区",
      "name:ko": "타오위안 구",
      "name:pl": "Taoyuan",
      "name:vi": "Đào Nguyên",
      "name:zh": "桃源區",
      "nat_ref": "64000370",
      "boundary": "administrative",
      "name:hak": "Thò-ngièn-khî",
      "name:nan": "Thô-goân-khu",
      "way_area": "0.0855346",
      "wikidata": "Q708252",
      "wikipedia": "zh:桃源區",
      "is_in:city": "高雄市",
      "admin_level": "5",
      "postal_code": "848",
      "is_in:country": "TW"
    }
  },
  {
    "osm_id": -2915930,
    "boundary": "administrative",
    "admin_level": 6,
    "parents": "-3777248,-449220",
    "name": "Yunlin County",
    "local_name": "雲林縣",
    "name_en": "Yunlin County",
    "all_tags": {
      "name": "雲林縣",
      "name:ar": "مقاطعة يونلين",
      "name:cs": "Okres Jün-lin",
      "name:de": "Landkreis Yunlin",
      "name:en": "Yunlin County",
      "name:fr": "Comté de Yunlin",
      "name:id": "Kabupaten Yunlin",
      "name:it": "Contea di Yunlin",
      "name:ja": "雲林県",
      "name:ko": "윈린 현",
      "name:ru": "Уезд Юньлинь",
      "name:th": "เทศมณฑลยฺหวินหลิน",
      "name:vi": "Vân Lâm",
      "name:zh": "雲林縣",
      "nat_ref": "10009",
      "boundary": "administrative",
      "name:cdo": "Hùng-lìng",
      "name:frr": "Yunlin",
      "name:gan": "雲林",
      "name:hak": "Yùn-lìm-yen",
      "name:nan": "Hûn-lîm-koān",
      "name:yue": "雲林縣",
      "way_area": "0.125705",
      "wikidata": "Q153221",
      "ISO3166-2": "TW-YUN",
      "wikipedia": "zh:雲林縣",
      "admin_level": "6",
      "name:nan-HJ": "雲林縣",
      "name:nan-TL": "Hûn-lîm-kuān",
      "name:nan-POJ": "Hûn-lîm-koān",
      "name:zh-Hans": "云林县",
      "name:zh-Hant": "雲林縣",
      "name:zh_pinyin": "Yúnlín Xiɑ̀n"
    }
  },
  {
    "osm_id": -2259151,
    "boundary": "administrative",
    "admin_level": 5,
    "parents": "-2418506,-449220",
    "name": "Liujia District",
    "local_name": "六甲區",
    "name_en": "Liujia District",
    "all_tags": {
      "name": "六甲區",
      "is_in": "臺灣臺南市",
      "name:de": "Liujia",
      "name:en": "Liujia District",
      "name:it": "Distretto di Liujia",
      "name:ja": "六甲区",
      "name:ko": "류자구",
      "name:vi": "Lục Giáp",
      "name:zh": "六甲區",
      "nat_ref": "67000090",
      "boundary": "administrative",
      "name:hak": "Liuk-kap-khî",
      "name:nan": "La̍k-kah-khu",
      "name:yue": "六甲區",
      "way_area": "0.00590898",
      "wikidata": "Q708723",
      "wikipedia": "zh:六甲區",
      "is_in:city": "臺南市",
      "admin_level": "5",
      "postal_code": "734",
      "is_in:country": "TW"
    }
  },
  {
    "osm_id": -3777248,
    "boundary": "administrative",
    "admin_level": 4,
    "parents": "-449220",
    "name": "Taiwan Province",
    "local_name": "臺灣省",
    "name_en": "Taiwan Province",
    "all_tags": {
      "name": "臺灣省",
      "name:ar": "مقاطعة تايوان",
      "name:de": "Taiwan",
      "name:en": "Taiwan Province",
      "name:es": "Provincia de Taiwán",
      "name:et": "Taiwani provints",
      "name:fr": "Province de Taïwan",
      "name:id": "Provinsi Taiwan",
      "name:it": "Provincia di Taiwan",
      "name:ja": "台湾省",
      "name:ko": "타이완성",
      "name:pl": "Tajwan",
      "name:ru": "Тайвань",
      "name:vi": "Tỉnh Đài Loan",
      "name:zh": "臺灣省",
      "nat_ref": "10",
      "website": "http://www.tpg.gov.tw/",
      "boundary": "administrative",
      "name:cdo": "Dài-uăng-sēng",
      "name:hak": "thòi vàn sén",
      "name:nan": "Tâi-oân-séng",
      "name:wuu": "臺灣省",
      "name:yue": "臺灣省",
      "way_area": "2.2522",
      "wikidata": "Q32081",
      "ISO3166-1": "TW",
      "wikipedia": "zh:臺灣省",
      "admin_level": "4",
      "name:nan-HJ": "臺灣省",
      "name:nan-TL": "Tâi-uân-síng",
      "name:nan-POJ": "Tâi-oân-séng",
      "name:zh-Hans": "台湾省",
      "name:zh-Hant": "臺灣省",
      "name:zh_pinyin": "Tɑ́iwɑ̄n"
    }
  },
  {
    "osm_id": -2917549,
    "boundary": "administrative",
    "admin_level": 6,
    "parents": "-3777248,-449220",
    "name": "Changhua County",
    "local_name": "彰化縣",
    "name_en": "Changhua County",
    "all_tags": {
      "name": "彰化縣",
      "name:ar": "مقاطعة تشانغوا",
      "name:cs": "Okres Čang-chua",
      "name:da": "Changhua County",
      "name:de": "Landkreis Changhua",
      "name:en": "Changhua County",
      "name:es": "Condado de Changhua",
      "name:eu": "Changhua konderria",
      "name:fa": "شهرستان جانگوآ",
      "name:fr": "Comté de Changhua",
      "name:id": "Kabupaten Changhua",
      "name:it": "Contea di Changhua",
      "name:ja": "彰化県",
      "name:ko": "장화현",
      "name:lt": "Džanghua apskritis",
      "name:mn": "Жанхуа",
      "name:nl": "Changhua",
      "name:pl": "Zhanghua",
      "name:pt": "Condado de Changhua",
      "name:ru": "Чжанхуа",
      "name:tr": "Changhua",
      "name:uk": "Повіт Чжанхуа",
      "name:ur": "چانگہوا کاؤنٹی",
      "name:vi": "Chương Hóa",
      "name:zh": "彰化縣",
      "nat_ref": "10007",
      "boundary": "administrative",
      "name:cdo": "Ciŏng-huá",
      "name:ceb": "Changhua",
      "name:frr": "Changhua (Lunkreis)",
      "name:hak": "Chông-fa-yen",
      "name:nan": "Chiong-hòa-koān",
      "name:wuu": "彰化县",
      "name:yue": "彰化縣",
      "way_area": "0.0986788",
      "wikidata": "Q133865",
      "ISO3166-2": "TW-CHA",
      "wikipedia": "zh:彰化縣",
      "admin_level": "6",
      "name:nan-HJ": "彰化縣",
      "name:nan-TL": "Tsiong-huà-kuān",
      "name:nan-POJ": "Chiong-hòa-koān",
      "name:zh-Hans": "彰化县",
      "name:zh-Hant": "彰化縣",
      "name:zh_pinyin": "Zhānghuà Xiàn"
    }
  },
  {
    "osm_id": -2958311,
    "boundary": "administrative",
    "admin_level": 5,
    "parents": "-2921154,-449220",
    "name": "Longjing District",
    "local_name": "龍井區",
    "name_en": "Longjing District",
    "all_tags": {
      "name": "龍井區",
      "name:en": "Longjing District",
      "name:ja": "龍井区",
      "name:ko": "룽징 구",
      "name:vi": "Long Tĩnh",
      "name:zh": "龍井區",
      "nat_ref": "66000250",
      "boundary": "administrative",
      "name:hak": "Liùng-tsiáng-khî",
      "name:nan": "Liông-chéⁿ-khu",
      "way_area": "0.00461053",
      "wikidata": "Q569700",
      "wikipedia": "zh:龍井區",
      "admin_level": "5"
    }
  },
  {
    "osm_id": -2961762,
    "boundary": "administrative",
    "admin_level": 5,
    "parents": "-2921154,-449220",
    "name": "Nantun District",
    "local_name": "南屯區",
    "name_en": "Nantun District",
    "all_tags": {
      "name": "南屯區",
      "name:en": "Nantun District",
      "name:ja": "南屯区",
      "name:ko": "난툰 구",
      "name:vi": "Nam Đồn",
      "name:zh": "南屯區",
      "nat_ref": "66000070",
      "boundary": "administrative",
      "name:hak": "Nàm-tun",
      "name:nan": "Lâm-tūn-khu",
      "way_area": "0.00269766",
      "wikidata": "Q569538",
      "wikipedia": "zh:南屯區",
      "admin_level": "5"
    }
  },
  {
    "osm_id": -2958281,
    "boundary": "administrative",
    "admin_level": 5,
    "parents": "-2921154,-449220",
    "name": "Wuri District",
    "local_name": "烏日區",
    "name_en": "Wuri District",
    "all_tags": {
      "name": "烏日區",
      "name:en": "Wuri District",
      "name:fr": "District de Wuri",
      "name:it": "Distretto di Wuri",
      "name:ja": "烏日区",
      "name:ko": "우르 구",
      "name:pl": "Wuri",
      "name:vi": "Ô Nhật",
      "name:zh": "烏日區",
      "nat_ref": "66000230",
      "boundary": "administrative",
      "name:hak": "Vû-ngit-khî",
      "name:nan": "O͘-ji̍t-khu",
      "name:yue": "烏日區",
      "way_area": "0.00368891",
      "wikidata": "Q569768",
      "wikipedia": "zh:烏日區",
      "admin_level": "5",
      "postal_code": "414"
    }
  },
  {
    "osm_id": -2958003,
    "boundary": "administrative",
    "admin_level": 5,
    "parents": "-2921154,-449220",
    "name": "Dali District",
    "local_name": "大里區",
    "name_en": "Dali District",
    "all_tags": {
      "name": "大里區",
      "name:de": "Dali",
      "name:en": "Dali District",
      "name:it": "Distretto di Dali",
      "name:ja": "大里区",
      "name:ko": "다리구",
      "name:vi": "Đại Lý",
      "name:zh": "大里區",
      "nat_ref": "66000280",
      "boundary": "administrative",
      "name:hak": "Thai-lî-khî",
      "name:nan": "Tāi-lí-khu",
      "way_area": "0.00259973",
      "wikidata": "Q569553",
      "wikipedia": "zh:大里區",
      "admin_level": "5"
    }
  },
  {
    "osm_id": -2960369,
    "boundary": "administrative",
    "admin_level": 5,
    "parents": "-2921154,-449220",
    "name": "Xitun District",
    "local_name": "西屯區",
    "name_en": "Xitun District",
    "all_tags": {
      "name": "西屯區",
      "name:en": "Xitun District",
      "name:ja": "西屯区",
      "name:ko": "시툰 구",
      "name:pl": "Xitun",
      "name:vi": "Tây Đồn",
      "name:zh": "西屯區",
      "nat_ref": "66000060",
      "boundary": "administrative",
      "name:hak": "Sî-tun",
      "name:nan": "Sai-tūn-khu",
      "way_area": "0.00355964",
      "wikidata": "Q569548",
      "wikipedia": "zh:西屯區",
      "admin_level": "5"
    }
  },
  {
    "osm_id": -2960420,
    "boundary": "administrative",
    "admin_level": 5,
    "parents": "-2921154,-449220",
    "name": "Shalu District",
    "local_name": "沙鹿區",
    "name_en": "Shalu District",
    "all_tags": {
      "name": "沙鹿區",
      "name:en": "Shalu District",
      "name:ja": "沙鹿区",
      "name:ko": "사루 구",
      "name:vi": "Sa Lộc",
      "name:zh": "沙鹿區",
      "nat_ref": "66000130",
      "boundary": "administrative",
      "name:hak": "Sâ-lu̍k-khî",
      "name:nan": "Soa-lak-khu",
      "way_area": "0.0035641",
      "wikidata": "Q569640",
      "wikipedia": "zh:沙鹿區",
      "admin_level": "5"
    }
  },
  {
    "osm_id": -2960313,
    "boundary": "administrative",
    "admin_level": 5,
    "parents": "-2921154,-449220",
    "name": "Daya District",
    "local_name": "大雅區",
    "name_en": "Daya District",
    "all_tags": {
      "name": "大雅區",
      "name:en": "Daya District",
      "name:it": "Distretto di Daya",
      "name:ja": "大雅区",
      "name:ko": "다야 구",
      "name:vi": "Đại Nhã",
      "name:zh": "大雅區",
      "nat_ref": "66000180",
      "boundary": "administrative",
      "name:hak": "Thai-ngâ-khî",
      "name:nan": "Tāi-ngé-khu",
      "way_area": "0.00291735",
      "wikidata": "Q569657",
      "wikipedia": "zh:大雅區",
      "admin_level": "5"
    }
  },
  {
    "osm_id": -2960300,
    "boundary": "administrative",
    "admin_level": 5,
    "parents": "-2921154,-449220",
    "name": "Tanzi District",
    "local_name": "潭子區",
    "name_en": "Tanzi District",
    "all_tags": {
      "name": "潭子區",
      "name:en": "Tanzi District",
      "name:it": "Distretto di Tanzi",
      "name:ja": "潭子区",
      "name:ko": "탄쯔 구",
      "name:pl": "Tanzi",
      "name:vi": "Đàm Tử",
      "name:zh": "潭子區",
      "nat_ref": "66000170",
      "boundary": "administrative",
      "name:hak": "Thâm-tsṳ́-khî",
      "name:nan": "Thâm-chú-khu",
      "way_area": "0.00229754",
      "wikidata": "Q569753",
      "wikipedia": "zh:潭子區",
      "admin_level": "5"
    }
  },
  {
    "osm_id": -2959946,
    "boundary": "administrative",
    "admin_level": 5,
    "parents": "-2921154,-449220",
    "name": "Beitun District",
    "local_name": "北屯區",
    "name_en": "Beitun District",
    "all_tags": {
      "name": "北屯區",
      "name:en": "Beitun District",
      "name:it": "Distretto di Beitun",
      "name:ja": "北屯区",
      "name:ko": "베이툰 구",
      "name:vi": "Bắc Đồn",
      "name:zh": "北屯區",
      "nat_ref": "66000080",
      "boundary": "administrative",
      "name:hak": "Pet-tun",
      "name:nan": "Pak-tūn-khu",
      "way_area": "0.00548388",
      "wikidata": "Q569533",
      "wikipedia": "zh:北屯區",
      "admin_level": "5",
      "postal_code": "406"
    }
  },
  {
    "osm_id": -2960240,
    "boundary": "administrative",
    "admin_level": 5,
    "parents": "-2921154,-449220",
    "name": "Fengyuan District",
    "local_name": "豐原區",
    "name_en": "Fengyuan District",
    "all_tags": {
      "name": "豐原區",
      "name:de": "Fengyuan",
      "name:en": "Fengyuan District",
      "name:it": "Distretto di Fengyuan",
      "name:ja": "豊原区",
      "name:ko": "펑위안 구",
      "name:zh": "豐原區",
      "nat_ref": "66000090",
      "boundary": "administrative",
      "name:hak": "Fûng-ngièn-khî",
      "name:nan": "Hong-goân-khu",
      "way_area": "0.00370017",
      "wikidata": "Q569604",
      "wikipedia": "zh:豐原區",
      "admin_level": "5"
    }
  },
  {
    "osm_id": -2958060,
    "boundary": "administrative",
    "admin_level": 5,
    "parents": "-2921154,-449220",
    "name": "Xinshe District",
    "local_name": "新社區",
    "name_en": "Xinshe District",
    "all_tags": {
      "name": "新社區",
      "name:en": "Xinshe District",
      "name:it": "Distretto di Xinshe",
      "name:ja": "新社区",
      "name:ko": "신서 구",
      "name:vi": "Tân Xã",
      "name:zh": "新社區",
      "nat_ref": "66000190",
      "boundary": "administrative",
      "name:hak": "Sîn-sa-khî",
      "name:nan": "Sin-siā-khu",
      "way_area": "0.00728833",
      "wikidata": "Q569814",
      "wikipedia": "zh:新社區",
      "admin_level": "5"
    }
  },
  {
    "osm_id": -2959709,
    "boundary": "administrative",
    "admin_level": 5,
    "parents": "-2921154,-449220",
    "name": "Dongshi District",
    "local_name": "東勢區",
    "name_en": "Dongshi District",
    "all_tags": {
      "name": "東勢區",
      "name:en": "Dongshi District",
      "name:it": "Distretto di Dongshi",
      "name:ja": "東勢区",
      "name:ko": "둥스 구",
      "name:vi": "Đông Thế",
      "name:zh": "東勢區",
      "nat_ref": "66000100",
      "boundary": "administrative",
      "name:hak": "Tûng-sṳ-khî",
      "name:nan": "Tang-sì-khu",
      "way_area": "0.00958502",
      "wikidata": "Q138820",
      "wikipedia": "zh:東勢區",
      "admin_level": "5"
    }
  },
  {
    "osm_id": -2959620,
    "boundary": "administrative",
    "admin_level": 5,
    "parents": "-2921154,-449220",
    "name": "Qingshui District",
    "local_name": "清水區",
    "name_en": "Qingshui District",
    "all_tags": {
      "name": "清水區",
      "name:en": "Qingshui District",
      "name:it": "Distretto di Qingshui",
      "name:ja": "清水区",
      "name:ko": "칭수이 구",
      "name:vi": "Thanh Thủy",
      "name:zh": "清水區",
      "nat_ref": "66000120",
      "boundary": "administrative",
      "name:hak": "Tshîn-súi-khî",
      "name:nan": "Chheng-chúi-khu",
      "way_area": "0.00675632",
      "wikidata": "Q569614",
      "wikipedia": "zh:清水區 (台灣)",
      "admin_level": "5"
    }
  },
  {
    "osm_id": -2960278,
    "boundary": "administrative",
    "admin_level": 5,
    "parents": "-2921154,-449220",
    "name": "Shengang District",
    "local_name": "神岡區",
    "name_en": "Shengang District",
    "all_tags": {
      "name": "神岡區",
      "name:en": "Shengang District",
      "name:it": "Distretto di Shengang",
      "name:ja": "神岡区",
      "name:ko": "선강 구",
      "name:vi": "Thần Cương",
      "name:zh": "神岡區",
      "nat_ref": "66000160",
      "boundary": "administrative",
      "name:hak": "Sṳ̀n-kông-khî",
      "name:nan": "Sin-kóng-khu",
      "way_area": "0.00324055",
      "wikidata": "Q569703",
      "wikipedia": "zh:神岡區",
      "admin_level": "5"
    }
  },
  {
    "osm_id": -2959680,
    "boundary": "administrative",
    "admin_level": 5,
    "parents": "-2921154,-449220",
    "name": "Waipu District",
    "local_name": "外埔區",
    "name_en": "Waipu District",
    "all_tags": {
      "name": "外埔區",
      "name:en": "Waipu District",
      "name:it": "Distretto di Waipu",
      "name:ja": "外埔区",
      "name:ko": "와이푸 구",
      "name:vi": "Ngoại Bộ",
      "name:zh": "外埔區",
      "nat_ref": "66000210",
      "boundary": "administrative",
      "name:hak": "Ngoi-phû-khî",
      "name:nan": "Goā-po͘-khu",
      "way_area": "0.00374045",
      "wikidata": "Q569760",
      "wikipedia": "zh:外埔區",
      "admin_level": "5"
    }
  },
  {
    "osm_id": -2959691,
    "boundary": "administrative",
    "admin_level": 5,
    "parents": "-2921154,-449220",
    "name": "Houli District",
    "local_name": "后里區",
    "name_en": "Houli District",
    "all_tags": {
      "name": "后里區",
      "name:en": "Houli District",
      "name:it": "Distretto di Houli",
      "name:ja": "后里区",
      "name:ko": "허우리 구",
      "name:pl": "Houli",
      "name:vi": "Hậu Lý",
      "name:zh": "后里區",
      "nat_ref": "66000150",
      "boundary": "administrative",
      "name:hak": "Heu-lî-hiông",
      "name:nan": "Aū-lí-khu",
      "way_area": "0.00508777",
      "wikidata": "Q569697",
      "wikipedia": "zh:后里區",
      "admin_level": "5"
    }
  },
  {
    "osm_id": -2959654,
    "boundary": "administrative",
    "admin_level": 5,
    "parents": "-2921154,-449220",
    "name": "Da'an District",
    "local_name": "大安區",
    "name_en": "Da'an District",
    "all_tags": {
      "name": "大安區",
      "name:en": "Da'an District",
      "name:it": "Distretto di Da'an",
      "name:ja": "大安区",
      "name:ko": "다안 구",
      "name:vi": "Đại An",
      "name:zh": "大安區",
      "nat_ref": "66000220",
      "boundary": "administrative",
      "name:hak": "Thai-ôn-khî",
      "name:nan": "Tāi-an-khu",
      "way_area": "0.00267373",
      "wikidata": "Q569647",
      "wikipedia": "zh:大安區 (臺中市)",
      "admin_level": "5"
    }
  },
  {
    "osm_id": -2921155,
    "boundary": "administrative",
    "admin_level": 6,
    "parents": "-3777248,-449220",
    "name": "Taitung County",
    "local_name": "臺東縣",
    "name_en": "Taitung County",
    "all_tags": {
      "name": "臺東縣",
      "name:ar": "مقاطعة تايتونغ",
      "name:cs": "Okres Tchaj-tung",
      "name:de": "Taitung",
      "name:en": "Taitung County",
      "name:es": "Condado de Taitung",
      "name:eu": "Taitung konderria",
      "name:fr": "Comté de Taitung",
      "name:id": "Kabupaten Taitung",
      "name:it": "Contea di Taitung",
      "name:ja": "台東県",
      "name:ko": "타이둥현",
      "name:lt": "Taidongo apskritis",
      "name:mn": "Тайдун",
      "name:nl": "Taitung",
      "name:pl": "Taidong",
      "name:pt": "Condado de Taitung",
      "name:ru": "Тайдун",
      "name:th": "ไถตง",
      "name:tr": "Taitung",
      "name:uk": "Повіт Тайдун",
      "name:ur": "تائیتونگ کاؤنٹی",
      "name:vi": "Đài Đông",
      "name:zh": "臺東縣",
      "nat_ref": "10014",
      "boundary": "administrative",
      "name:cdo": "Dài-dĕ̤ng",
      "name:ceb": "Taitung",
      "name:frr": "Taitung",
      "name:hak": "Thòi-tûng-yen",
      "name:nan": "Tâi-tang-koān",
      "name:szy": "pusung",
      "name:yue": "臺東縣",
      "way_area": "0.314378",
      "wikidata": "Q249904",
      "ISO3166-2": "TW-TTT",
      "wikipedia": "zh:臺東縣",
      "admin_level": "6",
      "name:nan-HJ": "臺東縣",
      "name:nan-TL": "Tâi-tang-kuān",
      "name:nan-POJ": "Tâi-tang-koān",
      "name:zh-Hans": "台东县",
      "name:zh-Hant": "臺東縣",
      "name:zh_pinyin": "Tɑ́idōng Xiɑ̀n"
    }
  },
  {
    "osm_id": -2497975,
    "boundary": "administrative",
    "admin_level": 6,
    "parents": "-3777248,-449220",
    "name": "Nantou County",
    "local_name": "南投縣",
    "name_en": "Nantou County",
    "all_tags": {
      "name": "南投縣",
      "place": "county",
      "name:ar": "مقاطعة نانتو",
      "name:cs": "Okres Nan-tchou",
      "name:de": "Landkreis Nantou",
      "name:en": "Nantou County",
      "name:es": "Condado de Nantou",
      "name:eu": "Nantou konderria",
      "name:fr": "Comté de Nantou",
      "name:id": "Kabupaten Nantou",
      "name:it": "Contea di Nantou",
      "name:ja": "南投県",
      "name:ko": "난터우현",
      "name:lt": "Nantou apskritis",
      "name:ml": "നാൻറ്റൗ കൗണ്ടി",
      "name:mn": "Наньтоу",
      "name:nl": "Nantou",
      "name:pl": "Nantou",
      "name:pt": "Condado de Nantou",
      "name:ru": "Наньтоу",
      "name:th": "หนานโถว",
      "name:tr": "Nantou",
      "name:ur": "نانتوو کاؤنٹی",
      "name:vi": "Nam Đầu",
      "name:zh": "南投縣",
      "nat_ref": "10008",
      "boundary": "administrative",
      "name:cdo": "Nàng-dàu",
      "name:ceb": "Nantou",
      "name:frr": "Nantou",
      "name:gan": "南投",
      "name:hak": "Nàm-thèu-yen",
      "name:nan": "Lâm-tâu-koān",
      "name:yue": "南投縣",
      "way_area": "0.363244",
      "wikidata": "Q82357",
      "ISO3166-2": "TW-NAN",
      "wikipedia": "zh:南投縣",
      "admin_level": "6",
      "name:nan-HJ": "南投縣",
      "name:nan-TL": "Lâm-tâu-kuān",
      "name:ja_kana": "なんとうけん",
      "name:nan-POJ": "Lâm-tâu-koān",
      "name:zh-Hans": "南投县",
      "name:zh-Hant": "南投縣",
      "name:zh_pinyin": "Nántóu Xiàn"
    }
  },
  {
    "osm_id": -2921156,
    "boundary": "administrative",
    "admin_level": 6,
    "parents": "-3777248,-449220",
    "name": "Hualien County",
    "local_name": "花蓮縣",
    "name_en": "Hualien County",
    "all_tags": {
      "name": "花蓮縣",
      "name:ar": "هوالين",
      "name:cs": "Okres Chua-lien",
      "name:de": "Landkreis Hualien",
      "name:en": "Hualien County",
      "name:es": "Condado de Hualien",
      "name:eu": "Hualien konderria",
      "name:fa": "هوالاین",
      "name:fr": "Comté de Hualien",
      "name:id": "Kabupaten Hualien",
      "name:it": "Contea di Hualien",
      "name:ja": "花蓮県",
      "name:ko": "화롄현",
      "name:lt": "Hualiano apskritis",
      "name:ml": "ഹുവാലിയെൻ കൗണ്ടി",
      "name:mn": "Хуалянь",
      "name:nl": "Hualien",
      "name:pl": "Hualian",
      "name:pt": "Condado de Hualien",
      "name:ru": "Хуалянь",
      "name:th": "เทศมณฑลฮวาเหลียน",
      "name:tr": "Hualien",
      "name:ur": "ہوالیئن کاؤنٹی",
      "name:vi": "Hoa Liên",
      "name:zh": "花蓮縣",
      "nat_ref": "10015",
      "alt_name": "洄瀾",
      "boundary": "administrative",
      "name:cdo": "Huă-lièng",
      "name:ceb": "Hualien",
      "name:frr": "Hualien",
      "name:hak": "Fâ-lièn-yen",
      "name:nan": "Hoa-liân-koān",
      "name:yue": "花蓮縣",
      "way_area": "0.407531",
      "wikidata": "Q249868",
      "ISO3166-2": "TW-HUA",
      "wikipedia": "zh:花蓮縣",
      "admin_level": "6",
      "alt_name:zh": "洄瀾",
      "name:nan-HJ": "花蓮縣",
      "name:nan-TL": "Hua-liân-kuān",
      "alt_name:nan": "Hôe-lân",
      "name:nan-POJ": "Hoa-liân-koān",
      "name:zh-Hans": "花莲县",
      "name:zh-Hant": "花蓮縣",
      "name:zh_pinyin": "Huɑ̄liɑ́n Xiɑ̀n",
      "alt_name:nan-HJ": "洄瀾",
      "alt_name:nan-TL": "Huê-lân",
      "alt_name:nan-POJ": "Hôe-lân"
    }
  },
  {
    "osm_id": -2921154,
    "boundary": "administrative",
    "admin_level": 4,
    "parents": "-449220",
    "name": "Taichung",
    "local_name": "臺中市",
    "name_en": "Taichung",
    "all_tags": {
      "name": "臺中市",
      "name:af": "Taichung",
      "name:ar": "تاي شانغ",
      "name:ce": "Тайчжун",
      "name:cs": "Tchaj-čung",
      "name:de": "Taichung",
      "name:en": "Taichung",
      "name:eo": "Tajĉung",
      "name:es": "Taichung",
      "name:fa": "تایچونگ",
      "name:fi": "Taichung",
      "name:fr": "Taichung",
      "name:ga": "Taichung",
      "name:he": "טאיג'ונג",
      "name:hi": "ताइचुंग",
      "name:id": "Kota Taichung",
      "name:it": "Taichung",
      "name:ja": "台中市",
      "name:ko": "타이중 시",
      "name:ky": "Тайчжун",
      "name:lt": "Taičungas",
      "name:lv": "Taidžuna",
      "name:mn": "Тайжун",
      "name:nl": "Taichung",
      "name:no": "Taichung",
      "name:pl": "Taizhong",
      "name:pt": "Taichung",
      "name:qu": "T'aychun",
      "name:ro": "Taichung",
      "name:ru": "Тайчжун",
      "name:sv": "Taichung",
      "name:th": "ไถจง",
      "name:tr": "Taichung",
      "name:ug": "Teyjong shehiri",
      "name:uk": "Тайчжун",
      "name:ur": "تائچونگ",
      "name:vi": "Đài Trung",
      "name:za": "Daizcungh",
      "name:zh": "臺中市",
      "nat_ref": "66",
      "boundary": "administrative",
      "name:ast": "Taichung",
      "name:cdo": "Dài-dṳ̆ng",
      "name:gan": "臺中市",
      "name:hak": "Thòi-chûng-sṳ",
      "name:nan": "Tâi-tiong-chhī",
      "name:sco": "Taichung",
      "name:szl": "Taizhong",
      "name:tay": "shangh",
      "name:war": "Taichung",
      "name:wuu": "臺中市",
      "name:yue": "臺中市",
      "way_area": "0.198165",
      "wikidata": "Q245023",
      "ISO3166-2": "TW-TXG",
      "wikipedia": "zh:臺中市",
      "admin_level": "4",
      "name:nan-HJ": "臺中市",
      "name:nan-TL": "Tâi-tiong-tshī",
      "name:nan-POJ": "Tâi-tiong-chhī",
      "name:zh-Hans": "台中市",
      "name:zh-Hant": "臺中市",
      "name:zh_pinyin": "Táizhōng Shì"
    }
  },
  {
    "osm_id": -2915592,
    "boundary": "administrative",
    "admin_level": 6,
    "parents": "-3777248,-449220",
    "name": "Miaoli County",
    "local_name": "苗栗縣",
    "name_en": "Miaoli County",
    "all_tags": {
      "name": "苗栗縣",
      "name:en": "Miaoli County",
      "name:fr": "Comté de Miaoli",
      "name:id": "Kabupaten Miaoli",
      "name:it": "Contea di Miaoli",
      "name:ja": "苗栗県",
      "name:ko": "먀오리 현",
      "name:pl": "Miaoli",
      "name:ru": "Мяоли",
      "name:th": "เหมียวลี่",
      "name:uk": "Повіт Мяолі",
      "name:vi": "Miêu Lật",
      "name:zh": "苗栗縣",
      "nat_ref": "10005",
      "boundary": "administrative",
      "name:cdo": "Mièu-lĭk",
      "name:ceb": "Miaoli",
      "name:hak": "Mèu-li̍t-yen",
      "name:nan": "Biâu-le̍k-koān",
      "name:yue": "苗栗縣",
      "way_area": "0.161323",
      "wikidata": "Q63706",
      "ISO3166-2": "TW-MIA",
      "wikipedia": "zh:苗栗縣",
      "admin_level": "6",
      "name:nan-HJ": "苗栗縣",
      "name:nan-TL": "Biâu-li̍k-kuān",
      "name:nan-POJ": "Biâu-le̍k-koān",
      "name:zh-Hans": "苗栗县",
      "name:zh-Hant": "苗栗縣",
      "name:zh_pinyin": "Miɑ́olÌ Xiɑ̀n"
    }
  },
  {
    "osm_id": -2849488,
    "boundary": "administrative",
    "admin_level": 6,
    "parents": "-3777248,-449220",
    "name": "Hsinchu",
    "local_name": "新竹市",
    "name_en": "Hsinchu",
    "all_tags": {
      "name": "新竹市",
      "name:ar": "سين شو",
      "name:bo": "ཞིག་ཀྲུའུ།",
      "name:cs": "Sin-ču",
      "name:de": "Hsinchu",
      "name:en": "Hsinchu",
      "name:eo": "Hsinĉu",
      "name:es": "Hsinchu",
      "name:fa": "سینچو",
      "name:fi": "Hsinchu",
      "name:fr": "Hsinchu",
      "name:he": "שינג'ו",
      "name:id": "Kota Hsinchu",
      "name:it": "Hsinchu",
      "name:ja": "新竹市",
      "name:kk": "Синьчжу",
      "name:ko": "신주시",
      "name:lt": "Sindžu",
      "name:mn": "Шиньжү",
      "name:nl": "Hsinchu",
      "name:no": "Hsinchu",
      "name:pl": "Xinzhu",
      "name:pt": "Hsinchu",
      "name:ru": "Синьчжу",
      "name:sv": "Hsinchu",
      "name:th": "นครซินจู๋",
      "name:tr": "Hsinchu",
      "name:uk": "Сіньчжу",
      "name:ur": "ہسینچو",
      "name:vi": "Tân Trúc",
      "name:za": "Sinhcuz",
      "name:zh": "新竹市",
      "nat_ref": "10018",
      "boundary": "administrative",
      "name:cdo": "Sĭng-dé̤ṳk",
      "name:ceb": "Hsinchu",
      "name:hak": "Sîn-chuk-sṳ",
      "name:nan": "Sin-tek-chhī",
      "name:sco": "Hsinchu",
      "name:syn": "shw",
      "name:war": "Hsinchu",
      "name:wuu": "新竹市",
      "name:yue": "新竹市",
      "way_area": "0.0095625",
      "wikidata": "Q249994",
      "ISO3166-2": "TW-HSZ",
      "wikipedia": "zh:新竹市",
      "admin_level": "6",
      "name:nan-HJ": "新竹市",
      "name:nan-TL": "Sin-tik-tshī",
      "name:nan-POJ": "Sin-tek-chhī",
      "name:zh-Hans": "新竹市",
      "name:zh-Hant": "新竹市",
      "name:zh_pinyin": "Xīnzhú ShÌ"
    }
  },
  {
    "osm_id": -2912613,
    "boundary": "administrative",
    "admin_level": 6,
    "parents": "-3777248,-449220",
    "name": "Hsinchu County",
    "local_name": "新竹縣",
    "name_en": "Hsinchu County",
    "all_tags": {
      "name": "新竹縣",
      "name:ar": "أقليم سين شو",
      "name:en": "Hsinchu County",
      "name:es": "Condado de Hsinchu",
      "name:fr": "Comté de Hsinchu",
      "name:id": "Kabupaten Hsinchu",
      "name:it": "Contea di Hsinchu",
      "name:ja": "新竹県",
      "name:ko": "신주 현",
      "name:ru": "Уезд Синьчжу",
      "name:th": "ซินจู๋",
      "name:vi": "Huyện Tân Trúc",
      "name:zh": "新竹縣",
      "nat_ref": "10004",
      "boundary": "administrative",
      "name:hak": "Sîn-chuk-yen",
      "name:nan": "Sin-tek-koān",
      "name:yue": "新竹縣",
      "way_area": "0.125524",
      "wikidata": "Q74054",
      "ISO3166-2": "TW-HSQ",
      "wikipedia": "zh:新竹縣",
      "admin_level": "6",
      "name:nan-HJ": "新竹縣",
      "name:nan-TL": "Sin-tik-kuān",
      "name:nan-POJ": "Sin-tek-koān",
      "name:zh-Hans": "新竹县",
      "name:zh-Hant": "新竹縣",
      "name:zh_pinyin": "Xīnzhú Xiɑ̀n"
    }
  },
  {
    "osm_id": -3425979,
    "boundary": "administrative",
    "admin_level": 5,
    "parents": "-2770986,-449220",
    "name": "Longtan District",
    "local_name": "龍潭區",
    "name_en": "Longtan District",
    "all_tags": {
      "name": "龍潭區",
      "name:en": "Longtan District",
      "name:ja": "龍潭区",
      "name:ko": "룽탄 구",
      "name:vi": "Long Đàm",
      "name:zh": "龍潭區",
      "nat_ref": "68000090",
      "boundary": "administrative",
      "name:hak": "Liùng-thâm-khî",
      "name:nan": "Liông-thâm-khu",
      "old_name": "龍潭鄉",
      "way_area": "0.00678208",
      "wikidata": "Q713346",
      "wikipedia": "zh:龍潭區 (台灣)",
      "admin_level": "5",
      "old_name:en": "Longtan Township"
    }
  },
  {
    "osm_id": -2770986,
    "boundary": "administrative",
    "admin_level": 4,
    "parents": "-449220",
    "name": "Taoyuan City",
    "local_name": "桃園市",
    "name_en": "Taoyuan City",
    "all_tags": {
      "name": "桃園市",
      "name:ar": "تاو يوان",
      "name:de": "Taoyuan",
      "name:en": "Taoyuan City",
      "name:es": "Taoyuan",
      "name:fr": "Taoyuan",
      "name:hu": "Taojüan megye",
      "name:id": "Kota Taoyuan",
      "name:it": "Taoyuan",
      "name:ja": "桃園市",
      "name:ko": "타오위안 시",
      "name:mn": "Таоюань",
      "name:ru": "Таоюань",
      "name:th": "เถา-ยฺเหวียน",
      "name:zh": "桃園市",
      "nat_ref": "68",
      "boundary": "administrative",
      "name:cdo": "Tò̤-huòng",
      "name:ceb": "Taoyuan",
      "name:hak": "Thò-yèn-sṳ",
      "name:nan": "Thô-hn̂g-chhī",
      "name:wuu": "桃園市",
      "name:yue": "桃園市",
      "old_name": "桃園縣",
      "way_area": "0.107773",
      "wikidata": "Q115256",
      "ISO3166-2": "TW-TAO",
      "wikipedia": "zh:桃園市",
      "admin_level": "4",
      "name:nan-HJ": "桃園市",
      "name:nan-TL": "Thô-hn̂g-tshī",
      "old_name:en": "Taoyuan County",
      "old_name:zh": "桃園縣",
      "name:nan-POJ": "Thô-hn̂g-chhī",
      "name:zh-Hans": "桃园市",
      "name:zh-Hant": "桃園市",
      "old_name:nan": "Thô-hn̂g-koān",
      "name:zh_pinyin": "Táoyuán",
      "old_name:nan-HJ": "桃園縣",
      "old_name:nan-TL": "Thô-hn̂g-kuān",
      "old_name:nan-POJ": "Thô-hn̂g-koān"
    }
  },
  {
    "osm_id": -3507526,
    "boundary": "administrative",
    "admin_level": 5,
    "parents": "-2770986,-449220",
    "name": "Yangmei District",
    "local_name": "楊梅區",
    "name_en": "Yangmei District",
    "all_tags": {
      "name": "楊梅區",
      "name:de": "Yangmei",
      "name:en": "Yangmei District",
      "name:it": "Distretto di Yangmei",
      "name:ja": "楊梅区",
      "name:ko": "양메이 구",
      "name:pl": "Yangmei",
      "name:ru": "Янмэй",
      "name:vi": "Dương Mai",
      "name:zh": "楊梅區",
      "nat_ref": "68000040",
      "boundary": "administrative",
      "name:hak": "Yông-muì-khî",
      "name:nan": "Iûⁿ-mûi-khu",
      "old_name": "楊梅市",
      "way_area": "0.00801634",
      "wikidata": "Q211505",
      "wikipedia": "zh:楊梅區",
      "admin_level": "5",
      "old_name:en": "Yangmei City"
    }
  },
  {
    "osm_id": -3506753,
    "boundary": "administrative",
    "admin_level": 5,
    "parents": "-2770986,-449220",
    "name": "Pingzhen District",
    "local_name": "平鎮區",
    "name_en": "Pingzhen District",
    "all_tags": {
      "name": "平鎮區",
      "name:de": "Pingzhen",
      "name:en": "Pingzhen District",
      "name:it": "Distretto di Pingzhen",
      "name:ja": "平鎮区",
      "name:ko": "핑전 구",
      "name:pl": "Pingzhen",
      "name:ru": "Пинчжэнь",
      "name:vi": "Bình Trấn",
      "name:zh": "平鎮區",
      "nat_ref": "68000100",
      "boundary": "administrative",
      "name:hak": "Phìn-tsṳ́n-khî",
      "name:nan": "Pêng-tìn-khu",
      "old_name": "平鎮市",
      "way_area": "0.00388741",
      "wikidata": "Q713336",
      "wikipedia": "zh:平鎮區",
      "admin_level": "5",
      "old_name:en": "Pingzhen City"
    }
  },
  {
    "osm_id": -3422446,
    "boundary": "administrative",
    "admin_level": 5,
    "parents": "-2770986,-449220",
    "name": "Fuxing District",
    "local_name": "復興區",
    "name_en": "Fuxing District",
    "all_tags": {
      "name": "復興區",
      "name:de": "Fuxing",
      "name:en": "Fuxing District",
      "name:ja": "復興区",
      "name:ko": "푸싱 구",
      "name:vi": "Phúc Hưng",
      "name:zh": "復興區",
      "nat_ref": "68000130",
      "boundary": "administrative",
      "name:hak": "Fu̍k-hîn-khî",
      "name:nan": "Ho̍k-heng-khu",
      "name:tay": "Pyasan",
      "old_name": "復興鄉",
      "way_area": "0.0300554",
      "wikidata": "Q718377",
      "wikipedia": "zh:復興區 (台灣)",
      "admin_level": "5"
    }
  },
  {
    "osm_id": -2785080,
    "boundary": "administrative",
    "admin_level": 5,
    "parents": "-1527220,-449220",
    "name": "Wulai District",
    "local_name": "烏來區",
    "name_en": "Wulai District",
    "all_tags": {
      "name": "烏來區",
      "name:de": "Wulai",
      "name:en": "Wulai District",
      "name:fr": "Wulai",
      "name:id": "Distrik Wulai",
      "name:ja": "烏来区",
      "name:ko": "우라이 구",
      "name:vi": "Ô Lai",
      "name:zh": "烏來區",
      "nat_ref": "65000290",
      "boundary": "administrative",
      "name:hak": "Vû-lòi-khî",
      "name:nan": "U-lai-khu",
      "name:tay": "Ulay",
      "way_area": "0.0297836",
      "wikidata": "Q32728",
      "wikipedia": "zh:烏來區",
      "admin_level": "5"
    }
  },
  {
    "osm_id": -2539146,
    "boundary": "administrative",
    "admin_level": 5,
    "parents": "-2770986,-449220",
    "name": "Bade District",
    "local_name": "八德區",
    "name_en": "Bade District",
    "all_tags": {
      "name": "八德區",
      "name:en": "Bade District",
      "name:it": "Distretto di Bade",
      "name:ja": "八徳区",
      "name:ko": "바더 구",
      "name:vi": "Bát Đức",
      "name:zh": "八德區",
      "nat_ref": "68000080",
      "boundary": "administrative",
      "name:hak": "Pat-tet-khî",
      "name:nan": "Pat-tek-khu",
      "old_name": "八德市;八塊厝;八隻屋",
      "way_area": "0.00302192",
      "wikidata": "Q74052",
      "wikipedia": "zh:八德區",
      "admin_level": "5",
      "name:nan-HJ": "八德區",
      "name:nan-TL": "Pat-tik-khu",
      "old_name:en": "Bade City",
      "old_name:zh": "八德市;八塊厝;八隻屋",
      "name:nan-POJ": "Pat-tek-khu",
      "old_name:hak-HJ": "八隻屋",
      "old_name:nan-HJ": "八塊厝"
    }
  },
  {
    "osm_id": -2878930,
    "boundary": "administrative",
    "admin_level": 5,
    "parents": "-1527220,-449220",
    "name": "Yingge District",
    "local_name": "鶯歌區",
    "name_en": "Yingge District",
    "all_tags": {
      "name": "鶯歌區",
      "name:de": "Yingge",
      "name:en": "Yingge District",
      "name:es": "Distrito de Yingge",
      "name:fr": "Yingge",
      "name:it": "Distretto di Yingge",
      "name:ja": "鶯歌区",
      "name:ko": "잉거 구",
      "name:vi": "Oanh Ca",
      "name:zh": "鶯歌區",
      "nat_ref": "65000050",
      "boundary": "administrative",
      "name:hak": "Yîn-kô-khî",
      "name:nan": "Eng-ko-khu",
      "way_area": "0.00195779",
      "wikidata": "Q516297",
      "wikipedia": "zh:鶯歌區",
      "admin_level": "5"
    }
  },
  {
    "osm_id": -3507525,
    "boundary": "administrative",
    "admin_level": 5,
    "parents": "-2770986,-449220",
    "name": "Xinwu District",
    "local_name": "新屋區",
    "name_en": "Xinwu District",
    "all_tags": {
      "name": "新屋區",
      "name:en": "Xinwu District",
      "name:it": "Distretto di Xinwu",
      "name:ja": "新屋区",
      "name:ko": "신우 구",
      "name:vi": "Tân Ốc",
      "name:zh": "新屋區",
      "nat_ref": "8090728",
      "boundary": "administrative",
      "name:hak": "Sîn-vuk-khî",
      "name:nan": "Sin-ok-khu",
      "way_area": "0.00768448",
      "wikidata": "Q715876",
      "wikipedia": "zh:新屋區",
      "admin_level": "5"
    }
  },
  {
    "osm_id": -1526714,
    "boundary": "administrative",
    "admin_level": 5,
    "parents": "-2770986,-449220",
    "name": "Zhongli District",
    "local_name": "中壢區",
    "name_en": "Zhongli District",
    "all_tags": {
      "name": "中壢區",
      "name:ar": "زونغلي",
      "name:de": "Zhongli",
      "name:en": "Zhongli District",
      "name:fr": "District de Zhongli",
      "name:it": "Distretto di Zhongli",
      "name:ja": "中壢区",
      "name:ko": "중리 구",
      "name:pl": "Zhongli",
      "name:ru": "Чжунли",
      "name:zh": "中壢區",
      "nat_ref": "68000020",
      "boundary": "administrative",
      "name:ceb": "Zhongli",
      "name:hak": "Chûng-la̍k-khî",
      "name:nan": "Tiong-le̍k-khu",
      "name:yue": "中壢區",
      "old_name": "中壢市",
      "way_area": "0.00678397",
      "wikidata": "Q172146",
      "wikipedia": "zh:中壢區",
      "admin_level": "5",
      "old_name:en": "Zhongli City"
    }
  },
  {
    "osm_id": -2701538,
    "boundary": "administrative",
    "admin_level": 5,
    "parents": "-2770986,-449220",
    "name": "Dayuan District",
    "local_name": "大園區",
    "name_en": "Dayuan District",
    "all_tags": {
      "name": "大園區",
      "name:de": "Dayuan",
      "name:en": "Dayuan District",
      "name:it": "Distretto di Dayuan",
      "name:ja": "大園区",
      "name:ko": "다위안 구",
      "name:vi": "Đại Viê",
      "name:zh": "大園區",
      "nat_ref": "8090728",
      "boundary": "administrative",
      "name:hak": "Thai-yèn",
      "name:nan": "Toā-hn̂g-khu",
      "name:yue": "大園區",
      "old_name": "大園鄉",
      "way_area": "0.00780919",
      "wikidata": "Q718384",
      "wikipedia": "zh:大園區",
      "admin_level": "5",
      "old_name:en": "Dayuan Township"
    }
  },
  {
    "osm_id": -2665196,
    "boundary": "administrative",
    "admin_level": 5,
    "parents": "-2770986,-449220",
    "name": "Taoyuan District",
    "local_name": "桃園區",
    "name_en": "Taoyuan District",
    "all_tags": {
      "ref": "6800100",
      "name": "桃園區",
      "name:de": "Taoyuan",
      "name:en": "Taoyuan District",
      "name:fr": "District de Taoyuan",
      "name:it": "Taoyuan",
      "name:ja": "桃園区",
      "name:ko": "타오위안 구",
      "name:vi": "Đào Viên",
      "name:zh": "桃園區",
      "nat_ref": "8090728",
      "boundary": "administrative",
      "name:hak": "Tò-yèn-khî",
      "name:nan": "Thô-hn̂g-khu",
      "name:yue": "桃園區",
      "old_name": "桃園市",
      "way_area": "0.00307813",
      "wikidata": "Q715975",
      "wikipedia": "zh:桃園區",
      "admin_level": "5",
      "name:nan-HJ": "桃園區",
      "name:nan-TL": "Thô-hn̂g-khu",
      "old_name:en": "Taoyuan City",
      "old_name:zh": "桃園市",
      "postal_code": "330",
      "name:nan-POJ": "Thô-hn̂g-khu",
      "name:zh-Hans": "桃园区",
      "name:zh-Hant": "桃園區",
      "wikipedia:zh": "桃園區",
      "old_name:zh_pinyin": "Táoyuán Shì"
    }
  },
  {
    "osm_id": -2665195,
    "boundary": "administrative",
    "admin_level": 5,
    "parents": "-2770986,-449220",
    "name": "Guishan District",
    "local_name": "龜山區",
    "name_en": "Guishan District",
    "all_tags": {
      "name": "龜山區",
      "name:de": "Guishan",
      "name:en": "Guishan District",
      "name:it": "Distretto di Guishan",
      "name:ja": "亀山区",
      "name:ko": "구이산 구",
      "name:zh": "龜山區",
      "nat_ref": "68000070",
      "boundary": "administrative",
      "name:hak": "Kuî-sân-khî",
      "name:nan": "Ku-soaⁿ-khu",
      "old_name": "龜山鄉",
      "way_area": "0.0063864",
      "wikidata": "Q713314",
      "wikipedia": "zh:龜山區",
      "admin_level": "5",
      "old_name:en": "Gueishan Township",
      "postal_code": "333"
    }
  },
  {
    "osm_id": -2790384,
    "boundary": "administrative",
    "admin_level": 5,
    "parents": "-1527220,-449220",
    "name": "Shulin District",
    "local_name": "樹林區",
    "name_en": "Shulin District",
    "all_tags": {
      "name": "樹林區",
      "name:de": "Shulin",
      "name:en": "Shulin District",
      "name:fr": "Shulin",
      "name:it": "Distretto di Shulin",
      "name:ja": "樹林区",
      "name:ko": "수린 구",
      "name:vi": "Thụ Lâm",
      "name:zh": "樹林區",
      "nat_ref": "65000070",
      "boundary": "administrative",
      "name:hak": "Su-nà-khî",
      "name:nan": "Chhiū-nâ-khu",
      "way_area": "0.00284971",
      "wikidata": "Q570493",
      "wikipedia": "zh:樹林區",
      "admin_level": "5",
      "name:zh-Hant": "樹林區"
    }
  },
  {
    "osm_id": -2878927,
    "boundary": "administrative",
    "admin_level": 5,
    "parents": "-1527220,-449220",
    "name": "Xinzhuang District",
    "local_name": "新莊區",
    "name_en": "Xinzhuang District",
    "all_tags": {
      "name": "新莊區",
      "name:de": "Xinzhuang",
      "name:en": "Xinzhuang District",
      "name:fr": "Hsinchuang",
      "name:it": "Distretto di Xinzhuang",
      "name:ja": "新荘区",
      "name:ko": "신좡 구",
      "name:vi": "Tân Trang",
      "name:zh": "新莊區",
      "nat_ref": "65000050",
      "boundary": "administrative",
      "name:hak": "Sîn-chông-khî",
      "name:lzh": "新莊區",
      "name:nan": "Sin-chng-khu",
      "way_area": "0.00185129",
      "wikidata": "Q373768",
      "wikipedia": "zh:新莊區",
      "admin_level": "5",
      "name:nan-HJ": "新莊區",
      "name:nan-TL": "Sin-tsng-khu",
      "name:nan-POJ": "Sin-chng-khu",
      "name:zh-Hant": "新莊區"
    }
  },
  {
    "osm_id": -2548289,
    "boundary": "administrative",
    "admin_level": 5,
    "parents": "-2770986,-449220",
    "name": "Luzhu District",
    "local_name": "蘆竹區",
    "name_en": "Luzhu District",
    "all_tags": {
      "name": "蘆竹區",
      "name:de": "Luzhu",
      "name:en": "Luzhu District",
      "name:it": "Distretto di Luzhu",
      "name:ja": "蘆竹区",
      "name:ko": "루주 구",
      "name:vi": "Lô Trúc",
      "name:zh": "蘆竹區",
      "nat_ref": "68000050",
      "boundary": "administrative",
      "name:hak": "Lù-tsuk-khî",
      "name:nan": "Lô͘-tek-khu",
      "old_name": "蘆竹市",
      "way_area": "0.00670467",
      "wikidata": "Q713367",
      "wikipedia": "zh:蘆竹區",
      "admin_level": "5",
      "old_name:en": "Luzhu City",
      "postal_code": "338"
    }
  },
  {
    "osm_id": -2878928,
    "boundary": "administrative",
    "admin_level": 5,
    "parents": "-1527220,-449220",
    "name": "Linkou District",
    "local_name": "林口區",
    "name_en": "Linkou District",
    "all_tags": {
      "name": "林口區",
      "name:de": "Linkou",
      "name:en": "Linkou District",
      "name:fr": "Linkou",
      "name:it": "Distretto di Linkou",
      "name:ja": "林口区",
      "name:ko": "린커우 구",
      "name:vi": "Lâm Khẩu",
      "name:zh": "林口區",
      "nat_ref": "65000170",
      "boundary": "administrative",
      "name:hak": "Nà-khiéu-khî",
      "name:nan": "Nâ-kháu-khu",
      "way_area": "0.00483311",
      "wikidata": "Q570112",
      "wikipedia": "zh:林口區",
      "admin_level": "5",
      "name:nan-HJ": "林口區",
      "name:nan-TL": "Nâ-kháu-khu",
      "name:nan-POJ": "Nâ-kháu-khu"
    }
  },
  {
    "osm_id": -2878929,
    "boundary": "administrative",
    "admin_level": 5,
    "parents": "-1527220,-449220",
    "name": "Taishan District",
    "local_name": "泰山區",
    "name_en": "Taishan District",
    "all_tags": {
      "name": "泰山區",
      "name:de": "Taishan",
      "name:en": "Taishan District",
      "name:fr": "Taishan",
      "name:it": "Distretto di Taishan",
      "name:ja": "泰山区",
      "name:ko": "타이산 구",
      "name:vi": "Thái Sơn",
      "name:zh": "泰山區",
      "nat_ref": "65000160",
      "boundary": "administrative",
      "name:hak": "Thai-sân-khî",
      "name:nan": "Thài-san-khu",
      "name:yue": "泰山區",
      "way_area": "0.00161614",
      "wikidata": "Q570501",
      "wikipedia": "zh:泰山區 (台灣)",
      "admin_level": "5",
      "name:nan-HJ": "泰山區",
      "name:nan-TL": "Thài-san-khu",
      "name:nan-POJ": "Thài-san-khu"
    }
  },
  {
    "osm_id": -2878926,
    "boundary": "administrative",
    "admin_level": 5,
    "parents": "-1527220,-449220",
    "name": "Bali District",
    "local_name": "八里區",
    "name_en": "Bali District",
    "all_tags": {
      "name": "八里區",
      "name:de": "Bali",
      "name:en": "Bali District",
      "name:fr": "Bali",
      "name:it": "Distretto di Bali",
      "name:ja": "八里区",
      "name:ko": "바리 구",
      "name:vi": "Bát Lý",
      "name:zh": "八里區",
      "nat_ref": "65000230",
      "boundary": "administrative",
      "name:hak": "Pat-lî-khî",
      "name:nan": "Pat-lí-khu",
      "way_area": "0.00432334",
      "wikidata": "Q570079",
      "wikipedia": "zh:八里區",
      "admin_level": "5",
      "name:nan-HJ": "八里區",
      "name:nan-TL": "Pat-lí-khu",
      "name:nan-POJ": "Pat-lí-khu"
    }
  },
  {
    "osm_id": -2878925,
    "boundary": "administrative",
    "admin_level": 5,
    "parents": "-1527220,-449220",
    "name": "Wugu District",
    "local_name": "五股區",
    "name_en": "Wugu District",
    "all_tags": {
      "name": "五股區",
      "name:de": "Wugu",
      "name:en": "Wugu District",
      "name:fr": "Wugu",
      "name:it": "Distretto di Wugu",
      "name:ja": "五股区",
      "name:ko": "우구 구",
      "name:vi": "Ngũ Cổ",
      "name:zh": "五股區",
      "nat_ref": "65000150",
      "boundary": "administrative",
      "name:hak": "Ńg-kú-khî",
      "name:nan": "Gō͘-kó͘-khu",
      "way_area": "0.00307092",
      "wikidata": "Q570588",
      "wikipedia": "zh:五股區",
      "admin_level": "5",
      "name:nan-HJ": "五股區",
      "name:nan-TL": "Gōo-kóo-khu",
      "name:nan-POJ": "Gō͘-kó͘-khu"
    }
  },
  {
    "osm_id": -2881105,
    "boundary": "administrative",
    "admin_level": 5,
    "parents": "-1293250,-449220",
    "name": "Wenshan District",
    "local_name": "文山區",
    "name_en": "Wenshan District",
    "all_tags": {
      "name": "文山區",
      "name:de": "Wenshan",
      "name:en": "Wenshan District",
      "name:fr": "District de Wenshan",
      "name:ja": "文山区",
      "name:ko": "원산구",
      "name:vi": "Văn Sơn",
      "name:zh": "文山區",
      "nat_ref": "63000080",
      "boundary": "administrative",
      "name:hak": "Vùn-sân-khî",
      "name:nan": "Bûn-san-khu",
      "name:yue": "文山區",
      "way_area": "0.00279314",
      "wikidata": "Q271143",
      "wikipedia": "zh:文山區",
      "admin_level": "5",
      "name:nan-HJ": "文山區",
      "name:nan-TL": "Bûn-san-khu",
      "name:nan-POJ": "Bûn-san-khu",
      "name:zh-Hans": "文山区",
      "name:zh-Hant": "文山區",
      "name:zh_pinyin": "Wénshān Qū"
    }
  },
  {
    "osm_id": -2881028,
    "boundary": "administrative",
    "admin_level": 5,
    "parents": "-1293250,-449220",
    "name": "Nangang District",
    "local_name": "南港區",
    "name_en": "Nangang District",
    "all_tags": {
      "name": "南港區",
      "name:de": "Nangang",
      "name:en": "Nangang District",
      "name:fr": "District de Nangang",
      "name:id": "Distrik Nangang",
      "name:it": "Distretto di Nangang",
      "name:ja": "南港区",
      "name:ko": "난강구",
      "name:vi": "Nam Cảng",
      "name:zh": "南港區",
      "nat_ref": "63000090",
      "boundary": "administrative",
      "name:hak": "Nàm-kóng-khî",
      "name:nan": "Lâm-káng-khu",
      "name:yue": "南港區",
      "way_area": "0.00196705",
      "wikidata": "Q271073",
      "wikipedia": "zh:南港區",
      "admin_level": "5",
      "name:nan-HJ": "南港區",
      "name:nan-TL": "Lâm-káng-khu",
      "name:nan-POJ": "Lâm-káng-khu"
    }
  },
  {
    "osm_id": -1293250,
    "boundary": "administrative",
    "admin_level": 4,
    "parents": "-449220",
    "name": "Taipei",
    "local_name": "臺北市",
    "name_en": "Taipei",
    "all_tags": {
      "name": "臺北市",
      "capital": "yes",
      "name:af": "Taipei",
      "name:am": "ታይፔ",
      "name:ar": "تايبيه",
      "name:az": "Taybey",
      "name:be": "Тайбэй",
      "name:bg": "Тайпе",
      "name:bn": "তাইপে",
      "name:bo": "ཐའེ་པེ",
      "name:br": "Taipei",
      "name:bs": "Taipei",
      "name:ca": "Taipei",
      "name:ce": "Тайбэй",
      "name:cs": "Tchaj-pej",
      "name:cy": "Taipei",
      "name:da": "Taipei",
      "name:de": "Taipeh",
      "name:el": "Ταϊπέι",
      "name:en": "Taipei",
      "name:eo": "Tajpeo",
      "name:es": "Taipéi",
      "name:et": "Taipei",
      "name:eu": "Taipei",
      "name:fa": "تایپه",
      "name:fi": "Taipei",
      "name:fj": "Taipeh",
      "name:fo": "Taipei",
      "name:fr": "Taipei",
      "name:fy": "Taipei",
      "name:ga": "Taipei",
      "name:gd": "Taipei",
      "name:gl": "Taipei",
      "name:ha": "Taipei",
      "name:he": "טאיפיי",
      "name:hi": "ताइपे",
      "name:hr": "Taipei",
      "name:ht": "Taypè",
      "name:hu": "Tajpej",
      "name:hy": "Թայբեյ",
      "name:ia": "Taipei",
      "name:id": "Taipei",
      "name:ie": "Taipei",
      "name:io": "Taipei",
      "name:is": "Taípei",
      "name:it": "Taipei",
      "name:ja": "台北市",
      "name:jv": "Taipei",
      "name:ka": "ტაიბეი",
      "name:kk": "Тайбэй",
      "name:kn": "ತೈಪೆ",
      "name:ko": "타이베이시",
      "name:ky": "Тайбэй",
      "name:la": "Taipeia",
      "name:lb": "Taipeh",
      "name:lt": "Taipėjus",
      "name:lv": "Taipeja",
      "name:mg": "Taipei",
      "name:mk": "Тајпеј",
      "name:ml": "തായ്‌പെയ്",
      "name:mn": "Тайбэй",
      "name:mr": "ताइपेइ",
      "name:ms": "Taipei",
      "name:my": "ထိုင်ပေမြို့",
      "name:ne": "ताइपेइ",
      "name:nl": "Taipei",
      "name:nn": "Taipei",
      "name:no": "Taipei",
      "name:oc": "Taipei",
      "name:or": "ତାଇପେ",
      "name:os": "Тайбэй",
      "name:pa": "ਤਾਈਪੇ",
      "name:pl": "Tajpej",
      "name:pt": "Taipé",
      "name:qu": "T'aypik",
      "name:ro": "Taipei",
      "name:ru": "Тайбэй",
      "name:rw": "Tayipeyi",
      "name:sh": "Taipei",
      "name:si": "තායිපේ",
      "name:sk": "Tchaj-pej",
      "name:sl": "Tajpej",
      "name:sn": "Taipei",
      "name:so": "Taipei",
      "name:sq": "Taipei",
      "name:sr": "Тајпеј",
      "name:sv": "Taipei",
      "name:sw": "Taipei",
      "name:ta": "தாய்பெய்",
      "name:tg": "Тайпей",
      "name:th": "ไทเป",
      "name:tl": "Taipei",
      "name:tr": "Taipei",
      "name:tt": "Taybey",
      "name:ug": "تەيبېي شەھىرى",
      "name:uk": "Тайбей",
      "name:ur": "تائپے",
      "name:uz": "Taypey",
      "name:vi": "Đài Bắc",
      "name:yo": "Taipei",
      "name:za": "Daizbaek",
      "name:zh": "臺北市",
      "nat_ref": "63",
      "alt_name": "台北市",
      "boundary": "administrative",
      "name:ace": "Taipéi",
      "name:als": "Taipeh",
      "name:arz": "تايبيه",
      "name:ast": "Taipéi",
      "name:azb": "تایپه",
      "name:bcl": "Taipei",
      "name:bxr": "Тайбэй",
      "name:cdo": "Dài-báe̤k",
      "name:ceb": "Taipei",
      "name:ckb": "تایپێ",
      "name:diq": "Taipei",
      "name:frp": "Tayipèh",
      "name:gan": "臺北市",
      "name:hak": "Thòi-pet-sṳ",
      "name:hif": "Taipei",
      "name:hyw": "Թայբէյ",
      "name:ilo": "Taipei",
      "name:jam": "Taipei",
      "name:lad": "Taipei",
      "name:lij": "Taipei",
      "name:lmo": "Taipei",
      "name:nan": "Tâi-pak-chhī",
      "name:new": "ताइपेइ",
      "name:nov": "Taipei",
      "name:pam": "Taipei",
      "name:pap": "Taipei",
      "name:pms": "Taipei",
      "name:pnb": "ٹاۓپی",
      "name:sah": "Тайпэй",
      "name:scn": "Taipei",
      "name:sco": "Taipei",
      "name:szl": "Tajpej",
      "name:tpi": "Taipei",
      "name:vec": "Taipei",
      "name:vep": "Taibei",
      "name:war": "Taipei",
      "name:wuu": "臺北市",
      "name:yue": "臺北市",
      "name:zea": "Taipei",
      "way_area": "0.0241551",
      "wikidata": "Q1867",
      "ISO3166-2": "TW-TPE",
      "land_area": "administrative",
      "wikipedia": "zh:臺北市",
      "population": "2635286",
      "admin_level": "4",
      "name:nan-HJ": "臺北市",
      "name:nan-TL": "Tâi-pak-tshī",
      "name:nan-POJ": "Tâi-pak-chhī",
      "name:zh-Hans": "台北市",
      "name:zh-Hant": "臺北市",
      "is_in:country": "Taiwan",
      "name:be-x-old": "Тайбэй",
      "name:zh_pinyin": "Tɑ́iběi Shì",
      "is_in:continent": "Asia",
      "is_in:iso_3166_2": "TW-TPE",
      "is_in:country_code": "TW"
    }
  },
  {
    "osm_id": -1296139,
    "boundary": "administrative",
    "admin_level": 5,
    "parents": "-1527220,-449220",
    "name": "Tamsui District",
    "local_name": "淡水區",
    "name_en": "Tamsui District",
    "all_tags": {
      "name": "淡水區",
      "name:de": "Tamsui",
      "name:en": "Tamsui District",
      "name:fr": "Tamsui",
      "name:it": "Distretto di Tamsui",
      "name:ja": "淡水区",
      "name:ko": "단수이 구",
      "name:vi": "Đạm Thủy",
      "name:zh": "淡水區",
      "nat_ref": "65000100",
      "boundary": "administrative",
      "name:hak": "Thâm-súi",
      "name:nan": "Tām-chúi-khu",
      "name:yue": "淡水",
      "way_area": "0.00653495",
      "wikidata": "Q570509",
      "wikipedia": "zh:淡水區",
      "admin_level": "5"
    }
  },
  {
    "osm_id": -1296143,
    "boundary": "administrative",
    "admin_level": 5,
    "parents": "-1527220,-449220",
    "name": "Shimen District",
    "local_name": "石門區",
    "name_en": "Shimen District",
    "all_tags": {
      "name": "石門區",
      "name:de": "Shimen",
      "name:en": "Shimen District",
      "name:fr": "Shimen",
      "name:it": "Distretto di Shimen",
      "name:ja": "石門区",
      "name:ko": "스먼 구",
      "name:vi": "Thạch Môn",
      "name:zh": "石門區",
      "nat_ref": "65000220",
      "boundary": "administrative",
      "name:hak": "Sa̍k-mùn-khî",
      "name:nan": "Chio̍h-mn̂g-khu",
      "name:yue": "石門區",
      "way_area": "0.00465112",
      "wikidata": "Q570387",
      "land_area": "administrative",
      "wikipedia": "zh:石門區",
      "admin_level": "5"
    }
  },
  {
    "osm_id": -2912630,
    "boundary": "administrative",
    "admin_level": 6,
    "parents": "-3777248,-449220",
    "name": "Yilan County",
    "local_name": "宜蘭縣",
    "name_en": "Yilan County",
    "all_tags": {
      "name": "宜蘭縣",
      "name:en": "Yilan County",
      "name:fr": "Comté de Yilan",
      "name:ja": "宜蘭県",
      "name:ko": "이란 현",
      "name:ru": "Уезд Илань",
      "name:th": "อี๋หลาน",
      "name:vi": "Huyện Nghi Lan",
      "name:zh": "宜蘭縣",
      "nat_ref": "10002",
      "boundary": "administrative",
      "name:nan": "Gî-lân-koān",
      "way_area": "0.195452",
      "wikidata": "Q237258",
      "ISO3166-2": "TW-ILA",
      "wikipedia": "zh:宜蘭縣",
      "admin_level": "6",
      "name:nan-HJ": "宜蘭縣",
      "name:nan-TL": "Gî-lân-kuān",
      "name:nan-POJ": "Gî-lân-koān",
      "name:zh-Hans": "宜兰县",
      "name:zh-Hant": "宜蘭縣",
      "name:zh_pinyin": "Yílán Xiàn"
    }
  },
  {
    "osm_id": -2922120,
    "boundary": "administrative",
    "admin_level": 5,
    "parents": "-1527220,-449220",
    "name": "Pinglin District",
    "local_name": "坪林區",
    "name_en": "Pinglin District",
    "all_tags": {
      "name": "坪林區",
      "name:de": "Pinglin",
      "name:en": "Pinglin District",
      "name:fr": "Pinglin",
      "name:it": "Distretto di Pinglin",
      "name:ja": "坪林区",
      "name:ko": "핑린 구",
      "name:vi": "Bình Lâm",
      "name:zh": "坪林區",
      "nat_ref": "65000200",
      "boundary": "administrative",
      "name:hak": "Phiâng-lìm-khî",
      "name:nan": "Pêⁿ-nâ-khu",
      "way_area": "0.0150361",
      "wikidata": "Q570245",
      "wikipedia": "zh:坪林區",
      "admin_level": "5"
    }
  },
  {
    "osm_id": -1298306,
    "boundary": "administrative",
    "admin_level": 5,
    "parents": "-1527220,-449220",
    "name": "Shiding District",
    "local_name": "石碇區",
    "name_en": "Shiding District",
    "all_tags": {
      "name": "石碇區",
      "name:de": "Shiding",
      "name:en": "Shiding District",
      "name:fr": "Shiding",
      "name:it": "Distretto di Shiding",
      "name:ja": "石碇区",
      "name:ko": "스딩 구",
      "name:vi": "Thạch Đĩnh",
      "name:zh": "石碇區",
      "nat_ref": "65000190",
      "boundary": "administrative",
      "name:hak": "Sa̍k-tàng-khî",
      "name:nan": "Chio̍h-tēng-khu",
      "way_area": "0.0126783",
      "wikidata": "Q570382",
      "wikipedia": "zh:石碇區",
      "admin_level": "5"
    }
  },
  {
    "osm_id": -1527220,
    "boundary": "administrative",
    "admin_level": 4,
    "parents": "-449220",
    "name": "New Taipei",
    "local_name": "新北市",
    "name_en": "New Taipei",
    "all_tags": {
      "name": "新北市",
      "name:ar": "تايبيه الجديدة",
      "name:de": "Neu-Taipeh",
      "name:en": "New Taipei",
      "name:es": "Nuevo Taipéi",
      "name:fr": "Nouveau Taipei",
      "name:id": "Kota Taipei Baru",
      "name:it": "Nuova Taipei",
      "name:ja": "新北市",
      "name:ko": "신베이 시",
      "name:ru": "Новый Тайбэй",
      "name:th": "ซินเป่ย์",
      "name:vi": "Tân Bắc",
      "name:zh": "新北市",
      "nat_ref": "65000010",
      "boundary": "administrative",
      "name:cdo": "Sĭng-báe̤k",
      "name:ceb": "Taipei (lalawigan)",
      "name:hak": "Sîn-pet-sṳ",
      "name:nan": "Sin-pak-chhī",
      "name:wuu": "新北市",
      "name:yue": "新北市",
      "old_name": "台北縣",
      "way_area": "0.184897",
      "wikidata": "Q244898",
      "ISO3166-2": "TW-NWT",
      "wikipedia": "zh:新北市",
      "admin_level": "4",
      "name:nan-HJ": "新北市",
      "name:nan-TL": "Sin-pak-tshī",
      "old_name:en": "Taipei County",
      "old_name:vi": "Đài Bắc",
      "old_name:zh": "台北縣",
      "name:nan-POJ": "Sin-pak-chhī",
      "name:zh-Hans": "新北市",
      "name:zh-Hant": "新北市",
      "old_name:nan": "Tâi-pak-koān",
      "name:zh_pinyin": "Xīnběi Shì",
      "old_name:nan-HJ": "台北縣",
      "old_name:nan-TL": "Tâi-pak-kuān",
      "old_name:nan-POJ": "Tâi-pak-koān"
    }
  },
  {
    "osm_id": -1298304,
    "boundary": "administrative",
    "admin_level": 5,
    "parents": "-1527220,-449220",
    "name": "Pingxi District",
    "local_name": "平溪區",
    "name_en": "Pingxi District",
    "all_tags": {
      "name": "平溪區",
      "name:de": "Pingxi",
      "name:en": "Pingxi District",
      "name:fr": "Pingxi",
      "name:it": "Distretto di Pingsi",
      "name:ja": "平渓区",
      "name:ko": "핑시 구",
      "name:vi": "Bình Khê",
      "name:zh": "平溪區",
      "nat_ref": "65000240",
      "boundary": "administrative",
      "name:hak": "Phìn-hâi-khî",
      "name:nan": "Pêng-khe-khu",
      "way_area": "0.00636954",
      "wikidata": "Q570249",
      "wikipedia": "zh:平溪區",
      "admin_level": "5"
    }
  },
  {
    "osm_id": -1298305,
    "boundary": "administrative",
    "admin_level": 5,
    "parents": "-1527220,-449220",
    "name": "Shuangxi District",
    "local_name": "雙溪區",
    "name_en": "Shuangxi District",
    "all_tags": {
      "name": "雙溪區",
      "name:de": "Shuangxi",
      "name:en": "Shuangxi District",
      "name:fr": "Shuangxi",
      "name:it": "Distretto di Shuangxi",
      "name:ja": "双渓区",
      "name:ko": "솽시 구",
      "name:vi": "Song Khê",
      "name:zh": "雙溪區",
      "nat_ref": "65000250",
      "boundary": "administrative",
      "name:hak": "Sûng-hâi-khî",
      "name:nan": "Siang-khe-khu",
      "way_area": "0.0130206",
      "wikidata": "Q56042",
      "wikipedia": "zh:雙溪區",
      "admin_level": "5"
    }
  },
  {
    "osm_id": -1298303,
    "boundary": "administrative",
    "admin_level": 5,
    "parents": "-1527220,-449220",
    "name": "Ruifang District",
    "local_name": "瑞芳區",
    "name_en": "Ruifang District",
    "all_tags": {
      "name": "瑞芳區",
      "name:de": "Ruifang",
      "name:en": "Ruifang District",
      "name:fr": "Ruifang",
      "name:it": "Distretto di Ruifang",
      "name:ja": "瑞芳区",
      "name:ko": "루이팡 구",
      "name:vi": "Thụy Phương",
      "name:zh": "瑞芳區",
      "nat_ref": "65000120",
      "boundary": "administrative",
      "name:hak": "Lui-fông-khî",
      "name:nan": "Sūi-hong-khu",
      "way_area": "0.00639747",
      "wikidata": "Q570254",
      "wikipedia": "zh:瑞芳區",
      "admin_level": "5"
    }
  },
  {
    "osm_id": -1296153,
    "boundary": "administrative",
    "admin_level": 5,
    "parents": "-1527220,-449220",
    "name": "Wanli District",
    "local_name": "萬里區",
    "name_en": "Wanli District",
    "all_tags": {
      "name": "萬里區",
      "name:de": "Wanli",
      "name:en": "Wanli District",
      "name:fr": "Wanli",
      "name:it": "Distretto di Wanli",
      "name:ja": "万里区",
      "name:ko": "완리 구",
      "name:vi": "Vạn Lý",
      "name:zh": "萬里區",
      "nat_ref": "65000280",
      "boundary": "administrative",
      "name:hak": "Van-lî-khî",
      "name:nan": "Bān-lí-khu",
      "name:yue": "萬里區",
      "way_area": "0.00566549",
      "wikidata": "Q570582",
      "wikipedia": "zh:萬里區",
      "admin_level": "5"
    }
  },
  {
    "osm_id": -1296149,
    "boundary": "administrative",
    "admin_level": 5,
    "parents": "-1527220,-449220",
    "name": "Jinshan District",
    "local_name": "金山區",
    "name_en": "Jinshan District",
    "all_tags": {
      "name": "金山區",
      "name:de": "Jinshan",
      "name:en": "Jinshan District",
      "name:fr": "Jinshan",
      "name:it": "Distretto di Jinshan",
      "name:ja": "金山区",
      "name:ko": "진산 구",
      "name:vi": "Kim Sơn",
      "name:zh": "金山區",
      "nat_ref": "65000270",
      "boundary": "administrative",
      "name:hak": "Kîm-sân-khî",
      "name:nan": "Kim-san-khu",
      "name:yue": "金山區",
      "old_name": "金包里",
      "way_area": "0.00424409",
      "wikidata": "Q570104",
      "wikipedia": "zh:金山區 (台灣)",
      "admin_level": "5"
    }
  },
  {
    "osm_id": -1296142,
    "boundary": "administrative",
    "admin_level": 5,
    "parents": "-1527220,-449220",
    "name": "Sanzhi District",
    "local_name": "三芝區",
    "name_en": "Sanzhi District",
    "all_tags": {
      "name": "三芝區",
      "name:de": "Sanzhi",
      "name:en": "Sanzhi District",
      "name:es": "Sanzhi",
      "name:fr": "Sanzhi",
      "name:it": "Distretto di Sanzhi",
      "name:ja": "三芝区",
      "name:ko": "싼즈 구",
      "name:vi": "Tam Chi",
      "name:zh": "三芝區",
      "nat_ref": "65000210",
      "boundary": "administrative",
      "name:hak": "Sâm-chṳ-khî",
      "name:nan": "Sam-chi-khu",
      "way_area": "0.00590466",
      "wikidata": "Q570355",
      "wikipedia": "zh:三芝區",
      "admin_level": "5"
    }
  },
  {
    "osm_id": 483406039,
    "boundary": "administrative",
    "admin_level": 4,
    "parents": "-449220",
    "name": "Xiji Island",
    "local_name": "西吉嶼",
    "name_en": "Xiji Island",
    "all_tags": {
      "area": "yes",
      "name": "西吉嶼",
      "place": "islet",
      "name:en": "Xiji Island",
      "name:zh": "西吉嶼",
      "boundary": "administrative",
      "way_area": "1.0201e-07",
      "admin_level": "4"
    }
  },
  {
    "osm_id": -2417129,
    "boundary": "administrative",
    "admin_level": 5,
    "parents": "-2418506,-449220",
    "name": "Jiangjun District",
    "local_name": "將軍區",
    "name_en": "Jiangjun District",
    "all_tags": {
      "name": "將軍區",
      "is_in": "臺灣臺南市",
      "name:de": "Jiangjun",
      "name:en": "Jiangjun District",
      "name:fr": "District de Jiangjun",
      "name:it": "Distretto di Jiangjun",
      "name:ja": "将軍区",
      "name:ko": "장쥔구",
      "name:vi": "Tướng Quân",
      "name:zh": "將軍區",
      "nat_ref": "67000160",
      "boundary": "administrative",
      "name:hak": "Tsiông-kiûn-khî",
      "name:nan": "Chiong-kun-khu",
      "name:yue": "將軍區",
      "way_area": "0.00416959",
      "wikidata": "Q706572",
      "wikipedia": "zh:將軍區",
      "is_in:city": "臺南市",
      "admin_level": "5",
      "postal_code": "725",
      "is_in:country": "TW"
    }
  },
  {
    "osm_id": 475780021,
    "boundary": "administrative",
    "admin_level": 4,
    "parents": "-449220",
    "name": "錠鉤嶼",
    "local_name": "錠鉤嶼",
    "name_en": null,
    "all_tags": {
      "area": "yes",
      "name": "錠鉤嶼",
      "place": "islet",
      "boundary": "administrative",
      "way_area": "2.03616e-06",
      "admin_level": "4"
    }
  },
  {
    "osm_id": 483406041,
    "boundary": "administrative",
    "admin_level": 4,
    "parents": "-449220",
    "name": "頭巾嶼",
    "local_name": "頭巾嶼",
    "name_en": null,
    "all_tags": {
      "area": "yes",
      "name": "頭巾嶼",
      "place": "islet",
      "boundary": "administrative",
      "way_area": "4.27183e-08",
      "admin_level": "4"
    }
  },
  {
    "osm_id": -2374640,
    "boundary": "administrative",
    "admin_level": 5,
    "parents": "-2418506,-449220",
    "name": "Jiali District",
    "local_name": "佳里區",
    "name_en": "Jiali District",
    "all_tags": {
      "name": "佳里區",
      "is_in": "臺灣臺南市",
      "name:de": "Jiali",
      "name:en": "Jiali District",
      "name:fr": "District de Jiali",
      "name:it": "Distretto di Jiali",
      "name:ja": "佳里区",
      "name:ko": "자리구",
      "name:vi": "Giai Lý",
      "name:zh": "佳里區",
      "nat_ref": "67000120",
      "boundary": "administrative",
      "name:hak": "Kâ-lî-khî",
      "name:nan": "Ka-lí-khu",
      "name:yue": "佳里區",
      "way_area": "0.00344669",
      "wikidata": "Q710023",
      "wikipedia": "zh:佳里區",
      "is_in:city": "臺南市",
      "admin_level": "5",
      "alt_name:vi": "Giai Lí",
      "postal_code": "722",
      "is_in:country": "TW"
    }
  },
  {
    "osm_id": -2958304,
    "boundary": "administrative",
    "admin_level": 5,
    "parents": "-2921154,-449220",
    "name": "Dadu District",
    "local_name": "大肚區",
    "name_en": "Dadu District",
    "all_tags": {
      "name": "大肚區",
      "name:en": "Dadu District",
      "name:it": "Distretto di Dadu",
      "name:ja": "大肚区",
      "name:ko": "다두 구",
      "name:vi": "Đại Đỗ",
      "name:zh": "大肚區",
      "nat_ref": "66000240",
      "boundary": "administrative",
      "name:hak": "Thai-tú-khî",
      "name:nan": "Toā-tō͘-khu",
      "way_area": "0.00339974",
      "wikidata": "Q569652",
      "wikipedia": "zh:大肚區",
      "population": "56654",
      "admin_level": "5"
    }
  },
  {
    "osm_id": 9211614,
    "boundary": "administrative",
    "admin_level": 4,
    "parents": "-449220",
    "name": "四角嶼",
    "local_name": "四角嶼",
    "name_en": null,
    "all_tags": {
      "area": "yes",
      "name": "四角嶼",
      "place": "islet",
      "boundary": "administrative",
      "way_area": "4.41323e-06",
      "admin_level": "4"
    }
  },
  {
    "osm_id": -2118924,
    "boundary": "administrative",
    "admin_level": 5,
    "parents": "-2127079,-449220",
    "name": "Qishan District",
    "local_name": "旗山區",
    "name_en": "Qishan District",
    "all_tags": {
      "name": "旗山區",
      "is_in": "臺灣高雄市",
      "name:en": "Qishan District",
      "name:it": "Distretto di Qishan",
      "name:ja": "旗山区",
      "name:pl": "Qishan",
      "name:vi": "Kỳ Sơn",
      "name:zh": "旗山區",
      "nat_ref": "64000300",
      "boundary": "administrative",
      "name:hak": "Khì-sân-khî",
      "name:nan": "Kî-san-khu",
      "way_area": "0.0085371",
      "wikidata": "Q712942",
      "wikipedia": "zh:旗山區",
      "is_in:city": "高雄市",
      "admin_level": "5",
      "alt_name:vi": "Kì Sơn",
      "postal_code": "842",
      "is_in:country": "TW"
    }
  },
  {
    "osm_id": -2958505,
    "boundary": "administrative",
    "admin_level": 5,
    "parents": "-2921154,-449220",
    "name": "Wuqi District",
    "local_name": "梧棲區",
    "name_en": "Wuqi District",
    "all_tags": {
      "name": "梧棲區",
      "name:en": "Wuqi District",
      "name:it": "Distretto di Wuqi",
      "name:ja": "梧棲区",
      "name:ko": "우치 구",
      "name:vi": "Ngô Thê",
      "name:zh": "梧棲區",
      "nat_ref": "66000140",
      "boundary": "administrative",
      "name:hak": "Ǹg-tshi-khî",
      "name:nan": "Gô͘-chhe-khu",
      "way_area": "0.00299798",
      "wikidata": "Q569644",
      "wikipedia": "zh:梧棲區",
      "admin_level": "5"
    }
  },
  {
    "osm_id": -2106395,
    "boundary": "administrative",
    "admin_level": 5,
    "parents": "-2127079,-449220",
    "name": "Qianjin District",
    "local_name": "前金區",
    "name_en": "Qianjin District",
    "all_tags": {
      "name": "前金區",
      "is_in": "臺灣高雄市",
      "name:de": "Qianjin",
      "name:en": "Qianjin District",
      "name:it": "Distretto di Qianjin",
      "name:ja": "前金区",
      "name:ko": "첸진구",
      "name:pl": "Qianjin",
      "name:vi": "Tiền Kim",
      "name:zh": "前金區",
      "nat_ref": "64000070",
      "boundary": "administrative",
      "name:hak": "Chhièn-kîm",
      "name:nan": "Chiân-kim-khu",
      "way_area": "0.000169851",
      "wikidata": "Q712944",
      "wikipedia": "zh:前金區",
      "is_in:city": "高雄市",
      "admin_level": "5",
      "postal_code": "801",
      "is_in:country": "TW"
    }
  },
  {
    "osm_id": 9215285,
    "boundary": "administrative",
    "admin_level": 4,
    "parents": "-449220",
    "name": "香爐嶼",
    "local_name": "香爐嶼",
    "name_en": null,
    "all_tags": {
      "area": "yes",
      "name": "香爐嶼",
      "place": "islet",
      "boundary": "administrative",
      "way_area": "2.51778e-07",
      "admin_level": "4"
    }
  },
  {
    "osm_id": 9215645,
    "boundary": "administrative",
    "admin_level": 4,
    "parents": "-449220",
    "name": "險礁嶼",
    "local_name": "險礁嶼",
    "name_en": null,
    "all_tags": {
      "area": "yes",
      "name": "險礁嶼",
      "place": "islet",
      "boundary": "administrative",
      "way_area": "6.09782e-06",
      "wikidata": "Q15935813",
      "admin_level": "4"
    }
  },
  {
    "osm_id": 483406045,
    "boundary": "administrative",
    "admin_level": 4,
    "parents": "-449220",
    "name": "頭巾嶼",
    "local_name": "頭巾嶼",
    "name_en": null,
    "all_tags": {
      "area": "yes",
      "name": "頭巾嶼",
      "place": "islet",
      "boundary": "administrative",
      "way_area": "3.3327e-07",
      "admin_level": "4"
    }
  },
  {
    "osm_id": 9211932,
    "boundary": "administrative",
    "admin_level": 4,
    "parents": "-449220",
    "name": "蕃沙尾",
    "local_name": "蕃沙尾",
    "name_en": null,
    "all_tags": {
      "area": "yes",
      "name": "蕃沙尾",
      "boundary": "administrative",
      "way_area": "9.19352e-07",
      "admin_level": "4"
    }
  },
  {
    "osm_id": 9213432,
    "boundary": "administrative",
    "admin_level": 4,
    "parents": "-449220",
    "name": "Xiyuping Island",
    "local_name": "西嶼坪嶼",
    "name_en": "Xiyuping Island",
    "all_tags": {
      "area": "yes",
      "name": "西嶼坪嶼",
      "place": "islet",
      "name:en": "Xiyuping Island",
      "name:zh": "西嶼坪嶼",
      "boundary": "administrative",
      "way_area": "3.11365e-05",
      "wikipedia": "zh:西嶼坪嶼",
      "admin_level": "4"
    }
  },
  {
    "osm_id": -2783060,
    "boundary": "administrative",
    "admin_level": 5,
    "parents": "-1527220,-449220",
    "name": "Zhonghe District",
    "local_name": "中和區",
    "name_en": "Zhonghe District",
    "all_tags": {
      "name": "中和區",
      "name:de": "Zhonghe",
      "name:en": "Zhonghe District",
      "name:fr": "Chungho",
      "name:it": "Džonghė",
      "name:ja": "中和区",
      "name:ko": "중허 구",
      "name:vi": "Trung Hòa, Tân Bắc",
      "name:zh": "中和區",
      "nat_ref": "65000030",
      "boundary": "administrative",
      "name:ceb": "Zhonghe District",
      "name:hak": "Chûng-fò-khî",
      "name:nan": "Tiong-hô-khu",
      "name:yue": "中和區",
      "way_area": "0.00173509",
      "wikidata": "Q197859",
      "wikipedia": "zh:中和區",
      "admin_level": "5"
    }
  },
  {
    "osm_id": 9213630,
    "boundary": "administrative",
    "admin_level": 4,
    "parents": "-449220",
    "name": "二塭嶼",
    "local_name": "二塭嶼",
    "name_en": null,
    "all_tags": {
      "area": "yes",
      "name": "二塭嶼",
      "place": "islet",
      "boundary": "administrative",
      "way_area": "9.52144e-07",
      "admin_level": "4"
    }
  },
  {
    "osm_id": -2162450,
    "boundary": "administrative",
    "admin_level": 5,
    "parents": "-2418506,-449220",
    "name": "North District",
    "local_name": "北區",
    "name_en": "North District",
    "all_tags": {
      "name": "北區",
      "is_in": "臺灣臺南市",
      "name:en": "North District",
      "name:fr": "District Nord",
      "name:it": "Distretto Settentrionale",
      "name:ja": "北区",
      "name:ko": "베이구",
      "name:vi": "Quận Bắc",
      "name:zh": "北區",
      "nat_ref": "67000340",
      "boundary": "administrative",
      "name:hak": "Pet",
      "name:nan": "Pak-khu",
      "name:yue": "北區",
      "way_area": "0.000866242",
      "wikidata": "Q710206",
      "wikipedia": "zh:北區 (臺南市)",
      "is_in:city": "臺南市",
      "admin_level": "5",
      "postal_code": "704",
      "is_in:country": "TW"
    }
  },
  {
    "osm_id": 483406040,
    "boundary": "administrative",
    "admin_level": 4,
    "parents": "-449220",
    "name": "Dongyuping Island",
    "local_name": "東嶼坪嶼",
    "name_en": "Dongyuping Island",
    "all_tags": {
      "area": "yes",
      "name": "東嶼坪嶼",
      "place": "islet",
      "name:en": "Dongyuping Island",
      "name:zh": "東嶼坪嶼",
      "boundary": "administrative",
      "way_area": "2.06668e-07",
      "admin_level": "4"
    }
  },
  {
    "osm_id": 9211910,
    "boundary": "administrative",
    "admin_level": 4,
    "parents": "-449220",
    "name": "頭巾嶼",
    "local_name": "頭巾嶼",
    "name_en": null,
    "all_tags": {
      "area": "yes",
      "name": "頭巾嶼",
      "place": "islet",
      "boundary": "administrative",
      "way_area": "1.92546e-06",
      "admin_level": "4"
    }
  },
  {
    "osm_id": 9208826,
    "boundary": "administrative",
    "admin_level": 4,
    "parents": "-449220",
    "name": "南面掛嶼",
    "local_name": "南面掛嶼",
    "name_en": null,
    "all_tags": {
      "area": "yes",
      "name": "南面掛嶼",
      "place": "islet",
      "boundary": "administrative",
      "way_area": "1.7041e-06",
      "admin_level": "4"
    }
  },
  {
    "osm_id": 9211666,
    "boundary": "administrative",
    "admin_level": 4,
    "parents": "-449220",
    "name": "金嶼",
    "local_name": "金嶼",
    "name_en": null,
    "all_tags": {
      "area": "yes",
      "name": "金嶼",
      "place": "islet",
      "boundary": "administrative",
      "way_area": "1.80127e-06",
      "admin_level": "4"
    }
  },
  {
    "osm_id": 483406046,
    "boundary": "administrative",
    "admin_level": 4,
    "parents": "-449220",
    "name": "鐵砧嶼",
    "local_name": "鐵砧嶼",
    "name_en": null,
    "all_tags": {
      "area": "yes",
      "name": "鐵砧嶼",
      "place": "islet",
      "boundary": "administrative",
      "way_area": "2.9131e-07",
      "admin_level": "4"
    }
  },
  {
    "osm_id": 9210976,
    "boundary": "administrative",
    "admin_level": 4,
    "parents": "-449220",
    "name": "雞籠嶼",
    "local_name": "雞籠嶼",
    "name_en": null,
    "all_tags": {
      "area": "yes",
      "name": "雞籠嶼",
      "place": "islet",
      "boundary": "administrative",
      "way_area": "4.29695e-06",
      "admin_level": "4"
    }
  },
  {
    "osm_id": -2106258,
    "boundary": "administrative",
    "admin_level": 5,
    "parents": "-2127079,-449220",
    "name": "Gushan District",
    "local_name": "鼓山區",
    "name_en": "Gushan District",
    "all_tags": {
      "name": "鼓山區",
      "is_in": "臺灣高雄市",
      "name:en": "Gushan District",
      "name:ja": "鼓山区",
      "name:ko": "구산구",
      "name:pl": "Gushan",
      "name:vi": "Cổ Sơn",
      "name:zh": "鼓山區",
      "nat_ref": "64000020",
      "boundary": "administrative",
      "name:hak": "Kú-sân",
      "name:nan": "Kó͘-san-khu",
      "way_area": "0.00194769",
      "wikidata": "Q713055",
      "wikipedia": "zh:鼓山區",
      "is_in:city": "高雄市",
      "admin_level": "5",
      "postal_code": "804",
      "is_in:country": "TW"
    }
  },
  {
    "osm_id": -2106606,
    "boundary": "administrative",
    "admin_level": 5,
    "parents": "-2127079,-449220",
    "name": "Qianzhen District",
    "local_name": "前鎮區",
    "name_en": "Qianzhen District",
    "all_tags": {
      "name": "前鎮區",
      "is_in": "臺灣高雄市",
      "name:en": "Qianzhen District",
      "name:it": "Distretto di Qianzhen",
      "name:ja": "前鎮区",
      "name:ko": "첸전구",
      "name:pl": "Qianzhen",
      "name:vi": "Tiền Trấn",
      "name:zh": "前鎮區",
      "nat_ref": "64000090",
      "boundary": "administrative",
      "name:hak": "Chhièn-chṳ́n",
      "name:nan": "Chiân-tìn-khu",
      "way_area": "0.00187019",
      "wikidata": "Q712894",
      "wikipedia": "zh:前鎮區",
      "is_in:city": "高雄市",
      "admin_level": "5",
      "postal_code": "806",
      "is_in:country": "TW"
    }
  },
  {
    "osm_id": 483406047,
    "boundary": "administrative",
    "admin_level": 4,
    "parents": "-449220",
    "name": "鐘仔嶼",
    "local_name": "鐘仔嶼",
    "name_en": null,
    "all_tags": {
      "area": "yes",
      "name": "鐘仔嶼",
      "place": "islet",
      "boundary": "administrative",
      "way_area": "6.83897e-07",
      "admin_level": "4"
    }
  },
  {
    "osm_id": -2958207,
    "boundary": "administrative",
    "admin_level": 5,
    "parents": "-2921154,-449220",
    "name": "Wufeng District",
    "local_name": "霧峰區",
    "name_en": "Wufeng District",
    "all_tags": {
      "name": "霧峰區",
      "name:de": "Wufeng",
      "name:en": "Wufeng District",
      "name:it": "Distretto di Wufeng",
      "name:ja": "霧峰区",
      "name:ko": "우펑구",
      "name:zh": "霧峰區",
      "nat_ref": "66000260",
      "boundary": "administrative",
      "name:hak": "Vú-fûng-khî",
      "name:nan": "Bū-hong-khu",
      "name:yue": "霧峰區",
      "way_area": "0.00858511",
      "wikidata": "Q569763",
      "wikipedia": "zh:霧峰區",
      "admin_level": "5",
      "postal_code": "413"
    }
  },
  {
    "osm_id": 9215767,
    "boundary": "administrative",
    "admin_level": 4,
    "parents": "-449220",
    "name": "Jiangjun'ao Island",
    "local_name": "將軍澳嶼",
    "name_en": "Jiangjun'ao Island",
    "all_tags": {
      "area": "yes",
      "name": "將軍澳嶼",
      "place": "island",
      "name:en": "Jiangjun'ao Island",
      "name:zh": "將軍澳嶼",
      "boundary": "administrative",
      "way_area": "0.000151374",
      "wikidata": "Q10957381",
      "wikipedia": "zh:將軍澳嶼",
      "admin_level": "4"
    }
  },
  {
    "osm_id": -2881027,
    "boundary": "administrative",
    "admin_level": 5,
    "parents": "-1293250,-449220",
    "name": "Xinyi District",
    "local_name": "信義區",
    "name_en": "Xinyi District",
    "all_tags": {
      "name": "信義區",
      "name:de": "Xinyi",
      "name:en": "Xinyi District",
      "name:fr": "District de Xinyi",
      "name:it": "Distretto di Xinyi",
      "name:ja": "信義区",
      "name:ko": "신이구",
      "name:zh": "信義區",
      "nat_ref": "63000020",
      "boundary": "administrative",
      "name:hak": "Sin-ngi-khî",
      "name:nan": "Sìn-gī-khu",
      "name:yue": "信義區",
      "way_area": "0.00100163",
      "wikidata": "Q271151",
      "wikipedia": "zh:信義區 (臺北市)",
      "admin_level": "5"
    }
  },
  {
    "osm_id": -2881029,
    "boundary": "administrative",
    "admin_level": 5,
    "parents": "-1293250,-449220",
    "name": "Songshan District",
    "local_name": "松山區",
    "name_en": "Songshan District",
    "all_tags": {
      "name": "松山區",
      "name:de": "Songshan",
      "name:en": "Songshan District",
      "name:fr": "District de Songshan",
      "name:id": "Distrik Songshan",
      "name:it": "Distretto di Songshan",
      "name:ja": "松山区",
      "name:ko": "쑹산구",
      "name:pl": "Songshan",
      "name:zh": "松山區",
      "nat_ref": "63000010",
      "boundary": "administrative",
      "name:hak": "Tshiùng-sân-khî",
      "name:nan": "Siông-san-khu",
      "name:yue": "松山區",
      "way_area": "0.000780268",
      "wikidata": "Q271124",
      "wikipedia": "zh:松山區 (臺灣)",
      "admin_level": "5"
    }
  },
  {
    "osm_id": -2955698,
    "boundary": "administrative",
    "admin_level": 5,
    "parents": "-2921154,-449220",
    "name": "Taiping District",
    "local_name": "太平區",
    "name_en": "Taiping District",
    "all_tags": {
      "name": "太平區",
      "name:en": "Taiping District",
      "name:it": "Distretto di Taiping",
      "name:ja": "太平区",
      "name:ko": "타이핑구",
      "name:pl": "Taiping",
      "name:vi": "Thái Bình",
      "name:zh": "太平區",
      "nat_ref": "66000270",
      "boundary": "administrative",
      "name:hak": "Thai-phìn-khî",
      "name:nan": "Thài-pêng-khu",
      "way_area": "0.010696",
      "wikidata": "Q569608",
      "wikipedia": "zh:太平區 (台灣)",
      "admin_level": "5",
      "postal_code": "411"
    }
  },
  {
    "osm_id": -2958047,
    "boundary": "administrative",
    "admin_level": 5,
    "parents": "-2921154,-449220",
    "name": "South District",
    "local_name": "南區",
    "name_en": "South District",
    "all_tags": {
      "name": "南區",
      "name:en": "South District",
      "name:it": "Distretto Meridionale",
      "name:ja": "南区",
      "name:ko": "난구",
      "name:vi": "Quận Nam",
      "name:zh": "南區",
      "nat_ref": "66000030",
      "boundary": "administrative",
      "name:hak": "Nàm",
      "name:nan": "Lâm-khu",
      "way_area": "0.000695271",
      "wikidata": "Q138671",
      "wikipedia": "zh:南區 (臺中市)",
      "admin_level": "5",
      "postal_code": "402"
    }
  },
  {
    "osm_id": -2869400,
    "boundary": "administrative",
    "admin_level": 5,
    "parents": "-1527220,-449220",
    "name": "Luzhou District",
    "local_name": "蘆洲區",
    "name_en": "Luzhou District",
    "all_tags": {
      "name": "蘆洲區",
      "name:de": "Luzhou",
      "name:en": "Luzhou District",
      "name:fr": "Luzhou",
      "name:ja": "蘆洲区",
      "name:ko": "루저우 구",
      "name:vi": "Lô Châu",
      "name:zh": "蘆洲區",
      "nat_ref": "65000140",
      "boundary": "administrative",
      "name:hak": "Lù-chû-khî",
      "name:nan": "Lô͘-chiu-khu",
      "way_area": "0.000691326",
      "wikidata": "Q570238",
      "wikipedia": "zh:蘆洲區",
      "admin_level": "5",
      "name:nan-HJ": "蘆洲區",
      "name:nan-TL": "Lôo-tsiu-khu",
      "name:nan-POJ": "Lô͘-chiu-khu"
    }
  },
  {
    "osm_id": -2782528,
    "boundary": "administrative",
    "admin_level": 5,
    "parents": "-1293250,-449220",
    "name": "Wanhua District",
    "local_name": "萬華區",
    "name_en": "Wanhua District",
    "all_tags": {
      "name": "萬華區",
      "name:de": "Wanhua",
      "name:en": "Wanhua District",
      "name:it": "Distretto di Wanhua",
      "name:ja": "万華区",
      "name:ko": "완화구",
      "name:zh": "萬華區",
      "nat_ref": "63000070",
      "boundary": "administrative",
      "name:hak": "Van-fà-khî",
      "name:lzh": "萬華區",
      "name:nan": "Bān-hôa-khu",
      "name:yue": "萬華區",
      "way_area": "0.000670066",
      "wikidata": "Q271134",
      "wikipedia": "zh:萬華區",
      "admin_level": "5",
      "name:zh-Hant": "萬華區"
    }
  },
  {
    "osm_id": -2783061,
    "boundary": "administrative",
    "admin_level": 5,
    "parents": "-1293250,-449220",
    "name": "Zhongzheng District",
    "local_name": "中正區",
    "name_en": "Zhongzheng District",
    "all_tags": {
      "name": "中正區",
      "name:de": "Zhongzheng",
      "name:en": "Zhongzheng District",
      "name:ja": "中正区",
      "name:ko": "중정구",
      "name:vi": "Trung Chính",
      "name:zh": "中正區",
      "nat_ref": "63000050",
      "boundary": "administrative",
      "name:hak": "Tsûng-tsang-khî",
      "name:nan": "Tiong-chèng-khu",
      "name:yue": "中正區",
      "way_area": "0.000662695",
      "wikidata": "Q175581",
      "wikipedia": "zh:中正區 (臺北市)",
      "admin_level": "5"
    }
  },
  {
    "osm_id": -1297097,
    "boundary": "administrative",
    "admin_level": 5,
    "parents": "-1527220,-449220",
    "name": "Xizhi District",
    "local_name": "汐止區",
    "name_en": "Xizhi District",
    "all_tags": {
      "name": "汐止區",
      "name:de": "Xizhi",
      "name:en": "Xizhi District",
      "name:es": "Hsichih",
      "name:fr": "Xizhi",
      "name:it": "Xizhi",
      "name:ja": "汐止区",
      "name:ko": "시즈 구",
      "name:vi": "Tịch Chỉ",
      "name:zh": "汐止區",
      "nat_ref": "65000110",
      "boundary": "administrative",
      "name:hak": "Sip-chṳ-khî",
      "name:nan": "Se̍k-chí-khu",
      "way_area": "0.00642449",
      "wikidata": "Q570601",
      "wikipedia": "zh:汐止區",
      "admin_level": "5",
      "name:nan-HJ": "汐止區",
      "name:nan-TL": "Si̍k-tsí-khu",
      "name:nan-POJ": "Se̍k-chí-khu"
    }
  },
  {
    "osm_id": 9213832,
    "boundary": "administrative",
    "admin_level": 4,
    "parents": "-449220",
    "name": "Dongji Island",
    "local_name": "東吉嶼",
    "name_en": "Dongji Island",
    "all_tags": {
      "area": "yes",
      "name": "東吉嶼",
      "place": "island",
      "name:en": "Dongji Island",
      "name:zh": "東吉嶼",
      "boundary": "administrative",
      "way_area": "0.000144911",
      "wikipedia": "zh:東吉嶼",
      "admin_level": "4"
    }
  },
  {
    "osm_id": 9210460,
    "boundary": "administrative",
    "admin_level": 4,
    "parents": "-449220",
    "name": "Hua Island",
    "local_name": "花嶼",
    "name_en": "Hua Island",
    "all_tags": {
      "area": "yes",
      "name": "花嶼",
      "place": "island",
      "name:en": "Hua Island",
      "name:zh": "花嶼",
      "boundary": "administrative",
      "way_area": "0.000130757",
      "wikidata": "Q10499990",
      "admin_level": "4"
    }
  },
  {
    "osm_id": -2162125,
    "boundary": "administrative",
    "admin_level": 5,
    "parents": "-2418506,-449220",
    "name": "Zhongxi District",
    "local_name": "中西區",
    "name_en": "Zhongxi District",
    "all_tags": {
      "name": "中西區",
      "is_in": "臺灣臺南市",
      "name:en": "Zhongxi District",
      "name:fr": "District Centre-Ouest",
      "name:ja": "中西区",
      "name:vi": "Trung Tây",
      "name:zh": "中西區",
      "nat_ref": "67000370",
      "boundary": "administrative",
      "name:hak": "Chûng-sî",
      "name:nan": "Tiong-se-khu",
      "name:yue": "中西區",
      "way_area": "0.000561213",
      "wikidata": "Q706699",
      "wikipedia": "zh:中西區 (台灣)",
      "is_in:city": "臺南市",
      "admin_level": "5",
      "alt_name:en": "West Central District",
      "postal_code": "700",
      "is_in:country": "TW"
    }
  },
  {
    "osm_id": -2106266,
    "boundary": "administrative",
    "admin_level": 5,
    "parents": "-2127079,-449220",
    "name": "Zuoying District",
    "local_name": "左營區",
    "name_en": "Zuoying District",
    "all_tags": {
      "name": "左營區",
      "is_in": "臺灣高雄市",
      "name:de": "Zuoying",
      "name:en": "Zuoying District",
      "name:ja": "左営区",
      "name:ko": "쭤잉구",
      "name:pl": "Zuoying",
      "name:vi": "Tả Doanh",
      "name:zh": "左營區",
      "nat_ref": "64000030",
      "boundary": "administrative",
      "name:hak": "Chó-yàng",
      "name:nan": "Chó-iâⁿ-khu",
      "way_area": "0.00174626",
      "wikidata": "Q718014",
      "wikipedia": "zh:左營區",
      "is_in:city": "高雄市",
      "admin_level": "5",
      "postal_code": "813",
      "is_in:country": "TW"
    }
  },
  {
    "osm_id": -2106299,
    "boundary": "administrative",
    "admin_level": 5,
    "parents": "-2127079,-449220",
    "name": "Nanzi District",
    "local_name": "楠梓區",
    "name_en": "Nanzi District",
    "all_tags": {
      "name": "楠梓區",
      "is_in": "臺灣高雄市",
      "name:en": "Nanzi District",
      "name:ja": "楠梓区",
      "name:ko": "난쯔구",
      "name:vi": "Nam Tử",
      "name:zh": "楠梓區",
      "nat_ref": "64000040",
      "boundary": "administrative",
      "name:hak": "Nàm-chṳ̀",
      "name:nan": "Lâm-chú-khu",
      "way_area": "0.00245718",
      "wikidata": "Q706758",
      "wikipedia": "zh:楠梓區",
      "is_in:city": "高雄市",
      "admin_level": "5",
      "postal_code": "811",
      "is_in:country": "TW"
    }
  },
  {
    "osm_id": -2961869,
    "boundary": "administrative",
    "admin_level": 5,
    "parents": "-2921154,-449220",
    "name": "Central District",
    "local_name": "中區",
    "name_en": "Central District",
    "all_tags": {
      "name": "中區",
      "name:en": "Central District",
      "name:ja": "中区",
      "name:ko": "중 구",
      "name:vi": "Quận Trung",
      "name:zh": "中區",
      "nat_ref": "66000010",
      "boundary": "administrative",
      "name:hak": "Chûng",
      "name:nan": "Tiong-khu",
      "way_area": "8.45427e-05",
      "wikidata": "Q309382",
      "wikipedia": "zh:中區 (臺中市)",
      "admin_level": "5",
      "name:nan-HJ": "中區",
      "name:nan-TL": "Tiong-khu",
      "name:nan-POJ": "Tiong-khu"
    }
  },
  {
    "osm_id": -2960263,
    "boundary": "administrative",
    "admin_level": 5,
    "parents": "-2921154,-449220",
    "name": "Shigang District",
    "local_name": "石岡區",
    "name_en": "Shigang District",
    "all_tags": {
      "name": "石岡區",
      "name:en": "Shigang District",
      "name:it": "Distretto di Shigang",
      "name:ja": "石岡区",
      "name:ko": "스강 구",
      "name:vi": "Thạch Cương",
      "name:zh": "石岡區",
      "nat_ref": "66000200",
      "boundary": "administrative",
      "name:hak": "Sa̍k-kóng-khî",
      "name:nan": "Chio̍h-kng-khu",
      "way_area": "0.00158376",
      "wikidata": "Q569714",
      "wikipedia": "zh:石岡區",
      "admin_level": "5"
    }
  },
  {
    "osm_id": -2783614,
    "boundary": "administrative",
    "admin_level": 5,
    "parents": "-1527220,-449220",
    "name": "Tucheng District",
    "local_name": "土城區",
    "name_en": "Tucheng District",
    "all_tags": {
      "name": "土城區",
      "name:de": "Tucheng",
      "name:en": "Tucheng District",
      "name:it": "Distretto di Tucheng",
      "name:ja": "土城区",
      "name:ko": "투청 구",
      "name:vi": "Thổ Thành",
      "name:zh": "土城區",
      "nat_ref": "65000130",
      "boundary": "administrative",
      "name:hak": "Thú-sàng-khî",
      "name:nan": "Thô͘-siâⁿ-khu",
      "old_name": "土城鎮",
      "way_area": "0.00267716",
      "wikidata": "Q372120",
      "wikipedia": "zh:土城區",
      "admin_level": "5",
      "name:nan-HJ": "土城區",
      "name:nan-TL": "Thôo-siânn-khu",
      "name:nan-POJ": "Thô͘-siâⁿ-khu"
    }
  },
  {
    "osm_id": -2905064,
    "boundary": "administrative",
    "admin_level": 5,
    "parents": "-1293250,-449220",
    "name": "Beitou",
    "local_name": "北投區",
    "name_en": "Beitou",
    "all_tags": {
      "name": "北投區",
      "is_in": "臺灣臺北市",
      "name:de": "Beitou",
      "name:en": "Beitou",
      "name:id": "Distrik Beitou",
      "name:it": "Distretto di Beitou",
      "name:ja": "北投区",
      "name:ko": "베이터우구",
      "name:vi": "Bắc Đầu",
      "name:zh": "北投區",
      "nat_ref": "63000120",
      "boundary": "administrative",
      "name:hak": "Pet-thèu-khî",
      "name:nan": "Pak-tâu-khu",
      "name:yue": "北投區",
      "way_area": "0.00517203",
      "wikidata": "Q252864",
      "wikipedia": "zh:北投區",
      "admin_level": "5"
    }
  },
  {
    "osm_id": -1298307,
    "boundary": "administrative",
    "admin_level": 5,
    "parents": "-1527220,-449220",
    "name": "Gongliao District",
    "local_name": "貢寮區",
    "name_en": "Gongliao District",
    "all_tags": {
      "name": "貢寮區",
      "name:de": "Gongliao",
      "name:en": "Gongliao District",
      "name:fr": "Gongliao",
      "name:it": "Distretto di Gongliao",
      "name:ja": "貢寮区",
      "name:ko": "궁랴오 구",
      "name:vi": "Cống Liêu",
      "name:zh": "貢寮區",
      "nat_ref": "65000260",
      "boundary": "administrative",
      "name:hak": "Kung-liàu-khî",
      "name:nan": "Kòng-liâu-khu",
      "name:yue": "貢寮區",
      "way_area": "0.00886023",
      "wikidata": "Q570097",
      "wikipedia": "zh:貢寮區",
      "admin_level": "5"
    }
  },
  {
    "osm_id": 200576933,
    "boundary": "administrative",
    "admin_level": 4,
    "parents": "-449220",
    "name": "小蘭嶼 Jimagaod",
    "local_name": "小蘭嶼 Jimagaod",
    "name_en": null,
    "all_tags": {
      "area": "yes",
      "name": "小蘭嶼 Jimagaod",
      "place": "island",
      "name:ko": "샤오란위섬",
      "name:zh": "小蘭嶼",
      "boundary": "administrative",
      "name:nan": "Sió-lân-sū",
      "name:tao": "Jimagaod",
      "way_area": "8.00058e-05",
      "wikidata": "Q10960489",
      "wikipedia": "zh:小蘭嶼",
      "admin_level": "4"
    }
  },
  {
    "osm_id": 9216500,
    "boundary": "administrative",
    "admin_level": 4,
    "parents": "-449220",
    "name": "Xiji Island",
    "local_name": "西吉嶼",
    "name_en": "Xiji Island",
    "all_tags": {
      "area": "yes",
      "name": "西吉嶼",
      "place": "islet",
      "name:en": "Xiji Island",
      "name:zh": "西吉嶼",
      "boundary": "administrative",
      "way_area": "7.91262e-05",
      "admin_level": "4"
    }
  },
  {
    "osm_id": -2127080,
    "boundary": "administrative",
    "admin_level": 5,
    "parents": "-2127079,-449220",
    "name": "Jiading District",
    "local_name": "茄萣區",
    "name_en": "Jiading District",
    "all_tags": {
      "name": "茄萣區",
      "is_in": "臺灣高雄市",
      "name:en": "Jiading District",
      "name:it": "Distretto di Qieding",
      "name:ja": "茄萣区",
      "name:ko": "체딩구",
      "name:pl": "Qieding",
      "name:vi": "Gia Định",
      "name:zh": "茄萣區",
      "nat_ref": "64000260",
      "boundary": "administrative",
      "name:hak": "Kâ-tin",
      "name:nan": "Ka-tiāⁿ-khu",
      "name:yue": "茄萣區",
      "way_area": "0.00150954",
      "wikidata": "Q713090",
      "wikipedia": "zh:茄萣區",
      "is_in:city": "高雄市",
      "admin_level": "5",
      "postal_code": "852",
      "is_in:country": "TW"
    }
  },
  {
    "osm_id": -2822029,
    "boundary": "administrative",
    "admin_level": 5,
    "parents": "-1293250,-449220",
    "name": "Zhongshan District",
    "local_name": "中山區",
    "name_en": "Zhongshan District",
    "all_tags": {
      "name": "中山區",
      "name:de": "Zhongshan",
      "name:en": "Zhongshan District",
      "name:fr": "District de Zhongshan",
      "name:id": "Distrik Zhongshan",
      "name:it": "Distretto di Zhongshan",
      "name:ja": "中山区",
      "name:ko": "중산구",
      "name:pl": "Zhongshan",
      "name:zh": "中山區",
      "nat_ref": "63000040",
      "boundary": "administrative",
      "name:hak": "Tsûng-sân-khî",
      "name:nan": "Tiong-san-khu",
      "name:yue": "中山區",
      "way_area": "0.00124231",
      "wikidata": "Q271167",
      "wikipedia": "zh:中山區 (臺北市)",
      "admin_level": "5",
      "name:nan-HJ": "中山區",
      "name:nan-TL": "Tiong-san-khu",
      "name:nan-POJ": "Tiong-san-khu"
    }
  },
  {
    "osm_id": -2108632,
    "boundary": "administrative",
    "admin_level": 5,
    "parents": "-2127079,-449220",
    "name": "Ziguan District",
    "local_name": "梓官區",
    "name_en": "Ziguan District",
    "all_tags": {
      "name": "梓官區",
      "is_in": "臺灣高雄市",
      "name:en": "Ziguan District",
      "name:it": "Distretto di Ziguan",
      "name:ja": "梓官区",
      "name:ko": "쯔관구",
      "name:pl": "Ziguan",
      "name:vi": "Tử Quan",
      "name:zh": "梓官區",
      "nat_ref": "64000290",
      "boundary": "administrative",
      "name:hak": "Tsṳ́-kôn-khî",
      "name:nan": "Chú-koaⁿ-khu",
      "way_area": "0.00105508",
      "wikidata": "Q707851",
      "wikipedia": "zh:梓官區",
      "is_in:city": "高雄市",
      "admin_level": "5",
      "postal_code": "826",
      "is_in:country": "TW"
    }
  },
  {
    "osm_id": -2869465,
    "boundary": "administrative",
    "admin_level": 5,
    "parents": "-1293250,-449220",
    "name": "Da'an District",
    "local_name": "大安區",
    "name_en": "Da'an District",
    "all_tags": {
      "name": "大安區",
      "name:de": "Da’an",
      "name:en": "Da'an District",
      "name:fr": "District de Daan",
      "name:ja": "大安区",
      "name:ko": "다안구",
      "name:ru": "Даань",
      "name:vi": "Đại An",
      "name:zh": "大安區",
      "nat_ref": "63000030",
      "boundary": "administrative",
      "name:hak": "Thai-ôn-khî",
      "name:nan": "Tāi-an-khu",
      "name:yue": "大安區",
      "way_area": "0.00101451",
      "wikidata": "Q252951",
      "wikipedia": "zh:大安區 (臺北市)",
      "admin_level": "5",
      "name:nan-HJ": "大安區",
      "name:nan-TL": "Tāi-an-khu",
      "name:nan-POJ": "Tāi-an-khu"
    }
  },
  {
    "osm_id": -2417095,
    "boundary": "administrative",
    "admin_level": 5,
    "parents": "-2418506,-449220",
    "name": "Anping District",
    "local_name": "安平區",
    "name_en": "Anping District",
    "all_tags": {
      "name": "安平區",
      "is_in": "臺灣臺南市",
      "name:en": "Anping District",
      "name:it": "Distretto di Anping",
      "name:ja": "安平区",
      "name:ko": "안핑 구",
      "name:vi": "An Bình",
      "name:zh": "安平區",
      "nat_ref": "67000360",
      "boundary": "administrative",
      "name:hak": "An-phìn",
      "name:nan": "An-pêng-khu",
      "way_area": "0.00100532",
      "wikidata": "Q703607",
      "wikipedia": "zh:安平區",
      "is_in:city": "臺南市",
      "admin_level": "5",
      "postal_code": "708",
      "is_in:country": "TW"
    }
  },
  {
    "osm_id": -2106534,
    "boundary": "administrative",
    "admin_level": 5,
    "parents": "-2127079,-449220",
    "name": "Lingya District",
    "local_name": "苓雅區",
    "name_en": "Lingya District",
    "all_tags": {
      "name": "苓雅區",
      "is_in": "臺灣高雄市",
      "name:en": "Lingya District",
      "name:fr": "District de Lingya",
      "name:it": "Distretto di Lingya",
      "name:ja": "苓雅区",
      "name:ko": "링야구",
      "name:vi": "Linh Nhã",
      "name:zh": "苓雅區",
      "nat_ref": "64000080",
      "boundary": "administrative",
      "name:hak": "Lìn-ngá",
      "name:nan": "Lêng-ngá-khu",
      "way_area": "0.000734635",
      "wikidata": "Q708103",
      "wikipedia": "zh:苓雅區",
      "is_in:city": "高雄市",
      "admin_level": "5",
      "postal_code": "802",
      "is_in:country": "TW"
    }
  },
  {
    "osm_id": -2374607,
    "boundary": "administrative",
    "admin_level": 5,
    "parents": "-2418506,-449220",
    "name": "Xigang District",
    "local_name": "西港區",
    "name_en": "Xigang District",
    "all_tags": {
      "name": "西港區",
      "is_in": "臺灣臺南市",
      "name:de": "Xigang",
      "name:en": "Xigang District",
      "name:ja": "西港区",
      "name:ko": "시강구",
      "name:vi": "Tây Cảng",
      "name:zh": "西港區",
      "nat_ref": "67000140",
      "boundary": "administrative",
      "name:hak": "Sî-kóng-khî",
      "name:nan": "Sai-káng-khu",
      "name:yue": "西港區",
      "way_area": "0.00295378",
      "wikidata": "Q709004",
      "wikipedia": "zh:西港區",
      "is_in:city": "臺南市",
      "admin_level": "5",
      "postal_code": "723",
      "is_in:country": "TW"
    }
  },
  {
    "osm_id": -2118764,
    "boundary": "administrative",
    "admin_level": 5,
    "parents": "-2127079,-449220",
    "name": "Linyuan District",
    "local_name": "林園區",
    "name_en": "Linyuan District",
    "all_tags": {
      "name": "林園區",
      "is_in": "臺灣高雄市",
      "name:en": "Linyuan District",
      "name:it": "Distretto di Linyuan",
      "name:ja": "林園区",
      "name:ko": "린위안구",
      "name:vi": "Lâm Viên",
      "name:zh": "林園區",
      "nat_ref": "64000130",
      "boundary": "administrative",
      "name:hak": "Lìm-yèn-khî",
      "name:nan": "Lîm-hn̂g-khu",
      "way_area": "0.00274619",
      "wikidata": "Q708234",
      "wikipedia": "zh:林園區",
      "is_in:city": "高雄市",
      "admin_level": "5",
      "postal_code": "832",
      "is_in:country": "TW"
    }
  },
  {
    "osm_id": -2119955,
    "boundary": "administrative",
    "admin_level": 5,
    "parents": "-2127079,-449220",
    "name": "Yongan District",
    "local_name": "永安區",
    "name_en": "Yongan District",
    "all_tags": {
      "name": "永安區",
      "is_in": "臺灣高雄市",
      "name:en": "Yongan District",
      "name:it": "Distretto di Yong'an",
      "name:ja": "永安区",
      "name:ko": "융안구",
      "name:pl": "Yong’an",
      "name:vi": "Vĩnh An",
      "name:zh": "永安區",
      "nat_ref": "64000270",
      "boundary": "administrative",
      "name:hak": "Yún-ôn-khî",
      "name:nan": "Éng-an-khu",
      "way_area": "0.00215839",
      "wikidata": "Q708194",
      "wikipedia": "zh:永安區",
      "is_in:city": "高雄市",
      "admin_level": "5",
      "postal_code": "828",
      "is_in:country": "TW"
    }
  },
  {
    "osm_id": -2958135,
    "boundary": "administrative",
    "admin_level": 5,
    "parents": "-2921154,-449220",
    "name": "East District",
    "local_name": "東區",
    "name_en": "East District",
    "all_tags": {
      "name": "東區",
      "name:en": "East District",
      "name:it": "Distretto Orientale",
      "name:ja": "東区",
      "name:ko": "둥구",
      "name:pl": "Dong",
      "name:vi": "Quận Đông",
      "name:zh": "東區",
      "nat_ref": "66000020",
      "boundary": "administrative",
      "name:hak": "Tûng",
      "name:nan": "Tang-khu",
      "way_area": "0.000600529",
      "wikidata": "Q569465",
      "wikipedia": "zh:東區 (臺中市)",
      "admin_level": "5",
      "postal_code": "401"
    }
  },
  {
    "osm_id": -2961750,
    "boundary": "administrative",
    "admin_level": 5,
    "parents": "-2921154,-449220",
    "name": "West District",
    "local_name": "西區",
    "name_en": "West District",
    "all_tags": {
      "name": "西區",
      "name:en": "West District",
      "name:it": "Distretto Occidentale",
      "name:ja": "西区",
      "name:ko": "시 구",
      "name:pl": "Xi",
      "name:vi": "Quận Tây",
      "name:zh": "西區",
      "nat_ref": "66000040",
      "boundary": "administrative",
      "name:hak": "Sî",
      "name:nan": "Se-khu",
      "way_area": "0.000564958",
      "wikidata": "Q309356",
      "wikipedia": "zh:西區 (臺中市)",
      "admin_level": "5",
      "postal_code": "403"
    }
  },
  {
    "osm_id": -2783511,
    "boundary": "administrative",
    "admin_level": 5,
    "parents": "-1527220,-449220",
    "name": "Yonghe District",
    "local_name": "永和區",
    "name_en": "Yonghe District",
    "all_tags": {
      "name": "永和區",
      "name:de": "Yonghe",
      "name:en": "Yonghe District",
      "name:it": "Yonghe",
      "name:ja": "永和区",
      "name:ko": "융허 구",
      "name:vi": "Vĩnh Hòa",
      "name:zh": "永和區",
      "nat_ref": "65000040",
      "boundary": "administrative",
      "name:hak": "Yún-fò-khî",
      "name:nan": "Éng-hô-khu",
      "name:yue": "永和區",
      "way_area": "0.000553455",
      "wikidata": "Q570880",
      "wikipedia": "zh:永和區",
      "admin_level": "5"
    }
  },
  {
    "osm_id": -2822030,
    "boundary": "administrative",
    "admin_level": 5,
    "parents": "-1293250,-449220",
    "name": "Datong District",
    "local_name": "大同區",
    "name_en": "Datong District",
    "all_tags": {
      "name": "大同區",
      "name:de": "Datong",
      "name:en": "Datong District",
      "name:id": "Distrik Datong",
      "name:it": "Distretto di Datong",
      "name:ja": "大同区",
      "name:ko": "다퉁구",
      "name:ru": "Датун",
      "name:vi": "Đại Đồng",
      "name:zh": "大同區",
      "nat_ref": "63000060",
      "boundary": "administrative",
      "name:hak": "Thai-thùng-khî",
      "name:nan": "Tāi-tông-khu",
      "name:yue": "大同區",
      "way_area": "0.000427462",
      "wikidata": "Q271060",
      "wikipedia": "zh:大同區 (臺灣)",
      "admin_level": "5"
    }
  },
  {
    "osm_id": -3424909,
    "boundary": "administrative",
    "admin_level": 5,
    "parents": "-2770986,-449220",
    "name": "Daxi District",
    "local_name": "大溪區",
    "name_en": "Daxi District",
    "all_tags": {
      "name": "大溪區",
      "name:en": "Daxi District",
      "name:it": "Distretto di Daxi",
      "name:ja": "大渓区",
      "name:ko": "다시 구",
      "name:vi": "Đại Khê",
      "name:zh": "大溪區",
      "nat_ref": "68000030",
      "boundary": "administrative",
      "name:hak": "Thai-hâi-khî",
      "name:nan": "Tāi-khe-khu",
      "old_name": "大溪鎮",
      "way_area": "0.00939143",
      "wikidata": "Q706455",
      "wikipedia": "zh:大溪區",
      "admin_level": "5",
      "old_name:en": "Daxi Township"
    }
  },
  {
    "osm_id": -2123649,
    "boundary": "administrative",
    "admin_level": 5,
    "parents": "-2127079,-449220",
    "name": "Jiaxian District",
    "local_name": "甲仙區",
    "name_en": "Jiaxian District",
    "all_tags": {
      "name": "甲仙區",
      "is_in": "臺灣高雄市",
      "name:de": "Jiaxian",
      "name:en": "Jiaxian District",
      "name:it": "Distretto di Jiaxian",
      "name:ja": "甲仙区",
      "name:vi": "Giáp Tiên",
      "name:zh": "甲仙區",
      "nat_ref": "64000330",
      "boundary": "administrative",
      "name:hak": "Kap-siên-khî",
      "name:nan": "Kah-sian-khu",
      "way_area": "0.0109442",
      "wikidata": "Q715951",
      "wikipedia": "zh:甲仙區",
      "is_in:city": "高雄市",
      "admin_level": "5",
      "postal_code": "847",
      "is_in:country": "TW"
    }
  },
  {
    "osm_id": -2127079,
    "boundary": "administrative",
    "admin_level": 4,
    "parents": "-449220",
    "name": "Kaohsiung",
    "local_name": "高雄市",
    "name_en": "Kaohsiung",
    "all_tags": {
      "name": "高雄市",
      "name:af": "Kaohsiung",
      "name:ar": "كاوهسيونغ",
      "name:bg": "Гаосюн",
      "name:bo": "ཀའོ་ཞུང་གྲོང་ཁྱེར།",
      "name:ca": "Kaohsiung",
      "name:ce": "Гаосюн",
      "name:cs": "Kao-siung",
      "name:de": "Kaohsiung",
      "name:el": "Καοσιούνγκ",
      "name:en": "Kaohsiung",
      "name:eo": "Kaoŝiungo",
      "name:es": "Kaohsiung",
      "name:eu": "Kaohsiung",
      "name:fa": "کائوهسیونگ",
      "name:fi": "Kaohsiung",
      "name:fr": "Kaohsiung",
      "name:gl": "Kaohsiung",
      "name:he": "גאושיונג",
      "name:hu": "Kaohsziung",
      "name:hy": "Գաոսյուն",
      "name:id": "Kota Kaohsiung",
      "name:ie": "Kaohsiung",
      "name:it": "Kaohsiung",
      "name:ja": "高雄市",
      "name:ko": "가오슝시",
      "name:ky": "Гаосун",
      "name:lt": "Gaosiongas",
      "name:ml": "കൗഷ്യിംഗ്",
      "name:mn": "Гаошюн",
      "name:ms": "Kaohsiung",
      "name:my": "ကောင်းရှုံမြို့",
      "name:nl": "Kaohsiung",
      "name:nn": "Kaohsiung",
      "name:no": "Kaohsiung",
      "name:pa": "ਕਾਓਸੀਅੰਗ",
      "name:pl": "Kaohsiung",
      "name:pt": "Kaohsiung",
      "name:qu": "Kau-hiyun",
      "name:ro": "Kaohsiung",
      "name:ru": "Гаосюн",
      "name:sk": "Kao-siung",
      "name:sv": "Kaohsiung",
      "name:sw": "Kaohsiung",
      "name:th": "เกาสฺยง",
      "name:tl": "Kaohsiung",
      "name:tr": "Kaohsiung",
      "name:ug": "گاۋشيۇڭ",
      "name:uk": "Гаосюн",
      "name:ur": "کائوسیونگ شہر",
      "name:vi": "Cao Hùng",
      "name:za": "Gauhyungz",
      "name:zh": "高雄市",
      "nat_ref": "64",
      "boundary": "administrative",
      "name:cdo": "Gŏ̤-hṳ̀ng",
      "name:ceb": "Kaohsiung",
      "name:gan": "高雄市",
      "name:hak": "Kô-hiùng-sṳ",
      "name:nan": "Ko-hiông-chhī",
      "name:sco": "Kaohsiung",
      "name:war": "Kaohsiung",
      "name:wuu": "高雄市",
      "name:yue": "高雄市",
      "way_area": "0.383629",
      "wikidata": "Q181557",
      "ISO3166-2": "TW-KHH",
      "wikipedia": "zh:高雄市",
      "population": "2777873",
      "admin_level": "4",
      "name:nan-HJ": "高雄市",
      "name:nan-TL": "Ko-hiông-tshī",
      "name:ja_kana": "たかおし",
      "name:nan-POJ": "Ko-hiông-chhī",
      "name:zh-Hans": "高雄市",
      "name:zh-Hant": "高雄市",
      "wikipedia:en": "Kaohsiung",
      "wikipedia:ja": "高雄市",
      "wikipedia:ko": "가오슝시",
      "wikipedia:ms": "Kaohsiung",
      "wikipedia:ru": "Гаосюн",
      "wikipedia:ur": "کائوسیونگ شہر",
      "is_in:country": "Taiwan",
      "name:zh_pinyin": "Gāoxióng",
      "is_in:continent": "Asia",
      "is_in:iso_3166_2": "TW-KHH",
      "is_in:country_code": "TW"
    }
  },
  {
    "osm_id": -2106257,
    "boundary": "administrative",
    "admin_level": 5,
    "parents": "-2127079,-449220",
    "name": "Yancheng District",
    "local_name": "鹽埕區",
    "name_en": "Yancheng District",
    "all_tags": {
      "name": "鹽埕區",
      "is_in": "臺灣高雄市",
      "name:en": "Yancheng District",
      "name:it": "Distretto di Yancheng",
      "name:ja": "塩埕区",
      "name:ko": "옌청구",
      "name:pl": "Yancheng",
      "name:vi": "Diêm Trình",
      "name:zh": "鹽埕區",
      "nat_ref": "64000010",
      "boundary": "administrative",
      "name:hak": "Yàm-thàng",
      "name:nan": "Iâm-tiâⁿ-khu",
      "way_area": "0.00014585",
      "wikidata": "Q713075",
      "wikipedia": "zh:鹽埕區",
      "is_in:city": "高雄市",
      "admin_level": "5",
      "postal_code": "803",
      "is_in:country": "TW"
    }
  },
  {
    "osm_id": -2782461,
    "boundary": "administrative",
    "admin_level": 5,
    "parents": "-1527220,-449220",
    "name": "Xindian District",
    "local_name": "新店區",
    "name_en": "Xindian District",
    "all_tags": {
      "name": "新店區",
      "name:de": "Xindian",
      "name:en": "Xindian District",
      "name:fr": "Xindian",
      "name:it": "Distretto di Xindian",
      "name:ja": "新店区",
      "name:ko": "신뎬 구",
      "name:vi": "Tân Điếm",
      "name:zh": "新店區",
      "nat_ref": "65000060",
      "boundary": "administrative",
      "name:hak": "Sîn-tiam-khî",
      "name:nan": "Sin-tiàm-khu",
      "way_area": "0.0108288",
      "wikidata": "Q340192",
      "wikipedia": "zh:新店區",
      "admin_level": "5"
    }
  },
  {
    "osm_id": -2106851,
    "boundary": "administrative",
    "admin_level": 5,
    "parents": "-2127079,-449220",
    "name": "Niaosong District",
    "local_name": "鳥松區",
    "name_en": "Niaosong District",
    "all_tags": {
      "name": "鳥松區",
      "is_in": "臺灣高雄市",
      "name:en": "Niaosong District",
      "name:it": "Distretto di Niaosong",
      "name:ja": "鳥松区",
      "name:ko": "냐오쑹구",
      "name:pl": "Niaosong",
      "name:vi": "Điểu Tùng",
      "name:zh": "鳥松區",
      "nat_ref": "64000180",
      "boundary": "administrative",
      "name:hak": "Tiâu-tshiùng-khî",
      "name:nan": "Chiáu-chhêng-khu",
      "way_area": "0.00216534",
      "wikidata": "Q708201",
      "wikipedia": "zh:鳥松區",
      "is_in:city": "高雄市",
      "admin_level": "5",
      "postal_code": "833",
      "is_in:country": "TW"
    }
  },
  {
    "osm_id": -2417093,
    "boundary": "administrative",
    "admin_level": 5,
    "parents": "-2418506,-449220",
    "name": "Qigu District",
    "local_name": "七股區",
    "name_en": "Qigu District",
    "all_tags": {
      "name": "七股區",
      "is_in": "臺灣臺南市",
      "name:de": "Qigu",
      "name:en": "Qigu District",
      "name:fr": "District de Qigu",
      "name:hr": "Distrikt Qigu",
      "name:it": "Distretto di Qigu",
      "name:ja": "七股区",
      "name:ko": "치구구",
      "name:vi": "Thất Cổ",
      "name:zh": "七股區",
      "nat_ref": "67000150",
      "boundary": "administrative",
      "name:hak": "Tshit-kú-khî",
      "name:nan": "Chhit-kó͘-khu",
      "name:yue": "七股區",
      "way_area": "0.0122005",
      "wikidata": "Q708677",
      "wikipedia": "zh:七股區",
      "is_in:city": "臺南市",
      "admin_level": "5",
      "postal_code": "724",
      "is_in:country": "TW"
    }
  },
  {
    "osm_id": -1296154,
    "boundary": "administrative",
    "admin_level": 6,
    "parents": "-3777248,-449220",
    "name": "Keelung",
    "local_name": "基隆市",
    "name_en": "Keelung",
    "all_tags": {
      "name": "基隆市",
      "name:ar": "كيلونغ",
      "name:az": "Kiilunq",
      "name:cs": "Ťi-lung",
      "name:de": "Keelung",
      "name:en": "Keelung",
      "name:eo": "Ĉilun",
      "name:es": "Keelung",
      "name:eu": "Keelung",
      "name:fa": "کیلونگ",
      "name:fi": "Keelung",
      "name:fr": "Keelung",
      "name:he": "ג'ילונג (טאיוואן)",
      "name:id": "Kota Keelung",
      "name:it": "Keelung",
      "name:ja": "基隆市",
      "name:ko": "지룽시",
      "name:lt": "Dzilongas",
      "name:mn": "Жилун",
      "name:nl": "Keelung",
      "name:no": "Chilung",
      "name:pl": "Keelung",
      "name:pt": "Keelung",
      "name:ru": "Цзилун",
      "name:sv": "Chilung",
      "name:th": "นครจีหลง",
      "name:tr": "Keelung",
      "name:uk": "Цзілун",
      "name:ur": "کیلونگ",
      "name:vi": "Cơ Long",
      "name:zh": "基隆市",
      "nat_ref": "10017",
      "boundary": "administrative",
      "name:arz": "كيلونج",
      "name:ast": "Keelung",
      "name:cdo": "Giĕ-lè̤ng",
      "name:ceb": "Keelung",
      "name:hak": "Kî-lùng-sṳ",
      "name:nan": "Ke-lâng-chhī",
      "name:sco": "Keelung",
      "name:war": "Keelung",
      "name:wuu": "基隆",
      "name:yue": "基隆",
      "way_area": "0.0120208",
      "wikidata": "Q249996",
      "ISO3166-2": "TW-KEE",
      "wikipedia": "zh:基隆市",
      "admin_level": "6",
      "name:nan-HJ": "基隆市",
      "name:nan-TL": "Ke-lâng-tshī",
      "name:nan-POJ": "Ke-lâng-chhī",
      "name:zh-Hans": "基隆市",
      "name:zh-Hant": "基隆市",
      "name:zh_pinyin": "JĪlÓng ShÌ"
    }
  },
  {
    "osm_id": -2417094,
    "boundary": "administrative",
    "admin_level": 5,
    "parents": "-2418506,-449220",
    "name": "Annan District",
    "local_name": "安南區",
    "name_en": "Annan District",
    "all_tags": {
      "name": "安南區",
      "is_in": "臺灣臺南市",
      "name:en": "Annan District",
      "name:fr": "District de Annan",
      "name:id": "Distrik Annan",
      "name:it": "Distretto di Annan",
      "name:ja": "安南区",
      "name:vi": "An Nam",
      "name:zh": "安南區",
      "nat_ref": "67000350",
      "boundary": "administrative",
      "name:hak": "An-nàm",
      "name:nan": "An-lâm-khu",
      "name:yue": "安南區",
      "way_area": "0.0103111",
      "wikidata": "Q706749",
      "wikipedia": "zh:安南區",
      "is_in:city": "臺南市",
      "admin_level": "5",
      "postal_code": "709",
      "is_in:country": "TW"
    }
  },
  {
    "osm_id": -2223534,
    "boundary": "administrative",
    "admin_level": 5,
    "parents": "-2418506,-449220",
    "name": "Nanxi District",
    "local_name": "楠西區",
    "name_en": "Nanxi District",
    "all_tags": {
      "name": "楠西區",
      "is_in": "臺灣臺南市",
      "name:de": "Nanxi",
      "name:en": "Nanxi District",
      "name:ja": "楠西区",
      "name:ko": "난시 구",
      "name:vi": "Nam Tây",
      "name:zh": "楠西區",
      "nat_ref": "67000240",
      "boundary": "administrative",
      "name:hak": "Nàm-sî-khî",
      "name:nan": "Lâm-se-khu",
      "name:yue": "楠西區",
      "way_area": "0.0096065",
      "wikidata": "Q708711",
      "wikipedia": "zh:楠西區",
      "is_in:city": "臺南市",
      "admin_level": "5",
      "postal_code": "715",
      "is_in:country": "TW"
    }
  },
  {
    "osm_id": -2116283,
    "boundary": "administrative",
    "admin_level": 5,
    "parents": "-2127079,-449220",
    "name": "Tianliao District",
    "local_name": "田寮區",
    "name_en": "Tianliao District",
    "all_tags": {
      "name": "田寮區",
      "is_in": "臺灣高雄市",
      "name:en": "Tianliao District",
      "name:it": "Distretto di Tianliao",
      "name:ja": "田寮区",
      "name:ko": "톈랴오구",
      "name:pl": "Tianliao",
      "name:vi": "Điền Liêu",
      "name:zh": "田寮區",
      "nat_ref": "64000220",
      "boundary": "administrative",
      "name:hak": "Thièn-liàu-khî",
      "name:nan": "Chhân-liâu-khu",
      "way_area": "0.00790222",
      "wikidata": "Q708212",
      "wikipedia": "zh:田寮區",
      "is_in:city": "高雄市",
      "admin_level": "5",
      "postal_code": "823",
      "is_in:country": "TW"
    }
  },
  {
    "osm_id": 483406044,
    "boundary": "administrative",
    "admin_level": 4,
    "parents": "-449220",
    "name": "頭巾嶼",
    "local_name": "頭巾嶼",
    "name_en": null,
    "all_tags": {
      "area": "yes",
      "name": "頭巾嶼",
      "place": "islet",
      "boundary": "administrative",
      "way_area": "3.56598e-07",
      "admin_level": "4"
    }
  },
  {
    "osm_id": -2162524,
    "boundary": "administrative",
    "admin_level": 5,
    "parents": "-2418506,-449220",
    "name": "Longqi District",
    "local_name": "龍崎區",
    "name_en": "Longqi District",
    "all_tags": {
      "name": "龍崎區",
      "is_in": "臺灣臺南市",
      "name:de": "Longqi",
      "name:en": "Longqi District",
      "name:it": "Distretto di Longqi",
      "name:ja": "龍崎区",
      "name:ko": "Longqi",
      "name:vi": "Long Khi",
      "name:zh": "龍崎區",
      "nat_ref": "67000300",
      "boundary": "administrative",
      "name:hak": "Liùng-khì-khî",
      "name:nan": "Liông-kiā-khu",
      "name:yue": "龍崎區",
      "way_area": "0.00548788",
      "wikidata": "Q708127",
      "wikipedia": "zh:龍崎區",
      "is_in:city": "臺南市",
      "admin_level": "5",
      "postal_code": "719",
      "is_in:country": "TW"
    }
  },
  {
    "osm_id": -2905065,
    "boundary": "administrative",
    "admin_level": 5,
    "parents": "-1293250,-449220",
    "name": "Neihu District",
    "local_name": "內湖區",
    "name_en": "Neihu District",
    "all_tags": {
      "name": "內湖區",
      "name:de": "Neihu",
      "name:en": "Neihu District",
      "name:fr": "District de Neihu",
      "name:id": "Distrik Neihu",
      "name:it": "Distretto di Neihu",
      "name:ja": "内湖区",
      "name:ko": "네이후구",
      "name:ru": "Нэйху",
      "name:vi": "Nội Hồ",
      "name:zh": "內湖區",
      "nat_ref": "63000100",
      "boundary": "administrative",
      "name:hak": "Nui-fù-khî",
      "name:nan": "Lāi-ô͘-khu",
      "name:yue": "內湖區",
      "way_area": "0.0028624",
      "wikidata": "Q271094",
      "wikipedia": "zh:內湖區",
      "admin_level": "5"
    }
  },
  {
    "osm_id": -1298302,
    "boundary": "administrative",
    "admin_level": 5,
    "parents": "-1527220,-449220",
    "name": "Shenkeng District",
    "local_name": "深坑區",
    "name_en": "Shenkeng District",
    "all_tags": {
      "name": "深坑區",
      "name:de": "Shenkeng",
      "name:en": "Shenkeng District",
      "name:fr": "Shenkeng",
      "name:it": "Distretto di Shenkeng",
      "name:ja": "深坑区",
      "name:ko": "선컹 구",
      "name:vi": "Thâm Khanh",
      "name:zh": "深坑區",
      "nat_ref": "65000180",
      "boundary": "administrative",
      "name:hak": "Chhṳ̂m-hâng-khî",
      "name:nan": "Chhim-kheⁿ-khu",
      "way_area": "0.00188046",
      "wikidata": "Q570363",
      "wikipedia": "zh:深坑區",
      "admin_level": "5"
    }
  },
  {
    "osm_id": 483406042,
    "boundary": "administrative",
    "admin_level": 4,
    "parents": "-449220",
    "name": "頭巾嶼",
    "local_name": "頭巾嶼",
    "name_en": null,
    "all_tags": {
      "area": "yes",
      "name": "頭巾嶼",
      "place": "islet",
      "boundary": "administrative",
      "way_area": "6.84956e-08",
      "admin_level": "4"
    }
  },
  {
    "osm_id": -2858710,
    "boundary": "administrative",
    "admin_level": 5,
    "parents": "-1527220,-449220",
    "name": "Sanxia District",
    "local_name": "三峽區",
    "name_en": "Sanxia District",
    "all_tags": {
      "name": "三峽區",
      "name:de": "Sanxia",
      "name:en": "Sanxia District",
      "name:fr": "Sanxia",
      "name:it": "Sanxia",
      "name:ja": "三峡区",
      "name:ko": "싼샤 구",
      "name:vi": "Tam Hạp",
      "name:zh": "三峽區",
      "nat_ref": "65000090",
      "boundary": "administrative",
      "name:hak": "Sâm-hia̍p-khî",
      "name:nan": "Sam-kiap-khu",
      "way_area": "0.0169455",
      "wikidata": "Q570349",
      "wikipedia": "zh:三峽區",
      "admin_level": "5"
    }
  },
  {
    "osm_id": -2959780,
    "boundary": "administrative",
    "admin_level": 5,
    "parents": "-2921154,-449220",
    "name": "Heping District",
    "local_name": "和平區",
    "name_en": "Heping District",
    "all_tags": {
      "name": "和平區",
      "name:en": "Heping District",
      "name:ja": "和平区",
      "name:ko": "허핑 구",
      "name:zh": "和平區",
      "nat_ref": "66000290",
      "boundary": "administrative",
      "name:hak": "Fò-phìn-khî",
      "name:nan": "Hô-pêng-khu",
      "name:yue": "和平區",
      "way_area": "0.0894814",
      "wikidata": "Q569695",
      "wikipedia": "zh:和平區 (台灣)",
      "admin_level": "5"
    }
  },
  {
    "osm_id": -2959670,
    "boundary": "administrative",
    "admin_level": 5,
    "parents": "-2921154,-449220",
    "name": "Dajia District",
    "local_name": "大甲區",
    "name_en": "Dajia District",
    "all_tags": {
      "name": "大甲區",
      "name:en": "Dajia District",
      "name:it": "Distretto di Dajia",
      "name:ja": "大甲区",
      "name:ko": "다자 구",
      "name:vi": "Đại Giáp",
      "name:zh": "大甲區",
      "nat_ref": "66000110",
      "boundary": "administrative",
      "name:hak": "Thai-kap-khî",
      "name:nan": "Tāi-kah-khu",
      "name:yue": "大甲區",
      "way_area": "0.00530824",
      "wikidata": "Q569611",
      "wikipedia": "zh:大甲區",
      "admin_level": "5"
    }
  },
  {
    "osm_id": -2411100,
    "boundary": "administrative",
    "admin_level": 5,
    "parents": "-2418506,-449220",
    "name": "Yanshui District",
    "local_name": "鹽水區",
    "name_en": "Yanshui District",
    "all_tags": {
      "name": "鹽水區",
      "is_in": "臺灣臺南市",
      "name:de": "Yanshui",
      "name:en": "Yanshui District",
      "name:fr": "District de Yanshui",
      "name:it": "Distretto di Yanshui",
      "name:ja": "塩水区",
      "name:ko": "옌수이구",
      "name:vi": "Diêm Thủy",
      "name:zh": "鹽水區",
      "nat_ref": "67000020",
      "boundary": "administrative",
      "name:hak": "Yàm-súi-khî",
      "name:nan": "Kiâm-chúi-khu",
      "name:yue": "鹽水區",
      "way_area": "0.00454709",
      "wikidata": "Q708224",
      "wikipedia": "zh:鹽水區",
      "is_in:city": "臺南市",
      "admin_level": "5",
      "alt_name:vi": "Diêm Thuỷ",
      "postal_code": "737",
      "is_in:country": "TW"
    }
  },
  {
    "osm_id": -2905066,
    "boundary": "administrative",
    "admin_level": 5,
    "parents": "-1293250,-449220",
    "name": "Shilin District",
    "local_name": "士林區",
    "name_en": "Shilin District",
    "all_tags": {
      "name": "士林區",
      "name:de": "Shilin",
      "name:en": "Shilin District",
      "name:fr": "District de Shilin",
      "name:id": "Distrik Shilin",
      "name:ja": "士林区",
      "name:ko": "스린구",
      "name:ru": "Шилинь",
      "name:vi": "Sỹ Lâm",
      "name:zh": "士林區",
      "nat_ref": "63000110",
      "boundary": "administrative",
      "name:hak": "Sṳ-lìm-khî",
      "name:nan": "Sū-lîm-khu",
      "name:yue": "士林區",
      "way_area": "0.0055615",
      "wikidata": "Q254626",
      "wikipedia": "zh:士林區",
      "admin_level": "5"
    }
  },
  {
    "osm_id": -2106746,
    "boundary": "administrative",
    "admin_level": 5,
    "parents": "-2127079,-449220",
    "name": "Xiaogang District",
    "local_name": "小港區",
    "name_en": "Xiaogang District",
    "all_tags": {
      "name": "小港區",
      "is_in": "臺灣高雄市",
      "name:en": "Xiaogang District",
      "name:it": "Distretto di Xiaogang",
      "name:ja": "小港区",
      "name:ko": "샤오강구",
      "name:pl": "Xiaogang",
      "name:vi": "Tiểu Cảng",
      "name:zh": "小港區",
      "nat_ref": "64000110",
      "boundary": "administrative",
      "name:hak": "Seú-kóng",
      "name:nan": "Sió-káng-khu",
      "way_area": "0.00467242",
      "wikidata": "Q718021",
      "wikipedia": "zh:小港區",
      "is_in:city": "高雄市",
      "admin_level": "5",
      "name:nan-HJ": "小港區",
      "name:nan-TL": "Sió-káng-khu",
      "postal_code": "812",
      "name:nan-POJ": "Sió-káng-khu",
      "is_in:country": "TW"
    }
  },
  {
    "osm_id": -2119976,
    "boundary": "administrative",
    "admin_level": 5,
    "parents": "-2127079,-449220",
    "name": "Hunei District",
    "local_name": "湖內區",
    "name_en": "Hunei District",
    "all_tags": {
      "name": "湖內區",
      "is_in": "臺灣高雄市",
      "name:en": "Hunei District",
      "name:it": "Distretto di Hunei",
      "name:ja": "湖内区",
      "name:ko": "후네이구",
      "name:pl": "Hunei",
      "name:vi": "Hồ Nội",
      "name:zh": "湖內區",
      "nat_ref": "64000250",
      "boundary": "administrative",
      "name:hak": "Fù-nui-khî",
      "name:nan": "Ô͘-lāi-khu",
      "way_area": "0.00191599",
      "wikidata": "Q709957",
      "wikipedia": "zh:湖內區",
      "is_in:city": "高雄市",
      "admin_level": "5",
      "postal_code": "829",
      "is_in:country": "TW"
    }
  },
  {
    "osm_id": -2409686,
    "boundary": "administrative",
    "admin_level": 5,
    "parents": "-2418506,-449220",
    "name": "Baihe District",
    "local_name": "白河區",
    "name_en": "Baihe District",
    "all_tags": {
      "name": "白河區",
      "is_in": "臺灣臺南市",
      "name:de": "Baihe",
      "name:en": "Baihe District",
      "name:fr": "District de Baihe",
      "name:it": "Distretto di Baihe",
      "name:ja": "白河区",
      "name:ko": "바이허 구",
      "name:vi": "Bạch Hà",
      "name:zh": "白河區",
      "nat_ref": "67000030",
      "boundary": "administrative",
      "name:hak": "Pha̍k-hò-khî",
      "name:nan": "Pe̍h-hô-khu",
      "name:yue": "白河區",
      "way_area": "0.0113315",
      "wikidata": "Q709025",
      "wikipedia": "zh:白河區",
      "is_in:city": "臺南市",
      "admin_level": "5",
      "postal_code": "732",
      "is_in:country": "TW"
    }
  },
  {
    "osm_id": 480636657,
    "boundary": "administrative",
    "admin_level": 4,
    "parents": "-449220",
    "name": "大貓嶼",
    "local_name": "大貓嶼",
    "name_en": null,
    "all_tags": {
      "area": "yes",
      "name": "大貓嶼",
      "place": "islet",
      "boundary": "administrative",
      "way_area": "7.34337e-06",
      "admin_level": "4"
    }
  },
  {
    "osm_id": -2166527,
    "boundary": "administrative",
    "admin_level": 5,
    "parents": "-2418506,-449220",
    "name": "Zuozhen District",
    "local_name": "左鎮區",
    "name_en": "Zuozhen District",
    "all_tags": {
      "name": "左鎮區",
      "is_in": "臺灣臺南市",
      "name:de": "Zuozhen",
      "name:en": "Zuozhen District",
      "name:it": "Distretto di Zuozhen",
      "name:ja": "左鎮区",
      "name:ko": "쭤전구",
      "name:vi": "Long Khi",
      "name:zh": "左鎮區",
      "nat_ref": "67000260",
      "boundary": "administrative",
      "name:hak": "Tsó-tsṳ́n-khî",
      "name:nan": "Chó-tìn-khu",
      "name:yue": "左鎮區",
      "way_area": "0.00641393",
      "wikidata": "Q708207",
      "wikipedia": "zh:左鎮區",
      "is_in:city": "臺南市",
      "admin_level": "5",
      "postal_code": "713",
      "is_in:country": "TW"
    }
  },
  {
    "osm_id": -2375337,
    "boundary": "administrative",
    "admin_level": 5,
    "parents": "-2418506,-449220",
    "name": "Liuying District",
    "local_name": "柳營區",
    "name_en": "Liuying District",
    "all_tags": {
      "name": "柳營區",
      "is_in": "臺灣臺南市",
      "name:de": "Liuying",
      "name:en": "Liuying District",
      "name:fr": "District de Liuying",
      "name:it": "Distretto di Liuying",
      "name:ja": "柳営区",
      "name:ko": "류잉구",
      "name:vi": "Liễu Doanh",
      "name:zh": "柳營區",
      "nat_ref": "67000040",
      "boundary": "administrative",
      "name:hak": "Liú-yàng-khî",
      "name:nan": "Liú-iâⁿ-khu",
      "name:yue": "柳營區",
      "way_area": "0.00544374",
      "wikidata": "Q708734",
      "wikipedia": "zh:柳營區",
      "is_in:city": "臺南市",
      "admin_level": "5",
      "postal_code": "736",
      "is_in:country": "TW"
    }
  },
  {
    "osm_id": -2123747,
    "boundary": "administrative",
    "admin_level": 5,
    "parents": "-2127079,-449220",
    "name": "Namaxia District",
    "local_name": "那瑪夏區",
    "name_en": "Namaxia District",
    "all_tags": {
      "name": "那瑪夏區",
      "is_in": "臺灣高雄市",
      "name:en": "Namaxia District",
      "name:ja": "ナマシャ区",
      "name:ko": "나마샤 구",
      "name:pl": "Namaxia",
      "name:vi": "Nam Mã Hạ",
      "name:zh": "那瑪夏區",
      "nat_ref": "64000380",
      "boundary": "administrative",
      "name:hak": "Namasia-khî",
      "name:nan": "Namasia-khu",
      "old_name": "三民鄉",
      "way_area": "0.0152145",
      "wikidata": "Q708115",
      "wikipedia": "zh:那瑪夏區",
      "is_in:city": "高雄市",
      "admin_level": "5",
      "postal_code": "849",
      "is_in:country": "TW"
    }
  }
]
