[
  {
    "osm_id": -71236,
    "boundary": "administrative",
    "admin_level": 4,
    "parents": "-60199",
    "name": "Rivne Oblast",
    "local_name": "Рівненська область",
    "name_en": "Rivne Oblast",
    "all_tags": {
      "ref": "РІВ",
      "flag": "http://upload.wikimedia.org/wikipedia/commons/3/3c/Flag_of_Rivne_Oblast.svg",
      "name": "Рівненська область",
      "place": "state",
      "koatuu": "5600000000",
      "ref:en": "RIV",
      "ref:ru": "РОВ",
      "katotth": "UA56000000000066151",
      "name:ar": "ريفنا أوبلاست",
      "name:be": "Ровенская вобласць",
      "name:bg": "Ровенска област",
      "name:ca": "Província de Rivne",
      "name:cs": "Rovenská oblast",
      "name:de": "Oblast Riwne",
      "name:en": "Rivne Oblast",
      "name:eo": "Rivna provinco",
      "name:es": "Óblast de Rivne",
      "name:et": "Rivne oblast",
      "name:eu": "Rivneko oblasta",
      "name:fa": "استان ریونه",
      "name:fi": "Rivnen alue",
      "name:fr": "Oblast de Rivne",
      "name:hr": "Rivnenska oblast",
      "name:hy": "Ռովնոյի մարզ",
      "name:id": "Oblast Rivne",
      "name:it": "Oblast' di Rivne",
      "name:ja": "リウネ州",
      "name:ka": "როვნოს ოლქი",
      "name:ko": "리우네 주",
      "name:lt": "Rivnės sritis",
      "name:lv": "Rivnes apgabals",
      "name:mk": "Ровенска област",
      "name:mr": "रिव्ह्ने ओब्लास्त",
      "name:ms": "Oblast Rivne",
      "name:nl": "Oblast Rivne",
      "name:nn": "Rivne oblast",
      "name:no": "Rivne oblast",
      "name:pl": "Obwód rówieński",
      "name:pt": "Oblast de Rivne",
      "name:ro": "Regiunea Rivne",
      "name:ru": "Ровенская область",
      "name:sh": "Rivnenska oblast",
      "name:sk": "Rivnenská oblasť",
      "name:sr": "Ривањска област",
      "name:sv": "Rivne oblast",
      "name:tr": "Rivne Oblastı",
      "name:uk": "Рівненська область",
      "name:vi": "Rivne (tỉnh)",
      "name:zh": "羅夫諾州",
      "boundary": "administrative",
      "name:crh": "Rivne vilâyeti",
      "name:nan": "Rivne séng",
      "name:pnb": "ریون اوبلاست",
      "name:rue": "Рівненьска область",
      "name:sco": "Rivne Oblast",
      "name:war": "Rivne Oblast",
      "timezone": "Europe/Kiev",
      "way_area": "2.57124",
      "wikidata": "Q174187",
      "ISO3166-2": "UA-56",
      "wikipedia": "uk:Рівненська область",
      "admin_level": "4",
      "name:be-tarask": "Ровенская вобласьць",
      "is_in:continent": "Europe",
      "is_in:country_code": "UA"
    }
  },
  {
    "osm_id": -11913383,
    "boundary": "administrative",
    "admin_level": 6,
    "parents": "-71248,-60199",
    "name": "Bila Tserkva Raion",
    "local_name": "Білоцерківський район",
    "name_en": "Bila Tserkva Raion",
    "all_tags": {
      "name": "Білоцерківський район",
      "place": "district",
      "koatuu": "3220400000",
      "katotth": "UA32020000000057002",
      "name:de": "Rajon Bila Zerkwa",
      "name:en": "Bila Tserkva Raion",
      "name:pl": "Rejon białocerkiewski",
      "name:ru": "Белоцерковский район",
      "name:uk": "Білоцерківський район",
      "boundary": "administrative",
      "way_area": "0.810399",
      "wikidata": "Q103821086",
      "wikipedia": "uk:Білоцерківський район",
      "admin_level": "6"
    }
  },
  {
    "osm_id": -11857109,
    "boundary": "administrative",
    "admin_level": 6,
    "parents": "-71980,-60199",
    "name": "Polohy Raion",
    "local_name": "Пологівський район",
    "name_en": "Polohy Raion",
    "all_tags": {
      "name": "Пологівський район",
      "place": "district",
      "koatuu": "2324200000",
      "katotth": "UA23100000000034132",
      "name:de": "Rajon Polohy",
      "name:en": "Polohy Raion",
      "name:pl": "Rejon połohiwski",
      "name:ru": "Пологовский район",
      "name:uk": "Пологівський район",
      "boundary": "administrative",
      "way_area": "0.807084",
      "wikidata": "Q103821944",
      "wikipedia": "uk:Пологівський район",
      "admin_level": "6"
    }
  },
  {
    "osm_id": -11833150,
    "boundary": "administrative",
    "admin_level": 6,
    "parents": "-71236,-60199",
    "name": "Sarny Raion",
    "local_name": "Сарненський район",
    "name_en": "Sarny Raion",
    "all_tags": {
      "name": "Сарненський район",
      "place": "district",
      "koatuu": "5625400000",
      "katotth": "UA56080000000096146",
      "name:de": "Rajon Sarny",
      "name:en": "Sarny Raion",
      "name:pl": "Rejon sarneński",
      "name:ru": "Сарненский район",
      "name:uk": "Сарненський район",
      "boundary": "administrative",
      "way_area": "0.804027",
      "wikidata": "Q103849156",
      "wikipedia": "uk:Сарненський район",
      "admin_level": "6"
    }
  },
  {
    "osm_id": -11839126,
    "boundary": "administrative",
    "admin_level": 6,
    "parents": "-91294,-60199",
    "name": "Myrhorod Raion",
    "local_name": "Миргородський район",
    "name_en": "Myrhorod Raion",
    "all_tags": {
      "name": "Миргородський район",
      "place": "district",
      "koatuu": "5323200000",
      "katotth": "UA53060000000045271",
      "name:de": "Rajon Myrhorod",
      "name:en": "Myrhorod Raion",
      "name:pl": "Rejon myrhorodzki",
      "name:ru": "Миргородский район",
      "name:uk": "Миргородський район",
      "boundary": "administrative",
      "way_area": "0.789709",
      "wikidata": "Q103852327",
      "wikipedia": "uk:Миргородський район",
      "admin_level": "6"
    }
  },
  {
    "osm_id": -11798712,
    "boundary": "administrative",
    "admin_level": 6,
    "parents": "-71250,-60199",
    "name": "Shostka Raion",
    "local_name": "Шосткинський район",
    "name_en": "Shostka Raion",
    "all_tags": {
      "name": "Шосткинський район",
      "place": "district",
      "koatuu": "5925300000",
      "katotth": "UA59100000000036457",
      "name:de": "Rajon Schostka",
      "name:en": "Shostka Raion",
      "name:pl": "Rejon szostkiński",
      "name:ru": "Шосткинский район",
      "name:uk": "Шосткинський район",
      "boundary": "administrative",
      "way_area": "0.662097",
      "wikidata": "Q103860573",
      "wikipedia": "uk:Шосткинський район",
      "admin_level": "6"
    }
  },
  {
    "osm_id": -11822577,
    "boundary": "administrative",
    "admin_level": 6,
    "parents": "-71249,-60199",
    "name": "Pryluky Raion",
    "local_name": "Прилуцький район",
    "name_en": "Pryluky Raion",
    "all_tags": {
      "name": "Прилуцький район",
      "place": "district",
      "koatuu": "7424100000",
      "katotth": "UA74080000000030554",
      "name:de": "Rajon Pryluky",
      "name:en": "Pryluky Raion",
      "name:pl": "Rejon pryłucki",
      "name:ru": "Прилукский район",
      "name:uk": "Прилуцький район",
      "boundary": "administrative",
      "way_area": "0.663046",
      "wikidata": "Q103826212",
      "wikipedia": "uk:Прилуцький район",
      "admin_level": "6"
    }
  },
  {
    "osm_id": -11839919,
    "boundary": "administrative",
    "admin_level": 6,
    "parents": "-101859,-60199",
    "name": "Oleksandriia Raion",
    "local_name": "Олександрійський район",
    "name_en": "Oleksandriia Raion",
    "all_tags": {
      "name": "Олександрійський район",
      "place": "district",
      "koatuu": "3520300000",
      "katotth": "UA35080000000062763",
      "name:de": "Rajon Olexandrija",
      "name:en": "Oleksandriia Raion",
      "name:pl": "Rejon aleksandryjski",
      "name:ru": "Александрийский район",
      "name:uk": "Олександрійський район",
      "boundary": "administrative",
      "way_area": "0.661629",
      "wikidata": "Q103821036",
      "wikipedia": "uk:Олександрійський район",
      "admin_level": "6"
    }
  },
  {
    "osm_id": -11809868,
    "boundary": "administrative",
    "admin_level": 6,
    "parents": "-71249,-60199",
    "name": "Koriukivka Raion",
    "local_name": "Корюківський район",
    "name_en": "Koriukivka Raion",
    "all_tags": {
      "name": "Корюківський район",
      "place": "district",
      "koatuu": "7422400000",
      "katotth": "UA74020000000089267",
      "name:de": "Rajon Korjukiwka",
      "name:en": "Koriukivka Raion",
      "name:pl": "Rejon koriukiwski",
      "name:ru": "Корюковский район",
      "name:uk": "Корюківський район",
      "boundary": "administrative",
      "way_area": "0.599322",
      "wikidata": "Q103859652",
      "wikipedia": "uk:Корюківський район",
      "admin_level": "6"
    }
  },
  {
    "osm_id": -11945945,
    "boundary": "administrative",
    "admin_level": 6,
    "parents": "-101746,-60199",
    "name": "Кам'янський район",
    "local_name": "Кам'янський район",
    "name_en": null,
    "all_tags": {
      "name": "Кам'янський район",
      "place": "district",
      "katotth": "UA12040000000032213",
      "name:ru": "Каменский район",
      "name:uk": "Кам'янський район",
      "boundary": "administrative",
      "way_area": "0.58711",
      "wikidata": "Q97495622",
      "wikipedia": "uk:Кам'янський район (Дніпропетровська область)",
      "admin_level": "6"
    }
  },
  {
    "osm_id": -11884966,
    "boundary": "administrative",
    "admin_level": 6,
    "parents": "-72634,-60199",
    "name": "Bolhrad Raion",
    "local_name": "Болградський район",
    "name_en": "Bolhrad Raion",
    "all_tags": {
      "name": "Болградський район",
      "place": "district",
      "koatuu": "5121400000",
      "katotth": "UA51060000000057808",
      "name:bg": "Болградски район",
      "name:de": "Rajon Bolhrad",
      "name:en": "Bolhrad Raion",
      "name:pl": "Rejon bołgradzki",
      "name:ro": "Raionul Bolgrad",
      "name:ru": "Болградский район",
      "name:uk": "Болградський район",
      "boundary": "administrative",
      "way_area": "0.52089",
      "wikidata": "Q103842904",
      "wikipedia": "uk:Болградський район",
      "admin_level": "6"
    }
  },
  {
    "osm_id": -11798623,
    "boundary": "administrative",
    "admin_level": 6,
    "parents": "-71250,-60199",
    "name": "Romny Raion",
    "local_name": "Роменський район",
    "name_en": "Romny Raion",
    "all_tags": {
      "name": "Роменський район",
      "place": "district",
      "koatuu": "5924100000",
      "katotth": "UA59060000000086008",
      "name:de": "Rajon Romny",
      "name:en": "Romny Raion",
      "name:pl": "Rejon romeński",
      "name:ru": "Роменский район",
      "name:uk": "Роменський район",
      "boundary": "administrative",
      "way_area": "0.494492",
      "wikidata": "Q103858836",
      "wikipedia": "uk:Роменський район",
      "admin_level": "6"
    }
  },
  {
    "osm_id": -11905203,
    "boundary": "administrative",
    "admin_level": 6,
    "parents": "-72526,-60199",
    "name": "Vyzhnytsia Raion",
    "local_name": "Вижницький район",
    "name_en": "Vyzhnytsia Raion",
    "all_tags": {
      "name": "Вижницький район",
      "place": "district",
      "koatuu": "7320500000",
      "katotth": "UA73020000000038148",
      "name:de": "Rajon Wyschnyzja",
      "name:en": "Vyzhnytsia Raion",
      "name:pl": "Rejon wyżnicki",
      "name:ro": "Vijnița",
      "name:ru": "Вижницкий район",
      "name:uk": "Вижницький район",
      "boundary": "administrative",
      "way_area": "0.226768",
      "wikidata": "Q103807564",
      "wikipedia": "uk:Вижницький район",
      "admin_level": "6"
    }
  },
  {
    "osm_id": -11806259,
    "boundary": "administrative",
    "admin_level": 6,
    "parents": "-72488,-60199",
    "name": "Nadvirna Raion",
    "local_name": "Надвірнянський район",
    "name_en": "Nadvirna Raion",
    "all_tags": {
      "name": "Надвірнянський район",
      "place": "district",
      "koatuu": "2624000000",
      "katotth": "UA26120000000036058",
      "name:de": "Rajon Nadwirna",
      "name:en": "Nadvirna Raion",
      "name:pl": "Rejon nadwórniański",
      "name:ru": "Надворнянский район",
      "name:uk": "Надвірнянський район",
      "boundary": "administrative",
      "way_area": "0.226538",
      "wikidata": "Q103810656",
      "wikipedia": "uk:Надвірнянський район",
      "admin_level": "6"
    }
  },
  {
    "osm_id": -11920243,
    "boundary": "administrative",
    "admin_level": 6,
    "parents": "-90742,-60199",
    "name": "Shepetivka Raion",
    "local_name": "Шепетівський район",
    "name_en": "Shepetivka Raion",
    "all_tags": {
      "name": "Шепетівський район",
      "place": "district",
      "koatuu": "6825500000",
      "katotth": "UA68060000000040570",
      "name:de": "Rajon Schepetiwka",
      "name:en": "Shepetivka Raion",
      "name:pl": "Rejon Szepetowski",
      "name:ru": "Шепетовский район",
      "name:uk": "Шепетівський район",
      "boundary": "administrative",
      "way_area": "0.672612",
      "wikidata": "Q103848598",
      "wikipedia": "uk:Шепетівський район",
      "admin_level": "6"
    }
  },
  {
    "osm_id": -11803996,
    "boundary": "administrative",
    "admin_level": 6,
    "parents": "-71254,-60199",
    "name": "Bohodukhiv Raion",
    "local_name": "Богодухівський район",
    "name_en": "Bohodukhiv Raion",
    "all_tags": {
      "name": "Богодухівський район",
      "place": "district",
      "koatuu": "6320800000",
      "katotth": "UA63020000000066931",
      "name:de": "Rajon Bohoduchiw",
      "name:en": "Bohodukhiv Raion",
      "name:pl": "Rejon bohoduchiwski",
      "name:ru": "Богодуховский район",
      "name:uk": "Богодухівський район",
      "boundary": "administrative",
      "way_area": "0.566247",
      "wikidata": "Q102474188",
      "wikipedia": "uk:Богодухівський район",
      "admin_level": "6"
    }
  },
  {
    "osm_id": -11851465,
    "boundary": "administrative",
    "admin_level": 6,
    "parents": "-101859,-60199",
    "name": "Holovanivsk Raion",
    "local_name": "Голованівський район",
    "name_en": "Holovanivsk Raion",
    "all_tags": {
      "name": "Голованівський район",
      "place": "district",
      "koatuu": "3521400000",
      "katotth": "UA35020000000074289",
      "name:de": "Rajon Holowaniwsk",
      "name:en": "Holovanivsk Raion",
      "name:pl": "Rejon hołowaniwski",
      "name:ru": "Голованевский район",
      "name:uk": "Голованівський район",
      "boundary": "administrative",
      "way_area": "0.514823",
      "wikidata": "Q103805929",
      "wikipedia": "uk:Голованівський район",
      "admin_level": "6"
    }
  },
  {
    "osm_id": -11841037,
    "boundary": "administrative",
    "admin_level": 6,
    "parents": "-72489,-60199",
    "name": "Tiachiv Raion",
    "local_name": "Тячівський район",
    "name_en": "Tiachiv Raion",
    "all_tags": {
      "name": "Тячівський район",
      "place": "district",
      "koatuu": "2124400000",
      "katotth": "UA21080000000048851",
      "name:cs": "okres Ťačiv",
      "name:de": "Rajon Tjatschiw",
      "name:en": "Tiachiv Raion",
      "name:hu": "Técsői járás",
      "name:pl": "Rejon tiacziwski",
      "name:ro": "Raionul Teceu",
      "name:ru": "Тячевский район",
      "name:uk": "Тячівський район",
      "boundary": "administrative",
      "way_area": "0.226246",
      "wikidata": "Q104539085",
      "wikipedia": "uk:Тячівський район",
      "admin_level": "6",
      "alt_name:cs": "Ťačivský rajón",
      "sorting_name:cs": "Ťačiv"
    }
  },
  {
    "osm_id": -2906253,
    "boundary": "administrative",
    "admin_level": 6,
    "parents": "-71973,-60199",
    "name": "Khartsyzk Municipality",
    "local_name": "Харцизька міська рада",
    "name_en": "Khartsyzk Municipality",
    "all_tags": {
      "name": "Харцизька міська рада",
      "place": "municipality",
      "koatuu": "1415000000",
      "name:en": "Khartsyzk Municipality",
      "name:ru": "Харцызский городской совет",
      "name:uk": "Харцизька міська рада",
      "alt_name": "Харцизьк",
      "boundary": "administrative",
      "way_area": "0.0290095",
      "wikidata": "Q4496152",
      "wikipedia": "uk:Харцизька міська рада",
      "population": "114105",
      "admin_level": "6",
      "postal_code": "86700-86780"
    }
  },
  {
    "osm_id": -2431155,
    "boundary": "administrative",
    "admin_level": 6,
    "parents": "-71973,-60199",
    "name": "Makiivka Municipality",
    "local_name": "Макіївська міська рада",
    "name_en": "Makiivka Municipality",
    "all_tags": {
      "name": "Макіївська міська рада",
      "place": "municipality",
      "koatuu": "1413500000",
      "name:en": "Makiivka Municipality",
      "name:ru": "Макеевский городской совет",
      "name:uk": "Макіївська міська рада",
      "alt_name": "Макіївка",
      "boundary": "administrative",
      "way_area": "0.0643173",
      "wikidata": "Q4275688",
      "wikipedia": "uk:Макіївська міська рада",
      "population": "432830",
      "admin_level": "6",
      "postal_code": "86100-86180"
    }
  },
  {
    "osm_id": -11851449,
    "boundary": "administrative",
    "admin_level": 6,
    "parents": "-101859,-60199",
    "name": "Novoukrainka Raion",
    "local_name": "Новоукраїнський район",
    "name_en": "Novoukrainka Raion",
    "all_tags": {
      "name": "Новоукраїнський район",
      "place": "district",
      "koatuu": "3524000000",
      "katotth": "UA35060000000086172",
      "name:de": "Rajon Nowoukrajinka",
      "name:en": "Novoukrainka Raion",
      "name:pl": "Rejon nowoukraiński",
      "name:ru": "Новоукраинский район",
      "name:uk": "Новоукраїнський район",
      "boundary": "administrative",
      "way_area": "0.632156",
      "wikidata": "Q103821050",
      "wikipedia": "uk:Новоукраїнський район",
      "admin_level": "6"
    }
  },
  {
    "osm_id": -11909246,
    "boundary": "administrative",
    "admin_level": 6,
    "parents": "-71248,-60199",
    "name": "Obukhiv Raion",
    "local_name": "Обухівський район",
    "name_en": "Obukhiv Raion",
    "all_tags": {
      "name": "Обухівський район",
      "place": "district",
      "koatuu": "3223100000",
      "katotth": "UA32120000000081110",
      "name:de": "Rajon Obuchiw",
      "name:en": "Obukhiv Raion",
      "name:pl": "Rejon obuchowski",
      "name:ru": "Обуховский район",
      "name:uk": "Обухівський район",
      "boundary": "administrative",
      "way_area": "0.45542",
      "wikidata": "Q103822059",
      "wikipedia": "uk:Обухівський район",
      "admin_level": "6"
    }
  },
  {
    "osm_id": -11951882,
    "boundary": "administrative",
    "admin_level": 6,
    "parents": "-90726,-60199",
    "name": "Mohyliv-Podilskyi Raion",
    "local_name": "Могилів-Подільський район",
    "name_en": "Mohyliv-Podilskyi Raion",
    "all_tags": {
      "name": "Могилів-Подільський район",
      "place": "district",
      "koatuu": "0522600000",
      "katotth": "UA05080000000040234",
      "name:de": "Rajon Mohyliw-Podilskyj",
      "name:en": "Mohyliv-Podilskyi Raion",
      "name:pl": "Rejon mohylowski",
      "name:ru": "Могилёв-Подольский район",
      "name:uk": "Могилів-Подільський район",
      "boundary": "administrative",
      "way_area": "0.391888",
      "wikidata": "Q103819842",
      "wikipedia": "uk:Могилів-Подільський район",
      "admin_level": "6"
    }
  },
  {
    "osm_id": -2913319,
    "boundary": "administrative",
    "admin_level": 6,
    "parents": "-71973,-60199",
    "name": "Snizhne Municipality",
    "local_name": "Сніжнянська міська рада",
    "name_en": "Snizhne Municipality",
    "all_tags": {
      "name": "Сніжнянська міська рада",
      "place": "municipality",
      "koatuu": "1414400000",
      "name:en": "Snizhne Municipality",
      "name:ru": "Снежнянский городской совет",
      "name:uk": "Сніжнянська міська рада",
      "alt_name": "Сніжне",
      "boundary": "administrative",
      "way_area": "0.0261776",
      "wikidata": "Q4425565",
      "wikipedia": "uk:Сніжнянська міська рада",
      "population": "68059",
      "admin_level": "6",
      "alt_name:en": "Snizhne City Council",
      "postal_code": "86500-86599",
      "population:date": "2019"
    }
  },
  {
    "osm_id": -11919403,
    "boundary": "administrative",
    "admin_level": 6,
    "parents": "-72525,-60199",
    "name": "Chortkiv Raion",
    "local_name": "Чортківський район",
    "name_en": "Chortkiv Raion",
    "all_tags": {
      "name": "Чортківський район",
      "place": "district",
      "koatuu": "6125500000",
      "katotth": "UA61060000000068766",
      "name:de": "Rajon Tschortkiw",
      "name:en": "Chortkiv Raion",
      "name:pl": "Rejon czortkowski",
      "name:ru": "Чортковский район",
      "name:uk": "Чортківський район",
      "boundary": "administrative",
      "way_area": "0.617958",
      "wikidata": "Q2995475",
      "wikipedia": "uk:Чортківський район",
      "admin_level": "6"
    }
  },
  {
    "osm_id": -2912117,
    "boundary": "administrative",
    "admin_level": 6,
    "parents": "-71973,-60199",
    "name": "Yenakiieve Municipality",
    "local_name": "Єнакієвська міська рада",
    "name_en": "Yenakiieve Municipality",
    "all_tags": {
      "name": "Єнакієвська міська рада",
      "place": "municipality",
      "koatuu": "1412000000",
      "name:en": "Yenakiieve Municipality",
      "name:ru": "Енакиевский городской совет",
      "name:uk": "Єнакієвська міська рада",
      "alt_name": "Єнакієве",
      "boundary": "administrative",
      "way_area": "0.0262101",
      "wikidata": "Q4175531",
      "wikipedia": "uk:Єнакієвська міська рада",
      "population": "161535",
      "admin_level": "6",
      "postal_code": "86400-86470"
    }
  },
  {
    "osm_id": -9449033,
    "boundary": "administrative",
    "admin_level": 6,
    "parents": "-71973,-60199",
    "name": "Торезька міська рада",
    "local_name": "Торезька міська рада",
    "name_en": null,
    "all_tags": {
      "url": "http://www.toretsk-vca.gov.ua/reglament-roboti",
      "name": "Торезька міська рада",
      "name:uk": "Торезька міська рада",
      "alt_name": "Чистякове",
      "boundary": "administrative",
      "way_area": "0.0131235",
      "wikidata": "Q4461079",
      "wikipedia": "uk:Торезька міська рада",
      "admin_level": "6"
    }
  },
  {
    "osm_id": -11848195,
    "boundary": "administrative",
    "admin_level": 6,
    "parents": "-72489,-60199",
    "name": "Berehove Raion",
    "local_name": "Берегівський район",
    "name_en": "Berehove Raion",
    "all_tags": {
      "name": "Берегівський район",
      "place": "district",
      "koatuu": "2120400000",
      "katotth": "UA21020000000051405",
      "name:cs": "okres Berehovo",
      "name:de": "Rajon Berehowe",
      "name:en": "Berehove Raion",
      "name:hu": "Beregszászi járás",
      "name:pl": "Rejon berehowski",
      "name:ro": "Raionul Bereg",
      "name:ru": "Береговский район",
      "name:uk": "Берегівський район",
      "boundary": "administrative",
      "way_area": "0.176276",
      "wikidata": "Q65203424",
      "wikipedia": "uk:Берегівський район",
      "admin_level": "6",
      "alt_name:cs": "Berehovský rajón",
      "sorting_name:cs": "Berehovo"
    }
  },
  {
    "osm_id": -11852433,
    "boundary": "administrative",
    "admin_level": 6,
    "parents": "-72489,-60199",
    "name": "Khust Raion",
    "local_name": "Хустський район",
    "name_en": "Khust Raion",
    "all_tags": {
      "name": "Хустський район",
      "place": "district",
      "koatuu": "2125300000",
      "katotth": "UA21120000000022889",
      "name:cs": "okres Chust",
      "name:de": "Rajon Chust",
      "name:en": "Khust Raion",
      "name:hu": "Huszti járás",
      "name:pl": "Rejon chustski",
      "name:ro": "Raionul Hust",
      "name:ru": "Хустский район",
      "name:uk": "Хустський район",
      "boundary": "administrative",
      "way_area": "0.385686",
      "wikidata": "Q98637562",
      "wikipedia": "uk:Хустський район",
      "admin_level": "6",
      "alt_name:cs": "Chustský rajón",
      "sorting_name:cs": "Chust"
    }
  },
  {
    "osm_id": -11852023,
    "boundary": "administrative",
    "admin_level": 6,
    "parents": "-72489,-60199",
    "name": "Mukacheve Raion",
    "local_name": "Мукачівський район",
    "name_en": "Mukacheve Raion",
    "all_tags": {
      "name": "Мукачівський район",
      "place": "district",
      "koatuu": "2122700000",
      "katotth": "UA21040000000077329",
      "name:cs": "okres Mukačevo",
      "name:de": "Rajon Mukatschewe",
      "name:en": "Mukacheve Raion",
      "name:hu": "Munkácsi járás",
      "name:pl": "Rejon mukaczewski",
      "name:ro": "Raionul Muncaci",
      "name:ru": "Мукачевский район",
      "name:uk": "Мукачівський район",
      "boundary": "administrative",
      "way_area": "0.250329",
      "wikidata": "Q98663281",
      "wikipedia": "uk:Мукачівський район",
      "admin_level": "6",
      "alt_name:cs": "Mukačevský rajón",
      "sorting_name:cs": "Mukačevo"
    }
  },
  {
    "osm_id": -11841038,
    "boundary": "administrative",
    "admin_level": 6,
    "parents": "-72489,-60199",
    "name": "Rakhiv Raion",
    "local_name": "Рахівський район",
    "name_en": "Rakhiv Raion",
    "all_tags": {
      "name": "Рахівський район",
      "place": "district",
      "koatuu": "2123600000",
      "katotth": "UA21060000000059475",
      "name:cs": "okres Rachov",
      "name:de": "Rajon Rachiw",
      "name:en": "Rakhiv Raion",
      "name:hu": "Rahói járás",
      "name:pl": "Rejon rachowski",
      "name:ro": "Raionul Rahău",
      "name:ru": "Раховский район",
      "name:uk": "Рахівський район",
      "boundary": "administrative",
      "way_area": "0.222181",
      "wikidata": "Q103820074",
      "wikipedia": "uk:Рахівський район",
      "admin_level": "6",
      "alt_name:cs": "Rachivský rajón",
      "sorting_name:cs": "Rachov"
    }
  },
  {
    "osm_id": -1741638,
    "boundary": "administrative",
    "admin_level": 6,
    "parents": "-72488,-60199",
    "name": "Verkhovyna Raion",
    "local_name": "Верховинський район",
    "name_en": "Verkhovyna Raion",
    "all_tags": {
      "name": "Верховинський район",
      "place": "district",
      "koatuu": "2620800000",
      "katotth": "UA26020000000044654",
      "name:de": "Rajon Werchowyna",
      "name:en": "Verkhovyna Raion",
      "name:pl": "Rejon wierchowiński",
      "name:ru": "Верховинский район",
      "name:uk": "Верховинський район",
      "boundary": "administrative",
      "way_area": "0.150763",
      "wikidata": "Q104538934",
      "wikipedia": "uk:Верховинський район",
      "admin_level": "6"
    }
  },
  {
    "osm_id": -11797162,
    "boundary": "administrative",
    "admin_level": 6,
    "parents": "-72488,-60199",
    "name": "Kalush Raion",
    "local_name": "Калуський район",
    "name_en": "Kalush Raion",
    "all_tags": {
      "name": "Калуський район",
      "place": "district",
      "katotth": "UA26060000000042554",
      "name:de": "Rajon Kalusch",
      "name:en": "Kalush Raion",
      "name:pl": "Rejon kałuski",
      "name:ru": "Калушский район",
      "name:uk": "Калуський район",
      "boundary": "administrative",
      "way_area": "0.437415",
      "wikidata": "Q103821949",
      "wikipedia": "uk:Калуський район",
      "admin_level": "6"
    }
  },
  {
    "osm_id": -11806207,
    "boundary": "administrative",
    "admin_level": 6,
    "parents": "-72488,-60199",
    "name": "Kolomyia Raion",
    "local_name": "Коломийський район",
    "name_en": "Kolomyia Raion",
    "all_tags": {
      "name": "Коломийський район",
      "place": "district",
      "koatuu": "2623200000",
      "katotth": "UA26080000000050130",
      "name:de": "Rajon Kolomyja",
      "name:en": "Kolomyia Raion",
      "name:pl": "Rejon kołomyjski",
      "name:ru": "Коломыйский район",
      "name:uk": "Коломийський район",
      "boundary": "administrative",
      "way_area": "0.302584",
      "wikidata": "Q103821076",
      "wikipedia": "uk:Коломийський район",
      "admin_level": "6"
    }
  },
  {
    "osm_id": -11925970,
    "boundary": "administrative",
    "admin_level": 6,
    "parents": "-72380,-60199",
    "name": "Sambir Raion",
    "local_name": "Самбірський район",
    "name_en": "Sambir Raion",
    "all_tags": {
      "name": "Самбірський район",
      "place": "district",
      "koatuu": "4624200000",
      "katotth": "UA46080000000017237",
      "name:de": "Rajon Sombor",
      "name:en": "Sambir Raion",
      "name:pl": "Rejon samborski",
      "name:ru": "Самборский район",
      "name:uk": "Самбірський район",
      "boundary": "administrative",
      "way_area": "0.402383",
      "wikidata": "Q103821058",
      "wikipedia": "uk:Самбірський район",
      "admin_level": "6"
    }
  },
  {
    "osm_id": -11926073,
    "boundary": "administrative",
    "admin_level": 6,
    "parents": "-72380,-60199",
    "name": "Drohobych Raion",
    "local_name": "Дрогобицький район",
    "name_en": "Drohobych Raion",
    "all_tags": {
      "name": "Дрогобицький район",
      "place": "district",
      "koatuu": "4621200000",
      "katotth": "UA46020000000075920",
      "name:de": "Rajon Drohobytsch",
      "name:en": "Drohobych Raion",
      "name:pl": "Rejon Drohobycki",
      "name:ru": "Дрогобычский район",
      "name:uk": "Дрогобицький район",
      "boundary": "administrative",
      "way_area": "0.184752",
      "wikidata": "Q103811400",
      "wikipedia": "uk:Дрогобицький район",
      "admin_level": "6"
    }
  },
  {
    "osm_id": -72380,
    "boundary": "administrative",
    "admin_level": 4,
    "parents": "-60199",
    "name": "Lviv Oblast",
    "local_name": "Львівська область",
    "name_en": "Lviv Oblast",
    "all_tags": {
      "ref": "ЛЬВ",
      "name": "Львівська область",
      "place": "state",
      "koatuu": "4600000000",
      "ref:en": "LVI",
      "ref:ru": "ЛЬВ",
      "katotth": "UA46000000000026241",
      "name:ar": "لفيف أوبلاست",
      "name:az": "Lvov vilayəti",
      "name:be": "Львоўская вобласць",
      "name:bg": "Лвовска област",
      "name:ca": "Província de Lviv",
      "name:cs": "Lvovská oblast",
      "name:cv": "Львов облаçĕ",
      "name:de": "Oblast Lemberg",
      "name:en": "Lviv Oblast",
      "name:eo": "Lviva provinco",
      "name:es": "Óblast de Leópolis",
      "name:et": "Lvivi oblast",
      "name:eu": "Lviveko oblasta",
      "name:fa": "استان لووف",
      "name:fi": "Lvivin alue",
      "name:fr": "Oblast de Lviv",
      "name:he": "מחוז לבוב",
      "name:hr": "Ljvivska oblast",
      "name:hu": "Lvivi terület",
      "name:hy": "Լվովի մարզ",
      "name:id": "Oblast Lviv",
      "name:it": "Oblast' di Leopoli",
      "name:ja": "リヴィウ州",
      "name:ka": "ლვოვის ოლქი",
      "name:ko": "리비우 주",
      "name:lt": "Lvovo sritis",
      "name:lv": "Ļvovas apgabals",
      "name:mk": "Лавовска област",
      "name:mr": "लिव्हिव ओब्लास्त",
      "name:ms": "Oblast Lviv",
      "name:nl": "Oblast Lviv",
      "name:nn": "Lviv oblast",
      "name:no": "Lviv oblast",
      "name:os": "Львовы облæст",
      "name:pl": "Obwód lwowski",
      "name:pt": "Oblast de Lviv",
      "name:ro": "Regiunea Liov",
      "name:ru": "Львовская область",
      "name:sh": "Lavovska oblast",
      "name:sk": "Ľvovská oblasť",
      "name:sr": "Лавовска област",
      "name:sv": "Lviv oblast",
      "name:tr": "Lviv Oblastı",
      "name:uk": "Львівська область",
      "name:vi": "Lviv (tỉnh)",
      "name:zh": "利沃夫州",
      "boundary": "administrative",
      "name:crh": "İlbav vilâyeti",
      "name:nan": "Lviv séng",
      "name:pnb": "لویو اوبلاست",
      "name:rue": "Львівска область",
      "name:sco": "Lviv Oblast",
      "name:szl": "Lwowski uobwůd",
      "name:war": "Lviv Oblast",
      "timezone": "Europe/Kiev",
      "way_area": "2.72199",
      "wikidata": "Q164193",
      "ISO3166-2": "UA-46",
      "wikipedia": "uk:Львівська область",
      "admin_level": "4",
      "name:zh-Hans": "利沃夫州",
      "name:zh-Hant": "利維夫州",
      "name:be-tarask": "Львоўская вобласьць"
    }
  },
  {
    "osm_id": -11925687,
    "boundary": "administrative",
    "admin_level": 6,
    "parents": "-72380,-60199",
    "name": "Lviv Raion",
    "local_name": "Львівський район",
    "name_en": "Lviv Raion",
    "all_tags": {
      "name": "Львівський район",
      "place": "district",
      "katotth": "UA46060000000042587",
      "name:en": "Lviv Raion",
      "name:pl": "Rejon lwowski",
      "name:ru": "Львовский район",
      "name:uk": "Львівський район",
      "boundary": "administrative",
      "way_area": "0.621974",
      "wikidata": "Q97454599",
      "wikipedia": "uk:Львівський район",
      "start_date": "2020-07-17",
      "admin_level": "6"
    }
  },
  {
    "osm_id": -11923012,
    "boundary": "administrative",
    "admin_level": 6,
    "parents": "-72380,-60199",
    "name": "Chervonohrad Raion",
    "local_name": "Червоноградський район",
    "name_en": "Chervonohrad Raion",
    "all_tags": {
      "name": "Червоноградський район",
      "place": "district",
      "katotth": "UA46120000000057093",
      "name:en": "Chervonohrad Raion",
      "name:ru": "Червоноградский район",
      "name:uk": "Червоноградський район",
      "boundary": "administrative",
      "way_area": "0.378899",
      "wikidata": "Q97454637",
      "wikipedia": "uk:Червоноградський район",
      "start_date": "2020-07-17",
      "admin_level": "6"
    }
  },
  {
    "osm_id": -11923087,
    "boundary": "administrative",
    "admin_level": 6,
    "parents": "-72380,-60199",
    "name": "Zolochiv Raion",
    "local_name": "Золочівський район",
    "name_en": "Zolochiv Raion",
    "all_tags": {
      "name": "Золочівський район",
      "place": "district",
      "koatuu": "4621800000",
      "katotth": "UA46040000000069196",
      "name:de": "Rajon Solotschiw",
      "name:en": "Zolochiv Raion",
      "name:pl": "Rejon złoczowski",
      "name:ru": "Золочевский район",
      "name:uk": "Золочівський район",
      "boundary": "administrative",
      "way_area": "0.361293",
      "wikidata": "Q103839840",
      "wikipedia": "uk:Золочівський район",
      "admin_level": "6"
    }
  },
  {
    "osm_id": -11905201,
    "boundary": "administrative",
    "admin_level": 6,
    "parents": "-72526,-60199",
    "name": "Dnistrovskyi Raion",
    "local_name": "Дністровський район",
    "name_en": "Dnistrovskyi Raion",
    "all_tags": {
      "name": "Дністровський район",
      "place": "district",
      "katotth": "UA73040000000031528",
      "name:en": "Dnistrovskyi Raion",
      "name:uk": "Дністровський район",
      "boundary": "administrative",
      "way_area": "0.25776",
      "wikidata": "Q97495620",
      "wikipedia": "uk:Дністровський район",
      "start_date": "2020-07-17",
      "admin_level": "6"
    }
  },
  {
    "osm_id": -72525,
    "boundary": "administrative",
    "admin_level": 4,
    "parents": "-60199",
    "name": "Ternopil Oblast",
    "local_name": "Тернопільська область",
    "name_en": "Ternopil Oblast",
    "all_tags": {
      "ref": "ТЕР",
      "flag": "http://upload.wikimedia.org/wikipedia/commons/d/dc/Flag_of_Ternopil_Oblast.svg",
      "name": "Тернопільська область",
      "place": "state",
      "koatuu": "6100000000",
      "ref:en": "TER",
      "ref:ru": "ТЕР",
      "katotth": "UA61000000000060328",
      "name:ar": "تيرنوبل أوبلاست",
      "name:be": "Цярнопальская вобласць",
      "name:bg": "Тернополска област",
      "name:ca": "Província de Ternópill",
      "name:cs": "Ternopilská oblast",
      "name:de": "Oblast Ternopil",
      "name:en": "Ternopil Oblast",
      "name:eo": "Ternopila provinco",
      "name:es": "Óblast de Ternópil",
      "name:et": "Ternopili oblast",
      "name:eu": "Ternopilgo oblasta",
      "name:fa": "استان ترنوپیل",
      "name:fi": "Ternopilin alue",
      "name:fr": "Oblast de Ternopil",
      "name:he": "מחוז טרנופול",
      "name:hr": "Ternopiljska oblast",
      "name:hu": "Ternopili terület",
      "name:hy": "Տերնոպոլի մարզ",
      "name:id": "Oblast Ternopil",
      "name:it": "Oblast' di Ternopil'",
      "name:ja": "テルノーピリ州",
      "name:ka": "ტერნოპოლის ოლქი",
      "name:ko": "테르노필 주",
      "name:lt": "Ternopilio sritis",
      "name:lv": "Ternopiļas apgabals",
      "name:mk": "Тернополска област",
      "name:mr": "तेर्नोपिल ओब्लास्त",
      "name:nl": "Oblast Ternopil",
      "name:nn": "Ternopil oblast",
      "name:no": "Ternopil oblast",
      "name:pl": "Obwód tarnopolski",
      "name:pt": "Oblast de Ternopil",
      "name:ro": "Regiunea Ternopil",
      "name:ru": "Тернопольская область",
      "name:sh": "Ternopiljska oblast",
      "name:sk": "Ternopiľská oblasť",
      "name:sr": "Тернопољска област",
      "name:sv": "Ternopil oblast",
      "name:tr": "Ternopil Oblastı",
      "name:uk": "Тернопільська область",
      "name:vi": "Ternopil (tỉnh)",
      "name:zh": "捷爾諾波爾州",
      "boundary": "administrative",
      "name:crh": "Ternopil vilâyeti",
      "name:nan": "Ternopil séng",
      "name:pnb": "ترنوپل اوبلاست",
      "name:rue": "Тернопільска область",
      "name:sco": "Ternopil Oblast",
      "name:szl": "Tarnopolski uobwůd",
      "name:war": "Ternopil Oblast",
      "timezone": "Europe/Kiev",
      "way_area": "1.71381",
      "wikidata": "Q173407",
      "ISO3166-2": "UA-61",
      "wikipedia": "uk:Тернопільська область",
      "admin_level": "4",
      "name:be-tarask": "Тэрнопальская вобласьць"
    }
  },
  {
    "osm_id": -11919556,
    "boundary": "administrative",
    "admin_level": 6,
    "parents": "-72525,-60199",
    "name": "Ternopil Raion",
    "local_name": "Тернопільський район",
    "name_en": "Ternopil Raion",
    "all_tags": {
      "name": "Тернопільський район",
      "place": "district",
      "koatuu": "6125200000",
      "katotth": "UA61040000000090285",
      "name:de": "Rajon Ternopil",
      "name:en": "Ternopil Raion",
      "name:pl": "Rejon tarnopolski",
      "name:ru": "Тернопольский район",
      "name:uk": "Тернопільський район",
      "boundary": "administrative",
      "way_area": "0.765339",
      "wikidata": "Q102428782",
      "wikipedia": "uk:Тернопільський район",
      "admin_level": "6"
    }
  },
  {
    "osm_id": -11918336,
    "boundary": "administrative",
    "admin_level": 6,
    "parents": "-72525,-60199",
    "name": "Kremenets Raion",
    "local_name": "Кременецький район",
    "name_en": "Kremenets Raion",
    "all_tags": {
      "name": "Кременецький район",
      "place": "district",
      "koatuu": "6123400000",
      "katotth": "UA61020000000016944",
      "name:en": "Kremenets Raion",
      "name:pl": "Rejon krzemieniecki",
      "name:ru": "Кременецкий район",
      "name:uk": "Кременецький район",
      "boundary": "administrative",
      "way_area": "0.330509",
      "wikidata": "Q102436424",
      "wikipedia": "uk:Кременецький район",
      "admin_level": "6"
    }
  },
  {
    "osm_id": -11831110,
    "boundary": "administrative",
    "admin_level": 6,
    "parents": "-71236,-60199",
    "name": "Dubno Raion",
    "local_name": "Дубенський район",
    "name_en": "Dubno Raion",
    "all_tags": {
      "name": "Дубенський район",
      "place": "district",
      "koatuu": "5621600000",
      "katotth": "UA56040000000062179",
      "name:de": "Rajon Dubno",
      "name:en": "Dubno Raion",
      "name:pl": "Rejon dubieński",
      "name:ru": "Дубенский район",
      "name:uk": "Дубенський район",
      "boundary": "administrative",
      "way_area": "0.416436",
      "wikidata": "Q103858594",
      "wikipedia": "uk:Дубенський район",
      "admin_level": "6"
    }
  },
  {
    "osm_id": -11883401,
    "boundary": "administrative",
    "admin_level": 6,
    "parents": "-72634,-60199",
    "name": "Bilhorod-Dnistrovskyi Raion",
    "local_name": "Білгород-Дністровський район",
    "name_en": "Bilhorod-Dnistrovskyi Raion",
    "all_tags": {
      "name": "Білгород-Дністровський район",
      "place": "district",
      "koatuu": "5120800000",
      "katotth": "UA51040000000032911",
      "name:de": "Rajon Bilhorod-Dnistrowskyj",
      "name:en": "Bilhorod-Dnistrovskyi Raion",
      "name:md": "Районул Четатя Албэ",
      "name:pl": "Rejon białogrodzki",
      "name:ro": "Raionul Cetatea Albă",
      "name:ru": "Белгород-Днестровский район",
      "name:uk": "Білгород-Дністровський район",
      "boundary": "administrative",
      "way_area": "0.602383",
      "wikidata": "Q103842889",
      "wikipedia": "uk:Білгород-Дністровський район",
      "admin_level": "6"
    }
  },
  {
    "osm_id": -11874246,
    "boundary": "administrative",
    "admin_level": 6,
    "parents": "-71022,-60199",
    "name": "Skadovsk Raion",
    "local_name": "Скадовський район",
    "name_en": "Skadovsk Raion",
    "all_tags": {
      "name": "Скадовський район",
      "place": "district",
      "koatuu": "6524700000",
      "katotth": "UA65080000000090947",
      "name:de": "Rajon Skadowsk",
      "name:en": "Skadovsk Raion",
      "name:pl": "Rejon skadowski",
      "name:ru": "Скадовский район",
      "name:uk": "Скадовський район",
      "boundary": "administrative",
      "way_area": "0.613876",
      "wikidata": "Q103861036",
      "wikipedia": "uk:Скадовський район",
      "admin_level": "6"
    }
  },
  {
    "osm_id": -11885532,
    "boundary": "administrative",
    "admin_level": 6,
    "parents": "-72634,-60199",
    "name": "Rozdilna Raion",
    "local_name": "Роздільнянський район",
    "name_en": "Rozdilna Raion",
    "all_tags": {
      "name": "Роздільнянський район",
      "place": "district",
      "koatuu": "5123900000",
      "katotth": "UA51140000000094970",
      "name:de": "Rajon Rosdilna",
      "name:en": "Rozdilna Raion",
      "name:pl": "Rejon rozdilniański",
      "name:ro": "Raionul Razdelna",
      "name:ru": "Раздельнянский район",
      "name:uk": "Роздільнянський район",
      "boundary": "administrative",
      "way_area": "0.422678",
      "wikidata": "Q103851926",
      "wikipedia": "uk:Роздільнянський район",
      "admin_level": "6"
    }
  },
  {
    "osm_id": -11874245,
    "boundary": "administrative",
    "admin_level": 6,
    "parents": "-71022,-60199",
    "name": "Херсонський район",
    "local_name": "Херсонський район",
    "name_en": null,
    "all_tags": {
      "name": "Херсонський район",
      "place": "district",
      "katotth": "UA65100000000029736",
      "name:ru": "Херсонский район",
      "name:uk": "Херсонський район",
      "boundary": "administrative",
      "way_area": "0.452882",
      "wikidata": "Q97495637",
      "wikipedia": "uk:Херсонський район",
      "admin_level": "6"
    }
  },
  {
    "osm_id": -71022,
    "boundary": "administrative",
    "admin_level": 4,
    "parents": "-60199",
    "name": "Kherson Oblast",
    "local_name": "Херсонська область",
    "name_en": "Kherson Oblast",
    "all_tags": {
      "ref": "ХРС",
      "name": "Херсонська область",
      "place": "state",
      "koatuu": "6500000000",
      "ref:en": "KHE",
      "ref:ru": "ХРС",
      "katotth": "UA65000000000030969",
      "name:ar": "خيرسون أوبلاست",
      "name:az": "Xerson vilayəti",
      "name:be": "Херсонская вобласць",
      "name:bg": "Херсонска област",
      "name:ca": "Província de Kherson",
      "name:cs": "Chersonská oblast",
      "name:de": "Oblast Cherson",
      "name:en": "Kherson Oblast",
      "name:eo": "Ĥersona provinco",
      "name:es": "Óblast de Jersón",
      "name:et": "Hersoni oblast",
      "name:eu": "Khersongo oblasta",
      "name:fa": "استان خرسون",
      "name:fi": "Hersonin alue",
      "name:fr": "Oblast de Kherson",
      "name:ga": "Cúige Kherson",
      "name:hr": "Hersonska oblast",
      "name:hu": "Herszoni terület",
      "name:hy": "Խերսոնի մարզ",
      "name:id": "Oblast Kherson",
      "name:it": "Oblast' di Cherson",
      "name:ja": "ヘルソン州",
      "name:ka": "ხერსონის ოლქი",
      "name:ko": "헤르손 주",
      "name:lt": "Chersono sritis",
      "name:lv": "Hersonas apgabals",
      "name:mk": "Херсонска област",
      "name:mr": "खेर्सन ओब्लास्त",
      "name:ms": "Oblast Kherson",
      "name:nl": "Oblast Cherson",
      "name:nn": "Kherson oblast",
      "name:no": "Kherson oblast",
      "name:os": "Херсоны облæст",
      "name:pl": "Obwód chersoński",
      "name:pt": "Oblast de Kherson",
      "name:ro": "Regiunea Herson",
      "name:ru": "Херсонская область",
      "name:sh": "Hersonska oblast",
      "name:sk": "Chersonská oblasť",
      "name:sr": "Херсонска област",
      "name:sv": "Cherson oblast",
      "name:tr": "Herson Oblastı",
      "name:uk": "Херсонська область",
      "name:vi": "Kherson (tỉnh)",
      "name:zh": "赫尔松州",
      "boundary": "administrative",
      "name:crh": "Herson vilâyeti",
      "name:diq": "Xerson",
      "name:nan": "Xerson séng",
      "name:pnb": "خیرسون اوبلاست",
      "name:rue": "Херсоньска область",
      "name:sco": "Kherson Oblast",
      "name:szl": "Chersůński uobwůd",
      "name:war": "Kherson Oblast",
      "timezone": "Europe/Kiev",
      "way_area": "3.94709",
      "wikidata": "Q163271",
      "ISO3166-2": "UA-65",
      "wikipedia": "uk:Херсонська область",
      "admin_level": "4",
      "name:be-tarask": "Хэрсонская вобласьць"
    }
  },
  {
    "osm_id": -1738966,
    "boundary": "administrative",
    "admin_level": 6,
    "parents": "-72635,-3114112,-60199",
    "name": "Bashtanka Raion",
    "local_name": "Баштанський район",
    "name_en": "Bashtanka Raion",
    "all_tags": {
      "name": "Баштанський район",
      "place": "district",
      "koatuu": "4820600000",
      "katotth": "UA48020000000033544",
      "name:de": "Rajon Baschtanka",
      "name:en": "Bashtanka Raion",
      "name:pl": "Rejon basztański",
      "name:ru": "Баштанский район",
      "name:uk": "Баштанський район",
      "boundary": "administrative",
      "way_area": "0.799537",
      "wikidata": "Q103824083",
      "wikipedia": "uk:Баштанський район",
      "admin_level": "6"
    }
  },
  {
    "osm_id": -11874322,
    "boundary": "administrative",
    "admin_level": 6,
    "parents": "-71022,-60199",
    "name": "Beryslav Raion",
    "local_name": "Бериславський район",
    "name_en": "Beryslav Raion",
    "all_tags": {
      "name": "Бериславський район",
      "place": "district",
      "koatuu": "6520600000",
      "katotth": "UA65020000000032929",
      "name:de": "Rajon Beryslaw",
      "name:en": "Beryslav Raion",
      "name:pl": "Rejon berysławski",
      "name:ru": "Бериславский район",
      "name:uk": "Бериславський район",
      "boundary": "administrative",
      "way_area": "0.566191",
      "wikidata": "Q103860728",
      "wikipedia": "uk:Бериславський район",
      "admin_level": "6"
    }
  },
  {
    "osm_id": -1738977,
    "boundary": "administrative",
    "admin_level": 6,
    "parents": "-72635,-3114112,-60199",
    "name": "Mykolaiv Raion",
    "local_name": "Миколаївський район",
    "name_en": "Mykolaiv Raion",
    "all_tags": {
      "name": "Миколаївський район",
      "place": "district",
      "koatuu": "4824200000",
      "katotth": "UA48060000000094390",
      "name:de": "Rajon Mykolajiw",
      "name:en": "Mykolaiv Raion",
      "name:pl": "Rejon mikołajowski",
      "name:ru": "Николаевский район",
      "name:uk": "Миколаївський район",
      "boundary": "administrative",
      "way_area": "1.02162",
      "wikidata": "Q104530289",
      "wikipedia": "uk:Миколаївський район",
      "admin_level": "6"
    }
  },
  {
    "osm_id": -11951843,
    "boundary": "administrative",
    "admin_level": 6,
    "parents": "-90726,-60199",
    "name": "Tulchyn Raion",
    "local_name": "Тульчинський район",
    "name_en": "Tulchyn Raion",
    "all_tags": {
      "name": "Тульчинський район",
      "place": "district",
      "koatuu": "0524300000",
      "katotth": "UA05100000000022396",
      "name:de": "Rajon Tultschyn",
      "name:en": "Tulchyn Raion",
      "name:pl": "Rejon tulczyński",
      "name:ru": "Тульчинский район",
      "name:uk": "Тульчинський район",
      "boundary": "administrative",
      "way_area": "0.469452",
      "wikidata": "Q103819915",
      "wikipedia": "uk:Тульчинський район",
      "admin_level": "6"
    }
  },
  {
    "osm_id": -11928916,
    "boundary": "administrative",
    "admin_level": 6,
    "parents": "-90726,-60199",
    "name": "Haisyn Raion",
    "local_name": "Гайсинський район",
    "name_en": "Haisyn Raion",
    "all_tags": {
      "name": "Гайсинський район",
      "place": "district",
      "koatuu": "0520800000",
      "katotth": "UA05040000000050292",
      "name:de": "Rajon Hajssyn",
      "name:en": "Haisyn Raion",
      "name:pl": "Rejon hajsyński",
      "name:ru": "Гайсинский район",
      "name:uk": "Гайсинський район",
      "boundary": "administrative",
      "way_area": "0.691406",
      "wikidata": "Q103795031",
      "wikipedia": "uk:Гайсинський район",
      "admin_level": "6"
    }
  },
  {
    "osm_id": -11952329,
    "boundary": "administrative",
    "admin_level": 6,
    "parents": "-71245,-60199",
    "name": "Berdychiv Raion",
    "local_name": "Бердичівський район",
    "name_en": "Berdychiv Raion",
    "all_tags": {
      "name": "Бердичівський район",
      "place": "district",
      "koatuu": "1820800000",
      "katotth": "UA18020000000072859",
      "name:de": "Rajon Berdytschiw",
      "name:en": "Berdychiv Raion",
      "name:pl": "Rejon berdyczowski",
      "name:ru": "Бердичевский район",
      "name:uk": "Бердичівський район",
      "boundary": "administrative",
      "way_area": "0.376838",
      "wikidata": "Q102446300",
      "wikipedia": "uk:Бердичівський район",
      "admin_level": "6"
    }
  },
  {
    "osm_id": -11812881,
    "boundary": "administrative",
    "admin_level": 6,
    "parents": "-71245,-60199",
    "name": "Zhytomyr Raion",
    "local_name": "Житомирський район",
    "name_en": "Zhytomyr Raion",
    "all_tags": {
      "name": "Житомирський район",
      "place": "district",
      "koatuu": "1822000000",
      "katotth": "UA18040000000058965",
      "name:de": "Rajon Schytomyr",
      "name:en": "Zhytomyr Raion",
      "name:fr": "Raïon de Jytomyr",
      "name:pl": "Rejon żytomierski",
      "name:ru": "Житомирский район",
      "name:uk": "Житомирський район",
      "boundary": "administrative",
      "way_area": "1.32512",
      "wikidata": "Q102463833",
      "wikipedia": "uk:Житомирський район",
      "admin_level": "6"
    }
  },
  {
    "osm_id": -11913464,
    "boundary": "administrative",
    "admin_level": 6,
    "parents": "-71248,-60199",
    "name": "Fastiv Raion",
    "local_name": "Фастівський район",
    "name_en": "Fastiv Raion",
    "all_tags": {
      "name": "Фастівський район",
      "place": "district",
      "koatuu": "3224900000",
      "katotth": "UA32140000000020217",
      "name:de": "Rajon Fastiw",
      "name:en": "Fastiv Raion",
      "name:pl": "Rejon fastowski",
      "name:ru": "Фастовский район",
      "name:uk": "Фастівський район",
      "boundary": "administrative",
      "way_area": "0.221391",
      "wikidata": "Q103822063",
      "wikipedia": "uk:Фастівський район",
      "admin_level": "6"
    }
  },
  {
    "osm_id": -11913603,
    "boundary": "administrative",
    "admin_level": 6,
    "parents": "-71248,-60199",
    "name": "Бучанський район",
    "local_name": "Бучанський район",
    "name_en": null,
    "all_tags": {
      "name": "Бучанський район",
      "place": "district",
      "katotth": "UA32080000000084076",
      "name:uk": "Бучанський район",
      "boundary": "administrative",
      "way_area": "0.324435",
      "wikidata": "Q97495611",
      "wikipedia": "uk:Бучанський район",
      "admin_level": "6"
    }
  },
  {
    "osm_id": -421866,
    "boundary": "administrative",
    "admin_level": 4,
    "parents": "-60199",
    "name": "Kyiv",
    "local_name": "Київ",
    "name_en": "Kyiv",
    "all_tags": {
      "flag": "http://upload.wikimedia.org/wikipedia/commons/3/35/Flag_of_Kyiv_Kurovskyi.svg",
      "name": "Київ",
      "place": "city",
      "koatuu": "8000000000",
      "katotth": "UA80000000000093317",
      "name:ab": "Кыив",
      "name:af": "Kyiv",
      "name:an": "Kyiv",
      "name:be": "Кіеў",
      "name:ca": "Kíiv",
      "name:de": "Kiew",
      "name:en": "Kyiv",
      "name:eo": "Kijivo",
      "name:es": "Kyiv",
      "name:et": "Kõjiv",
      "name:fi": "Kiova",
      "name:fr": "Kyïv",
      "name:fy": "Kiev",
      "name:ia": "Kiev",
      "name:io": "Kyiv",
      "name:it": "Kyiv",
      "name:ko": "키이우",
      "name:la": "Kiovia",
      "name:nl": "Kiev",
      "name:pl": "Kijów",
      "name:pt": "Kiev",
      "name:ro": "Kiev",
      "name:ru": "Киев",
      "name:sk": "Kyjev",
      "name:tr": "Kıyiv",
      "name:uk": "Київ",
      "name:vi": "Kyiv",
      "name:vo": "Küyiv",
      "boundary": "administrative",
      "int_name": "Kyiv",
      "name:ast": "Kiev",
      "name:bar": "Kiew",
      "name:jbo": "kiev",
      "name:szl": "Kijůw",
      "name:tzl": "Kíiv",
      "timezone": "Europe/Kiev",
      "way_area": "0.104585",
      "wikidata": "Q1899",
      "ISO3166-2": "UA-30",
      "wikipedia": "uk:Київ",
      "population": "2908249",
      "admin_level": "4",
      "alt_name:af": "Kiëf",
      "alt_name:an": "Kiev",
      "alt_name:ca": "Kíev",
      "alt_name:de": "Kyjiw",
      "alt_name:en": "Kiev",
      "alt_name:eo": "Kievo",
      "alt_name:es": "Kiev",
      "alt_name:et": "Kõjiv",
      "alt_name:fr": "Kiev",
      "alt_name:it": "Kiev",
      "alt_name:tr": "Kiev",
      "alt_name:vi": "Kiev",
      "alt_name:vo": "Kiev",
      "name:zh-Hans": "基辅",
      "name:zh-Hant": "基輔",
      "name:be-tarask": "Кіеў"
    }
  },
  {
    "osm_id": -11954459,
    "boundary": "administrative",
    "admin_level": 6,
    "parents": "-91278,-60199",
    "name": "Zvenyhorodka Raion",
    "local_name": "Звенигородський район",
    "name_en": "Zvenyhorodka Raion",
    "all_tags": {
      "name": "Звенигородський район",
      "place": "district",
      "koatuu": "7121200000",
      "katotth": "UA71020000000057292",
      "name:de": "Rajon Swenyhorodka",
      "name:en": "Zvenyhorodka Raion",
      "name:pl": "Rejon zwinogródzki",
      "name:ru": "Звенигородский район",
      "name:uk": "Звенигородський район",
      "boundary": "administrative",
      "way_area": "0.649784",
      "wikidata": "Q103812430",
      "wikipedia": "uk:Звенигородський район",
      "admin_level": "6"
    }
  },
  {
    "osm_id": -11851422,
    "boundary": "administrative",
    "admin_level": 6,
    "parents": "-101859,-60199",
    "name": "Кропивницький район",
    "local_name": "Кропивницький район",
    "name_en": null,
    "all_tags": {
      "name": "Кропивницький район",
      "place": "district",
      "koatuu": "3522500000",
      "katotth": "UA35040000000034705",
      "name:be": "Крапыўныцкі раён",
      "name:pl": "Rejon kropywnycki",
      "name:ru": "Кропивницкий район",
      "name:uk": "Кропивницький район",
      "boundary": "administrative",
      "old_name": "Кіровоградський район",
      "way_area": "1.17928",
      "wikidata": "Q103801438",
      "wikipedia": "uk:Кропивницький район",
      "admin_level": "6",
      "old_name:de": "Rajon Kirowohrad",
      "old_name:en": "Kirovohrad Raion",
      "old_name:pl": "Rejon kirowohradzki",
      "old_name:ru": "Кировоградский район",
      "old_name:uk": "Кіровоградський район"
    }
  },
  {
    "osm_id": -1738028,
    "boundary": "administrative",
    "admin_level": 6,
    "parents": "-101746,-60199",
    "name": "Kryviy Rih Raion",
    "local_name": "Криворізький район",
    "name_en": "Kryviy Rih Raion",
    "all_tags": {
      "name": "Криворізький район",
      "place": "district",
      "koatuu": "1221800000",
      "katotth": "UA12060000000022633",
      "name:de": "Rajon Krywyj Rih",
      "name:en": "Kryviy Rih Raion",
      "name:pl": "Rejon krzyworoski",
      "name:ru": "Криворожский район",
      "name:uk": "Криворізький район",
      "boundary": "administrative",
      "way_area": "0.688723",
      "wikidata": "Q103820557",
      "wikipedia": "uk:Криворізький район",
      "admin_level": "6"
    }
  },
  {
    "osm_id": -11920395,
    "boundary": "administrative",
    "admin_level": 6,
    "parents": "-91278,-60199",
    "name": "Cherkasy Raion",
    "local_name": "Черкаський район",
    "name_en": "Cherkasy Raion",
    "all_tags": {
      "name": "Черкаський район",
      "place": "district",
      "katotth": "UA71080000000036344",
      "name:de": "Rajon Tscherkassy",
      "name:en": "Cherkasy Raion",
      "name:pl": "Rejon czerkaski",
      "name:ru": "Черкасский район",
      "name:uk": "Черкаський район",
      "boundary": "administrative",
      "way_area": "0.851846",
      "wikidata": "Q103796930",
      "wikipedia": "uk:Черкаський район",
      "admin_level": "6"
    }
  },
  {
    "osm_id": -1739132,
    "boundary": "administrative",
    "admin_level": 6,
    "parents": "-91278,-60199",
    "name": "Zolotonosha Raion",
    "local_name": "Золотоніський район",
    "name_en": "Zolotonosha Raion",
    "all_tags": {
      "name": "Золотоніський район",
      "place": "district",
      "koatuu": "7121500000",
      "katotth": "UA71040000000022553",
      "name:de": "Rajon Solotonoscha",
      "name:en": "Zolotonosha Raion",
      "name:pl": "Rejon złotonoski",
      "name:ru": "Золотоношский район",
      "name:uk": "Золотоніський район",
      "boundary": "administrative",
      "way_area": "0.531555",
      "wikidata": "Q103812353",
      "wikipedia": "uk:Золотоніський район",
      "admin_level": "6"
    }
  },
  {
    "osm_id": -11900985,
    "boundary": "administrative",
    "admin_level": 6,
    "parents": "-71248,-60199",
    "name": "Boryspil Raion",
    "local_name": "Бориспільський район",
    "name_en": "Boryspil Raion",
    "all_tags": {
      "name": "Бориспільський район",
      "place": "district",
      "koatuu": "3220800000",
      "katotth": "UA32040000000054694",
      "name:de": "Rajon Boryspil",
      "name:en": "Boryspil Raion",
      "name:pl": "Rejon boryspolski",
      "name:ru": "Бориспольский район",
      "name:uk": "Бориспільський район",
      "boundary": "administrative",
      "way_area": "0.488203",
      "wikidata": "Q103821182",
      "wikipedia": "uk:Бориспільський район",
      "admin_level": "6"
    }
  },
  {
    "osm_id": -11900969,
    "boundary": "administrative",
    "admin_level": 6,
    "parents": "-71248,-60199",
    "name": "Brovary Raion",
    "local_name": "Броварський район",
    "name_en": "Brovary Raion",
    "all_tags": {
      "name": "Броварський район",
      "place": "district",
      "koatuu": "3221200000",
      "katotth": "UA32060000000012455",
      "name:de": "Rajon Browary",
      "name:en": "Brovary Raion",
      "name:pl": "Rejon browarski",
      "name:ru": "Броварской район",
      "name:uk": "Броварський район",
      "boundary": "administrative",
      "way_area": "0.366177",
      "wikidata": "Q103822042",
      "wikipedia": "uk:Броварський район",
      "admin_level": "6"
    }
  },
  {
    "osm_id": -101859,
    "boundary": "administrative",
    "admin_level": 4,
    "parents": "-60199",
    "name": "Kirovohrad Oblast",
    "local_name": "Кіровоградська область",
    "name_en": "Kirovohrad Oblast",
    "all_tags": {
      "ref": "КІР",
      "flag": "http://upload.wikimedia.org/wikipedia/commons/0/09/Flag_of_Kirovohrad_Oblast.svg",
      "name": "Кіровоградська область",
      "place": "state",
      "koatuu": "3500000000",
      "ref:en": "KIR",
      "ref:ru": "КИР",
      "katotth": "UA35000000000016081",
      "name:ar": "كيروفوهراد أوبلاست",
      "name:be": "Кіраваградская вобласць",
      "name:bg": "Кировоградска област",
      "name:ca": "Província de Kirovohrad",
      "name:cs": "Kirovohradská oblast",
      "name:de": "Oblast Kirowohrad",
      "name:en": "Kirovohrad Oblast",
      "name:eo": "Kirovohrada provinco",
      "name:es": "Óblast de Kirovogrado",
      "name:et": "Kirovogradi oblast",
      "name:eu": "Kirovohradeko oblasta",
      "name:fa": "استان کیرووهراد",
      "name:fi": "Kirovohradin alue",
      "name:fr": "Oblast de Kirovohrad",
      "name:hr": "Kirovogradska oblast",
      "name:hu": "Kirovohradi terület",
      "name:hy": "Կիրովոգրադի մարզ",
      "name:id": "Oblast Kirovohrad",
      "name:it": "Oblast' di Kirovohrad",
      "name:ja": "キロヴォフラード州",
      "name:ka": "კიროვოგრადის ოლქი",
      "name:ko": "키로보흐라드 주",
      "name:lt": "Kirovohrado sritis",
      "name:lv": "Kirovogradas apgabals",
      "name:mk": "Кировоградска област",
      "name:mr": "किरोव्होराद ओब्लास्त",
      "name:nl": "Oblast Kirovohrad",
      "name:nn": "Kirovohrad oblast",
      "name:no": "Kirovohrad oblast",
      "name:pl": "Obwód kirowohradzki",
      "name:pt": "Oblast de Kirovogrado",
      "name:ro": "Regiunea Kirovohrad",
      "name:ru": "Кировоградская область",
      "name:sh": "Kirovogradska oblast",
      "name:sk": "Kirovohradská oblasť",
      "name:sr": "Кировоградска област",
      "name:sv": "Kirovohrad oblast",
      "name:tr": "Kirovograd Oblastı",
      "name:uk": "Кіровоградська область",
      "name:vi": "Kirovohrad (tỉnh)",
      "name:zh": "基洛夫格勒州",
      "boundary": "administrative",
      "name:crh": "Kirovograd vilâyeti",
      "name:nan": "Kirovograd séng",
      "name:pnb": "کیرووہراد اوبلاست",
      "name:rue": "Кіровоградьска область",
      "name:sco": "Kirovohrad Oblast",
      "name:war": "Kirovohrad Oblast",
      "timezone": "Europe/Kiev",
      "way_area": "2.98789",
      "wikidata": "Q180981",
      "ISO3166-2": "UA-35",
      "wikipedia": "uk:Кіровоградська область",
      "admin_level": "4",
      "name:be-tarask": "Кіраваградзкая вобласьць"
    }
  },
  {
    "osm_id": -11835233,
    "boundary": "administrative",
    "admin_level": 6,
    "parents": "-91294,-60199",
    "name": "Lubny Raion",
    "local_name": "Лубенський район",
    "name_en": "Lubny Raion",
    "all_tags": {
      "name": "Лубенський район",
      "place": "district",
      "koatuu": "5322800000",
      "katotth": "UA53040000000081308",
      "name:de": "Rajon Lubny",
      "name:en": "Lubny Raion",
      "name:pl": "Rejon łubieński",
      "name:ru": "Лубенский район",
      "name:uk": "Лубенський район",
      "boundary": "administrative",
      "way_area": "0.688973",
      "wikidata": "Q103857260",
      "wikipedia": "uk:Лубенський район",
      "admin_level": "6"
    }
  },
  {
    "osm_id": -72488,
    "boundary": "administrative",
    "admin_level": 4,
    "parents": "-60199",
    "name": "Ivano-Frankivsk Oblast",
    "local_name": "Івано-Франківська область",
    "name_en": "Ivano-Frankivsk Oblast",
    "all_tags": {
      "ref": "ІВФ",
      "flag": "http://upload.wikimedia.org/wikipedia/commons/a/a2/Flag_of_Ivano-Frankivsk_Oblast.svg",
      "name": "Івано-Франківська область",
      "place": "state",
      "koatuu": "2600000000",
      "ref:en": "IVF",
      "ref:ru": "ИВФ",
      "katotth": "UA26000000000069363",
      "name:ar": "إيفانو فرانكيفسك أوبلاست",
      "name:be": "Івана-Франкоўская вобласць",
      "name:bg": "Ивано-Франковска област",
      "name:ca": "Província d'Ivano-Frankivsk",
      "name:cs": "Ivanofrankivská oblast",
      "name:de": "Oblast Iwano-Frankiwsk",
      "name:en": "Ivano-Frankivsk Oblast",
      "name:eo": "Ivano-Frankivska provinco",
      "name:es": "Óblast de Ivano-Frankivsk",
      "name:et": "Ivano-Frankivski oblast",
      "name:eu": "Ivano-Frankivskeko oblasta",
      "name:fa": "استان ایوانو فرانکیسوک",
      "name:fi": "Ivano-Frankivskin alue",
      "name:fr": "Oblast d'Ivano-Frankivsk",
      "name:hr": "Ivano-Frankivska oblast",
      "name:hu": "Ivano-frankivszki terület",
      "name:hy": "Իվանո-Ֆրանկովսկի մարզ",
      "name:id": "Oblast Ivano-Frankivsk",
      "name:it": "Oblast' di Ivano-Frankivs'k",
      "name:ja": "イヴァーノ＝フランキーウシク州",
      "name:ka": "ივანო-ფრანკოვსკის ოლქი",
      "name:ko": "이바노프란키우시크 주",
      "name:lt": "Ivano Frankivsko sritis",
      "name:lv": "Ivanofrankivskas apgabals",
      "name:mk": "Ивано-Франковска област",
      "name:mr": "इव्हानो-फ्रांकिव्ह्स्क ओब्लास्त",
      "name:nl": "Oblast Ivano-Frankivsk",
      "name:nn": "Ivano-Frankivsk oblast",
      "name:no": "Ivano-Frankivsk oblast",
      "name:pl": "Obwód iwanofrankiwski",
      "name:pt": "Oblast de Ivano-Frankivsk",
      "name:ro": "Regiunea Ivano-Frankivsk",
      "name:ru": "Ивано-Франковская область",
      "name:sh": "Ivano-Frankivska oblast",
      "name:sk": "Ivanofrankivská oblasť",
      "name:sv": "Ivano-Frankivsk oblast",
      "name:tr": "İvano-Frankivsk Oblastı",
      "name:uk": "Івано-Франківська область",
      "name:vi": "Ivano-Frankivsk (tỉnh)",
      "name:zh": "伊万诺-弗兰科夫斯克州",
      "boundary": "administrative",
      "name:crh": "İvano-Frankivsk vilâyeti",
      "name:nan": "Ivano-Frankivsk séng",
      "name:pnb": "ایوانو فرانکیوسک اوبلاست",
      "name:rue": "Івано-Франківска область",
      "name:sco": "Ivano-Frankivsk Oblast",
      "name:szl": "Iwanofrankiwski uobwůd",
      "name:war": "Ivano-Frankivsk Oblast",
      "timezone": "Europe/Kiev",
      "way_area": "1.70097",
      "wikidata": "Q178269",
      "ISO3166-2": "UA-26",
      "wikipedia": "uk:Івано-Франківська область",
      "admin_level": "4",
      "name:be-tarask": "Івана-Франкоўская вобласьць"
    }
  },
  {
    "osm_id": -71064,
    "boundary": "administrative",
    "admin_level": 4,
    "parents": "-60199",
    "name": "Volyn Oblast",
    "local_name": "Волинська область",
    "name_en": "Volyn Oblast",
    "all_tags": {
      "ref": "ВОЛ",
      "flag": "http://upload.wikimedia.org/wikipedia/commons/5/52/Volyn_flag.svg",
      "name": "Волинська область",
      "place": "state",
      "koatuu": "0700000000",
      "ref:en": "VOL",
      "ref:ru": "ВОЛ",
      "katotth": "UA07000000000024379",
      "name:ar": "فولين أوبلاست",
      "name:be": "Валынская вобласць",
      "name:bg": "Волинска област",
      "name:bs": "Volinjska oblast",
      "name:ca": "Província de Volínia",
      "name:cs": "Volyňská oblast",
      "name:cv": "Волынь облаçĕ",
      "name:de": "Oblast Wolhynien",
      "name:en": "Volyn Oblast",
      "name:eo": "Volina provinco",
      "name:es": "Óblast de Volinia",
      "name:et": "Volõõnia oblast",
      "name:eu": "Voliniako oblasta",
      "name:fa": "استان ولین",
      "name:fi": "Volynian alue",
      "name:fr": "Oblast de Volhynie",
      "name:hr": "Volinjska oblast",
      "name:hu": "Volinyi terület",
      "name:hy": "Վոլինի մարզ",
      "name:id": "Oblast Volyn",
      "name:it": "Oblast' di Volinia",
      "name:ja": "ヴォルィーニ州",
      "name:ka": "ვოლინის ოლქი",
      "name:ko": "볼린 주",
      "name:lt": "Voluinės sritis",
      "name:lv": "Volīnijas apgabals",
      "name:mk": "Волинска област",
      "name:mr": "व्होलिन ओब्लास्त",
      "name:ms": "Oblast Volyn",
      "name:nl": "Oblast Wolynië",
      "name:nn": "Volyn oblast",
      "name:no": "Volyn oblast",
      "name:pl": "Obwód wołyński",
      "name:pt": "Oblast de Volínia",
      "name:ro": "Regiunea Volîn",
      "name:ru": "Волынская область",
      "name:sh": "Volinjska oblast",
      "name:sk": "Volynská oblasť",
      "name:sr": "Волињска област",
      "name:sv": "Volyn oblast",
      "name:tr": "Volın Oblastı",
      "name:uk": "Волинська область",
      "name:vi": "Volyn (tỉnh)",
      "name:yi": "וואהלינער גובערניע",
      "name:zh": "沃倫州",
      "boundary": "administrative",
      "name:crh": "Volın vilâyeti",
      "name:nan": "Volyn séng",
      "name:pnb": "ولین اوبلاست",
      "name:rue": "Волиньска область",
      "name:sco": "Volyn Oblast",
      "name:szl": "Wołyński uobwůd",
      "name:war": "Volyn Oblast",
      "name:xmf": "ვოლინიშ ოლქი",
      "timezone": "Europe/Kiev",
      "way_area": "2.5906",
      "wikidata": "Q167859",
      "ISO3166-2": "UA-07",
      "wikipedia": "uk:Волинська область",
      "admin_level": "4",
      "is_in:country": "Ukraine",
      "name:be-tarask": "Валынская вобласьць",
      "is_in:continent": "Europe",
      "is_in:country_code": "UA"
    }
  },
  {
    "osm_id": -11921908,
    "boundary": "administrative",
    "admin_level": 6,
    "parents": "-71064,-60199",
    "name": "Kovel Raion",
    "local_name": "Ковельський район",
    "name_en": "Kovel Raion",
    "all_tags": {
      "name": "Ковельський район",
      "place": "district",
      "koatuu": "0722100000",
      "katotth": "UA07060000000092268",
      "name:de": "Rajon Kowel",
      "name:en": "Kovel Raion",
      "name:pl": "Rejon kowelski",
      "name:ru": "Ковельский район",
      "name:uk": "Ковельський район",
      "boundary": "administrative",
      "way_area": "0.988121",
      "wikidata": "Q103819955",
      "wikipedia": "uk:Ковельський район",
      "admin_level": "6"
    }
  },
  {
    "osm_id": -11921855,
    "boundary": "administrative",
    "admin_level": 6,
    "parents": "-71064,-60199",
    "name": "Kamin-Kashyrskyi Raion",
    "local_name": "Камінь-Каширський район",
    "name_en": "Kamin-Kashyrskyi Raion",
    "all_tags": {
      "name": "Камінь-Каширський район",
      "place": "district",
      "koatuu": "0721400000",
      "katotth": "UA07040000000026412",
      "name:de": "Rajon Kamin-Kaschyrskyj",
      "name:en": "Kamin-Kashyrskyi Raion",
      "name:pl": "Rejon koszyrski",
      "name:ru": "Камень-Каширский район",
      "name:uk": "Камінь-Каширський район",
      "boundary": "administrative",
      "way_area": "0.607035",
      "wikidata": "Q103799060",
      "wikipedia": "uk:Камінь-Каширський район",
      "admin_level": "6"
    }
  },
  {
    "osm_id": -11952373,
    "boundary": "administrative",
    "admin_level": 6,
    "parents": "-71245,-60199",
    "name": "Novohrad-Volynskyi Raion",
    "local_name": "Новоград-Волинський район",
    "name_en": "Novohrad-Volynskyi Raion",
    "all_tags": {
      "name": "Новоград-Волинський район",
      "place": "district",
      "koatuu": "1824000000",
      "katotth": "UA18080000000016657",
      "name:de": "Rajon Nowohrad-Wolynskyj",
      "name:en": "Novohrad-Volynskyi Raion",
      "name:pl": "Rejon nowogrodzki",
      "name:ru": "Новоград-Волынский район",
      "name:uk": "Новоград-Волинський район",
      "boundary": "administrative",
      "way_area": "0.666201",
      "wikidata": "Q102451616",
      "wikipedia": "uk:Новоград-Волинський район",
      "admin_level": "6"
    }
  },
  {
    "osm_id": -11823799,
    "boundary": "administrative",
    "admin_level": 6,
    "parents": "-91294,-60199",
    "name": "Kremenchuk Raion",
    "local_name": "Кременчуцький район",
    "name_en": "Kremenchuk Raion",
    "all_tags": {
      "name": "Кременчуцький район",
      "place": "district",
      "koatuu": "5322400000",
      "katotth": "UA53020000000034761",
      "name:de": "Rajon Krementschuk",
      "name:en": "Kremenchuk Raion",
      "name:pl": "Rejon krzemieńczucki",
      "name:ru": "Кременчугский район",
      "name:uk": "Кременчуцький район",
      "boundary": "administrative",
      "name:ceb": "Kremenchuts'kyi Rayon",
      "way_area": "0.754416",
      "wikidata": "Q103852125",
      "wikipedia": "uk:Кременчуцький район",
      "admin_level": "6",
      "old_name:ceb": "Kremenchugskiy Rayon"
    }
  },
  {
    "osm_id": -11809205,
    "boundary": "administrative",
    "admin_level": 6,
    "parents": "-71245,-60199",
    "name": "Korosten Raion",
    "local_name": "Коростенський район",
    "name_en": "Korosten Raion",
    "all_tags": {
      "name": "Коростенський район",
      "place": "district",
      "koatuu": "1822300000",
      "katotth": "UA18060000000021754",
      "name:be": "Корасценскі раён",
      "name:de": "Rajon Korosten",
      "name:en": "Korosten Raion",
      "name:es": "Raión de Korosten",
      "name:it": "Distretto di Korosten'",
      "name:pl": "Rejon korosteński",
      "name:ro": "Raionul Korosten",
      "name:ru": "Коростенский район",
      "name:uk": "Коростенський район",
      "name:vi": "Huyện Korosten",
      "boundary": "administrative",
      "way_area": "1.42581",
      "wikidata": "Q102456379",
      "wikipedia": "uk:Коростенський район",
      "admin_level": "6",
      "name:zh-min-nan": "Korosten Koān"
    }
  },
  {
    "osm_id": -11822411,
    "boundary": "administrative",
    "admin_level": 6,
    "parents": "-71249,-60199",
    "name": "Nizhyn Raion",
    "local_name": "Ніжинський район",
    "name_en": "Nizhyn Raion",
    "all_tags": {
      "name": "Ніжинський район",
      "place": "district",
      "koatuu": "7423300000",
      "katotth": "UA74040000000028062",
      "name:de": "Rajon Nischyn",
      "name:en": "Nizhyn Raion",
      "name:pl": "Rejon nieżyński",
      "name:ru": "Нежинский район",
      "name:uk": "Ніжинський район",
      "boundary": "administrative",
      "way_area": "0.925769",
      "wikidata": "Q103860141",
      "wikipedia": "uk:Ніжинський район",
      "admin_level": "6"
    }
  },
  {
    "osm_id": -11807410,
    "boundary": "administrative",
    "admin_level": 6,
    "parents": "-71249,-60199",
    "name": "Chernihiv Raion",
    "local_name": "Чернігівський район",
    "name_en": "Chernihiv Raion",
    "all_tags": {
      "name": "Чернігівський район",
      "place": "district",
      "koatuu": "7425500000",
      "katotth": "UA74100000000047140",
      "name:de": "Rajon Tschernihiw",
      "name:en": "Chernihiv Raion",
      "name:pl": "Rejon czernihowski",
      "name:ru": "Черниговский район",
      "name:uk": "Чернігівський район",
      "boundary": "administrative",
      "way_area": "1.3215",
      "wikidata": "Q103858737",
      "wikipedia": "uk:Чернігівський район (Чернігівська область)",
      "admin_level": "6"
    }
  },
  {
    "osm_id": -71249,
    "boundary": "administrative",
    "admin_level": 4,
    "parents": "-60199",
    "name": "Chernihiv Oblast",
    "local_name": "Чернігівська область",
    "name_en": "Chernihiv Oblast",
    "all_tags": {
      "ref": "ЧРГ",
      "flag": "http://upload.wikimedia.org/wikipedia/commons/f/f7/Flag_of_Chernihiv_Oblast.svg",
      "name": "Чернігівська область",
      "place": "state",
      "koatuu": "7400000000",
      "ref:en": "CRH",
      "ref:ru": "ЧРГ",
      "katotth": "UA74000000000025378",
      "name:ar": "تشرنيهيف أوبلاست",
      "name:az": "Çerniqiv vilayəti",
      "name:be": "Чарнігаўская вобласць",
      "name:bg": "Черниговска област",
      "name:ca": "Província de Txerníhiv",
      "name:cs": "Černihovská oblast",
      "name:de": "Oblast Tschernihiw",
      "name:en": "Chernihiv Oblast",
      "name:eo": "Ĉernihiva provinco",
      "name:es": "Óblast de Chernihiv",
      "name:et": "Tšernigivi oblast",
      "name:eu": "Txernihiveko oblasta",
      "name:fa": "استان چرنیهیو",
      "name:fi": "Tšernihivin alue",
      "name:fr": "Oblast de Tchernihiv",
      "name:he": "מחוז צ'רניהיב",
      "name:hr": "Černigivska oblast",
      "name:hu": "Csernyihivi terület",
      "name:hy": "Չեռնիգովի մարզ",
      "name:id": "Oblast Chernihiv",
      "name:it": "Oblast' di Černihiv",
      "name:ja": "チェルニーヒウ州",
      "name:ka": "ჩერნიგოვის ოლქი",
      "name:ko": "체르니히우 주",
      "name:lt": "Černihivo sritis",
      "name:lv": "Čerņihivas apgabals",
      "name:mk": "Черниговска област",
      "name:mr": "चेर्निहिव्ह ओब्लास्त",
      "name:nl": "Oblast Tsjernihiv",
      "name:nn": "Tsjernihiv oblast",
      "name:no": "Tsjernihiv oblast",
      "name:os": "Черниговы облæст",
      "name:pl": "Obwód czernihowski",
      "name:pt": "Oblast de Tchernigiv",
      "name:ro": "Regiunea Cernihiv",
      "name:ru": "Черниговская область",
      "name:sh": "Černigivska oblast",
      "name:sk": "Černihivská oblasť",
      "name:sv": "Tjernihiv oblast",
      "name:tr": "Çernihiv Oblastı",
      "name:uk": "Чернігівська область",
      "name:vi": "Chernihiv (tỉnh)",
      "name:zh": "切爾尼戈夫州",
      "boundary": "administrative",
      "name:crh": "Çernigiv vilâyeti",
      "name:nan": "Chernigiv séng",
      "name:pnb": "چرنیہیف اوبلاست",
      "name:rue": "Чернїгівска область",
      "name:sco": "Chernihiv Oblast",
      "name:szl": "Czerńihowski uobwůd",
      "name:war": "Chernihiv Oblast",
      "name:xmf": "ჩერნიგოვიშ ოლქი",
      "timezone": "Europe/Kiev",
      "way_area": "4.1146",
      "wikidata": "Q167874",
      "ISO3166-2": "UA-74",
      "wikipedia": "uk:Чернігівська область",
      "admin_level": "4",
      "alt_name:ro": "Regiunea Cernigov",
      "old_name:az": "Çerniqov vilayəti",
      "old_name:lt": "Černigovo sritis",
      "old_name:lv": "Čerņigovas apgabals",
      "old_name:pt": "Oblast de Chernigov",
      "old_name:ro": "Regiunea Cernigău",
      "old_name:tr": "Çernigov Oblastı",
      "name:zh-Hans": "切尔尼戈夫州",
      "name:zh-Hant": "切爾尼戈夫州",
      "name:be-tarask": "Чарнігаўская вобласьць"
    }
  },
  {
    "osm_id": -11822257,
    "boundary": "administrative",
    "admin_level": 6,
    "parents": "-71249,-60199",
    "name": "Novhorod-Siverskyi Raion",
    "local_name": "Новгород-Сіверський район",
    "name_en": "Novhorod-Siverskyi Raion",
    "all_tags": {
      "name": "Новгород-Сіверський район",
      "place": "district",
      "koatuu": "7423600000",
      "katotth": "UA74060000000063946",
      "name:de": "Rajon Nowhorod-Siwerskyj",
      "name:en": "Novhorod-Siverskyi Raion",
      "name:pl": "Rejon nowogrodzki",
      "name:ru": "Новгород-Северский район",
      "name:uk": "Новгород-Сіверський район",
      "boundary": "administrative",
      "way_area": "0.604965",
      "wikidata": "Q103826268",
      "wikipedia": "uk:Новгород-Сіверський район",
      "admin_level": "6"
    }
  },
  {
    "osm_id": -11798645,
    "boundary": "administrative",
    "admin_level": 6,
    "parents": "-71250,-60199",
    "name": "Konotop Raion",
    "local_name": "Конотопський район",
    "name_en": "Konotop Raion",
    "all_tags": {
      "name": "Конотопський район",
      "place": "district",
      "koatuu": "5922000000",
      "katotth": "UA59020000000081905",
      "name:de": "Rajon Konotop",
      "name:en": "Konotop Raion",
      "name:pl": "Rejon konotopski",
      "name:ru": "Конотопский район",
      "name:uk": "Конотопський район",
      "boundary": "administrative",
      "way_area": "0.668664",
      "wikidata": "Q103859255",
      "wikipedia": "uk:Конотопський район",
      "admin_level": "6"
    }
  },
  {
    "osm_id": -11806248,
    "boundary": "administrative",
    "admin_level": 6,
    "parents": "-72488,-60199",
    "name": "Kosiv Raion",
    "local_name": "Косівський район",
    "name_en": "Kosiv Raion",
    "all_tags": {
      "name": "Косівський район",
      "place": "district",
      "koatuu": "2623600000",
      "katotth": "UA26100000000092255",
      "name:de": "Rajon Kossiw",
      "name:en": "Kosiv Raion",
      "name:pl": "Rejon kosowski",
      "name:ru": "Косовский район",
      "name:uk": "Косівський район",
      "boundary": "administrative",
      "way_area": "0.106575",
      "wikidata": "Q937388",
      "wikipedia": "uk:Косівський район",
      "admin_level": "6"
    }
  },
  {
    "osm_id": -11874151,
    "boundary": "administrative",
    "admin_level": 6,
    "parents": "-71022,-60199",
    "name": "Kakhovka Raion",
    "local_name": "Каховський район",
    "name_en": "Kakhovka Raion",
    "all_tags": {
      "name": "Каховський район",
      "place": "district",
      "koatuu": "6523500000",
      "katotth": "UA65060000000061947",
      "name:de": "Rajon Kachowka",
      "name:en": "Kakhovka Raion",
      "name:pl": "Rejon kachowski",
      "name:ru": "Каховский район",
      "name:uk": "Каховський район",
      "boundary": "administrative",
      "way_area": "0.752683",
      "wikidata": "Q103860890",
      "wikipedia": "uk:Каховський район",
      "admin_level": "6"
    }
  },
  {
    "osm_id": -11795653,
    "boundary": "administrative",
    "admin_level": 6,
    "parents": "-71022,-60199",
    "name": "Henichesk Raion",
    "local_name": "Генічеський район",
    "name_en": "Henichesk Raion",
    "all_tags": {
      "name": "Генічеський район",
      "place": "district",
      "koatuu": "6522100000",
      "katotth": "UA65040000000088940",
      "name:de": "Rajon Henitschesk",
      "name:en": "Henichesk Raion",
      "name:es": "Raión de Heníchesk",
      "name:pl": "Rejon geniczeski",
      "name:ru": "Генический район",
      "name:uk": "Генічеський район",
      "boundary": "administrative",
      "way_area": "0.834927",
      "wikidata": "Q103821367",
      "wikipedia": "uk:Генічеський район",
      "admin_level": "6"
    }
  },
  {
    "osm_id": -1738037,
    "boundary": "administrative",
    "admin_level": 6,
    "parents": "-101746,-60199",
    "name": "Nikopol Raion",
    "local_name": "Нікопольський район",
    "name_en": "Nikopol Raion",
    "all_tags": {
      "name": "Нікопольський район",
      "place": "district",
      "koatuu": "1222900000",
      "katotth": "UA12080000000023578",
      "name:de": "Rajon Nikopol",
      "name:en": "Nikopol Raion",
      "name:pl": "Rejon nikopolski",
      "name:ru": "Никопольский район",
      "name:uk": "Нікопольський район",
      "boundary": "administrative",
      "way_area": "0.38858",
      "wikidata": "Q103820607",
      "wikipedia": "uk:Нікопольський район",
      "admin_level": "6"
    }
  },
  {
    "osm_id": -11872881,
    "boundary": "administrative",
    "admin_level": 6,
    "parents": "-71980,-60199",
    "name": "Melitopol Raion",
    "local_name": "Мелітопольський район",
    "name_en": "Melitopol Raion",
    "all_tags": {
      "name": "Мелітопольський район",
      "place": "district",
      "koatuu": "2323000000",
      "katotth": "UA23080000000090746",
      "name:de": "Rajon Melitopol",
      "name:en": "Melitopol Raion",
      "name:pl": "Rejon melitopolski",
      "name:ru": "Мелитопольский район",
      "name:uk": "Мелітопольський район",
      "boundary": "administrative",
      "way_area": "0.823239",
      "wikidata": "Q103821362",
      "wikipedia": "uk:Мелітопольський район",
      "admin_level": "6"
    }
  },
  {
    "osm_id": -11857351,
    "boundary": "administrative",
    "admin_level": 6,
    "parents": "-71980,-60199",
    "name": "Berdyansk Raion",
    "local_name": "Бердянський район",
    "name_en": "Berdyansk Raion",
    "all_tags": {
      "name": "Бердянський район",
      "place": "district",
      "koatuu": "2320600000",
      "katotth": "UA23020000000032289",
      "name:de": "Rajon Berdjansk",
      "name:en": "Berdyansk Raion",
      "name:pl": "Rejon berdiański",
      "name:ru": "Бердянский район",
      "name:uk": "Бердянський район",
      "boundary": "administrative",
      "way_area": "0.533134",
      "wikidata": "Q103821298",
      "wikipedia": "uk:Бердянський район",
      "admin_level": "6"
    }
  },
  {
    "osm_id": -11984354,
    "boundary": "administrative",
    "admin_level": 6,
    "parents": "-71973,-60199",
    "name": "Volnovakha Raion",
    "local_name": "Волноваський район",
    "name_en": "Volnovakha Raion",
    "all_tags": {
      "name": "Волноваський район",
      "place": "district",
      "katotth": "UA14040000000098211",
      "name:de": "Rajon Wolnowacha",
      "name:en": "Volnovakha Raion",
      "name:es": "Raión de Volnovaja",
      "name:pl": "Rejon wołnowaski",
      "name:ru": "Волновахский район",
      "name:uk": "Волноваський район",
      "name:vi": "huyện Volnovakha",
      "boundary": "administrative",
      "way_area": "0.533747",
      "wikidata": "Q103821024",
      "wikipedia": "uk:Волноваський район",
      "start_date": "2020-07-19",
      "admin_level": "6",
      "name:be-tarask": "Ваўнаваскі раён"
    }
  },
  {
    "osm_id": -11958110,
    "boundary": "administrative",
    "admin_level": 6,
    "parents": "-71973,-60199",
    "name": "Маріупольський район",
    "local_name": "Маріупольський район",
    "name_en": null,
    "all_tags": {
      "name": "Маріупольський район",
      "place": "district",
      "katotth": "UA14140000000070889",
      "name:ru": "Мариупольский район",
      "name:uk": "Маріупольський район",
      "boundary": "administrative",
      "way_area": "0.313859",
      "wikidata": "Q97482653",
      "wikipedia": "uk:Маріупольський район",
      "start_date": "2020-07-17",
      "admin_level": "6"
    }
  },
  {
    "osm_id": -1742311,
    "boundary": "administrative",
    "admin_level": 6,
    "parents": "-71973,-60199",
    "name": "Telmanove Raion",
    "local_name": "Тельманівський район",
    "name_en": "Telmanove Raion",
    "all_tags": {
      "flag": "http://upload.wikimedia.org/wikipedia/commons/5/52/Прапор_Тельманівського_району.svg",
      "name": "Тельманівський район",
      "place": "district",
      "koatuu": "1424800000",
      "name:de": "Rajon Telmanowe",
      "name:en": "Telmanove Raion",
      "name:es": "Raión de Telmanove",
      "name:pl": "Rejon telmanowski",
      "name:ru": "Тельмановский район",
      "name:uk": "Тельманівський район",
      "name:vi": "Telmanove (huyện)",
      "alt_name": "Бойківський район",
      "boundary": "administrative",
      "way_area": "0.0970049",
      "wikidata": "Q2628116",
      "wikipedia": "uk:Бойківський район",
      "admin_level": "6",
      "name:be-tarask": "Тэльманаўскі раён"
    }
  },
  {
    "osm_id": -1742298,
    "boundary": "administrative",
    "admin_level": 6,
    "parents": "-71973,-60199",
    "name": "Amvrosiivka Raion",
    "local_name": "Амвросіївський район",
    "name_en": "Amvrosiivka Raion",
    "all_tags": {
      "flag": "http://upload.wikimedia.org/wikipedia/commons/8/8f/Флаг_Амвросиевского_района_Донецкой_области.svg",
      "name": "Амвросіївський район",
      "place": "district",
      "koatuu": "1420600000",
      "name:de": "Rajon Amwrossijiwka",
      "name:en": "Amvrosiivka Raion",
      "name:es": "Raión de Amvrosiivka",
      "name:pl": "Rejon amwrosijiwski",
      "name:ru": "Амвросиевский район",
      "name:uk": "Амвросіївський район",
      "name:vi": "Amvrosiivka (huyện)",
      "boundary": "administrative",
      "way_area": "0.170347",
      "wikidata": "Q2994010",
      "wikipedia": "uk:Амвросіївський район",
      "admin_level": "6",
      "name:be-tarask": "Амўросіеўскі раён",
      "is_in:country_code": "UA"
    }
  },
  {
    "osm_id": -101746,
    "boundary": "administrative",
    "admin_level": 4,
    "parents": "-60199",
    "name": "Dnipropetrovsk Oblast",
    "local_name": "Дніпропетровська область",
    "name_en": "Dnipropetrovsk Oblast",
    "all_tags": {
      "ref": "ДНП",
      "flag": "http://upload.wikimedia.org/wikipedia/commons/c/cf/Flag_of_Dnipropetrovsk_Oblast.svg",
      "name": "Дніпропетровська область",
      "place": "state",
      "koatuu": "1200000000",
      "ref:en": "DNP",
      "ref:ru": "ДНП",
      "katotth": "UA12000000000090473",
      "name:ar": "دنيبروبتروفسك أوبلاست",
      "name:az": "Dnepropetrovsk vilayəti",
      "name:be": "Днепрапятроўская вобласць",
      "name:bg": "Днепропетровска област",
      "name:ca": "Província de Dnipropetrovsk",
      "name:cs": "Dněpropetrovská oblast",
      "name:cv": "Днепропетровск облаçĕ",
      "name:de": "Oblast Dnipropetrowsk",
      "name:en": "Dnipropetrovsk Oblast",
      "name:eo": "Dnipropetrovska provinco",
      "name:es": "Óblast de Dnipropetrovsk",
      "name:et": "Dnipropetrovski oblast",
      "name:eu": "Dnipropetrovskeko oblasta",
      "name:fa": "استان دنیپروپتروفسک",
      "name:fi": "Dnepropetrovskin alue",
      "name:fr": "Oblast de Dnipropetrovsk",
      "name:hr": "Dnjipropetrovska oblast",
      "name:hu": "Dnyipropetrovszki terület",
      "name:hy": "Դնեպրոպետրովսկի մարզ",
      "name:id": "Oblast Dnipropetrovsk",
      "name:it": "Oblast' di Dnipropetrovs'k",
      "name:ja": "ドニプロペトロウシク州",
      "name:ka": "დნეპროპეტროვსკის ოლქი",
      "name:ko": "드니프로페트로우시크 주",
      "name:lt": "Dniepropetrovsko sritis",
      "name:lv": "Dņepropetrovskas apgabals",
      "name:mk": "Днепропетровска област",
      "name:mr": "द्नेप्रोपेत्रोव्स्क ओब्लास्त",
      "name:nl": "Oblast Dnjepropetrovsk",
      "name:nn": "Dnipropetrovsk oblast",
      "name:no": "Dnipropetrovsk oblast",
      "name:pl": "Obwód dniepropetrowski",
      "name:pt": "Oblast de Dnipropetrovsk",
      "name:ro": "Regiunea Dniepropetrovsk",
      "name:ru": "Днепропетровская область",
      "name:sh": "Dnjipropetrovska oblast",
      "name:sk": "Dnepropetrovská oblasť",
      "name:sr": "Дњепропетровска област",
      "name:sv": "Dnipropetrovsk oblast",
      "name:tr": "Dnipropetrovsk Oblastı",
      "name:uk": "Дніпропетровська область",
      "name:vi": "Dnipropetrovsk (tỉnh)",
      "name:zh": "第聂伯罗彼得罗夫斯克州",
      "boundary": "administrative",
      "name:crh": "Dnipropetrovsk vilâyeti",
      "name:nan": "Dnipropetrovsk séng",
      "name:pnb": "دنیپروپترووسک اوبلاست",
      "name:rue": "Днїпропетровска область",
      "name:sco": "Dnipropetrovsk Oblast",
      "name:szl": "Dńepropetrowski uobwůd",
      "name:war": "Dnipropetrovsk Oblast",
      "name:xmf": "დნეპროპეტროვსკიშ ოლქი",
      "timezone": "Europe/Kiev",
      "way_area": "3.8685",
      "wikidata": "Q170672",
      "ISO3166-2": "UA-12",
      "wikipedia": "uk:Дніпропетровська область",
      "population": "3261974",
      "admin_level": "4",
      "name:be-tarask": "Днепрапятроўская вобласьць"
    }
  },
  {
    "osm_id": -1738025,
    "boundary": "administrative",
    "admin_level": 6,
    "parents": "-101746,-60199",
    "name": "Дніпровський район",
    "local_name": "Дніпровський район",
    "name_en": null,
    "all_tags": {
      "name": "Дніпровський район",
      "place": "district",
      "koatuu": "1221400000",
      "katotth": "UA12020000000052809",
      "name:pl": "rejon dnieprzański",
      "name:uk": "Дніпровський район",
      "boundary": "administrative",
      "old_name": "Дніпропетровський район",
      "way_area": "0.679596",
      "wikidata": "Q103820103",
      "wikipedia": "uk:Дніпровський район (Дніпропетровська область)",
      "admin_level": "6",
      "old_name:de": "Rajon Dnipropetrowsk",
      "old_name:en": "Dnipropetrovsk Raion",
      "old_name:pl": "Rejon dniepropetrowski",
      "old_name:ru": "Днепропетровский район",
      "old_name:uk": "Дніпропетровський район"
    }
  },
  {
    "osm_id": -11857100,
    "boundary": "administrative",
    "admin_level": 6,
    "parents": "-71980,-60199",
    "name": "Zaporizhia Raion",
    "local_name": "Запорізький район",
    "name_en": "Zaporizhia Raion",
    "all_tags": {
      "name": "Запорізький район",
      "place": "district",
      "koatuu": "2322100000",
      "katotth": "UA23060000000070350",
      "name:de": "Rajon Saporischschja",
      "name:en": "Zaporizhia Raion",
      "name:es": "Raión de Zaporiyia",
      "name:it": "Distretto di Zaporižžja",
      "name:pl": "Rejon zaporoski",
      "name:ru": "Запорожский район",
      "name:uk": "Запорізький район",
      "name:zh": "扎波里日扎區",
      "boundary": "administrative",
      "name:ceb": "Zaporiz'kyi Raion",
      "name:sco": "Zaporizhia Raion",
      "way_area": "0.564062",
      "wikidata": "Q103795944",
      "wikipedia": "uk:Запорізький район",
      "admin_level": "6",
      "old_name:zh": "扎波羅熱區",
      "old_name:ceb": "Zaporozhskiy Rayon"
    }
  },
  {
    "osm_id": -1738047,
    "boundary": "administrative",
    "admin_level": 6,
    "parents": "-101746,-60199",
    "name": "Synelnykove Raion",
    "local_name": "Синельниківський район",
    "name_en": "Synelnykove Raion",
    "all_tags": {
      "name": "Синельниківський район",
      "place": "district",
      "koatuu": "1224800000",
      "katotth": "UA12140000000011720",
      "name:de": "Rajon Synelnykowe",
      "name:en": "Synelnykove Raion",
      "name:pl": "Rejon synelnykowski",
      "name:ru": "Синельниковский район",
      "name:uk": "Синельниківський район",
      "boundary": "administrative",
      "way_area": "0.801615",
      "wikidata": "Q103819963",
      "wikipedia": "uk:Синельниківський район",
      "admin_level": "6"
    }
  },
  {
    "osm_id": -1738036,
    "boundary": "administrative",
    "admin_level": 6,
    "parents": "-101746,-60199",
    "name": "Novomoskovsk Raion",
    "local_name": "Новомосковський район",
    "name_en": "Novomoskovsk Raion",
    "all_tags": {
      "name": "Новомосковський район",
      "place": "district",
      "koatuu": "1223200000",
      "katotth": "UA12100000000039307",
      "name:de": "Rajon Nowomoskowsk",
      "name:en": "Novomoskovsk Raion",
      "name:pl": "Rejon nowomoskowski",
      "name:ru": "Новомосковский район",
      "name:uk": "Новомосковський район",
      "name:zh": "新莫斯科斯克区",
      "boundary": "administrative",
      "way_area": "0.426581",
      "wikidata": "Q103820943",
      "wikipedia": "uk:Новомосковський район",
      "admin_level": "6"
    }
  },
  {
    "osm_id": -91294,
    "boundary": "administrative",
    "admin_level": 4,
    "parents": "-60199",
    "name": "Poltava Oblast",
    "local_name": "Полтавська область",
    "name_en": "Poltava Oblast",
    "all_tags": {
      "ref": "ПОЛ",
      "flag": "http://upload.wikimedia.org/wikipedia/commons/d/d3/Flag_of_Poltava_Oblast.svg",
      "name": "Полтавська область",
      "place": "state",
      "koatuu": "5300000000",
      "ref:en": "POL",
      "ref:ru": "ПОЛ",
      "katotth": "UA53000000000028050",
      "name:ar": "بولتافا أوبلاست",
      "name:az": "Poltava vilayəti",
      "name:be": "Палтаўская вобласць",
      "name:bg": "Полтавска област",
      "name:ca": "Província de Poltava",
      "name:cs": "Poltavská oblast",
      "name:cv": "Полтава облаçĕ",
      "name:de": "Oblast Poltawa",
      "name:en": "Poltava Oblast",
      "name:eo": "Poltava provinco",
      "name:es": "Óblast de Poltava",
      "name:et": "Poltava oblast",
      "name:eu": "Poltavako oblasta",
      "name:fa": "استان پولتاوا",
      "name:fi": "Pultavan alue",
      "name:fr": "Oblast de Poltava",
      "name:gl": "Oblast de Poltava",
      "name:hr": "Poltavska oblast",
      "name:hu": "Poltavai terület",
      "name:hy": "Պոլտավայի մարզ",
      "name:id": "Oblast Poltava",
      "name:it": "Oblast' di Poltava",
      "name:ja": "ポルタヴァ州",
      "name:ka": "პოლტავის ოლქი",
      "name:ko": "폴타바 주",
      "name:lt": "Poltavos sritis",
      "name:lv": "Poltavas apgabals",
      "name:mk": "Полтавска област",
      "name:mr": "पोल्ताव्हा ओब्लास्त",
      "name:nl": "Oblast Poltava",
      "name:nn": "Poltava oblast",
      "name:no": "Poltava oblast",
      "name:pl": "Obwód połtawski",
      "name:pt": "Oblast de Poltava",
      "name:ro": "Regiunea Poltava",
      "name:ru": "Полтавская область",
      "name:sh": "Poltavska oblast",
      "name:sk": "Poltavská oblasť",
      "name:sr": "Полтавска област",
      "name:sv": "Poltava oblast",
      "name:tr": "Poltava Oblastı",
      "name:uk": "Полтавська область",
      "name:vi": "Poltava (tỉnh)",
      "name:zh": "波尔塔瓦州",
      "boundary": "administrative",
      "name:crh": "Poltava vilâyeti",
      "name:nan": "Poltava séng",
      "name:pnb": "پولتاوا اوبلاست",
      "name:rue": "Полтавска область",
      "name:sco": "Poltava Oblast",
      "name:war": "Poltava Oblast",
      "name:xmf": "პოლტავაშ ოლქი",
      "timezone": "Europe/Kiev",
      "way_area": "3.58127",
      "wikidata": "Q169501",
      "ISO3166-2": "UA-53",
      "wikipedia": "uk:Полтавська область",
      "admin_level": "4",
      "name:zh-Hant": "波爾塔瓦州",
      "name:be-tarask": "Палтаўская вобласьць"
    }
  },
  {
    "osm_id": -11823489,
    "boundary": "administrative",
    "admin_level": 6,
    "parents": "-91294,-60199",
    "name": "Poltava Raion",
    "local_name": "Полтавський район",
    "name_en": "Poltava Raion",
    "all_tags": {
      "name": "Полтавський район",
      "place": "district",
      "koatuu": "5324000000",
      "katotth": "UA53080000000068029",
      "name:de": "Rajon Poltawa",
      "name:en": "Poltava Raion",
      "name:pl": "Rejon połtawski",
      "name:ru": "Полтавский район",
      "name:uk": "Полтавський район",
      "boundary": "administrative",
      "way_area": "1.34818",
      "wikidata": "Q103858107",
      "wikipedia": "uk:Полтавський район",
      "admin_level": "6"
    }
  },
  {
    "osm_id": -11795830,
    "boundary": "administrative",
    "admin_level": 6,
    "parents": "-71250,-60199",
    "name": "Okhtyrka Raion",
    "local_name": "Охтирський район",
    "name_en": "Okhtyrka Raion",
    "all_tags": {
      "name": "Охтирський район",
      "place": "district",
      "koatuu": "5920300000",
      "katotth": "UA59040000000045652",
      "name:de": "Rajon Ochtyrka",
      "name:en": "Okhtyrka Raion",
      "name:pl": "Rejon ochtyrski",
      "name:ru": "Ахтырский район",
      "name:uk": "Охтирський район",
      "boundary": "administrative",
      "way_area": "0.404103",
      "wikidata": "Q103859410",
      "wikipedia": "uk:Охтирський район",
      "admin_level": "6"
    }
  },
  {
    "osm_id": -71973,
    "boundary": "administrative",
    "admin_level": 4,
    "parents": "-60199",
    "name": "Donetsk Oblast",
    "local_name": "Донецька область",
    "name_en": "Donetsk Oblast",
    "all_tags": {
      "ref": "ДОН",
      "flag": "http://upload.wikimedia.org/wikipedia/commons/5/5d/Flag_of_Donetsk_Oblast.svg",
      "name": "Донецька область",
      "place": "state",
      "koatuu": "1400000000",
      "ref:en": "DON",
      "katotth": "UA14000000000091971",
      "name:ar": "دونيتسك أوبلاست",
      "name:az": "Donetsk Oblastı",
      "name:be": "Данецкая вобласць",
      "name:bg": "Донецка област",
      "name:ca": "Província de Donetsk",
      "name:cs": "Doněcká oblast",
      "name:de": "Oblast Donezk",
      "name:en": "Donetsk Oblast",
      "name:eo": "Donecka provinco",
      "name:es": "Óblast de Donetsk",
      "name:et": "Donetski oblast",
      "name:eu": "Donetskeko oblasta",
      "name:fa": "استان دونتسک",
      "name:fi": "Donetskin alue",
      "name:fr": "Oblast de Donetsk",
      "name:hr": "Donečka oblast",
      "name:hu": "Donecki terület",
      "name:hy": "Դոնեցկի մարզ",
      "name:id": "Oblast Donetsk",
      "name:it": "Oblast' di Donec'k",
      "name:ja": "ドネツィク州",
      "name:ka": "დონეცკის ოლქი",
      "name:ko": "도네츠크 주",
      "name:lt": "Donecko sritis",
      "name:lv": "Doņeckas apgabals",
      "name:mk": "Донечка област",
      "name:mr": "दोनेत्स्क ओब्लास्त",
      "name:nl": "Oblast Donetsk",
      "name:nn": "Donetsk oblast",
      "name:no": "Donetsk oblast",
      "name:os": "Донецчы облæст",
      "name:pl": "Obwód doniecki",
      "name:pt": "Oblast de Donetsk",
      "name:ro": "Regiunea Donețk",
      "name:ru": "Донецкая область",
      "name:sh": "Donečka oblast",
      "name:sk": "Donecká oblasť",
      "name:sr": "Доњечка област",
      "name:sv": "Donetsk oblast",
      "name:tr": "Donetsk Oblastı",
      "name:tt": "Донецк өлкәсе",
      "name:uk": "Донецька область",
      "name:vi": "Donetsk (tỉnh)",
      "name:zh": "顿涅茨克州",
      "boundary": "administrative",
      "name:crh": "Donetsk vilâyeti",
      "name:nan": "Doneczk séng",
      "name:pnb": "دونیتسک اوبلاست",
      "name:rue": "Донецька область",
      "name:sco": "Donetsk Oblast",
      "name:szl": "Důńecki uobwůd",
      "name:war": "Donetsk Oblast",
      "timezone": "Europe/Kiev",
      "way_area": "3.48401",
      "wikidata": "Q2012050",
      "ISO3166-2": "UA-14",
      "wikipedia": "uk:Донецька область",
      "population": "4275935",
      "admin_level": "4",
      "postal_code": "83000-87999",
      "name:be-tarask": "Данецкая вобласьць"
    }
  },
  {
    "osm_id": -3936633,
    "boundary": "administrative",
    "admin_level": 6,
    "parents": "-71973,-60199",
    "name": "Donetsk Municipality",
    "local_name": "Донецька міська рада",
    "name_en": "Donetsk Municipality",
    "all_tags": {
      "flag": "http://upload.wikimedia.org/wikipedia/commons/6/61/Flag_of_Donetsk.svg",
      "name": "Донецька міська рада",
      "place": "municipality",
      "koatuu": "1410100000",
      "name:en": "Donetsk Municipality",
      "name:ru": "Донецкий городской совет",
      "name:uk": "Донецька міська рада",
      "alt_name": "Донецьк",
      "boundary": "administrative",
      "way_area": "0.0672448",
      "wikidata": "Q4166220",
      "wikipedia": "uk:Донецька міська рада",
      "population": "1033424",
      "admin_level": "6",
      "postal_code": "83000-83490"
    }
  },
  {
    "osm_id": -71254,
    "boundary": "administrative",
    "admin_level": 4,
    "parents": "-60199",
    "name": "Kharkiv Oblast",
    "local_name": "Харківська область",
    "name_en": "Kharkiv Oblast",
    "all_tags": {
      "ref": "ХАР",
      "flag": "http://upload.wikimedia.org/wikipedia/commons/4/41/Flag_of_Kharkiv_Oblast.svg",
      "name": "Харківська область",
      "place": "state",
      "koatuu": "6300000000",
      "ref:en": "KHA",
      "ref:ru": "ХАР",
      "katotth": "UA63000000000041885",
      "name:ar": "خاركيف أوبلاست",
      "name:be": "Харкаўская вобласць",
      "name:bg": "Харковска област",
      "name:ca": "Província de Khàrkiv",
      "name:cs": "Charkovská oblast",
      "name:de": "Oblast Charkiw",
      "name:en": "Kharkiv Oblast",
      "name:eo": "Ĥarkiva provinco",
      "name:es": "Óblast de Járkiv",
      "name:et": "Harkivi oblast",
      "name:eu": "Kharkiveko oblasta",
      "name:fa": "استان خارکف",
      "name:fi": "Harkivan alue",
      "name:fr": "Oblast de Kharkiv",
      "name:hr": "Harkivska oblast",
      "name:hu": "Harkivi terület",
      "name:hy": "Խարկովի մարզ",
      "name:id": "Oblast Kharkiv",
      "name:it": "Oblast' di Charkiv",
      "name:ja": "ハルキウ州",
      "name:ka": "ხარკოვის ოლქი",
      "name:ko": "하르키우 주",
      "name:lt": "Charkovo sritis",
      "name:lv": "Harkovas apgabals",
      "name:mk": "Харковска област",
      "name:mr": "खार्कीव्ह ओब्लास्त",
      "name:nl": "Oblast Charkov",
      "name:nn": "Kharkiv oblast",
      "name:no": "Kharkiv oblast",
      "name:os": "Харьковы облæст",
      "name:pl": "Obwód charkowski",
      "name:pt": "Oblast de Kharkiv",
      "name:ro": "Regiunea Harkiv",
      "name:ru": "Харьковская область",
      "name:sh": "Harkivska oblast",
      "name:sk": "Charkovská oblasť",
      "name:sr": "Харковска област",
      "name:sv": "Charkiv oblast",
      "name:tr": "Harkiv Oblastı",
      "name:uk": "Харківська область",
      "name:vi": "Kharkiv (tỉnh)",
      "name:zh": "哈爾科夫州",
      "boundary": "administrative",
      "name:crh": "Harkiv vilâyeti",
      "name:nan": "Xarkiv séng",
      "name:pnb": "خارکیف اوبلاست",
      "name:rue": "Харківска область",
      "name:sco": "Kharkiv Oblast",
      "name:szl": "Charkowski uobwůd",
      "name:war": "Kharkiv Oblast",
      "name:xmf": "ხარკოვიშ ოლქი",
      "timezone": "Europe/Kiev",
      "way_area": "3.91128",
      "wikidata": "Q170666",
      "ISO3166-2": "UA-63",
      "wikipedia": "uk:Харківська область",
      "admin_level": "4",
      "old_name:es": "Óblast de Járkov",
      "old_name:fi": "Harkovan alue",
      "old_name:nl": "Oblast Charkov",
      "old_name:ro": "Regiunea Harkov",
      "name:be-tarask": "Харкаўская вобласьць"
    }
  },
  {
    "osm_id": -11978037,
    "boundary": "administrative",
    "admin_level": 6,
    "parents": "-71973,-60199",
    "name": "Kramatorsk Raion",
    "local_name": "Краматорський район",
    "name_en": "Kramatorsk Raion",
    "all_tags": {
      "name": "Краматорський район",
      "place": "district",
      "katotth": "UA14120000000070232",
      "name:en": "Kramatorsk Raion",
      "name:ru": "Краматорский район",
      "name:uk": "Краматорський район",
      "boundary": "administrative",
      "way_area": "0.635092",
      "wikidata": "Q97495623",
      "wikipedia": "uk:Краматорський район",
      "start_date": "2020-07-19",
      "admin_level": "6"
    }
  },
  {
    "osm_id": -1742312,
    "boundary": "administrative",
    "admin_level": 6,
    "parents": "-71973,-60199",
    "name": "Shakhtarsk Raion",
    "local_name": "Шахтарський район",
    "name_en": "Shakhtarsk Raion",
    "all_tags": {
      "name": "Шахтарський район",
      "place": "district",
      "koatuu": "1425200000",
      "name:de": "Rajon Schachtarsk",
      "name:en": "Shakhtarsk Raion",
      "name:es": "Raión de Shajtarsk",
      "name:pl": "Rejon szachtarski",
      "name:ru": "Шахтёрский район",
      "name:uk": "Шахтарський район",
      "name:vi": "Shakhtarsk (huyện)",
      "boundary": "administrative",
      "way_area": "0.120518",
      "wikidata": "Q2627813",
      "wikipedia": "uk:Шахтарський район",
      "admin_level": "6",
      "name:be-tarask": "Шахтарскі раён",
      "is_in:country_code": "UA"
    }
  },
  {
    "osm_id": -1751368,
    "boundary": "administrative",
    "admin_level": 6,
    "parents": "-71971,-60199",
    "name": "Antratsyt Raion",
    "local_name": "Антрацитівський район",
    "name_en": "Antratsyt Raion",
    "all_tags": {
      "name": "Антрацитівський район",
      "koatuu": "4420300000",
      "name:de": "Rajon Antrazyt",
      "name:en": "Antratsyt Raion",
      "name:es": "Raión de Antratsyt",
      "name:pl": "Rejon antracytowski",
      "name:ru": "Антрацитовский район",
      "name:uk": "Антрацитівський район",
      "name:vi": "Huyện Antratsyt huyện",
      "boundary": "administrative",
      "way_area": "0.194112",
      "wikidata": "Q2216511",
      "wikipedia": "uk:Антрацитівський район",
      "admin_level": "6"
    }
  },
  {
    "osm_id": -1751371,
    "boundary": "administrative",
    "admin_level": 6,
    "parents": "-71971,-60199",
    "name": "Lutuhyne Raion",
    "local_name": "Лутугинський район",
    "name_en": "Lutuhyne Raion",
    "all_tags": {
      "name": "Лутугинський район",
      "koatuu": "4422200000",
      "name:de": "Rajon Lutuhyne",
      "name:en": "Lutuhyne Raion",
      "name:es": "Raión de Lutugino",
      "name:pl": "Rejon łutuhyński",
      "name:ru": "Лутугинский район",
      "name:uk": "Лутугинський район",
      "name:vi": "Lutuhyne (huyện)",
      "boundary": "administrative",
      "way_area": "0.130076",
      "wikidata": "Q2216775",
      "wikipedia": "uk:Лутугинський район",
      "admin_level": "6"
    }
  },
  {
    "osm_id": -11970387,
    "boundary": "administrative",
    "admin_level": 6,
    "parents": "-71973,-60199",
    "name": "Bakhmut Raion",
    "local_name": "Бахмутський район",
    "name_en": "Bakhmut Raion",
    "all_tags": {
      "name": "Бахмутський район",
      "place": "district",
      "koatuu": "1420900000",
      "katotth": "UA14020000000013572",
      "name:en": "Bakhmut Raion",
      "name:fr": "Le raion de Bakhmout",
      "name:ru": "Бахмутский район",
      "name:uk": "Бахмутський район",
      "boundary": "administrative",
      "old_name": "Артемівський район",
      "way_area": "0.213446",
      "wikidata": "Q103821003",
      "wikipedia": "uk:Бахмутський район",
      "admin_level": "6",
      "old_name:de": "Rajon Artemiwsk",
      "old_name:en": "Artemivsk Raion",
      "old_name:es": "Raión de Artemivsk",
      "old_name:pl": "Rejon artiomowski",
      "old_name:ru": "Артёмовский район",
      "old_name:uk": "Артемівський район",
      "old_name:vi": "Artemivsk (huyện)",
      "old_name:be-tarask": "Арцёмаўскі раён"
    }
  },
  {
    "osm_id": -11957819,
    "boundary": "administrative",
    "admin_level": 6,
    "parents": "-71971,-60199",
    "name": "Щастинський район",
    "local_name": "Щастинський район",
    "name_en": null,
    "all_tags": {
      "name": "Щастинський район",
      "place": "district",
      "katotth": "UA44160000000057142",
      "name:uk": "Щастинський район",
      "boundary": "administrative",
      "way_area": "0.405444",
      "wikidata": "Q97495640",
      "wikipedia": "uk:Щастинський район",
      "start_date": "2020-07-19",
      "admin_level": "6"
    }
  },
  {
    "osm_id": -71971,
    "boundary": "administrative",
    "admin_level": 4,
    "parents": "-60199",
    "name": "Luhansk Oblast",
    "local_name": "Луганська область",
    "name_en": "Luhansk Oblast",
    "all_tags": {
      "ref": "ЛУГ",
      "name": "Луганська область",
      "place": "state",
      "koatuu": "4400000000",
      "ref:en": "LUG",
      "ref:ru": "ЛУГ",
      "katotth": "UA44000000000018893",
      "name:ar": "لوهانسك أوبلاست",
      "name:be": "Луганская вобласць",
      "name:bg": "Луганска област",
      "name:ca": "Província de Luhansk",
      "name:cs": "Luhanská oblast",
      "name:de": "Oblast Luhansk",
      "name:en": "Luhansk Oblast",
      "name:eo": "Luhanska provinco",
      "name:es": "Óblast de Luhansk",
      "name:et": "Luganski oblast",
      "name:eu": "Luhanskeko oblasta",
      "name:fa": "استان لوهانسک",
      "name:fi": "Luhanskin alue",
      "name:fr": "Oblast de Louhansk",
      "name:ga": "Cúige Luhansk",
      "name:hr": "Luhanska oblast",
      "name:hu": "Luhanszki terület",
      "name:hy": "Լուգանսկի մարզ",
      "name:id": "Oblast Luhansk",
      "name:it": "Oblast' di Luhans'k",
      "name:ja": "ルハーンシク州",
      "name:ka": "ლუგანსკის ოლქი",
      "name:ko": "루한시크 주",
      "name:lt": "Luhansko sritis",
      "name:lv": "Luhanskas apgabals",
      "name:mk": "Луганска област",
      "name:mr": "लुहान्स्क ओब्लास्त",
      "name:nl": "Oblast Loehansk",
      "name:nn": "Luhansk oblast",
      "name:no": "Luhansk oblast",
      "name:os": "Лугансчы облæст",
      "name:pl": "Obwód ługański",
      "name:pt": "Oblast de Lugansk",
      "name:ro": "Regiunea Luhansk",
      "name:ru": "Луганская область",
      "name:sh": "Luganska oblast",
      "name:sk": "Luhanská oblasť",
      "name:sr": "Луганска област",
      "name:sv": "Luhansk oblast",
      "name:tr": "Luhansk Oblastı",
      "name:uk": "Луганська область",
      "name:vi": "Luhansk (tỉnh)",
      "name:zh": "盧甘斯克州",
      "boundary": "administrative",
      "name:crh": "Lugansk vilâyeti",
      "name:nan": "Lugansk séng",
      "name:pnb": "لوہانسک اوبلاست",
      "name:rue": "Луганьска область",
      "name:sco": "Luhansk Oblast",
      "name:war": "Luhansk Oblast",
      "name:xmf": "ლუგანსკიშ ოლქი",
      "timezone": "Europe/Kiev",
      "way_area": "3.27794",
      "wikidata": "Q171965",
      "ISO3166-2": "UA-09",
      "wikipedia": "uk:Луганська область",
      "admin_level": "4",
      "old_name:de": "Oblast Lugansk",
      "old_name:en": "Lugansk Oblast",
      "old_name:eo": "Luganska provinco",
      "name:be-tarask": "Луганская вобласьць"
    }
  },
  {
    "osm_id": -11803999,
    "boundary": "administrative",
    "admin_level": 6,
    "parents": "-71254,-60199",
    "name": "Chuhuiv Raion",
    "local_name": "Чугуївський район",
    "name_en": "Chuhuiv Raion",
    "all_tags": {
      "name": "Чугуївський район",
      "place": "district",
      "koatuu": "6325400000",
      "katotth": "UA63140000000096278",
      "name:de": "Rajon Tschuhujiw",
      "name:en": "Chuhuiv Raion",
      "name:pl": "Rejon czuhujiwski",
      "name:ru": "Чугуевский район",
      "name:uk": "Чугуївський район",
      "boundary": "administrative",
      "way_area": "0.602164",
      "wikidata": "Q103860660",
      "wikipedia": "uk:Чугуївський район",
      "admin_level": "6"
    }
  },
  {
    "osm_id": -11804002,
    "boundary": "administrative",
    "admin_level": 6,
    "parents": "-71254,-60199",
    "name": "Izium Raion",
    "local_name": "Ізюмський район",
    "name_en": "Izium Raion",
    "all_tags": {
      "name": "Ізюмський район",
      "place": "district",
      "katotth": "UA63040000000023521",
      "name:de": "Rajon Isjum",
      "name:en": "Izium Raion",
      "name:pl": "Rejon iziumski",
      "name:ru": "Изюмский район",
      "name:uk": "Ізюмський район",
      "boundary": "administrative",
      "way_area": "0.730265",
      "wikidata": "Q103826383",
      "wikipedia": "uk:Ізюмський район",
      "admin_level": "6"
    }
  },
  {
    "osm_id": -11956581,
    "boundary": "administrative",
    "admin_level": 6,
    "parents": "-71971,-60199",
    "name": "Svatove Raion",
    "local_name": "Сватівський район",
    "name_en": "Svatove Raion",
    "all_tags": {
      "name": "Сватівський район",
      "place": "district",
      "koatuu": "4424000000",
      "katotth": "UA44100000000052765",
      "name:de": "Rajon Swatowe",
      "name:en": "Svatove Raion",
      "name:es": "Raión de Svatove",
      "name:pl": "Rejon swatowski",
      "name:ru": "Сватовский район",
      "name:uk": "Сватівський район",
      "name:vi": "Svatove (huyện)",
      "boundary": "administrative",
      "way_area": "0.660993",
      "wikidata": "Q103810985",
      "wikipedia": "uk:Сватівський район",
      "admin_level": "6"
    }
  },
  {
    "osm_id": -1751376,
    "boundary": "administrative",
    "admin_level": 6,
    "parents": "-71971,-60199",
    "name": "Sverdlovsk Raion",
    "local_name": "Свердловський район",
    "name_en": "Sverdlovsk Raion",
    "all_tags": {
      "name": "Свердловський район",
      "koatuu": "4424200000",
      "name:de": "Rajon Swerdlowsk",
      "name:en": "Sverdlovsk Raion",
      "name:es": "Raión de Sverdlovsk",
      "name:pl": "Rejon swerdłowski",
      "name:ru": "Свердловский район",
      "name:uk": "Свердловський район",
      "name:vi": "Sverdlovsk (huyện)",
      "alt_name": "Довжанський район",
      "boundary": "administrative",
      "way_area": "0.135121",
      "wikidata": "Q2216869",
      "wikipedia": "uk:Довжанський район",
      "admin_level": "6"
    }
  },
  {
    "osm_id": -1751370,
    "boundary": "administrative",
    "admin_level": 6,
    "parents": "-71971,-60199",
    "name": "Krasnodon Raion",
    "local_name": "Краснодонський район",
    "name_en": "Krasnodon Raion",
    "all_tags": {
      "name": "Краснодонський район",
      "koatuu": "4421400000",
      "name:de": "Rajon Krasnodon",
      "name:en": "Krasnodon Raion",
      "name:es": "Raión de Krasnodon",
      "name:pl": "Rejon krasnodoński",
      "name:ru": "Краснодонский район",
      "name:uk": "Краснодонський район",
      "name:vi": "Krasnodon (huyện)",
      "alt_name": "Сорокинський район",
      "boundary": "administrative",
      "way_area": "0.164312",
      "wikidata": "Q2216829",
      "wikipedia": "uk:Сорокинський район",
      "admin_level": "6"
    }
  },
  {
    "osm_id": -71250,
    "boundary": "administrative",
    "admin_level": 4,
    "parents": "-60199",
    "name": "Sumy Oblast",
    "local_name": "Сумська область",
    "name_en": "Sumy Oblast",
    "all_tags": {
      "ref": "СУМ",
      "name": "Сумська область",
      "place": "state",
      "koatuu": "5900000000",
      "ref:en": "SUM",
      "ref:ru": "СУМ",
      "katotth": "UA59000000000057109",
      "name:ar": "سومي أوبلاست",
      "name:be": "Сумская вобласць",
      "name:bg": "Сумска област",
      "name:ca": "Província de Sumy",
      "name:cs": "Sumská oblast",
      "name:de": "Oblast Sumy",
      "name:en": "Sumy Oblast",
      "name:eo": "Sumia provinco",
      "name:es": "Óblast de Sumy",
      "name:et": "Sumõ oblast",
      "name:eu": "Sumyko oblasta",
      "name:fa": "استان سومی",
      "name:fi": "Sumyn alue",
      "name:fr": "Oblast de Soumy",
      "name:ga": "Cúige Shumy",
      "name:hr": "Sumska oblast",
      "name:hu": "Szumi terület",
      "name:hy": "Սումիի մարզ",
      "name:id": "Oblast Sumy",
      "name:it": "Oblast' di Sumy",
      "name:ja": "スームィ州",
      "name:ka": "სუმის ოლქი",
      "name:ko": "수미 주",
      "name:lt": "Sumų sritis",
      "name:lv": "Sumu apgabals",
      "name:mk": "Сумска област",
      "name:mr": "सुमी ओब्लास्त",
      "name:nl": "Oblast Soemy",
      "name:nn": "Sumy oblast",
      "name:no": "Sumy oblast",
      "name:os": "Сумыйы облæст",
      "name:pl": "Obwód sumski",
      "name:pt": "Oblast de Sumi",
      "name:ro": "Regiunea Sumî",
      "name:ru": "Сумская область",
      "name:sh": "Sumska oblast",
      "name:sk": "Sumská oblasť",
      "name:sr": "Сумска област",
      "name:sv": "Sumy oblast",
      "name:tr": "Sumi Oblastı",
      "name:uk": "Сумська область",
      "name:vi": "Sumi (tỉnh)",
      "name:zh": "蘇梅州",
      "boundary": "administrative",
      "name:crh": "Sumı vilâyeti",
      "name:nan": "Sumy séng",
      "name:pnb": "سومی اوبلاست",
      "name:rue": "Сумска область",
      "name:sco": "Sumy Oblast",
      "name:war": "Sumy Oblast",
      "name:xmf": "სუმაშ ოლქი",
      "timezone": "Europe/Kiev",
      "way_area": "3.05976",
      "wikidata": "Q170446",
      "ISO3166-2": "UA-59",
      "wikipedia": "uk:Сумська область",
      "admin_level": "4",
      "name:be-tarask": "Сумская вобласьць"
    }
  },
  {
    "osm_id": -11795528,
    "boundary": "administrative",
    "admin_level": 6,
    "parents": "-71250,-60199",
    "name": "Sumy Raion",
    "local_name": "Сумський район",
    "name_en": "Sumy Raion",
    "all_tags": {
      "name": "Сумський район",
      "place": "district",
      "koatuu": "5924700000",
      "katotth": "UA59080000000057897",
      "name:de": "Rajon Sumy",
      "name:en": "Sumy Raion",
      "name:pl": "Rejon sumski",
      "name:ru": "Сумский район",
      "name:uk": "Сумський район",
      "boundary": "administrative",
      "way_area": "0.830399",
      "wikidata": "Q103859569",
      "wikipedia": "uk:Сумський район",
      "admin_level": "6"
    }
  },
  {
    "osm_id": -11805641,
    "boundary": "administrative",
    "admin_level": 6,
    "parents": "-72488,-60199",
    "name": "Ivano-Frankivsk Raion",
    "local_name": "Івано-Франківський район",
    "name_en": "Ivano-Frankivsk Raion",
    "all_tags": {
      "name": "Івано-Франківський район",
      "place": "district",
      "katotth": "UA26040000000044761",
      "name:de": "Rajon Iwano-Frankiwsk",
      "name:en": "Ivano-Frankivsk Raion",
      "name:pl": "Rejon iwano-frankiwski",
      "name:ru": "Ивано-Франковский район",
      "name:uk": "Івано-Франківський район",
      "boundary": "administrative",
      "way_area": "0.477095",
      "wikidata": "Q98521883",
      "wikipedia": "uk:Івано-Франківський район",
      "start_date": "2020-07-19",
      "admin_level": "6"
    }
  },
  {
    "osm_id": -1738981,
    "boundary": "administrative",
    "admin_level": 6,
    "parents": "-72635,-3114112,-60199",
    "name": "Pervomaisk Raion",
    "local_name": "Первомайський район",
    "name_en": "Pervomaisk Raion",
    "all_tags": {
      "name": "Первомайський район",
      "place": "district",
      "koatuu": "4825400000",
      "katotth": "UA48080000000082320",
      "name:de": "Rajon Perwomajsk",
      "name:en": "Pervomaisk Raion",
      "name:pl": "Rejon perwomajski",
      "name:ru": "Первомайский район",
      "name:uk": "Первомайський район",
      "boundary": "administrative",
      "way_area": "0.457186",
      "wikidata": "Q103842877",
      "wikipedia": "uk:Первомайський район (Миколаївська область)",
      "admin_level": "6"
    }
  },
  {
    "osm_id": -2899741,
    "boundary": "administrative",
    "admin_level": 6,
    "parents": "-71973,-60199",
    "name": "Dokuchaevsk Municipality",
    "local_name": "Докучаєвська міська рада",
    "name_en": "Dokuchaevsk Municipality",
    "all_tags": {
      "name": "Докучаєвська міська рада",
      "place": "municipality",
      "koatuu": "1411600000",
      "name:en": "Dokuchaevsk Municipality",
      "name:ru": "Докучаевский городской совет",
      "name:uk": "Докучаєвська міська рада",
      "alt_name": "Докучаєвськ",
      "boundary": "administrative",
      "way_area": "0.0142687",
      "wikidata": "Q4164363",
      "wikipedia": "uk:Докучаєвська міська рада",
      "population": "26265",
      "admin_level": "6",
      "postal_code": "85740-85746"
    }
  },
  {
    "osm_id": -2916659,
    "boundary": "administrative",
    "admin_level": 6,
    "parents": "-71973,-60199",
    "name": "Shakhtarsk Municipality",
    "local_name": "Шахтарська міська рада",
    "name_en": "Shakhtarsk Municipality",
    "all_tags": {
      "name": "Шахтарська міська рада",
      "place": "municipality",
      "koatuu": "1415300000",
      "name:en": "Shakhtarsk Municipality",
      "name:ru": "Шахтёрский городской совет",
      "name:uk": "Шахтарська міська рада",
      "alt_name": "Шахтарськ",
      "boundary": "administrative",
      "way_area": "0.0137816",
      "wikidata": "Q4521469",
      "wikipedia": "uk:Шахтарська міська рада",
      "population": "71658",
      "admin_level": "6",
      "postal_code": "86200-86219"
    }
  },
  {
    "osm_id": -71245,
    "boundary": "administrative",
    "admin_level": 4,
    "parents": "-60199",
    "name": "Zhytomyr Oblast",
    "local_name": "Житомирська область",
    "name_en": "Zhytomyr Oblast",
    "all_tags": {
      "ref": "ЖИТ",
      "flag": "http://upload.wikimedia.org/wikipedia/commons/6/69/Flag_of_Zhytomyr_Oblast.svg",
      "name": "Житомирська область",
      "place": "state",
      "koatuu": "1800000000",
      "ref:en": "ZHI",
      "ref:ru": "ЖИТ",
      "katotth": "UA18000000000041385",
      "name:ar": "زيتومير أوبلاست",
      "name:be": "Жытомірская вобласць",
      "name:bg": "Житомирска област",
      "name:bs": "Žitomirska oblast",
      "name:ca": "Província de Jytómyr",
      "name:cs": "Žytomyrská oblast",
      "name:cu": "Житомирьска область",
      "name:cv": "Житомир облаçĕ",
      "name:de": "Oblast Schytomyr",
      "name:en": "Zhytomyr Oblast",
      "name:eo": "Ĵitomira provinco",
      "name:es": "Óblast de Zhytomyr",
      "name:et": "Žõtomõri oblast",
      "name:eu": "Zhytomyrko oblasta",
      "name:fa": "استان ژیتومیر",
      "name:fi": "Žytomyrin alue",
      "name:fr": "Oblast de Jytomyr",
      "name:hr": "Žitomirska oblast",
      "name:hy": "Ժիտոմիրի մարզ",
      "name:id": "Oblast Zhytomyr",
      "name:it": "Oblast' di Žytomyr",
      "name:ja": "ジトームィル州",
      "name:ka": "ჟიტომირის ოლქი",
      "name:ko": "지토미르 주",
      "name:lt": "Žytomyro sritis",
      "name:lv": "Žitomiras apgabals",
      "name:mk": "Житомирска област",
      "name:mr": "झितोमिर ओब्लास्त",
      "name:nl": "Oblast Zjytomyr",
      "name:nn": "Zjytomyr oblast",
      "name:no": "Zjytomyr oblast",
      "name:pl": "Obwód żytomierski",
      "name:pt": "Oblast de Jitomir",
      "name:ro": "Regiunea Jîtomîr",
      "name:ru": "Житомирская область",
      "name:sh": "Žitomirska oblast",
      "name:sk": "Žytomyrská oblasť",
      "name:sr": "Житомирска област",
      "name:sv": "Zjytomyr oblast",
      "name:tr": "Jitomir Oblastı",
      "name:uk": "Житомирська область",
      "name:vi": "Zhytomyr (tỉnh)",
      "name:yi": "זשיטאמירער גובערניע",
      "name:zh": "日托米爾州",
      "boundary": "administrative",
      "name:crh": "Jıtomır vilâyeti",
      "name:nan": "Zhytomyr séng",
      "name:pnb": "ژیتومیر اوبلاست",
      "name:rue": "Жытомирьска область",
      "name:sco": "Zhytomyr Oblast",
      "name:war": "Zhytomyr Oblast",
      "timezone": "Europe/Kiev",
      "way_area": "3.79398",
      "wikidata": "Q40637",
      "ISO3166-2": "UA-18",
      "wikipedia": "uk:Житомирська область",
      "admin_level": "4",
      "is_in:country": "Ukraine",
      "name:be-tarask": "Жытомірская вобласьць",
      "is_in:continent": "Europe",
      "is_in:country_code": "UA"
    }
  },
  {
    "osm_id": -2409026,
    "boundary": "administrative",
    "admin_level": 6,
    "parents": "-71973,-60199",
    "name": "Yasynuvata Municipality",
    "local_name": "Ясинуватська міська рада",
    "name_en": "Yasynuvata Municipality",
    "all_tags": {
      "name": "Ясинуватська міська рада",
      "place": "municipality",
      "koatuu": "1415500000",
      "name:en": "Yasynuvata Municipality",
      "name:ru": "Ясиноватский городской совет",
      "name:uk": "Ясинуватська міська рада",
      "alt_name": "Ясинувата",
      "boundary": "administrative",
      "way_area": "0.00221734",
      "wikidata": "Q4539259",
      "wikipedia": "uk:Ясинуватська міська рада",
      "population": "35402",
      "admin_level": "6",
      "postal_code": "86000-86015"
    }
  },
  {
    "osm_id": -11803997,
    "boundary": "administrative",
    "admin_level": 6,
    "parents": "-71254,-60199",
    "name": "Kharkiv Raion",
    "local_name": "Харківський район",
    "name_en": "Kharkiv Raion",
    "all_tags": {
      "name": "Харківський район",
      "place": "district",
      "koatuu": "6325100000",
      "katotth": "UA63120000000091135",
      "name:de": "Rajon Charkiw",
      "name:en": "Kharkiv Raion",
      "name:es": "Raión de Járkiv",
      "name:fi": "Harkivan piiri",
      "name:pl": "Rejon charkowski",
      "name:ru": "Харьковский район",
      "name:uk": "Харківський район",
      "boundary": "administrative",
      "way_area": "0.403986",
      "wikidata": "Q102428285",
      "wikipedia": "uk:Харківський район",
      "admin_level": "6",
      "old_name:es": "Raión de Járkov",
      "old_name:fi": "Harkovan piiri"
    }
  },
  {
    "osm_id": -72489,
    "boundary": "administrative",
    "admin_level": 4,
    "parents": "-60199",
    "name": "Zakarpattia Oblast",
    "local_name": "Закарпатська область",
    "name_en": "Zakarpattia Oblast",
    "all_tags": {
      "ref": "ЗАК",
      "flag": "http://upload.wikimedia.org/wikipedia/commons/3/3c/Flag_of_Transcarpathian_Oblast.svg",
      "name": "Закарпатська область",
      "place": "state",
      "koatuu": "2100000000",
      "ref:en": "ZAK",
      "ref:ru": "ЗАК",
      "katotth": "UA21000000000011690",
      "name:ar": "زاكارباتيا أوبلاست",
      "name:be": "Закарпацкая вобласць",
      "name:bg": "Закарпатска област",
      "name:bs": "Zakarpatska oblast",
      "name:ca": "Transcarpàcia",
      "name:cs": "Zakarpatská oblast",
      "name:de": "Oblast Transkarpatien",
      "name:en": "Zakarpattia Oblast",
      "name:eo": "Transkarpata provinco",
      "name:es": "Óblast de Zakarpatia",
      "name:et": "Taga-Karpaatia",
      "name:eu": "Transkarpatiako oblasta",
      "name:fi": "Taka-Karpatian alue",
      "name:fr": "Oblast de Transcarpatie",
      "name:he": "זקרפטיה",
      "name:hr": "Zakarpatska oblast",
      "name:hu": "Kárpátalja",
      "name:hy": "Անդրկարպատյան մարզ",
      "name:id": "Oblast Zakarpattia",
      "name:it": "Oblast' di Transcarpazia",
      "name:ja": "ザカルパッチャ州",
      "name:ka": "ტრანსკარპატიის ოლქი",
      "name:ko": "자카르파탸 주",
      "name:la": "Ruthenia Subcarpathanea",
      "name:lt": "Užkarpatės sritis",
      "name:lv": "Aizkarpatu apgabals",
      "name:mk": "Закарпатска област",
      "name:mr": "झाकारपत्तिया ओब्लास्त",
      "name:nl": "Oblast Transkarpatië",
      "name:nn": "Zakarpattja oblast",
      "name:no": "Zakarpattja oblast",
      "name:os": "Фæскарпаты облæст",
      "name:pl": "Obwód zakarpacki",
      "name:pt": "Oblast da Transcarpátia",
      "name:ro": "Regiunea Transcarpatia",
      "name:ru": "Закарпатская область",
      "name:sk": "Zakarpatská oblasť",
      "name:sr": "Закарпатска област",
      "name:sv": "Zakarpatska oblast",
      "name:tr": "Zakarpatya Oblastı",
      "name:uk": "Закарпатська область",
      "name:uz": "Zakarpatye viloyati",
      "name:zh": "外喀爾巴阡州",
      "boundary": "administrative",
      "name:crh": "Zakarpattâ vilâyeti",
      "name:nan": "Zakarpattya séng",
      "name:pnb": "زاکارپاتیا اوبلاست",
      "name:rue": "Закарпатьска область",
      "name:sco": "Zakarpattia Oblast",
      "name:szl": "Zakarpacki uobwůd",
      "name:war": "Zakarpattia Oblast",
      "name:xmf": "ტრანსკარპატიაშ ოლქი",
      "timezone": "Europe/Uzhgorod",
      "way_area": "1.54918",
      "wikidata": "Q170213",
      "ISO3166-2": "UA-21",
      "wikipedia": "uk:Закарпатська область",
      "admin_level": "4",
      "name:simple": "Zakarpattia Oblast",
      "name:be-tarask": "Закарпацкая вобласьць"
    }
  },
  {
    "osm_id": -11914609,
    "boundary": "administrative",
    "admin_level": 6,
    "parents": "-90726,-60199",
    "name": "Khmilnyk Raion",
    "local_name": "Хмільницький район",
    "name_en": "Khmilnyk Raion",
    "all_tags": {
      "name": "Хмільницький район",
      "place": "district",
      "koatuu": "0524800000",
      "katotth": "UA05120000000017020",
      "name:de": "Rajon Chmilnyk",
      "name:en": "Khmilnyk Raion",
      "name:pl": "Rejon chmielnicki",
      "name:ru": "Хмельницкий район",
      "name:uk": "Хмільницький район",
      "boundary": "administrative",
      "way_area": "0.460174",
      "wikidata": "Q103819943",
      "wikipedia": "uk:Хмільницький район",
      "admin_level": "6"
    }
  },
  {
    "osm_id": -72526,
    "boundary": "administrative",
    "admin_level": 4,
    "parents": "-60199",
    "name": "Chernivtsi Oblast",
    "local_name": "Чернівецька область",
    "name_en": "Chernivtsi Oblast",
    "all_tags": {
      "name": "Чернівецька область",
      "place": "state",
      "koatuu": "7300000000",
      "ref:en": "CRV",
      "ref:ru": "ЧРВ",
      "ref:uk": "ЧРВ",
      "katotth": "UA73000000000044923",
      "name:ar": "تشيرنيفتسي أوبلاست",
      "name:be": "Чарнавіцкая вобласць",
      "name:bg": "Черновицка област",
      "name:ca": "Província de Txernivtsí",
      "name:cs": "Černovická oblast",
      "name:de": "Oblast Tscherniwzi",
      "name:en": "Chernivtsi Oblast",
      "name:eo": "Ĉernivca provinco",
      "name:es": "Óblast de Chernivtsi",
      "name:et": "Tšernivtsi oblast",
      "name:eu": "Txernivtsiko oblasta",
      "name:fa": "استان چرنیوتسی",
      "name:fi": "Tšernivtsin alue",
      "name:fr": "Oblast de Tchernivtsi",
      "name:hr": "Černivecka oblast",
      "name:hu": "Csernyivci terület",
      "name:hy": "Չեռնովցիի մարզ",
      "name:id": "Oblast Chernivtsi",
      "name:it": "Oblast' di Černivci",
      "name:ja": "チェルニウツィー州",
      "name:ka": "ჩერნოვცის ოლქი",
      "name:ko": "체르니우치 주",
      "name:lt": "Černivcių sritis",
      "name:lv": "Černivcu apgabals",
      "name:mk": "Черновечка област",
      "name:mr": "चेर्निव्हत्सी ओब्लास्त",
      "name:ms": "Oblast Chernivtsi",
      "name:nl": "Oblast Tsjernivtsi",
      "name:nn": "Tsjernivtsi oblast",
      "name:no": "Tsjernivtsi oblast",
      "name:os": "Черновцыйы облæст",
      "name:pl": "Obwód czerniowiecki",
      "name:pt": "Oblast de Chernivtsi",
      "name:ro": "Regiunea Cernăuți",
      "name:ru": "Черновицкая область",
      "name:sh": "Černivecka oblast",
      "name:sk": "Černovická oblasť",
      "name:sr": "Чернивачка област",
      "name:sv": "Tjernivtsi oblast",
      "name:tr": "Çernovtsi Oblastı",
      "name:uk": "Чернівецька область",
      "name:vi": "Chernivtsi (tỉnh)",
      "name:zh": "切爾諾夫策州",
      "boundary": "administrative",
      "name:crh": "Çernivtsi vilâyeti",
      "name:nan": "Chernivci séng",
      "name:pnb": "چرنیوتسی اوبلاست",
      "name:rue": "Чернівецька область",
      "name:sco": "Chernivtsi Oblast",
      "name:szl": "Czerńowjecki uobwůd",
      "name:war": "Chernivtsi Oblast",
      "timezone": "Europe/Kiev",
      "way_area": "0.980874",
      "wikidata": "Q168856",
      "ISO3166-2": "UA-77",
      "wikipedia": "uk:Чернівецька область",
      "admin_level": "4",
      "name:be-tarask": "Чарнавіцкая вобласьць"
    }
  },
  {
    "osm_id": -11951881,
    "boundary": "administrative",
    "admin_level": 6,
    "parents": "-90726,-60199",
    "name": "Zhmerynka Raion",
    "local_name": "Жмеринський район",
    "name_en": "Zhmerynka Raion",
    "all_tags": {
      "name": "Жмеринський район",
      "place": "district",
      "koatuu": "0521000000",
      "katotth": "UA05060000000061926",
      "name:de": "Rajon Schmerynka",
      "name:en": "Zhmerynka Raion",
      "name:pl": "Rejon żmeryński",
      "name:ru": "Жмеринский район",
      "name:uk": "Жмеринський район",
      "boundary": "administrative",
      "way_area": "0.385057",
      "wikidata": "Q103812605",
      "wikipedia": "uk:Жмеринський район",
      "admin_level": "6"
    }
  },
  {
    "osm_id": -90742,
    "boundary": "administrative",
    "admin_level": 4,
    "parents": "-60199",
    "name": "Khmelnytskyi Oblast",
    "local_name": "Хмельницька область",
    "name_en": "Khmelnytskyi Oblast",
    "all_tags": {
      "ref": "ХМЕ",
      "name": "Хмельницька область",
      "place": "state",
      "koatuu": "6800000000",
      "ref:en": "KHM",
      "ref:ru": "ХМЕ",
      "katotth": "UA68000000000099709",
      "name:ar": "خملنيتسكي أوبلاست",
      "name:be": "Хмяльніцкая вобласць",
      "name:bg": "Хмелницка област",
      "name:ca": "Província de Khmelnytskyi",
      "name:cs": "Chmelnycká oblast",
      "name:de": "Oblast Chmelnyzkyj",
      "name:en": "Khmelnytskyi Oblast",
      "name:eo": "Ĥmelnicka provinco",
      "name:es": "Óblast de Jmelnitski",
      "name:et": "Hmelnõtskõi oblast",
      "name:eu": "Khmelnytskyko oblasta",
      "name:fa": "استان خملنیتسکی",
      "name:fi": "Hmelnitskyin alue",
      "name:fr": "Oblast de Khmelnitski",
      "name:hr": "Hmeljnička oblast",
      "name:hu": "Hmelnickiji terület",
      "name:hy": "Խմելնիցկու մարզ",
      "name:id": "Oblast Khmelnytskyi",
      "name:it": "Oblast' di Chmel'nyc'kyj",
      "name:ja": "フメリヌィーツィクィイ州",
      "name:ka": "ხმელნიცკის ოლქი",
      "name:ko": "흐멜니츠키 주",
      "name:lt": "Chmelnyckio sritis",
      "name:lv": "Hmeļņickas apgabals",
      "name:mk": "Хмелничка област",
      "name:mr": "ख्मेल्नित्स्की ओब्लास्त",
      "name:nl": "Oblast Chmelnitski",
      "name:nn": "Khmelnytskyj oblast",
      "name:no": "Khmelnytskyj oblast",
      "name:pl": "Obwód chmielnicki",
      "name:pt": "Oblast de Khmelnitski",
      "name:ro": "Regiunea Hmelnițki",
      "name:ru": "Хмельницкая область",
      "name:sh": "Hmeljnička oblast",
      "name:sk": "Chmeľnycká oblasť",
      "name:sr": "Хмељничка област",
      "name:sv": "Chmelnytskyj oblast",
      "name:tr": "Hmelnitski Oblastı",
      "name:uk": "Хмельницька область",
      "name:vi": "Khmelnytskyi (tỉnh)",
      "name:zh": "赫梅利尼茨基州",
      "boundary": "administrative",
      "name:crh": "Hmelnıtskıy vilâyeti",
      "name:nan": "Xmelnyczkyj séng",
      "name:pnb": "خمیلنیتسکی اوبلاست",
      "name:rue": "Хмельницька область",
      "name:sco": "Khmelnytskyi Oblast",
      "name:szl": "Chmjylńicki uobwůd",
      "name:war": "Khmelnytskyi Oblast",
      "old_name": "Кам’янець-Подільська область",
      "timezone": "Europe/Kiev",
      "way_area": "2.56012",
      "wikidata": "Q171331",
      "ISO3166-2": "UA-68",
      "wikipedia": "uk:Хмельницька область",
      "admin_level": "4",
      "alt_name:de": "Oblast Chmelnizki",
      "alt_name:en": "Khmelnitsky Oblast",
      "name:be-tarask": "Хмяльніцкая вобласьць"
    }
  },
  {
    "osm_id": -11921572,
    "boundary": "administrative",
    "admin_level": 6,
    "parents": "-90742,-60199",
    "name": "Khmelnytskyi Raion",
    "local_name": "Хмельницький район",
    "name_en": "Khmelnytskyi Raion",
    "all_tags": {
      "name": "Хмельницький район",
      "place": "district",
      "koatuu": "6825000000",
      "katotth": "UA68040000000086061",
      "name:de": "Rajon Chmelnyzkyj",
      "name:en": "Khmelnytskyi Raion",
      "name:pl": "Rejon chmielnicki",
      "name:ru": "Хмельницкий район",
      "name:uk": "Хмельницький район",
      "boundary": "administrative",
      "way_area": "1.33429",
      "wikidata": "Q103848513",
      "wikipedia": "uk:Хмельницький район",
      "admin_level": "6"
    }
  },
  {
    "osm_id": -11883402,
    "boundary": "administrative",
    "admin_level": 6,
    "parents": "-72634,-60199",
    "name": "Одеський район",
    "local_name": "Одеський район",
    "name_en": null,
    "all_tags": {
      "name": "Одеський район",
      "place": "district",
      "katotth": "UA51100000000095786",
      "name:uk": "Одеський район",
      "boundary": "administrative",
      "way_area": "0.464121",
      "wikidata": "Q103755776",
      "wikipedia": "uk:Одеський район",
      "admin_level": "6"
    }
  },
  {
    "osm_id": -11886169,
    "boundary": "administrative",
    "admin_level": 6,
    "parents": "-72634,-60199",
    "name": "Podilsk Raion",
    "local_name": "Подільський район",
    "name_en": "Podilsk Raion",
    "all_tags": {
      "name": "Подільський район",
      "place": "district",
      "koatuu": "5122900000",
      "katotth": "UA51120000000021678",
      "name:be": "Падольскі раён",
      "name:bg": "Подилски район",
      "name:de": "Rajon Podilsk",
      "name:en": "Podilsk Raion",
      "name:es": "Raión de Podilsk",
      "name:he": "מחוז משנה פודילסק",
      "name:it": "Distretto di Podil's'k",
      "name:ka": "პოდოლსკის რაიონი",
      "name:pl": "Rejon podilski",
      "name:ro": "Raionul Bârzula",
      "name:ru": "Подольский район",
      "name:uk": "Подільський район",
      "name:vi": "Huyện Podilsk",
      "boundary": "administrative",
      "name:crh": "Podilsk rayonı",
      "old_name": "Котовський район",
      "way_area": "0.846952",
      "wikidata": "Q103851307",
      "wikipedia": "uk:Подільський район (Одеська область)",
      "admin_level": "6",
      "old_name:be": "Катоўскі раён",
      "old_name:bg": "Котовски район",
      "old_name:de": "Rajon Kotowsk",
      "old_name:hy": "Կոտովսկի շրջան",
      "old_name:it": "Distretto di Kotovs'k",
      "old_name:ka": "კოტოვსკის რაიონი",
      "old_name:pl": "Rejon kotowśki",
      "old_name:ru": "Котовский район",
      "old_name:uk": "Котовський район",
      "old_name:vi": "Huyện Kotovsk",
      "old_name:zh": "科托夫斯克区"
    }
  },
  {
    "osm_id": -11954138,
    "boundary": "administrative",
    "admin_level": 6,
    "parents": "-91278,-60199",
    "name": "Uman Raion",
    "local_name": "Уманський район",
    "name_en": "Uman Raion",
    "all_tags": {
      "name": "Уманський район",
      "place": "district",
      "koatuu": "7124300000",
      "katotth": "UA71060000000030325",
      "name:de": "Rajon Uman",
      "name:en": "Uman Raion",
      "name:pl": "Rejon humański",
      "name:ru": "Уманский район",
      "name:uk": "Уманський район",
      "boundary": "administrative",
      "way_area": "0.554337",
      "wikidata": "Q103812172",
      "wikipedia": "uk:Уманський район",
      "admin_level": "6"
    }
  },
  {
    "osm_id": -11914591,
    "boundary": "administrative",
    "admin_level": 6,
    "parents": "-90726,-60199",
    "name": "Vinnytsia Raion",
    "local_name": "Вінницький район",
    "name_en": "Vinnytsia Raion",
    "all_tags": {
      "name": "Вінницький район",
      "place": "district",
      "koatuu": "0520600000",
      "katotth": "UA05020000000026686",
      "name:de": "Rajon Winnyzja",
      "name:en": "Vinnytsia Raion",
      "name:pl": "Rejon winnicki",
      "name:ru": "Винницкий район",
      "name:uk": "Вінницький район",
      "boundary": "administrative",
      "way_area": "0.852167",
      "wikidata": "Q102420838",
      "wikipedia": "uk:Вінницький район",
      "admin_level": "6"
    }
  },
  {
    "osm_id": -11833149,
    "boundary": "administrative",
    "admin_level": 6,
    "parents": "-71236,-60199",
    "name": "Rivne Raion",
    "local_name": "Рівненський район",
    "name_en": "Rivne Raion",
    "all_tags": {
      "name": "Рівненський район",
      "place": "district",
      "koatuu": "5624600000",
      "katotth": "UA56060000000041446",
      "name:de": "Rajon Riwne",
      "name:en": "Rivne Raion",
      "name:pl": "Rejon rówieński",
      "name:ru": "Ровненский район",
      "name:uk": "Рівненський район",
      "boundary": "administrative",
      "way_area": "0.919266",
      "wikidata": "Q103859120",
      "wikipedia": "uk:Рівненський район",
      "admin_level": "6"
    }
  },
  {
    "osm_id": -11804000,
    "boundary": "administrative",
    "admin_level": 6,
    "parents": "-71254,-60199",
    "name": "Lozova Raion",
    "local_name": "Лозівський район",
    "name_en": "Lozova Raion",
    "all_tags": {
      "name": "Лозівський район",
      "place": "district",
      "koatuu": "6323900000",
      "katotth": "UA63100000000059237",
      "name:de": "Rajon Losowa",
      "name:en": "Lozova Raion",
      "name:pl": "Rejon łozowski",
      "name:ru": "Лозовский район",
      "name:uk": "Лозівський район",
      "boundary": "administrative",
      "way_area": "0.495433",
      "wikidata": "Q102442001",
      "wikipedia": "uk:Лозівський район",
      "admin_level": "6"
    }
  },
  {
    "osm_id": -1738040,
    "boundary": "administrative",
    "admin_level": 6,
    "parents": "-101746,-60199",
    "name": "Pavlohrad Raion",
    "local_name": "Павлоградський район",
    "name_en": "Pavlohrad Raion",
    "all_tags": {
      "name": "Павлоградський район",
      "place": "district",
      "koatuu": "1223500000",
      "katotth": "UA12120000000089862",
      "name:de": "Rajon Pawlohrad",
      "name:en": "Pavlohrad Raion",
      "name:pl": "Rejon pawłohradzki",
      "name:ru": "Павлоградский район",
      "name:uk": "Павлоградський район",
      "boundary": "administrative",
      "way_area": "0.296292",
      "wikidata": "Q103820986",
      "wikipedia": "uk:Павлоградський район",
      "admin_level": "6"
    }
  },
  {
    "osm_id": -11803998,
    "boundary": "administrative",
    "admin_level": 6,
    "parents": "-71254,-60199",
    "name": "Krasnohrad Raion",
    "local_name": "Красноградський район",
    "name_en": "Krasnohrad Raion",
    "all_tags": {
      "name": "Красноградський район",
      "place": "district",
      "koatuu": "6323300000",
      "katotth": "UA63060000000053698",
      "name:de": "Rajon Krasnohrad",
      "name:en": "Krasnohrad Raion",
      "name:pl": "Rejon krasnohradzki",
      "name:ru": "Красноградский район",
      "name:uk": "Красноградський район",
      "boundary": "administrative",
      "way_area": "0.536344",
      "wikidata": "Q102467294",
      "wikipedia": "uk:Красноградський район",
      "admin_level": "6"
    }
  },
  {
    "osm_id": -11984324,
    "boundary": "administrative",
    "admin_level": 6,
    "parents": "-71973,-60199",
    "name": "Pokrovskii Raion",
    "local_name": "Покровський район",
    "name_en": "Pokrovskii Raion",
    "all_tags": {
      "name": "Покровський район",
      "place": "district",
      "katotth": "UA14160000000061982",
      "name:en": "Pokrovskii Raion",
      "name:ru": "Покровский район",
      "name:uk": "Покровський район",
      "boundary": "administrative",
      "way_area": "0.484469",
      "wikidata": "Q103821232",
      "wikipedia": "uk:Покровський район (Донецька область)",
      "start_date": "2020-07-19",
      "admin_level": "6"
    }
  },
  {
    "osm_id": -2912085,
    "boundary": "administrative",
    "admin_level": 6,
    "parents": "-71973,-60199",
    "name": "Horlivka Municipality",
    "local_name": "Горлівська міська рада",
    "name_en": "Horlivka Municipality",
    "all_tags": {
      "name": "Горлівська міська рада",
      "place": "municipality",
      "koatuu": "1410600000",
      "name:en": "Horlivka Municipality",
      "name:ru": "Горловский городской совет",
      "name:uk": "Горлівська міська рада",
      "alt_name": "Горлівка",
      "boundary": "administrative",
      "way_area": "0.0474154",
      "wikidata": "Q4144462",
      "wikipedia": "uk:Горлівська міська рада",
      "population": "314660",
      "admin_level": "6",
      "postal_code": "84600-84690"
    }
  },
  {
    "osm_id": -2917784,
    "boundary": "administrative",
    "admin_level": 6,
    "parents": "-71973,-60199",
    "name": "Zhdanivka Municipality",
    "local_name": "Жданівська міська рада",
    "name_en": "Zhdanivka Municipality",
    "all_tags": {
      "name": "Жданівська міська рада",
      "place": "municipality",
      "koatuu": "1412100000",
      "name:en": "Zhdanivka Municipality",
      "name:ru": "Ждановский городской совет",
      "name:uk": "Жданівська міська рада",
      "alt_name": "Жданівка",
      "boundary": "administrative",
      "way_area": "0.000964183",
      "wikidata": "Q4178540",
      "wikipedia": "uk:Жданівська міська рада",
      "population": "14793",
      "admin_level": "6",
      "postal_code": "86391-86396"
    }
  },
  {
    "osm_id": -2875299,
    "boundary": "administrative",
    "admin_level": 6,
    "parents": "-71973,-60199",
    "name": "Debaltseve Municipality",
    "local_name": "Дебальцівська міська рада",
    "name_en": "Debaltseve Municipality",
    "all_tags": {
      "name": "Дебальцівська міська рада",
      "place": "municipality",
      "koatuu": "1410900000",
      "name:en": "Debaltseve Municipality",
      "name:ru": "Дебальцевский городской совет",
      "name:uk": "Дебальцівська міська рада",
      "alt_name": "Дебальцеве",
      "boundary": "administrative",
      "way_area": "0.00320111",
      "wikidata": "Q4156267",
      "wikipedia": "uk:Дебальцівська міська рада",
      "population": "52214",
      "admin_level": "6",
      "postal_code": "84700-84790"
    }
  },
  {
    "osm_id": -11872898,
    "boundary": "administrative",
    "admin_level": 6,
    "parents": "-71980,-60199",
    "name": "Vasylivka Raion",
    "local_name": "Василівський район",
    "name_en": "Vasylivka Raion",
    "all_tags": {
      "name": "Василівський район",
      "place": "district",
      "koatuu": "2320900000",
      "katotth": "UA23040000000067730",
      "name:de": "Rajon Wassyliwka",
      "name:en": "Vasylivka Raion",
      "name:pl": "Rejon wasyliwski",
      "name:ru": "Васильевский район",
      "name:uk": "Василівський район",
      "boundary": "administrative",
      "way_area": "0.512656",
      "wikidata": "Q103821347",
      "wikipedia": "uk:Василівський район",
      "admin_level": "6"
    }
  },
  {
    "osm_id": -71248,
    "boundary": "administrative",
    "admin_level": 4,
    "parents": "-60199",
    "name": "Kyiv Oblast",
    "local_name": "Київська область",
    "name_en": "Kyiv Oblast",
    "all_tags": {
      "ref": "КИЇ",
      "flag": "http://upload.wikimedia.org/wikipedia/commons/b/be/Flag_of_Kiev_Oblast.svg",
      "name": "Київська область",
      "place": "state",
      "koatuu": "3200000000",
      "ref:en": "KYI",
      "ref:ru": "КИЕ",
      "katotth": "UA32000000000030281",
      "name:af": "Kyiv-oblast",
      "name:ar": "كييف أوبلاست",
      "name:az": "Kıyiv vilayəti",
      "name:be": "Кіеўская вобласць",
      "name:bg": "Киевска област",
      "name:bs": "Kijevska oblast",
      "name:ca": "Província de Kíiv",
      "name:cs": "Kyjevská oblast",
      "name:cv": "Кейӳ облаçĕ",
      "name:de": "Oblast Kyjiw",
      "name:en": "Kyiv Oblast",
      "name:eo": "Kijivo provinco",
      "name:es": "Óblast de Kyiv",
      "name:et": "Kiievi oblast",
      "name:eu": "Kieveko oblasta",
      "name:fa": "استان کیف",
      "name:fi": "Kiovan alue",
      "name:fr": "Oblast de Kyiv",
      "name:hr": "Kijevska oblast",
      "name:hy": "Կիևի մարզ",
      "name:id": "Oblast Kiev",
      "name:it": "Oblast' di Kyiv",
      "name:ja": "キエフ州",
      "name:ka": "კიევის ოლქი",
      "name:ko": "키이우 주",
      "name:lt": "Kijevo sritis",
      "name:lv": "Kijevas apgabals",
      "name:mk": "Киевска област",
      "name:mr": "क्यीव ओब्लास्त",
      "name:ms": "Oblast Kiev",
      "name:nl": "Oblast Kiev",
      "name:nn": "Kiev oblast",
      "name:no": "Kiev oblast",
      "name:os": "Киевы облæст",
      "name:pl": "Obwód kijowski",
      "name:pt": "Oblast de Kyiv",
      "name:ro": "Regiunea Kiev",
      "name:ru": "Киевская область",
      "name:sh": "Kyivska oblast",
      "name:sk": "Kyjevská oblasť",
      "name:sr": "Кијевска област",
      "name:sv": "Kiev oblast",
      "name:tr": "Kıyiv Oblastı",
      "name:uk": "Київська область",
      "name:vi": "Tỉnh Kyiv",
      "name:zh": "基辅州",
      "boundary": "administrative",
      "name:crh": "Kiyev vilâyeti",
      "name:haw": "Kyiv",
      "name:nan": "Kyyiv séng",
      "name:pnb": "کیف اوبلاست",
      "name:rue": "Київска область",
      "name:sco": "Kiev Oblast",
      "name:war": "Kiev Oblast",
      "name:xmf": "კიევიშ ოლქი",
      "timezone": "Europe/Kiev",
      "way_area": "3.55158",
      "wikidata": "Q170036",
      "ISO3166-2": "UA-32",
      "wikipedia": "uk:Київська область",
      "admin_level": "4",
      "alt_name:ca": "Província de Kíev",
      "alt_name:de": "Oblast Kiew",
      "alt_name:eo": "Kieva provinco",
      "alt_name:es": "Óblast de Kiev",
      "alt_name:et": "Kõjivi oblast",
      "alt_name:fr": "Oblast de Kiev",
      "alt_name:it": "Oblast' di Kiev",
      "alt_name:ko": "크이우 주",
      "alt_name:pt": "Oblast de Kiev",
      "alt_name:sh": "Kijevska oblast",
      "alt_name:tr": "Kıyiv Oblastı",
      "alt_name:vi": "Tỉnh Kiev",
      "old_name:ko": "키예프 주",
      "alt_name:haw": "Kiev",
      "name:zh-Hans": "基辅州",
      "name:zh-Hant": "基輔州",
      "is_in:country": "Ukraine",
      "name:be-tarask": "Кіеўская вобласьць",
      "is_in:continent": "Europe",
      "is_in:country_code": "UA"
    }
  },
  {
    "osm_id": -11955188,
    "boundary": "administrative",
    "admin_level": 6,
    "parents": "-71971,-60199",
    "name": "Starobilsk Raion",
    "local_name": "Старобільський район",
    "name_en": "Starobilsk Raion",
    "all_tags": {
      "name": "Старобільський район",
      "place": "district",
      "koatuu": "4425100000",
      "katotth": "UA44140000000031142",
      "name:de": "Rajon Starobilsk",
      "name:en": "Starobilsk Raion",
      "name:es": "Raión de Starobilsk",
      "name:pl": "Rejon starobielski",
      "name:ru": "Старобельский район",
      "name:uk": "Старобільський район",
      "name:vi": "Starobilsk (huyện)",
      "boundary": "administrative",
      "way_area": "0.859419",
      "wikidata": "Q103821034",
      "wikipedia": "uk:Старобільський район",
      "admin_level": "6"
    }
  },
  {
    "osm_id": -91278,
    "boundary": "administrative",
    "admin_level": 4,
    "parents": "-60199",
    "name": "Cherkasy Oblast",
    "local_name": "Черкаська область",
    "name_en": "Cherkasy Oblast",
    "all_tags": {
      "ref": "ЧРК",
      "name": "Черкаська область",
      "place": "state",
      "koatuu": "7100000000",
      "ref:en": "CRK",
      "ref:ru": "ЧРК",
      "katotth": "UA71000000000010357",
      "name:ar": "محافظة تشيركاسي",
      "name:be": "Чаркаская вобласць",
      "name:bg": "Черкаска област",
      "name:ca": "Província de Txerkassy",
      "name:cs": "Čerkaská oblast",
      "name:de": "Oblast Tscherkassy",
      "name:en": "Cherkasy Oblast",
      "name:eo": "Ĉerkasa provinco",
      "name:es": "Óblast de Cherkasy",
      "name:et": "Tšerkassõ oblast",
      "name:eu": "Txerkasyko oblasta",
      "name:fa": "استان چرکاسی",
      "name:fi": "Tšerkasyn alue",
      "name:fr": "Oblast de Tcherkassy",
      "name:ga": "Cúige Cherkasy",
      "name:hr": "Čerkaška oblast",
      "name:hu": "Cserkaszi terület",
      "name:hy": "Չերկասիի մարզ",
      "name:id": "Oblast Cherkasy",
      "name:it": "Oblast' di Čerkasy",
      "name:ja": "チェルカースィ州",
      "name:ka": "ჩერკასის ოლქი",
      "name:ko": "체르카시 주",
      "name:lt": "Čerkasų sritis",
      "name:lv": "Čerkasu apgabals",
      "name:mk": "Черкаска област",
      "name:mr": "चेर्कासी ओब्लास्त",
      "name:ms": "Oblast Cherkasy",
      "name:nl": "Oblast Tsjerkasy",
      "name:nn": "Tsjerkasy oblast",
      "name:no": "Tsjerkasy oblast",
      "name:pl": "Obwód czerkaski",
      "name:pt": "Oblast de Tcherkássi",
      "name:ro": "Regiunea Cerkasî",
      "name:ru": "Черкасская область",
      "name:sh": "Čerkaška oblast",
      "name:sk": "Čerkaská oblasť",
      "name:sr": "Черкашка област",
      "name:sv": "Tjerkasy oblast",
      "name:tr": "Çerkası Oblastı",
      "name:uk": "Черкаська область",
      "name:vi": "Cherkasy (tỉnh)",
      "name:zh": "切爾卡瑟州",
      "boundary": "administrative",
      "name:crh": "Çerkası vilâyeti",
      "name:nan": "Cherkasy séng",
      "name:pnb": "چرکیسی اوبلاست",
      "name:rue": "Черкаска область",
      "name:sco": "Cherkasy Oblast",
      "name:szl": "Czerkaski uobwůd",
      "name:war": "Cherkasy Oblast",
      "name:xmf": "ჩერკასიშ ოლქი",
      "timezone": "Europe/Kiev",
      "way_area": "2.58752",
      "wikidata": "Q161808",
      "ISO3166-2": "UA-71",
      "wikipedia": "uk:Черкаська область",
      "admin_level": "4",
      "name:be-tarask": "Чаркаская вобласьць"
    }
  },
  {
    "osm_id": -11925828,
    "boundary": "administrative",
    "admin_level": 6,
    "parents": "-72380,-60199",
    "name": "Yavoriv Raion",
    "local_name": "Яворівський район",
    "name_en": "Yavoriv Raion",
    "all_tags": {
      "name": "Яворівський район",
      "place": "district",
      "katotth": "UA46140000000036328",
      "name:de": "Rajon Jaworiw",
      "name:en": "Yavoriv Raion",
      "name:pl": "Rejon jaworowski",
      "name:ru": "Яворовский район",
      "name:uk": "Яворівський район",
      "boundary": "administrative",
      "way_area": "0.297272",
      "wikidata": "Q103824042",
      "wikipedia": "uk:Яворівський район",
      "admin_level": "6"
    }
  },
  {
    "osm_id": -11885531,
    "boundary": "administrative",
    "admin_level": 6,
    "parents": "-72634,-60199",
    "name": "Berezivka Raion",
    "local_name": "Березівський район",
    "name_en": "Berezivka Raion",
    "all_tags": {
      "name": "Березівський район",
      "place": "district",
      "katotth": "UA51020000000097683",
      "name:de": "Rajon Beresiwka",
      "name:en": "Berezivka Raion",
      "name:pl": "Rejon berezowski",
      "name:ro": "Raionul Berezivka",
      "name:ru": "Березовский район",
      "name:uk": "Березівський район",
      "boundary": "administrative",
      "way_area": "0.658801",
      "wikidata": "Q103842881",
      "wikipedia": "uk:Березівський район",
      "admin_level": "6"
    }
  },
  {
    "osm_id": -1738971,
    "boundary": "administrative",
    "admin_level": 6,
    "parents": "-72635,-3114112,-60199",
    "name": "Voznesensk Raion",
    "local_name": "Вознесенський район",
    "name_en": "Voznesensk Raion",
    "all_tags": {
      "name": "Вознесенський район",
      "place": "district",
      "koatuu": "4822000000",
      "katotth": "UA48040000000011780",
      "name:de": "Rajon Wosnessensk",
      "name:en": "Voznesensk Raion",
      "name:pl": "Rejon wozniesieński",
      "name:ru": "Вознесенский район",
      "name:uk": "Вознесенський район",
      "boundary": "administrative",
      "way_area": "0.735923",
      "wikidata": "Q103824271",
      "wikipedia": "uk:Вознесенський район",
      "admin_level": "6"
    }
  },
  {
    "osm_id": -11804001,
    "boundary": "administrative",
    "admin_level": 6,
    "parents": "-71254,-60199",
    "name": "Kupiansk Raion",
    "local_name": "Куп’янський район",
    "name_en": "Kupiansk Raion",
    "all_tags": {
      "name": "Куп’янський район",
      "place": "district",
      "koatuu": "6323700000",
      "katotth": "UA63080000000032022",
      "name:de": "Rajon Kupjansk",
      "name:en": "Kupiansk Raion",
      "name:pl": "Rejon kupiański",
      "name:ru": "Купянский район",
      "name:uk": "Куп’янський район",
      "boundary": "administrative",
      "way_area": "0.576844",
      "wikidata": "Q103826442",
      "wikipedia": "uk:Куп'янський район",
      "admin_level": "6"
    }
  },
  {
    "osm_id": -11921831,
    "boundary": "administrative",
    "admin_level": 6,
    "parents": "-71064,-60199",
    "name": "Lutsk Raion",
    "local_name": "Луцький район",
    "name_en": "Lutsk Raion",
    "all_tags": {
      "name": "Луцький район",
      "place": "district",
      "koatuu": "0722800000",
      "katotth": "UA07080000000034745",
      "name:de": "Rajon Luzk",
      "name:en": "Lutsk Raion",
      "name:pl": "Rejon łucki",
      "name:ru": "Луцкий район",
      "name:uk": "Луцький район",
      "boundary": "administrative",
      "way_area": "0.669601",
      "wikidata": "Q103820094",
      "wikipedia": "uk:Луцький район",
      "admin_level": "6"
    }
  },
  {
    "osm_id": -11921894,
    "boundary": "administrative",
    "admin_level": 6,
    "parents": "-71064,-60199",
    "name": "Volodymyr-Volynskyi Raion",
    "local_name": "Володимир-Волинський район",
    "name_en": "Volodymyr-Volynskyi Raion",
    "all_tags": {
      "name": "Володимир-Волинський район",
      "place": "district",
      "koatuu": "0720500000",
      "katotth": "UA07020000000048211",
      "name:de": "Rajon Wolodymyr-Wolynskyj",
      "name:en": "Volodymyr-Volynskyi Raion",
      "name:pl": "Rejon włodzimierski",
      "name:ru": "Владимир-Волынский район",
      "name:uk": "Володимир-Волинський район",
      "boundary": "administrative",
      "way_area": "0.325843",
      "wikidata": "Q103819926",
      "wikipedia": "uk:Володимир-Волинський район",
      "admin_level": "6"
    }
  },
  {
    "osm_id": -11832213,
    "boundary": "administrative",
    "admin_level": 6,
    "parents": "-71236,-60199",
    "name": "Varash Raion",
    "local_name": "Вараський район",
    "name_en": "Varash Raion",
    "all_tags": {
      "name": "Вараський район",
      "place": "district",
      "katotth": "UA56020000000011586",
      "name:en": "Varash Raion",
      "name:ru": "Варашский район",
      "name:uk": "Вараський район",
      "boundary": "administrative",
      "way_area": "0.431511",
      "wikidata": "Q97495612",
      "wikipedia": "uk:Вараський район",
      "start_date": "2020-07-17",
      "admin_level": "6"
    }
  },
  {
    "osm_id": -11921664,
    "boundary": "administrative",
    "admin_level": 6,
    "parents": "-90742,-60199",
    "name": "Rajon Kamjanez-Podilskyj",
    "local_name": "Кам’янець-Подільський район",
    "name_en": "Rajon Kamjanez-Podilskyj",
    "all_tags": {
      "name": "Кам’янець-Подільський район",
      "place": "district",
      "koatuu": "6822400000",
      "katotth": "UA68020000000016021",
      "name:de": "Rajon Kamjanez-Podilskyj",
      "name:en": "Rajon Kamjanez-Podilskyj",
      "name:ru": "Каменець-Подольский район",
      "name:uk": "Кам’янець-Подільський район",
      "boundary": "administrative",
      "way_area": "0.553219",
      "wikidata": "Q103813137",
      "wikipedia": "uk:Кам'янець-Подільський район",
      "admin_level": "6"
    }
  },
  {
    "osm_id": -72634,
    "boundary": "administrative",
    "admin_level": 4,
    "parents": "-60199",
    "name": "Odesa Oblast",
    "local_name": "Одеська область",
    "name_en": "Odesa Oblast",
    "all_tags": {
      "ref": "ОДЕ",
      "name": "Одеська область",
      "place": "state",
      "koatuu": "5100000000",
      "ref:en": "ODE",
      "katotth": "UA51000000000030770",
      "name:ar": "أوديسا أوبلاست",
      "name:az": "Odessa vilayəti",
      "name:be": "Адэская вобласць",
      "name:bg": "Одеска област",
      "name:ca": "Província d'Odessa",
      "name:cs": "Oděská oblast",
      "name:de": "Oblast Odessa",
      "name:el": "Περιφέρεια Οδησσού",
      "name:en": "Odesa Oblast",
      "name:eo": "Odesa provinco",
      "name:es": "Óblast de Odesa",
      "name:et": "Odessa oblast",
      "name:eu": "Odesako oblasta",
      "name:fa": "استان اودسا",
      "name:fi": "Odessan alue",
      "name:fr": "Oblast d'Odessa",
      "name:hr": "Odeška oblast",
      "name:hu": "Odesszai terület",
      "name:hy": "Օդեսայի մարզ",
      "name:id": "Oblast Odessa",
      "name:it": "Oblast' di Odessa",
      "name:ja": "オデッサ州",
      "name:ka": "ოდესის ოლქი",
      "name:ko": "오데사 주",
      "name:lt": "Odesos sritis",
      "name:lv": "Odesas apgabals",
      "name:mk": "Одеска област",
      "name:mr": "ओदेसा ओब्लास्त",
      "name:nl": "Oblast Odessa",
      "name:nn": "Odessa oblast",
      "name:no": "Odessa oblast",
      "name:os": "Одессæйы облæст",
      "name:pl": "Obwód odeski",
      "name:pt": "Oblast de Odesa",
      "name:ro": "Regiunea Odesa",
      "name:ru": "Одесская область",
      "name:sh": "Odeška oblast",
      "name:sk": "Odeská oblasť",
      "name:sr": "Одешка област",
      "name:sv": "Odessa oblast",
      "name:tr": "Odessa Oblastı",
      "name:uk": "Одеська область",
      "name:ur": "اودیسا اوبلاست",
      "name:vi": "Odessa (tỉnh)",
      "name:zh": "敖德萨州",
      "boundary": "administrative",
      "name:crh": "Ades vilâyeti",
      "name:nan": "Odesa séng",
      "name:pnb": "اودیسا اوبلاست",
      "name:rue": "Одеска область",
      "name:sco": "Odessa Oblast",
      "name:war": "Odessa Oblast",
      "name:xmf": "ოდესაშ ოლქი",
      "timezone": "Europe/Kiev",
      "way_area": "4.61963",
      "wikidata": "Q171852",
      "ISO3166-2": "UA-51",
      "wikipedia": "uk:Одеська область",
      "admin_level": "4",
      "name:be-tarask": "Адэская вобласьць",
      "is_in:country_code": "UA"
    }
  },
  {
    "osm_id": -2677325,
    "boundary": "administrative",
    "admin_level": 6,
    "parents": "-71973,-60199",
    "name": "Kirovske Municipality",
    "local_name": "Кіровська міська рада",
    "name_en": "Kirovske Municipality",
    "all_tags": {
      "name": "Кіровська міська рада",
      "place": "municipality",
      "koatuu": "1412500000",
      "name:en": "Kirovske Municipality",
      "name:ru": "Кировский городской совет",
      "name:uk": "Кіровська міська рада",
      "alt_name": "Хрестівка",
      "boundary": "administrative",
      "way_area": "0.00110222",
      "wikidata": "Q4221642",
      "wikipedia": "uk:Кіровська міська рада (Хрестівка)",
      "population": "30910",
      "admin_level": "6",
      "postal_code": "86300-86390"
    }
  },
  {
    "osm_id": -72635,
    "boundary": "administrative",
    "admin_level": 4,
    "parents": "-3114112,-60199",
    "name": "Mykolaiv Oblast",
    "local_name": "Миколаївська область",
    "name_en": "Mykolaiv Oblast",
    "all_tags": {
      "ref": "МИК",
      "flag": "http://upload.wikimedia.org/wikipedia/commons/e/e1/Flag_of_Mykolaiv_Oblast.svg",
      "name": "Миколаївська область",
      "place": "state",
      "koatuu": "4800000000",
      "ref:en": "MYK",
      "ref:ru": "НИК",
      "katotth": "UA48000000000039575",
      "name:ar": "ميكولايف أوبلاست",
      "name:be": "Мікалаеўская вобласць",
      "name:bg": "Николаевска област",
      "name:ca": "Província de Mykolàïv",
      "name:cs": "Mykolajivská oblast",
      "name:de": "Oblast Mykolajiw",
      "name:en": "Mykolaiv Oblast",
      "name:eo": "Mikolajeva provinco",
      "name:es": "Óblast de Mykolaiv",
      "name:et": "Mõkolajivi oblast",
      "name:eu": "Mykolaiveko oblasta",
      "name:fa": "استان میکولائیف",
      "name:fi": "Mykolajivin alue",
      "name:fr": "Oblast de Mykolaïv",
      "name:hr": "Mikolajivska oblast",
      "name:hu": "Mikolajivi terület",
      "name:hy": "Նիկոլաևի մարզ",
      "name:id": "Oblast Mykolaiv",
      "name:it": "Oblast' di Mykolaïv",
      "name:ja": "ムィコラーイウ州",
      "name:ka": "ნიკოლაევის ოლქი",
      "name:ko": "미콜라이우 주",
      "name:lt": "Mykolajivo sritis",
      "name:lv": "Nikolajevas apgabals",
      "name:mk": "Николаевска област",
      "name:mr": "मिकोलाइव्ह ओब्लास्त",
      "name:nl": "Oblast Mykolajiv",
      "name:nn": "Mykolajiv oblast",
      "name:no": "Mykolajiv oblast",
      "name:pl": "Obwód mikołajowski",
      "name:pt": "Oblast de Mikolaiv",
      "name:ro": "Regiunea Mîkolaiv",
      "name:ru": "Николаевская область",
      "name:sh": "Mikolajivska oblast",
      "name:sk": "Mykolajivská oblasť",
      "name:sr": "Миколајивска област",
      "name:sv": "Mykolajiv oblast",
      "name:tr": "Mıkolayiv Oblastı",
      "name:uk": "Миколаївська область",
      "name:vi": "Mykolaiv (tỉnh)",
      "name:zh": "尼古拉耶夫州",
      "boundary": "administrative",
      "name:crh": "Mıkolayiv vilâyeti",
      "name:nan": "Mykolayiv séng",
      "name:pnb": "میکولائیف اوبلاست",
      "name:rue": "Миколаївска область",
      "name:sco": "Mykolaiv Oblast",
      "name:war": "Mykolaiv Oblast",
      "timezone": "Europe/Kiev",
      "way_area": "3.01426",
      "wikidata": "Q181633",
      "ISO3166-2": "UA-48",
      "wikipedia": "uk:Миколаївська область",
      "admin_level": "4",
      "name:be-tarask": "Мікалаеўская вобласьць"
    }
  },
  {
    "osm_id": -1751375,
    "boundary": "administrative",
    "admin_level": 6,
    "parents": "-71971,-60199",
    "name": "Perevalsk Raion",
    "local_name": "Перевальський район",
    "name_en": "Perevalsk Raion",
    "all_tags": {
      "name": "Перевальський район",
      "koatuu": "4423600000",
      "name:de": "Rajon Perewalsk",
      "name:en": "Perevalsk Raion",
      "name:es": "Raión de Perevalsk",
      "name:pl": "Rejon perewalski",
      "name:ru": "Перевальский район",
      "name:uk": "Перевальський район",
      "name:vi": "Perevalsk (huyện)",
      "boundary": "administrative",
      "way_area": "0.0861662",
      "wikidata": "Q2216338",
      "wikipedia": "uk:Перевальський район",
      "admin_level": "6"
    }
  },
  {
    "osm_id": -11821462,
    "boundary": "administrative",
    "admin_level": 6,
    "parents": "-72634,-60199",
    "name": "Izmail Raion",
    "local_name": "Ізмаїльський район",
    "name_en": "Izmail Raion",
    "all_tags": {
      "name": "Ізмаїльський район",
      "place": "district",
      "katotth": "UA51080000000061776",
      "name:de": "Rajon Ismajil",
      "name:en": "Izmail Raion",
      "name:pl": "Rejon izmailski",
      "name:ro": "Raionul Ismail",
      "name:ru": "Измаильский район",
      "name:uk": "Ізмаїльський район",
      "boundary": "administrative",
      "way_area": "0.412275",
      "wikidata": "Q103842911",
      "wikipedia": "uk:Ізмаїльський район",
      "admin_level": "6"
    }
  },
  {
    "osm_id": -11841375,
    "boundary": "administrative",
    "admin_level": 6,
    "parents": "-72489,-60199",
    "name": "Uzhhorod Raion",
    "local_name": "Ужгородський район",
    "name_en": "Uzhhorod Raion",
    "all_tags": {
      "name": "Ужгородський район",
      "place": "district",
      "koatuu": "2124800000",
      "katotth": "UA21100000000055073",
      "name:cs": "okres Užhorod",
      "name:de": "Rajon Uschhorod",
      "name:en": "Uzhhorod Raion",
      "name:hu": "Ungvári járás",
      "name:pl": "Rejon użhorodzki",
      "name:ro": "Raionul Ujhorod",
      "name:ru": "Ужгородский район",
      "name:uk": "Ужгородський район",
      "boundary": "administrative",
      "way_area": "0.288459",
      "wikidata": "Q98659359",
      "wikipedia": "uk:Ужгородський район",
      "admin_level": "6",
      "alt_name:cs": "Užhorodský rajón",
      "sorting_name:cs": "Užhorod"
    }
  },
  {
    "osm_id": -11905202,
    "boundary": "administrative",
    "admin_level": 6,
    "parents": "-72526,-60199",
    "name": "Chernivtsi Raion",
    "local_name": "Чернівецький район",
    "name_en": "Chernivtsi Raion",
    "all_tags": {
      "name": "Чернівецький район",
      "place": "district",
      "katotth": "UA73060000000061247",
      "name:en": "Chernivtsi Raion",
      "name:ru": "Черновицкий район",
      "name:uk": "Чернівецький район",
      "boundary": "administrative",
      "way_area": "0.496346",
      "wikidata": "Q97630953",
      "wikipedia": "uk:Чернівецький район",
      "start_date": "2020-07-17",
      "admin_level": "6"
    }
  },
  {
    "osm_id": -11892210,
    "boundary": "administrative",
    "admin_level": 6,
    "parents": "-71248,-60199",
    "name": "Vyshhorod Raion",
    "local_name": "Вишгородський район",
    "name_en": "Vyshhorod Raion",
    "all_tags": {
      "name": "Вишгородський район",
      "place": "district",
      "koatuu": "3221800000",
      "katotth": "UA32100000000065867",
      "name:de": "Rajon Wyschhorod",
      "name:en": "Vyshhorod Raion",
      "name:pl": "Rejon wyszogrodzki",
      "name:ru": "Вышгородский район",
      "name:uk": "Вишгородський район",
      "boundary": "administrative",
      "way_area": "0.885552",
      "wikidata": "Q103822053",
      "wikipedia": "uk:Вишгородський район",
      "admin_level": "6"
    }
  },
  {
    "osm_id": -71980,
    "boundary": "administrative",
    "admin_level": 4,
    "parents": "-60199",
    "name": "Zaporizhia Oblast",
    "local_name": "Запорізька область",
    "name_en": "Zaporizhia Oblast",
    "all_tags": {
      "ref": "ЗАП",
      "name": "Запорізька область",
      "place": "state",
      "koatuu": "2300000000",
      "ref:en": "ZAP",
      "ref:ru": "ЗАП",
      "katotth": "UA23000000000064947",
      "name:ar": "زابوروجييه أوبلاست",
      "name:az": "Zaporojya vilayəti",
      "name:be": "Запарожская вобласць",
      "name:bg": "Запорожка област",
      "name:bs": "Zaporiška oblast",
      "name:ca": "Província de Zaporíjjia",
      "name:cs": "Záporožská oblast",
      "name:de": "Oblast Saporischschja",
      "name:en": "Zaporizhia Oblast",
      "name:eo": "Zaporiĵa provinco",
      "name:es": "Óblast de Zaporiyia",
      "name:et": "Zaporižžja oblast",
      "name:eu": "Zaporizhiako oblasta",
      "name:fi": "Zaporižžjan alue",
      "name:fr": "Oblast de Zaporijia",
      "name:ga": "Cúige Zaporizhia",
      "name:hr": "Zaporiška oblast",
      "name:hu": "Zaporizzsjai terület",
      "name:hy": "Զապորոժիեի մարզ",
      "name:id": "Oblast Zaporizhia",
      "name:it": "Oblast' di Zaporižžja",
      "name:ja": "ザポリージャ州",
      "name:ka": "ზაპოროჟიეს ოლქი",
      "name:ko": "자포리자 주",
      "name:lt": "Zaporižias sritis",
      "name:lv": "Zaporižjas apgabals",
      "name:mk": "Запорошка област",
      "name:mr": "झापोरिझिया ओब्लास्त",
      "name:nl": "Oblast Zaporizja",
      "name:nn": "Zaporizjzjia oblast",
      "name:no": "Zaporizjzjia oblast",
      "name:os": "Запорожьейы облæст",
      "name:pl": "Obwód zaporoski",
      "name:pt": "Oblast de Zaporíjia",
      "name:ro": "Regiunea Zaporijjea",
      "name:ru": "Запорожская область",
      "name:sh": "Zaporiška oblast",
      "name:sk": "Záporožská oblasť",
      "name:sr": "Запорошка област",
      "name:sv": "Zaporizjzja oblast",
      "name:tr": "Zaporijya Oblastı",
      "name:uk": "Запорізька область",
      "name:vi": "Zaporizhia (tỉnh)",
      "name:zh": "扎波里日扎州",
      "boundary": "administrative",
      "name:crh": "Zaporijjâ vilâyeti",
      "name:nan": "Zaporizhzhya séng",
      "name:pnb": "زاپوریژینا اوبلاست",
      "name:rue": "Запорізька область",
      "name:sco": "Zaporizhia Oblast",
      "name:war": "Zaporizhia Oblast",
      "timezone": "Europe/Zaporozhye",
      "way_area": "3.72983",
      "wikidata": "Q171334",
      "ISO3166-2": "UA-23",
      "wikipedia": "uk:Запорізька область",
      "admin_level": "4",
      "old_name:az": "Zaporojye vilayəti",
      "old_name:lt": "Zaporožės sritis",
      "old_name:lv": "Zaporožjes apgabals",
      "old_name:ro": "Regiunea Zaporoje",
      "old_name:zh": "扎波羅熱州",
      "name:be-tarask": "Запароская вобласьць"
    }
  },
  {
    "osm_id": -90726,
    "boundary": "administrative",
    "admin_level": 4,
    "parents": "-60199",
    "name": "Vinnytsia Oblast",
    "local_name": "Вінницька область",
    "name_en": "Vinnytsia Oblast",
    "all_tags": {
      "ref": "ВІН",
      "flag": "http://upload.wikimedia.org/wikipedia/commons/0/03/Flag_of_Vinnytsia_Oblast.svg",
      "name": "Вінницька область",
      "place": "state",
      "koatuu": "0500000000",
      "ref:en": "VIN",
      "ref:ru": "ВИН",
      "katotth": "UA05000000000010236",
      "name:ar": "فينيتسا أوبلاست",
      "name:be": "Вінніцкая вобласць",
      "name:bg": "Виницка област",
      "name:ca": "Província de Vínnytsia",
      "name:cs": "Vinnycká oblast",
      "name:de": "Oblast Winnyzja",
      "name:en": "Vinnytsia Oblast",
      "name:eo": "Vinica provinco",
      "name:es": "Óblast de Vinnytsia",
      "name:et": "Vinnõtsja oblast",
      "name:eu": "Vinnytsiako oblasta",
      "name:fa": "استان وینیتسیا",
      "name:fi": "Vinnytsjan alue",
      "name:fr": "Oblast de Vinnytsia",
      "name:gl": "Oblast de Vinnitsia",
      "name:he": "מחוז ויניצה",
      "name:hr": "Vinička oblast",
      "name:hu": "Vinnicjai terület",
      "name:hy": "Վիննիցայի մարզ",
      "name:id": "Oblast Vinnytsia",
      "name:it": "Oblast' di Vinnycja",
      "name:ja": "ヴィーンヌィツャ州",
      "name:ka": "ვინიცის ოლქი",
      "name:ko": "빈니차 주",
      "name:lt": "Vinycios sritis",
      "name:lv": "Vinnicas apgabals",
      "name:mk": "Виничка област",
      "name:mr": "व्हिनित्सिया ओब्लास्त",
      "name:nl": "Oblast Vinnytsja",
      "name:nn": "Vinnytsia oblast",
      "name:no": "Vinnytsia oblast",
      "name:os": "Винницæйы облæст",
      "name:pl": "Obwód winnicki",
      "name:pt": "Oblast de Vinnitsa",
      "name:ro": "Regiunea Vinița",
      "name:ru": "Винницкая область",
      "name:sh": "Vinička oblast",
      "name:sk": "Vinnycká oblasť",
      "name:sv": "Vinnytsja oblast",
      "name:tr": "Vinnitsa Oblastı",
      "name:uk": "Вінницька область",
      "name:vi": "Vinnytsia (tỉnh)",
      "name:zh": "文尼察州",
      "boundary": "administrative",
      "name:crh": "Vinnıtsâ vilâyeti",
      "name:nan": "Vinnycya séng",
      "name:pnb": "وینیتسیا اوبلاست",
      "name:rue": "Віницька область",
      "name:sco": "Vinnytsia Oblast",
      "name:szl": "Winńicki uobwůd",
      "name:war": "Vinnytsia Oblast",
      "timezone": "Europe/Kiev",
      "way_area": "3.25014",
      "wikidata": "Q166709",
      "ISO3166-2": "UA-05",
      "wikipedia": "uk:Вінницька область",
      "admin_level": "4",
      "alt_name:de": "Oblast Winniza",
      "alt_name:en": "Vinnitsa Oblast",
      "name:be-tarask": "Віньніцкая вобласьць"
    }
  },
  {
    "osm_id": -1742310,
    "boundary": "administrative",
    "admin_level": 6,
    "parents": "-71973,-60199",
    "name": "Starobesheve Raion",
    "local_name": "Старобешівський район",
    "name_en": "Starobesheve Raion",
    "all_tags": {
      "flag": "http://upload.wikimedia.org/wikipedia/commons/b/b0/Прапор-Старобешівського-рай.svg",
      "name": "Старобешівський район",
      "place": "district",
      "koatuu": "1424500000",
      "name:de": "Rajon Starobeschewe",
      "name:en": "Starobesheve Raion",
      "name:es": "Raión de Starobesheve",
      "name:pl": "Rejon starobeszewski",
      "name:ru": "Старобешевский район",
      "name:uk": "Старобешівський район",
      "name:vi": "Starobesheve (huyện)",
      "boundary": "administrative",
      "way_area": "0.150371",
      "wikidata": "Q2628154",
      "wikipedia": "uk:Старобешівський район",
      "admin_level": "6",
      "name:be-tarask": "Старабэшаўскі раён"
    }
  },
  {
    "osm_id": -11926090,
    "boundary": "administrative",
    "admin_level": 6,
    "parents": "-72380,-60199",
    "name": "Stryi Raion",
    "local_name": "Стрийський район",
    "name_en": "Stryi Raion",
    "all_tags": {
      "name": "Стрийський район",
      "place": "district",
      "koatuu": "4625300000",
      "katotth": "UA46100000000023056",
      "name:de": "Rajon Stryj",
      "name:en": "Stryi Raion",
      "name:pl": "Rejon stryjski",
      "name:ru": "Стрыйский район",
      "name:uk": "Стрийський район",
      "boundary": "administrative",
      "way_area": "0.475417",
      "wikidata": "Q103823962",
      "wikipedia": "uk:Стрийський район",
      "admin_level": "6"
    }
  },
  {
    "osm_id": -11968100,
    "boundary": "administrative",
    "admin_level": 6,
    "parents": "-71971,-60199",
    "name": "Sievierodonetsk Raion",
    "local_name": "Сєвєродонецький район",
    "name_en": "Sievierodonetsk Raion",
    "all_tags": {
      "name": "Сєвєродонецький район",
      "place": "district",
      "katotth": "UA44120000000092852",
      "name:en": "Sievierodonetsk Raion",
      "name:ru": "Северодонецкий район",
      "name:uk": "Сєвєродонецький район",
      "boundary": "administrative",
      "way_area": "0.330653",
      "wikidata": "Q97495635",
      "wikipedia": "uk:Сєвєродонецький район",
      "start_date": "2020-07-19",
      "admin_level": "6"
    }
  },
  {
    "osm_id": -1742306,
    "boundary": "administrative",
    "admin_level": 6,
    "parents": "-71973,-60199",
    "name": "Novoazovsk Raion",
    "local_name": "Новоазовський район",
    "name_en": "Novoazovsk Raion",
    "all_tags": {
      "flag": "http://upload.wikimedia.org/wikipedia/commons/4/4c/Флаг_Новоазовского_района_Донецкой_области.svg",
      "name": "Новоазовський район",
      "place": "district",
      "koatuu": "1423600000",
      "name:de": "Rajon Nowoasowsk",
      "name:en": "Novoazovsk Raion",
      "name:es": "Raión de Novoazovsk",
      "name:pl": "Rejon nowoazowski",
      "name:ru": "Новоазовский район",
      "name:uk": "Новоазовський район",
      "name:vi": "Novoazovsk (huyện)",
      "boundary": "administrative",
      "way_area": "0.0883997",
      "wikidata": "Q2995136",
      "wikipedia": "uk:Новоазовський район",
      "admin_level": "6",
      "name:be-tarask": "Новаазоўскі раён"
    }
  },
  {
    "osm_id": -1751377,
    "boundary": "administrative",
    "admin_level": 6,
    "parents": "-71971,-60199",
    "name": "Slovianoserbsk Raion",
    "local_name": "Слов’яносербський район",
    "name_en": "Slovianoserbsk Raion",
    "all_tags": {
      "name": "Слов’яносербський район",
      "place": "district",
      "koatuu": "4424500000",
      "name:de": "Rajon Slowjanoserbsk",
      "name:en": "Slovianoserbsk Raion",
      "name:es": "Raión de Slovianoserbsk",
      "name:pl": "Rejon słowianoserbski",
      "name:ru": "Славяносербский район",
      "name:uk": "Слов’яносербський район",
      "name:vi": "Huyện Slovianoserbsk",
      "boundary": "administrative",
      "way_area": "0.0948849",
      "wikidata": "Q2216840",
      "wikipedia": "uk:Слов'яносербський район",
      "admin_level": "6"
    }
  }
]
