[
  {
    "osm_id": -13618732,
    "boundary": "administrative",
    "admin_level": 6,
    "parents": "-1670974,-196240",
    "name": "Qarshi Tumani",
    "local_name": "Qarshi Tumani",
    "name_en": null,
    "all_tags": {
      "name": "Qarshi Tumani",
      "name:ru": "Каршинский район",
      "boundary": "administrative",
      "way_area": "0.100296",
      "wikidata": "Q1646742",
      "wikipedia": "ru:Каршинский район",
      "admin_level": "6",
      "is_in:country": "Uzbekistan",
      "is_in:province": "Qashqadaryo Viloyati",
      "is_in:country_code": "UZ"
    }
  },
  {
    "osm_id": -13342290,
    "boundary": "administrative",
    "admin_level": 6,
    "parents": "-1670974,-196240",
    "name": "Chirakchi District",
    "local_name": "Chiroqchi tumani",
    "name_en": "Chirakchi District",
    "all_tags": {
      "name": "Chiroqchi tumani",
      "gns:dsg": "ADM2",
      "gns:uni": "516518",
      "name:en": "Chirakchi District",
      "name:ru": "Чиракчинский район",
      "boundary": "administrative",
      "timezone": "Asia/Samarkand",
      "way_area": "0.299339",
      "wikidata": "Q2639143",
      "wikipedia": "ru:Чиракчинский район",
      "addr:region": "Qashqadaryo Viloyati",
      "admin_level": "6",
      "addr:country": "UZ",
      "is_in:region": "Qashqadaryo Viloyati",
      "addr:district": "Chiroqchi tumani",
      "addr:postcode": "181200",
      "addr:province": "Qashqadaryo Viloyati",
      "is_in:country": "O'zbekiston",
      "is_in:district": "Chiroqchi tumani",
      "is_in:province": "Qashqadaryo Viloyati",
      "is_in:country_code": "UZ"
    }
  },
  {
    "osm_id": -13070474,
    "boundary": "administrative",
    "admin_level": 6,
    "parents": "-1670973,-196240",
    "name": "Bukhara",
    "local_name": "Buxoro",
    "name_en": "Bukhara",
    "all_tags": {
      "name": "Buxoro",
      "is_in": "Uzbekistan, Bukhara",
      "place": "city",
      "landuse": "residential",
      "name:an": "Bukhara",
      "name:ar": "بخارى",
      "name:az": "Buxara",
      "name:be": "Бухара",
      "name:bg": "Бухара",
      "name:bn": "বোখারা",
      "name:ca": "Bukharà",
      "name:cs": "Buchara",
      "name:da": "Bukhara",
      "name:de": "Buchara",
      "name:el": "Μπουχάρα",
      "name:en": "Bukhara",
      "name:eo": "Buĥaro",
      "name:es": "Bujara",
      "name:eu": "Bukhara",
      "name:fa": "بُخارا",
      "name:fi": "Buhara",
      "name:fr": "Boukhara",
      "name:he": "בוכרה",
      "name:hi": "बुख़ारा",
      "name:hr": "Buhara",
      "name:hu": "Buhara",
      "name:id": "Bukhara",
      "name:it": "Bukhara",
      "name:ja": "ブハラ",
      "name:ka": "ბუხარა",
      "name:kk": "Бұхара",
      "name:ko": "부하라",
      "name:ky": "Бухара",
      "name:la": "Bochara",
      "name:lt": "Buchara",
      "name:lv": "Buhāra",
      "name:mk": "Бухара",
      "name:ml": "ബുഖാറ",
      "name:mn": "Бухар",
      "name:mr": "बुखारा",
      "name:ms": "Bukhara",
      "name:nl": "Buchara (stad)",
      "name:no": "Bukhara",
      "name:os": "Бухара",
      "name:pa": "ਬੁਖਾਰਾ",
      "name:pl": "Buchara",
      "name:ps": "بخارا",
      "name:pt": "Bucara",
      "name:ro": "Buhara",
      "name:ru": "Бухара",
      "name:sk": "Buchara",
      "name:sl": "Buhara",
      "name:so": "Bukhaara",
      "name:sr": "Бухара",
      "name:sv": "Buchara",
      "name:sw": "Bukhara",
      "name:ta": "புகாரா",
      "name:tg": "Бухоро",
      "name:tr": "Buhara",
      "name:ug": "Buxara",
      "name:uk": "Бухара",
      "name:ur": "بخارا",
      "name:vi": "Bukhara",
      "name:zh": "布哈拉",
      "boundary": "administrative",
      "int_name": "Bukhara",
      "way_area": "0.00571944",
      "wikidata": "Q5764",
      "wikipedia": "en:Bukhara",
      "population": "272500",
      "addr:region": "Buxoro Viloyati",
      "admin_level": "6",
      "border_type": "province",
      "addr:country": "UZ",
      "addr:postcode": "200100",
      "is_in:country": "Uzbekistan",
      "left:province": "Buxoro tuman",
      "name:be-tarask": "Бухара",
      "right:province": "Buxoro shahar",
      "is_in:continent": "Asia",
      "population:date": "2014"
    }
  },
  {
    "osm_id": -12474376,
    "boundary": "administrative",
    "admin_level": 6,
    "parents": "-196249,-196240",
    "name": "Paxtachi Tumani",
    "local_name": "Paxtachi Tumani",
    "name_en": null,
    "all_tags": {
      "name": "Paxtachi Tumani",
      "name:ru": "Пахтачийский район",
      "boundary": "administrative",
      "way_area": "0.148727",
      "wikidata": "Q2609604",
      "wikipedia": "ru:Пахтачийский район",
      "admin_level": "6"
    }
  },
  {
    "osm_id": -11992833,
    "boundary": "administrative",
    "admin_level": 6,
    "parents": "-196242,-196240",
    "name": "Tuproqqalʼa Tumani",
    "local_name": "Tuproqqalʼa Tumani",
    "name_en": null,
    "all_tags": {
      "name": "Tuproqqalʼa Tumani",
      "name:ru": "Тупроккалинский район",
      "boundary": "administrative",
      "way_area": "0.228139",
      "admin_level": "6",
      "addr:country": "UZ",
      "is_in:country": "Uzbekistan",
      "is_in:province": "Xorazm Viloyati",
      "is_in:country_code": "UZ"
    }
  },
  {
    "osm_id": -11857775,
    "boundary": "administrative",
    "admin_level": 6,
    "parents": "-1670974,-196240",
    "name": "Mirishkor District",
    "local_name": "Mirishkor Tumani",
    "name_en": "Mirishkor District",
    "all_tags": {
      "name": "Mirishkor Tumani",
      "place": "region",
      "gns:dsg": "ADM2: second-order administrative division",
      "gns:ufi": "-2579620",
      "gns:uni": "516579",
      "name:en": "Mirishkor District",
      "name:ru": "Миришкорский район",
      "alt_name": "Усман-Юсуповский Район; Усмон Юсупов Тумани",
      "boundary": "administrative",
      "old_name": "Усман-Юсуповский Район",
      "way_area": "0.330539",
      "wikidata": "Q1645106",
      "wikipedia": "ru:Миришкорский район",
      "admin_level": "6",
      "alt_name:en": "Usman-Yusupovskiy Rayon",
      "old_name:en": "Usmon Yusupov Tumani",
      "old_name:ru": "Усман-Юсуповский Район",
      "is_in:country": "Uzbekistan",
      "is_in:province": "Qashqadaryo Viloyati",
      "is_in:country_code": "UZ"
    }
  },
  {
    "osm_id": -11856183,
    "boundary": "administrative",
    "admin_level": 6,
    "parents": "-1670974,-196240",
    "name": "Kasbi Tumani",
    "local_name": "Kasbi Tumani",
    "name_en": null,
    "all_tags": {
      "name": "Kasbi Tumani",
      "place": "county",
      "gns:dsg": "ADM2",
      "gns:uni": "516570",
      "name:ko": "카스비구",
      "name:ru": "Касбийский район",
      "boundary": "administrative",
      "way_area": "0.0676737",
      "wikidata": "Q1645101",
      "wikipedia": "ru:Касбийский район",
      "admin_level": "6",
      "is_in:country": "Uzbekistan",
      "is_in:province": "Qashqadaryo Viloyati",
      "is_in:country_code": "UZ"
    }
  },
  {
    "osm_id": -11184260,
    "boundary": "administrative",
    "admin_level": 6,
    "parents": "-196248,-196240",
    "name": "Sherabad District",
    "local_name": "Sherobod Tumani",
    "name_en": "Sherabad District",
    "all_tags": {
      "name": "Sherobod Tumani",
      "name:en": "Sherabad District",
      "name:fa": "شهرستان شیرآباد",
      "name:ru": "Шерабадский район",
      "boundary": "administrative",
      "way_area": "0.270455",
      "wikidata": "Q1645173",
      "wikipedia": "ru:Шерабадский район",
      "addr:region": "Surxondaryo Viloyati",
      "admin_level": "6",
      "addr:country": "UZ",
      "is_in:region": "Surxondaryo Viloyati",
      "is_in:country": "O'zbekiston",
      "is_in:country_code": "UZ"
    }
  },
  {
    "osm_id": -11184259,
    "boundary": "administrative",
    "admin_level": 6,
    "parents": "-196248,-196240",
    "name": "Muzrabot District",
    "local_name": "Muzrabot Tumani",
    "name_en": "Muzrabot District",
    "all_tags": {
      "name": "Muzrabot Tumani",
      "name:en": "Muzrabot District",
      "name:ru": "Музрабадский район",
      "boundary": "administrative",
      "way_area": "0.0752082",
      "wikidata": "Q3711209",
      "wikipedia": "ru:Музрабадский район",
      "addr:region": "Surxondaryo Viloyati",
      "admin_level": "6",
      "addr:country": "UZ",
      "is_in:region": "Surxondaryo Viloyati",
      "is_in:country": "O'zbekiston",
      "is_in:country_code": "UZ"
    }
  },
  {
    "osm_id": -11184154,
    "boundary": "administrative",
    "admin_level": 6,
    "parents": "-196248,-196240",
    "name": "Angor District",
    "local_name": "Angor Tumani",
    "name_en": "Angor District",
    "all_tags": {
      "name": "Angor Tumani",
      "name:en": "Angor District",
      "name:fa": "شهرستان انگور",
      "name:ru": "Ангорский район",
      "boundary": "administrative",
      "way_area": "0.0395283",
      "wikidata": "Q3710624",
      "wikipedia": "ru:Ангорский район",
      "addr:region": "Surxondaryo Viloyati",
      "admin_level": "6",
      "addr:country": "UZ",
      "is_in:region": "Surxondaryo Viloyati",
      "addr:province": "Angor tumani",
      "is_in:country": "O'zbekiston",
      "is_in:country_code": "UZ"
    }
  },
  {
    "osm_id": -11184121,
    "boundary": "administrative",
    "admin_level": 6,
    "parents": "-196248,-196240",
    "name": "Jarkurgan District",
    "local_name": "Jarqoʻrgʻon Tumani",
    "name_en": "Jarkurgan District",
    "all_tags": {
      "name": "Jarqoʻrgʻon Tumani",
      "name:en": "Jarkurgan District",
      "name:fa": "شهرستان جرکورگان",
      "name:ru": "Джаркурганский район",
      "boundary": "administrative",
      "way_area": "0.119188",
      "wikidata": "Q3710866",
      "wikipedia": "ru:Джаркурганский район",
      "addr:region": "Surxondaryo Viloyati",
      "admin_level": "6",
      "addr:country": "UZ",
      "is_in:region": "Surxondaryo Viloyati",
      "addr:province": "Jarqoʻrgʻon tumani",
      "is_in:country": "O'zbekiston",
      "is_in:country_code": "UZ"
    }
  },
  {
    "osm_id": -11184007,
    "boundary": "administrative",
    "admin_level": 6,
    "parents": "-196248,-196240",
    "name": "Kizirik District",
    "local_name": "Qiziriq Tumani",
    "name_en": "Kizirik District",
    "all_tags": {
      "name": "Qiziriq Tumani",
      "name:en": "Kizirik District",
      "name:ru": "Кизирикский район",
      "boundary": "administrative",
      "way_area": "0.0343298",
      "wikidata": "Q3711390",
      "wikipedia": "ru:Кизирикский район",
      "addr:region": "Surxondaryo Viloyati",
      "admin_level": "6",
      "addr:country": "UZ",
      "is_in:region": "Surxondaryo Viloyati",
      "is_in:country": "O'zbekiston",
      "is_in:country_code": "UZ"
    }
  },
  {
    "osm_id": -11183885,
    "boundary": "administrative",
    "admin_level": 6,
    "parents": "-196248,-196240",
    "name": "Bandikhon District",
    "local_name": "Bandixon Tumani",
    "name_en": "Bandikhon District",
    "all_tags": {
      "name": "Bandixon Tumani",
      "name:en": "Bandikhon District",
      "name:ru": "Бандиханский район",
      "boundary": "administrative",
      "way_area": "0.0241449",
      "wikidata": "Q12819335",
      "wikipedia": "ru:Бандиханский район",
      "addr:region": "Surxondaryo Viloyati",
      "admin_level": "6",
      "addr:country": "UZ",
      "is_in:region": "Surxondaryo Viloyati",
      "addr:province": "Bandixon tumani",
      "is_in:country": "O'zbekiston",
      "is_in:country_code": "UZ"
    }
  },
  {
    "osm_id": -11180857,
    "boundary": "administrative",
    "admin_level": 6,
    "parents": "-196248,-196240",
    "name": "Uzun District",
    "local_name": "Uzun tumani",
    "name_en": "Uzun District",
    "all_tags": {
      "name": "Uzun tumani",
      "name:en": "Uzun District",
      "name:ru": "Узунский район",
      "boundary": "administrative",
      "way_area": "0.189965",
      "wikidata": "Q3711574",
      "wikipedia": "ru:Узунский район",
      "admin_level": "6",
      "is_in:region": "Surxondaryo viloyati",
      "is_in:country": "O'zbekiston",
      "is_in:country_code": "UZ"
    }
  },
  {
    "osm_id": -11180733,
    "boundary": "administrative",
    "admin_level": 6,
    "parents": "-1670973,-196240",
    "name": "Bukhara District",
    "local_name": "Buxoro Tumani",
    "name_en": "Bukhara District",
    "all_tags": {
      "name": "Buxoro Tumani",
      "place": "county",
      "gns:dsg": "ADM2",
      "gns:uni": "516243",
      "name:en": "Bukhara District",
      "name:ru": "Бухарский район",
      "boundary": "administrative",
      "way_area": "0.143558",
      "wikipedia": "ru:Бухарский район",
      "admin_level": "6",
      "name:uz-cyr": "Бухоро тумани",
      "is_in:country": "Uzbekistan",
      "is_in:province": "Buxoro Viloyati",
      "is_in:country_code": "UZ"
    }
  },
  {
    "osm_id": -11180731,
    "boundary": "administrative",
    "admin_level": 6,
    "parents": "-196248,-196240",
    "name": "Shurchi District",
    "local_name": "Shoʻrchi Tumani",
    "name_en": "Shurchi District",
    "all_tags": {
      "name": "Shoʻrchi Tumani",
      "name:en": "Shurchi District",
      "name:ru": "Шурчинский район",
      "boundary": "administrative",
      "way_area": "0.0937072",
      "wikidata": "Q3711471",
      "wikipedia": "ru:Шурчинский район",
      "admin_level": "6",
      "is_in:region": "Surxondaryo Viloyati",
      "is_in:country": "O'zbekiston",
      "is_in:country_code": "UZ"
    }
  },
  {
    "osm_id": -11180683,
    "boundary": "administrative",
    "admin_level": 6,
    "parents": "-196248,-196240",
    "name": "Denov District",
    "local_name": "Denov Tumani",
    "name_en": "Denov District",
    "all_tags": {
      "name": "Denov Tumani",
      "name:en": "Denov District",
      "name:ru": "Денауский район",
      "boundary": "administrative",
      "way_area": "0.0833788",
      "wikidata": "Q3710861",
      "wikipedia": "ru:Денауский район",
      "admin_level": "6",
      "is_in:region": "Surxondaryo Viloyati",
      "is_in:country": "O'zbekiston",
      "is_in:country_code": "UZ"
    }
  },
  {
    "osm_id": -11178494,
    "boundary": "administrative",
    "admin_level": 6,
    "parents": "-1670973,-196240",
    "name": "Olot Tumani",
    "local_name": "Olot Tumani",
    "name_en": null,
    "all_tags": {
      "name": "Olot Tumani",
      "place": "county",
      "gns:dsg": "ADM2",
      "gns:uni": "516249",
      "name:ru": "Алатский район",
      "boundary": "administrative",
      "way_area": "0.33411",
      "wikipedia": "ru:Алатский район",
      "admin_level": "6",
      "name:uz-cyr": "Олот тумани",
      "is_in:country": "Uzbekistan",
      "is_in:province": "Buxoro Viloyati",
      "is_in:country_code": "UZ"
    }
  },
  {
    "osm_id": -11177967,
    "boundary": "administrative",
    "admin_level": 6,
    "parents": "-1670973,-196240",
    "name": "Kogon District",
    "local_name": "Kogon Tumani",
    "name_en": "Kogon District",
    "all_tags": {
      "name": "Kogon Tumani",
      "place": "county",
      "gns:dsg": "ADM2",
      "gns:uni": "515989",
      "name:en": "Kogon District",
      "name:ru": "Каганский район",
      "boundary": "administrative",
      "way_area": "0.0543689",
      "wikipedia": "ru:Каганский район",
      "admin_level": "6",
      "name:uz-cyr": "Когон тумани",
      "is_in:country": "Uzbekistan",
      "is_in:province": "Buxoro Viloyati",
      "is_in:country_code": "UZ"
    }
  },
  {
    "osm_id": -11159957,
    "boundary": "administrative",
    "admin_level": 6,
    "parents": "-1670973,-196240",
    "name": "Qorovulbozor District",
    "local_name": "Qorovulbozor Tumani",
    "name_en": "Qorovulbozor District",
    "all_tags": {
      "name": "Qorovulbozor Tumani",
      "place": "county",
      "gns:dsg": "ADM2",
      "gns:uni": "9093323",
      "name:en": "Qorovulbozor District",
      "name:ru": "Караулбазарский район",
      "boundary": "administrative",
      "way_area": "0.238911",
      "wikipedia": "ru:Караулбазарский район",
      "admin_level": "6",
      "name:uz-cyr": "Қоровулбозор тумани",
      "is_in:country": "Uzbekistan",
      "is_in:province": "Buxoro Viloyati",
      "is_in:country_code": "UZ"
    }
  },
  {
    "osm_id": -11158845,
    "boundary": "administrative",
    "admin_level": 6,
    "parents": "-196246,-196240",
    "name": "Karmana Tumani",
    "local_name": "Karmana Tumani",
    "name_en": null,
    "all_tags": {
      "name": "Karmana Tumani",
      "name:ru": "Карманинский район",
      "boundary": "administrative",
      "way_area": "0.116002",
      "wikipedia": "ru:Карманинский район",
      "admin_level": "6",
      "name:uz-cyr": "Кармана тумани"
    }
  },
  {
    "osm_id": -11158844,
    "boundary": "administrative",
    "admin_level": 6,
    "parents": "-196246,-196240",
    "name": "Qiziltepa Tumani",
    "local_name": "Qiziltepa Tumani",
    "name_en": null,
    "all_tags": {
      "name": "Qiziltepa Tumani",
      "place": "county",
      "gns:dsg": "ADM2",
      "gns:uni": "515801",
      "name:ru": "Кызылтепинский район",
      "boundary": "administrative",
      "way_area": "0.213095",
      "wikidata": "Q2639139",
      "wikipedia": "ru:Кызылтепинский район",
      "admin_level": "6",
      "is_in:country": "Uzbekistan",
      "is_in:province": "Navoiy Viloyati",
      "is_in:country_code": "UZ"
    }
  },
  {
    "osm_id": -11158818,
    "boundary": "administrative",
    "admin_level": 6,
    "parents": "-196246,-196240",
    "name": "Nurota Tumani",
    "local_name": "Nurota Tumani",
    "name_en": null,
    "all_tags": {
      "name": "Nurota Tumani",
      "place": "county",
      "gns:dsg": "ADM2",
      "gns:uni": "515757",
      "name:ru": "Нуратинский район",
      "boundary": "administrative",
      "way_area": "0.845602",
      "wikidata": "Q2639187",
      "wikipedia": "ru:Нуратинский район",
      "admin_level": "6",
      "is_in:country": "Uzbekistan",
      "is_in:province": "Navoiy Viloyati",
      "is_in:country_code": "UZ"
    }
  },
  {
    "osm_id": -11158813,
    "boundary": "administrative",
    "admin_level": 6,
    "parents": "-196246,-196240",
    "name": "Xatirchi District",
    "local_name": "Xatirchi Tumani",
    "name_en": "Xatirchi District",
    "all_tags": {
      "name": "Xatirchi Tumani",
      "place": "county",
      "gns:dsg": "ADM2",
      "gns:ufi": "-2577247",
      "gns:uni": "9126723",
      "name:en": "Xatirchi District",
      "name:ru": "Хатырчинский район",
      "alt_name": "Хатырчинский Район;Хатирчи Райони;Хатирчи Тумани",
      "boundary": "administrative",
      "way_area": "0.146355",
      "wikipedia": "uz:Xatirchi tumani",
      "admin_level": "6",
      "alt_name:en": "Khatyrchinskiy Rayon;Khatirchi Rayoni;Khatirchi Tumani",
      "is_in:country": "Uzbekistan",
      "is_in:province": "Navoiy Viloyati",
      "is_in:country_code": "UZ"
    }
  },
  {
    "osm_id": -11157435,
    "boundary": "administrative",
    "admin_level": 6,
    "parents": "-196246,-196240",
    "name": "Navbahor Tumani",
    "local_name": "Navbahor Tumani",
    "name_en": null,
    "all_tags": {
      "name": "Navbahor Tumani",
      "place": "county",
      "gns:dsg": "ADM2",
      "gns:uni": "9126724",
      "name:ru": "Навбахорский район",
      "boundary": "administrative",
      "way_area": "0.0371573",
      "wikidata": "Q595855",
      "wikipedia": "ru:Навбахорский район",
      "admin_level": "6",
      "name:uz-cyr": "Навбаҳор тумани",
      "is_in:country": "Uzbekistan",
      "is_in:province": "Navoiy Viloyati",
      "is_in:country_code": "UZ"
    }
  },
  {
    "osm_id": -11149913,
    "boundary": "administrative",
    "admin_level": 6,
    "parents": "-196248,-196240",
    "name": "Oltinsoy District",
    "local_name": "Oltinsoy Tumani",
    "name_en": "Oltinsoy District",
    "all_tags": {
      "name": "Oltinsoy Tumani",
      "name:en": "Oltinsoy District",
      "name:ru": "Алтынсайский район",
      "boundary": "administrative",
      "way_area": "0.0478604",
      "wikidata": "Q1646726",
      "wikipedia": "ru:Алтынсайский район",
      "admin_level": "6",
      "is_in:region": "Surxondaryo Viloyati",
      "is_in:country": "O'zbekiston",
      "is_in:country_code": "UZ"
    }
  },
  {
    "osm_id": -11137520,
    "boundary": "administrative",
    "admin_level": 6,
    "parents": "-196248,-196240",
    "name": "Termiz District",
    "local_name": "Termiz Tumani",
    "name_en": "Termiz District",
    "all_tags": {
      "name": "Termiz Tumani",
      "name:en": "Termiz District",
      "name:fa": "شهرستان تِرمِذ",
      "name:ru": "Термезский район",
      "boundary": "administrative",
      "way_area": "0.0919219",
      "wikidata": "Q3711528",
      "wikipedia": "ru:Термезский район",
      "addr:region": "Surxondaryo Viloyati",
      "admin_level": "6",
      "addr:country": "UZ",
      "is_in:region": "Surxondaryo Viloyati",
      "is_in:country": "O'zbekiston",
      "is_in:country_code": "UZ"
    }
  },
  {
    "osm_id": -11123658,
    "boundary": "administrative",
    "admin_level": 6,
    "parents": "-196248,-196240",
    "name": "Kumkurghon District",
    "local_name": "Qumqoʻrgʻon tumani",
    "name_en": "Kumkurghon District",
    "all_tags": {
      "name": "Qumqoʻrgʻon tumani",
      "name:en": "Kumkurghon District",
      "name:fa": "شهرستان قوم قورغان",
      "name:ru": "Кумкурганский район",
      "boundary": "administrative",
      "way_area": "0.238992",
      "wikidata": "Q3711395",
      "wikipedia": "ru:Кумкурганский район",
      "addr:region": "Surxondaryo Viloyati",
      "admin_level": "6",
      "addr:country": "UZ",
      "is_in:region": "Surxondaryo Viloyati",
      "addr:province": "Qumqoʻrgʻon tumani",
      "is_in:country": "O'zbekiston",
      "is_in:country_code": "UZ"
    }
  },
  {
    "osm_id": -11114153,
    "boundary": "administrative",
    "admin_level": 6,
    "parents": "-196248,-196240",
    "name": "Boysun District",
    "local_name": "Boysun Tumani",
    "name_en": "Boysun District",
    "all_tags": {
      "name": "Boysun Tumani",
      "name:en": "Boysun District",
      "name:ru": "Байсунский район",
      "boundary": "administrative",
      "way_area": "0.376639",
      "wikidata": "Q1646711",
      "wikipedia": "ru:Байсунский район",
      "addr:region": "Surxondaryo Viloyati",
      "admin_level": "6",
      "addr:country": "UZ",
      "is_in:region": "Surxondaryo Viloyati",
      "is_in:country": "O'zbekiston",
      "is_in:country_code": "UZ"
    }
  },
  {
    "osm_id": -11114152,
    "boundary": "administrative",
    "admin_level": 6,
    "parents": "-196248,-196240",
    "name": "Sariosiyo District",
    "local_name": "Sariosiyo Tumani",
    "name_en": "Sariosiyo District",
    "all_tags": {
      "name": "Sariosiyo Tumani",
      "name:en": "Sariosiyo District",
      "name:ru": "Сариасийский район",
      "boundary": "administrative",
      "way_area": "0.368563",
      "wikidata": "Q2639206",
      "wikipedia": "ru:Сариасийский район",
      "addr:region": "Surxondaryo Viloyati",
      "admin_level": "6",
      "name:uz-cyr": "Сариосиё тумани",
      "addr:country": "UZ",
      "is_in:region": "Surxondaryo Viloyati",
      "is_in:country": "O'zbekiston",
      "is_in:country_code": "UZ"
    }
  },
  {
    "osm_id": -11087876,
    "boundary": "administrative",
    "admin_level": 6,
    "parents": "-196253,-196240",
    "name": "Sirdaryo Tumani",
    "local_name": "Sirdaryo Tumani",
    "name_en": null,
    "all_tags": {
      "name": "Sirdaryo Tumani",
      "place": "county",
      "gns:dsg": "ADM2",
      "gns:uni": "517154",
      "name:ru": "Сырдарьинский район",
      "boundary": "administrative",
      "way_area": "0.0569917",
      "wikipedia": "ru:Сырдарьинский район (Сырдарьинская область)",
      "admin_level": "6",
      "name:uz-cyr": "Сирдарё тумани",
      "is_in:country": "Uzbekistan",
      "is_in:province": "Sirdaryo Viloyati",
      "is_in:country_code": "UZ"
    }
  },
  {
    "osm_id": -11087853,
    "boundary": "administrative",
    "admin_level": 6,
    "parents": "-196253,-196240",
    "name": "Sayxunobod Tumani",
    "local_name": "Sayxunobod Tumani",
    "name_en": null,
    "all_tags": {
      "name": "Sayxunobod Tumani",
      "place": "county",
      "gns:dsg": "ADM2",
      "gns:uni": "517164",
      "name:ru": "Сайхунабадский район",
      "boundary": "administrative",
      "way_area": "0.0471747",
      "wikipedia": "ru:Сайхунабадский район",
      "admin_level": "6",
      "is_in:country": "Uzbekistan",
      "is_in:province": "Sirdaryo Viloyati",
      "is_in:country_code": "UZ"
    }
  },
  {
    "osm_id": -11087519,
    "boundary": "administrative",
    "admin_level": 6,
    "parents": "-196253,-196240",
    "name": "Guliston Tumani",
    "local_name": "Guliston Tumani",
    "name_en": null,
    "all_tags": {
      "name": "Guliston Tumani",
      "gns:dsg": "ADM2",
      "gns:uni": "517200",
      "name:ru": "Гулистанский район",
      "boundary": "administrative",
      "way_area": "0.0388152",
      "wikidata": "Q3710945",
      "wikipedia": "ru:Гулистанский район",
      "admin_level": "6",
      "name:uz-cyr": "Гулистон тумани",
      "is_in:country": "Uzbekistan",
      "is_in:province": "Sirdaryo Viloyati",
      "is_in:country_code": "UZ"
    }
  },
  {
    "osm_id": -11087239,
    "boundary": "administrative",
    "admin_level": 6,
    "parents": "-196253,-196240",
    "name": "Sardoba Tumani",
    "local_name": "Sardoba Tumani",
    "name_en": null,
    "all_tags": {
      "name": "Sardoba Tumani",
      "gns:dsg": "ADM2",
      "gns:ufi": "-2576540",
      "gns:uni": "450290",
      "name:ru": "Сардобинский район",
      "alt_name": "Ильич Райони;Ильичевский Район;Шараф-Рашидовский Район",
      "boundary": "administrative",
      "old_name": "Sharof-Rashidow Tumani",
      "way_area": "0.0546883",
      "wikidata": "Q3711457",
      "wikipedia": "ru:Сардобский район",
      "admin_level": "6",
      "alt_name:en": "Il'ich Rayoni;Il'ichevskiy Rayon;Sharaf-Rashidovskiy Rayon",
      "name:uz-cyr": "Сардоба тумани",
      "old_name:en": "Sharof-Rashidow Tumani",
      "old_name:ru": "Шараф-Рашидовский Район",
      "is_in:country": "Uzbekistan",
      "is_in:province": "Sirdaryo Viloyati",
      "is_in:country_code": "UZ"
    }
  },
  {
    "osm_id": -11087238,
    "boundary": "administrative",
    "admin_level": 6,
    "parents": "-196253,-196240",
    "name": "Oqoltin Tumani",
    "local_name": "Oqoltin Tumani",
    "name_en": null,
    "all_tags": {
      "name": "Oqoltin Tumani",
      "gns:dsg": "ADM2",
      "gns:uni": "517167",
      "name:ru": "Акалтынский район",
      "boundary": "administrative",
      "way_area": "0.058013",
      "wikidata": "Q3711293",
      "wikipedia": "ru:Акалтынский район",
      "admin_level": "6",
      "name:uz-cyr": "Оқолтин тумани",
      "is_in:country": "Uzbekistan",
      "is_in:province": "Sirdaryo Viloyati",
      "is_in:country_code": "UZ"
    }
  },
  {
    "osm_id": -11087046,
    "boundary": "administrative",
    "admin_level": 6,
    "parents": "-196253,-196240",
    "name": "Mirzaobod Tumani",
    "local_name": "Mirzaobod Tumani",
    "name_en": null,
    "all_tags": {
      "name": "Mirzaobod Tumani",
      "place": "county",
      "gns:dsg": "ADM2",
      "gns:uni": "517213",
      "name:ru": "Мирзаабадский район",
      "boundary": "administrative",
      "way_area": "0.0676316",
      "wikidata": "Q3711173",
      "wikipedia": "ru:Мирзаабадский район",
      "admin_level": "6",
      "name:uz-cyr": "Мирзаобод тумани",
      "is_in:country": "Uzbekistan",
      "is_in:province": "Sirdaryo Viloyati",
      "is_in:country_code": "UZ"
    }
  },
  {
    "osm_id": -11086994,
    "boundary": "administrative",
    "admin_level": 6,
    "parents": "-196253,-196240",
    "name": "Xovos Tumani",
    "local_name": "Xovos Tumani",
    "name_en": null,
    "all_tags": {
      "name": "Xovos Tumani",
      "name:ru": "Хавастский район",
      "boundary": "administrative",
      "way_area": "0.0651792",
      "wikipedia": "ru:Хавастский район",
      "admin_level": "6",
      "name:uz-cyr": "Ховос тумани"
    }
  },
  {
    "osm_id": -11086479,
    "boundary": "administrative",
    "admin_level": 6,
    "parents": "-196253,-196240",
    "name": "Yangiyer",
    "local_name": "Yangiyer",
    "name_en": null,
    "all_tags": {
      "name": "Yangiyer",
      "is_in": "Uzbekistan, Sirdaryo",
      "place": "town",
      "landuse": "residential",
      "name:ja": "ヤンギイェル",
      "name:ru": "Янгиер",
      "boundary": "administrative",
      "way_area": "0.00179421",
      "wikipedia": "uz:Yangiyer",
      "addr:region": "Sirdaryo Viloyati",
      "admin_level": "6",
      "addr:country": "UZ"
    }
  },
  {
    "osm_id": -11086477,
    "boundary": "administrative",
    "admin_level": 6,
    "parents": "-196253,-196240",
    "name": "Boyowut Tumani",
    "local_name": "Boyovut Tumani",
    "name_en": "Boyowut Tumani",
    "all_tags": {
      "name": "Boyovut Tumani",
      "gns:dsg": "ADM2",
      "gns:ufi": "-2575519",
      "gns:uni": "517221",
      "name:en": "Boyowut Tumani",
      "name:ru": "Баяутский район",
      "alt_name": "Бойоwут Райони;Баяуцкий Район",
      "boundary": "administrative",
      "way_area": "0.0567188",
      "wikipedia": "ru:Баяутский район",
      "admin_level": "6",
      "alt_name:en": "Boyowut Rayoni;Bayautskiy Rayon",
      "name:uz-cyr": "Боёвут тумани",
      "is_in:country": "Uzbekistan",
      "is_in:province": "Sirdaryo Viloyati",
      "is_in:country_code": "UZ"
    }
  },
  {
    "osm_id": -11071441,
    "boundary": "administrative",
    "admin_level": 6,
    "parents": "-196251,-196240",
    "name": "Tashkent district",
    "local_name": "Toshkent Tumani",
    "name_en": "Tashkent district",
    "all_tags": {
      "name": "Toshkent Tumani",
      "place": "district",
      "gns:dsg": "ADM2",
      "name:en": "Tashkent district",
      "name:ru": "Ташкентский район",
      "boundary": "administrative",
      "way_area": "0.0176039",
      "wikipedia": "uz:Toshkent tumani",
      "admin_level": "6",
      "is_in:country": "Uzbekistan",
      "is_in:province": "Toshkent Viloyati",
      "is_in:country_code": "UZ"
    }
  },
  {
    "osm_id": -10764730,
    "boundary": "administrative",
    "admin_level": 6,
    "parents": "-1670974,-196240",
    "name": "Nishon Tumani",
    "local_name": "Nishon Tumani",
    "name_en": null,
    "all_tags": {
      "name": "Nishon Tumani",
      "gns:dsg": "ADM2",
      "gns:uni": "516596",
      "name:fa": "شهرستان نشان",
      "name:ru": "Нишанский район",
      "boundary": "administrative",
      "way_area": "0.225172",
      "wikidata": "Q972054",
      "wikipedia": "ru:Нишанский район",
      "admin_level": "6",
      "is_in:country": "Uzbekistan",
      "is_in:province": "Qashqadaryo Viloyati",
      "is_in:country_code": "UZ"
    }
  },
  {
    "osm_id": -10041797,
    "boundary": "administrative",
    "admin_level": 6,
    "parents": "-196241,-196240",
    "name": "Bozatau District",
    "local_name": "Bozataw rayonı",
    "name_en": "Bozatau District",
    "all_tags": {
      "name": "Bozataw rayonı",
      "gns:dsg": "ADM2",
      "name:en": "Bozatau District",
      "name:ru": "Бозатауский район",
      "boundary": "administrative",
      "way_area": "0.21739",
      "admin_level": "6",
      "addr:country": "UZ",
      "is_in:country": "Uzbekistan",
      "is_in:province": "Qaraqalpaqstan Respublikası",
      "is_in:country_code": "UZ"
    }
  },
  {
    "osm_id": -9037690,
    "boundary": "administrative",
    "admin_level": 6,
    "parents": "-1670974,-196240",
    "name": "Kamashi District",
    "local_name": "Qamashi Tumani",
    "name_en": "Kamashi District",
    "all_tags": {
      "name": "Qamashi Tumani",
      "name:en": "Kamashi District",
      "name:ru": "Камашинский район",
      "boundary": "administrative",
      "way_area": "0.272627",
      "wikidata": "Q1646654",
      "addr:region": "Qashqadaryo Viloyati",
      "admin_level": "6",
      "addr:country": "UZ",
      "is_in:region": "Qashqadaryo Viloyati",
      "wikipedia:ru": "Камашинский район",
      "addr:province": "Qamashi Tumani",
      "is_in:country": "O'zbekiston",
      "is_in:province": "Qamashi Tumani",
      "is_in:country_code": "UZ"
    }
  },
  {
    "osm_id": -8827580,
    "boundary": "administrative",
    "admin_level": 6,
    "parents": "-1670974,-196240",
    "name": "Yakkabog District",
    "local_name": "Yakkabog’ Tumani",
    "name_en": "Yakkabog District",
    "all_tags": {
      "name": "Yakkabog’ Tumani",
      "name:en": "Yakkabog District",
      "name:it": "Distretto di Yakkabog",
      "name:ru": "Яккабагский район",
      "name:tr": "Yakkabağ İlçesi",
      "name:ur": "یئکہ باغ ضلع",
      "boundary": "administrative",
      "name:pnb": "ضلع یکاباغ",
      "timezone": "Asia/Samarkand",
      "way_area": "0.116691",
      "wikidata": "Q1645123",
      "wikipedia": "ru:Яккабагский район",
      "addr:region": "Qashqadaryo Viloyati",
      "admin_level": "6",
      "addr:country": "UZ",
      "is_in:region": "Qashqadaryo Viloyati",
      "addr:district": "Yakkabog’ Tumani",
      "addr:postcode": "181400",
      "addr:province": "Qashqadaryo Viloyati",
      "is_in:country": "O'zbekiston",
      "is_in:district": "Yakkabog’ Tumani",
      "is_in:province": "Qashqadaryo Viloyati",
      "is_in:country_code": "UZ"
    }
  },
  {
    "osm_id": -8660162,
    "boundary": "administrative",
    "admin_level": 6,
    "parents": "-1670974,-196240",
    "name": "Shakhrisabz District",
    "local_name": "Shahrisabz Tumani",
    "name_en": "Shakhrisabz District",
    "all_tags": {
      "name": "Shahrisabz Tumani",
      "name:en": "Shakhrisabz District",
      "name:it": "Distretto di Shahrisabz",
      "name:ru": "Шахрисабзский район",
      "name:tr": "Şehr-i-Sebz İlçesi",
      "name:ur": "شہر سبز ضلع",
      "boundary": "administrative",
      "name:pnb": "ضلع شہر سبز",
      "timezone": "Asia/Samarkand",
      "way_area": "0.17182",
      "wikidata": "Q1645135",
      "wikipedia": "ru:Шахрисабзский район",
      "addr:region": "Qashqadaryo Viloyati",
      "admin_level": "6",
      "addr:country": "UZ",
      "is_in:region": "Qashqadaryo Viloyati",
      "addr:postcode": "181300",
      "addr:province": "Shahrisabz Tumani",
      "is_in:country": "O'zbekiston",
      "is_in:province": "Shahrisabz Tumani",
      "is_in:country_code": "UZ"
    }
  },
  {
    "osm_id": -8655517,
    "boundary": "administrative",
    "admin_level": 6,
    "parents": "-1670974,-196240",
    "name": "Kitob District",
    "local_name": "Kitob Tumani",
    "name_en": "Kitob District",
    "all_tags": {
      "name": "Kitob Tumani",
      "name:en": "Kitob District",
      "name:it": "Distretto di Kitob",
      "name:ru": "Китабский район",
      "boundary": "administrative",
      "way_area": "0.183545",
      "wikidata": "Q687700",
      "wikipedia": "ru:Китабский район",
      "addr:region": "Qashqadaryo Viloyati",
      "admin_level": "6",
      "addr:country": "UZ",
      "is_in:region": "Qashqadaryo Viloyati",
      "addr:postcode": "180700",
      "is_in:country": "O'zbekiston",
      "is_in:country_code": "UZ"
    }
  },
  {
    "osm_id": -8310445,
    "boundary": "administrative",
    "admin_level": 6,
    "parents": "-196253,-196240",
    "name": "Gulistan",
    "local_name": "Guliston",
    "name_en": "Gulistan",
    "all_tags": {
      "name": "Guliston",
      "is_in": "O'zbekiston, Sirdaryo",
      "place": "town",
      "capital": "4",
      "landuse": "residential",
      "name:en": "Gulistan",
      "name:eo": "Gulistan",
      "name:fr": "Goulistan",
      "name:ja": "グリスタン",
      "name:ru": "Гулистан",
      "name:uk": "Гулістан",
      "boundary": "administrative",
      "old_name": "Mirzachul",
      "way_area": "0.00215274",
      "wikipedia": "ru:Гулистан",
      "population": "77300",
      "addr:region": "Sirdaryo Viloyati",
      "admin_level": "6",
      "postal_code": "120100",
      "population:date": "2010"
    }
  },
  {
    "osm_id": -7774377,
    "boundary": "administrative",
    "admin_level": 6,
    "parents": "-196251,-196240",
    "name": "Angren",
    "local_name": "Angren",
    "name_en": "Angren",
    "all_tags": {
      "name": "Angren",
      "place": "town",
      "gns:ufi": "-2575237",
      "name:de": "Angren",
      "name:en": "Angren",
      "name:ja": "アングレン",
      "name:ru": "Ангрен",
      "alt_name": "Турк;Ангреншахцтрой;Турн",
      "boundary": "administrative",
      "int_name": "Angren",
      "way_area": "0.00388058",
      "wikidata": "Q542966",
      "wikipedia": "ru:Ангрен (город)",
      "population": "126962",
      "addr:region": "Toshkent Viloyati",
      "admin_level": "6",
      "alt_name:en": "Turk;Angrenshakhtstroy;Turn",
      "border_type": "territorial"
    }
  },
  {
    "osm_id": -7726940,
    "boundary": "administrative",
    "admin_level": 6,
    "parents": "-196251,-196240",
    "name": "Bekabad",
    "local_name": "Bekobod",
    "name_en": "Bekabad",
    "all_tags": {
      "name": "Bekobod",
      "gns:ufi": "-2575580",
      "name:en": "Bekabad",
      "name:eo": "Bekabad",
      "name:ja": "ベカバード",
      "name:ru": "Бекабад",
      "name:uz": "Bekobod",
      "alt_name": "Бекабад;Беговат;Багеват;Биговат;Бегоwат",
      "boundary": "administrative",
      "way_area": "0.0027523",
      "wikipedia": "ru:Бекабад",
      "population": "101292",
      "addr:region": "Toshkent Viloyati",
      "admin_level": "6",
      "alt_name:en": "Bekabad;Begovat;Bagevat;Bigovat;Begowat",
      "alt_name:ru": "Бекабад;Беговат",
      "addr:country": "UZ"
    }
  },
  {
    "osm_id": -7723809,
    "boundary": "administrative",
    "admin_level": 6,
    "parents": "-196251,-196240",
    "name": "Chirchiq",
    "local_name": "Chirchiq",
    "name_en": "Chirchiq",
    "all_tags": {
      "name": "Chirchiq",
      "place": "city",
      "name:de": "Tschirtschik",
      "name:en": "Chirchiq",
      "name:eo": "Chirchiq",
      "name:ja": "チルチク",
      "name:ru": "Чирчик",
      "boundary": "administrative",
      "int_name": "Chirchiq",
      "way_area": "0.00377317",
      "wikipedia": "ru:Чирчик (город)",
      "population": "143600",
      "admin_level": "6",
      "alt_name:de": "Chirchik, Tschirtschik",
      "alt_name:en": "Chirchik",
      "border_type": "territorial",
      "postal_code": "111700"
    }
  },
  {
    "osm_id": -7629998,
    "boundary": "administrative",
    "admin_level": 6,
    "parents": "-196254,-196240",
    "name": "Forish District",
    "local_name": "Forish Tumani",
    "name_en": "Forish District",
    "all_tags": {
      "name": "Forish Tumani",
      "name:en": "Forish District",
      "name:ru": "Фаришский район",
      "boundary": "administrative",
      "way_area": "1.00456",
      "wikidata": "Q1646688",
      "wikipedia": "ru:Фаришский район",
      "addr:region": "Jizzax Viloyati",
      "admin_level": "6",
      "addr:country": "UZ"
    }
  },
  {
    "osm_id": -7629494,
    "boundary": "administrative",
    "admin_level": 6,
    "parents": "-196254,-196240",
    "name": "Pakhtakor District",
    "local_name": "Paxtakor Tumani",
    "name_en": "Pakhtakor District",
    "all_tags": {
      "name": "Paxtakor Tumani",
      "name:en": "Pakhtakor District",
      "name:ru": "Пахтакорский район",
      "boundary": "administrative",
      "way_area": "0.040181",
      "wikidata": "Q1646704",
      "admin_level": "6"
    }
  },
  {
    "osm_id": -7626174,
    "boundary": "administrative",
    "admin_level": 6,
    "parents": "-196254,-196240",
    "name": "Mirzachul District",
    "local_name": "Mirzacho`l Tumani",
    "name_en": "Mirzachul District",
    "all_tags": {
      "name": "Mirzacho`l Tumani",
      "name:en": "Mirzachul District",
      "name:ru": "Мирзачульский район",
      "boundary": "administrative",
      "way_area": "0.0476673",
      "admin_level": "6"
    }
  },
  {
    "osm_id": -7593143,
    "boundary": "administrative",
    "admin_level": 6,
    "parents": "-196254,-196240",
    "name": "Sharof Rashidov Tumani",
    "local_name": "Sharof Rashidov Tumani",
    "name_en": null,
    "all_tags": {
      "name": "Sharof Rashidov Tumani",
      "name:ru": "Шараф Рашидов район",
      "boundary": "administrative",
      "way_area": "0.132983",
      "admin_level": "6"
    }
  },
  {
    "osm_id": -7592938,
    "boundary": "administrative",
    "admin_level": 6,
    "parents": "-196254,-196240",
    "name": "G'allaorol Tumani",
    "local_name": "G'allaorol Tumani",
    "name_en": null,
    "all_tags": {
      "name": "G'allaorol Tumani",
      "name:ru": "Галляаральский район",
      "boundary": "administrative",
      "way_area": "0.205554",
      "admin_level": "6"
    }
  },
  {
    "osm_id": -7591363,
    "boundary": "administrative",
    "admin_level": 6,
    "parents": "-196254,-196240",
    "name": "Zarbdor Tumani",
    "local_name": "Zarbdor Tumani",
    "name_en": null,
    "all_tags": {
      "name": "Zarbdor Tumani",
      "name:ru": "Зарбдарский район",
      "boundary": "administrative",
      "way_area": "0.0564741",
      "admin_level": "6"
    }
  },
  {
    "osm_id": -7590755,
    "boundary": "administrative",
    "admin_level": 6,
    "parents": "-196254,-196240",
    "name": "Yangiobod Tumani",
    "local_name": "Yangiobod Tumani",
    "name_en": null,
    "all_tags": {
      "name": "Yangiobod Tumani",
      "name:ru": "Янгиабадский район",
      "boundary": "administrative",
      "way_area": "0.0735472",
      "admin_level": "6"
    }
  },
  {
    "osm_id": -7587152,
    "boundary": "administrative",
    "admin_level": 6,
    "parents": "-196254,-196240",
    "name": "Zomin Tumani",
    "local_name": "Zomin Tumani",
    "name_en": null,
    "all_tags": {
      "name": "Zomin Tumani",
      "name:ru": "Зааминский район",
      "boundary": "administrative",
      "way_area": "0.306164",
      "admin_level": "6"
    }
  },
  {
    "osm_id": -7587151,
    "boundary": "administrative",
    "admin_level": 6,
    "parents": "-196254,-196240",
    "name": "Baxmal Tumani",
    "local_name": "Baxmal Tumani",
    "name_en": null,
    "all_tags": {
      "name": "Baxmal Tumani",
      "name:ru": "Бахмальский район",
      "boundary": "administrative",
      "way_area": "0.197182",
      "admin_level": "6"
    }
  },
  {
    "osm_id": -7505068,
    "boundary": "administrative",
    "admin_level": 6,
    "parents": "-196241,-196240",
    "name": "Taqıyatas rayonı",
    "local_name": "Taqıyatas rayonı",
    "name_en": null,
    "all_tags": {
      "name": "Taqıyatas rayonı",
      "gns:dsg": "ADM2",
      "name:ru": "Тахиаташский район",
      "name:uz": "Taxiatosh Tumani",
      "alt_name": "Taqıyatas Tumani",
      "boundary": "administrative",
      "way_area": "0.0205377",
      "wikipedia": "uz:Taxiatosh tumani",
      "admin_level": "6",
      "addr:country": "UZ",
      "is_in:country": "Uzbekistan",
      "is_in:province": "Qaraqalpaqstan Respublikasi",
      "is_in:country_code": "UZ"
    }
  },
  {
    "osm_id": -7284021,
    "boundary": "administrative",
    "admin_level": 6,
    "parents": "-196241,-196240",
    "name": "No'kis qalasi ha'kimiyati",
    "local_name": "No'kis qalasi ha'kimiyati",
    "name_en": null,
    "all_tags": {
      "name": "No'kis qalasi ha'kimiyati",
      "capital": "4",
      "name:ru": "Нукусский горхокимият",
      "name:uz": "Nukus shahri hokimiyati",
      "boundary": "administrative",
      "way_area": "0.0235989",
      "wikipedia": "ru:Городская администрация Нукус",
      "addr:region": "Qaraqalpaqstan Respublikasi",
      "admin_level": "6",
      "addr:country": "UZ"
    }
  },
  {
    "osm_id": -7163853,
    "boundary": "administrative",
    "admin_level": 6,
    "parents": "-196251,-196240",
    "name": "Yangiiul",
    "local_name": "Yangiyo'l",
    "name_en": "Yangiiul",
    "all_tags": {
      "name": "Yangiyo'l",
      "place": "town",
      "capital": "6",
      "name:en": "Yangiiul",
      "name:ja": "ヤンギユル",
      "name:ru": "Янгиюль",
      "name:uk": "Янґіюль",
      "alt_name": "Каунчи",
      "boundary": "administrative",
      "int_name": "Yangiyul",
      "old_name": "ст. Кауфманская",
      "way_area": "0.00117374",
      "wikidata": "Q384774",
      "wikipedia": "uz:Yangiyoʻl",
      "population": "72500",
      "addr:region": "Toshkent Viloyati",
      "admin_level": "6",
      "border_type": "territorial",
      "postal_code": "112000",
      "addr:country": "UZ",
      "wikipedia:uz": "Yangiyoʻl"
    }
  },
  {
    "osm_id": -6990314,
    "boundary": "administrative",
    "admin_level": 6,
    "parents": "-196254,-196240",
    "name": "Do'stlik Tumani",
    "local_name": "Do'stlik Tumani",
    "name_en": null,
    "all_tags": {
      "name": "Do'stlik Tumani",
      "place": "county",
      "gns:dsg": "AMD2",
      "gns:uni": "516983",
      "name:ru": "Дустликский район",
      "boundary": "administrative",
      "way_area": "0.0484536",
      "wikidata": "Q1645140",
      "admin_level": "6",
      "is_in:country": "Uzbekistan",
      "is_in:province": "Jizzax Viloyati",
      "is_in:country_code": "UZ"
    }
  },
  {
    "osm_id": -6990291,
    "boundary": "administrative",
    "admin_level": 6,
    "parents": "-196254,-196240",
    "name": "Arnasay District",
    "local_name": "Arnasoy Tumani",
    "name_en": "Arnasay District",
    "all_tags": {
      "name": "Arnasoy Tumani",
      "place": "county",
      "gns:dsg": "ADM2",
      "gns:uni": "516964",
      "name:en": "Arnasay District",
      "name:ru": "Арнасайский район",
      "boundary": "administrative",
      "way_area": "0.0526793",
      "wikidata": "Q974027",
      "admin_level": "6",
      "is_in:country": "Uzbekistan",
      "is_in:province": "Jizzax Viloyati",
      "is_in:country_code": "UZ"
    }
  },
  {
    "osm_id": -6990287,
    "boundary": "administrative",
    "admin_level": 6,
    "parents": "-196254,-196240",
    "name": "Zafarobod District",
    "local_name": "Zafarobod Tumani",
    "name_en": "Zafarobod District",
    "all_tags": {
      "name": "Zafarobod Tumani",
      "place": "county",
      "gns:dsg": "ADM2",
      "gns:uni": "516985",
      "name:en": "Zafarobod District",
      "name:ru": "Зафарабадский район",
      "boundary": "administrative",
      "way_area": "0.0455254",
      "wikidata": "Q2396969",
      "wikipedia": "ru:Зафарабадский район (Узбекистан)",
      "admin_level": "6",
      "is_in:country": "Uzbekistan",
      "is_in:province": "Jizzax Viloyati",
      "is_in:country_code": "UZ"
    }
  },
  {
    "osm_id": -5750396,
    "boundary": "administrative",
    "admin_level": 6,
    "parents": "-196251,-196240",
    "name": "Bekobod district",
    "local_name": "Bekobod Tumani",
    "name_en": "Bekobod district",
    "all_tags": {
      "name": "Bekobod Tumani",
      "place": "district",
      "gns:dsg": "ADM2: second-order administrative division",
      "gns:ufi": "-2575583",
      "name:en": "Bekobod district",
      "name:ru": "Бекабадский район",
      "boundary": "administrative",
      "old_name": "Беговатский район;Бекабадский район",
      "way_area": "0.0787342",
      "wikidata": "Q928312",
      "wikipedia": "ru:Бекабадский район",
      "start_date": "1963",
      "admin_level": "6"
    }
  },
  {
    "osm_id": -5750395,
    "boundary": "administrative",
    "admin_level": 6,
    "parents": "-196251,-196240",
    "name": "Buka district",
    "local_name": "Bo'ka Tumani",
    "name_en": "Buka district",
    "all_tags": {
      "name": "Bo'ka Tumani",
      "place": "district",
      "gns:dsg": "ADM2",
      "gns:ufi": "-2575721",
      "gns:uni": "517344",
      "name:en": "Buka district",
      "name:ru": "Букинский район",
      "boundary": "administrative",
      "way_area": "0.0627546",
      "wikidata": "Q3710768",
      "wikipedia": "ru:Букинский район",
      "admin_level": "6",
      "alt_name:uz": "Бўка тумани",
      "is_in:country": "Uzbekistan",
      "is_in:province": "Toshkent Viloyati",
      "is_in:country_code": "UZ"
    }
  },
  {
    "osm_id": -5750391,
    "boundary": "administrative",
    "admin_level": 6,
    "parents": "-196251,-196240",
    "name": "Piskent district",
    "local_name": "Piskent Tumani",
    "name_en": "Piskent district",
    "all_tags": {
      "name": "Piskent Tumani",
      "place": "district",
      "gns:dsg": "ADM2",
      "gns:uni": "517340",
      "name:en": "Piskent district",
      "name:ru": "Пскентский район",
      "boundary": "administrative",
      "way_area": "0.0951622",
      "wikidata": "Q3711373",
      "wikipedia": "ru:Пскентский район",
      "addr:region": "Toshkent Viloyati",
      "admin_level": "6",
      "addr:country": "UZ",
      "wikipedia:ru": "Пскентский район",
      "is_in:country": "Uzbekistan",
      "is_in:province": "Toshkent Viloyati",
      "is_in:country_code": "UZ"
    }
  },
  {
    "osm_id": -5750388,
    "boundary": "administrative",
    "admin_level": 6,
    "parents": "-196251,-196240",
    "name": "Akkurgan district",
    "local_name": "Oqqoʻrgʻon Tumani",
    "name_en": "Akkurgan district",
    "all_tags": {
      "name": "Oqqoʻrgʻon Tumani",
      "place": "district",
      "gns:dsg": "ADM2",
      "gns:uni": "517334",
      "name:en": "Akkurgan district",
      "name:ru": "Аккурганский район",
      "boundary": "administrative",
      "way_area": "0.0424529",
      "wikidata": "Q3711295",
      "wikipedia": "ru:Аккурганский район",
      "addr:region": "Toshkent Viloyati",
      "admin_level": "6",
      "addr:country": "UZ"
    }
  },
  {
    "osm_id": -5748465,
    "boundary": "administrative",
    "admin_level": 6,
    "parents": "-196251,-196240",
    "name": "Kuyichirchik district",
    "local_name": "Quyichirchiq Tumani",
    "name_en": "Kuyichirchik district",
    "all_tags": {
      "name": "Quyichirchiq Tumani",
      "place": "district",
      "gns:dsg": "ADM2",
      "gns:ufi": "-2576390",
      "gns:uni": "517330",
      "name:en": "Kuyichirchik district",
      "name:ru": "Куйичирчикский район",
      "alt_name": "Галабинский Район;Куыичирчикский Район;Нижнечирчикский Район",
      "boundary": "administrative",
      "old_name": "Галабинский Район;Нижнечирчикский Район",
      "way_area": "0.0610231",
      "wikidata": "Q3711398",
      "wikipedia": "ru:Куйичирчикский район",
      "addr:region": "Toshkent Viloyati",
      "admin_level": "6",
      "alt_name:en": "Galabinskiy Rayon;Kuyichirchikskiy Rayon;Nizhnechirchikskiy Rayon",
      "old_name:ru": "Галабинский Район;Нижнечирчикский Район",
      "addr:country": "UZ"
    }
  },
  {
    "osm_id": -5748414,
    "boundary": "administrative",
    "admin_level": 6,
    "parents": "-196251,-196240",
    "name": "Chinaz district",
    "local_name": "Chinoz Tumani",
    "name_en": "Chinaz district",
    "all_tags": {
      "name": "Chinoz Tumani",
      "place": "district",
      "gns:dsg": "ADM2",
      "gns:uni": "517323",
      "name:en": "Chinaz district",
      "name:ru": "Чиназский район",
      "boundary": "administrative",
      "way_area": "0.0364908",
      "wikidata": "Q920722",
      "wikipedia": "ru:Чиназский район",
      "admin_level": "6",
      "is_in:country": "Uzbekistan",
      "is_in:province": "Toshkent Viloyati",
      "is_in:country_code": "UZ"
    }
  },
  {
    "osm_id": -5748407,
    "boundary": "administrative",
    "admin_level": 6,
    "parents": "-196251,-196240",
    "name": "Yangiyul district",
    "local_name": "Yangiyo'l Tumani",
    "name_en": "Yangiyul district",
    "all_tags": {
      "name": "Yangiyo'l Tumani",
      "place": "district",
      "gns:dsg": "ADM2",
      "gns:uni": "517301",
      "name:en": "Yangiyul district",
      "name:ru": "Янгиюльский район",
      "boundary": "administrative",
      "way_area": "0.0442281",
      "wikidata": "Q953496",
      "wikipedia": "ru:Янгиюльский район",
      "addr:region": "Toshkent Viloyati",
      "admin_level": "6",
      "addr:country": "UZ"
    }
  },
  {
    "osm_id": -5748378,
    "boundary": "administrative",
    "admin_level": 6,
    "parents": "-196251,-196240",
    "name": "Urtachirchik district",
    "local_name": "O'rtachirchiq Tumani",
    "name_en": "Urtachirchik district",
    "all_tags": {
      "name": "O'rtachirchiq Tumani",
      "place": "district",
      "gns:dsg": "ADM2",
      "gns:ufi": "-2579024",
      "gns:uni": "517307",
      "name:en": "Urtachirchik district",
      "name:ru": "Уртачирчикский район",
      "alt_name": "Среднечирчикский район",
      "boundary": "administrative",
      "way_area": "0.0513776",
      "wikidata": "Q3711299",
      "wikipedia": "ru:Уртачирчикский район",
      "admin_level": "6",
      "is_in:country": "Uzbekistan",
      "is_in:province": "Toshkent Viloyati",
      "is_in:country_code": "UZ"
    }
  },
  {
    "osm_id": -5745852,
    "boundary": "administrative",
    "admin_level": 6,
    "parents": "-196251,-196240",
    "name": "Ohangaron Tumani",
    "local_name": "Ohangaron Tumani",
    "name_en": null,
    "all_tags": {
      "name": "Ohangaron Tumani",
      "place": "district",
      "gns:dsg": "ADM2",
      "gns:uni": "517311",
      "name:ru": "Ахангаранский район",
      "boundary": "administrative",
      "way_area": "0.351672",
      "wikidata": "Q3711285",
      "wikipedia": "ru:Ахангаранский район",
      "admin_level": "6",
      "is_in:country": "Uzbekistan",
      "is_in:province": "Toshkent Viloyati",
      "is_in:country_code": "UZ"
    }
  },
  {
    "osm_id": -5745839,
    "boundary": "administrative",
    "admin_level": 6,
    "parents": "-196251,-196240",
    "name": "Yukorichirchik district",
    "local_name": "Yuqorichirchiq Tumani",
    "name_en": "Yukorichirchik district",
    "all_tags": {
      "name": "Yuqorichirchiq Tumani",
      "place": "district",
      "gns:dsg": "ADM2",
      "gns:ufi": "-2578404",
      "gns:uni": "517281",
      "name:en": "Yukorichirchik district",
      "name:ru": "Юкоричирчикский район",
      "alt_name": "Верхнечирчикский район",
      "boundary": "administrative",
      "old_name": "Коммунистический Район;Верхнечирчикский Район",
      "way_area": "0.0471292",
      "wikidata": "Q3711620",
      "wikipedia": "ru:Юкарычирчикский район",
      "admin_level": "6",
      "is_in:country": "Uzbekistan",
      "is_in:province": "Toshkent Viloyati",
      "is_in:country_code": "UZ"
    }
  },
  {
    "osm_id": -5745823,
    "boundary": "administrative",
    "admin_level": 6,
    "parents": "-196251,-196240",
    "name": "Parkent district",
    "local_name": "Parkent Tumani",
    "name_en": "Parkent district",
    "all_tags": {
      "name": "Parkent Tumani",
      "place": "district",
      "gns:dsg": "ADM2",
      "gns:uni": "378457",
      "name:en": "Parkent district",
      "name:ru": "Паркентский район",
      "boundary": "administrative",
      "way_area": "0.121279",
      "wikidata": "Q3711354",
      "wikipedia": "ru:Паркентский район",
      "admin_level": "6",
      "is_in:country": "Uzbekistan",
      "is_in:province": "Toshkent Viloyati",
      "is_in:country_code": "UZ"
    }
  },
  {
    "osm_id": -5745803,
    "boundary": "administrative",
    "admin_level": 6,
    "parents": "-196251,-196240",
    "name": "Qibray district",
    "local_name": "Qibray Tumani",
    "name_en": "Qibray district",
    "all_tags": {
      "name": "Qibray Tumani",
      "place": "district",
      "gns:dsg": "ADM2",
      "gns:ufi": "-2578404",
      "gns:uni": "517281",
      "name:en": "Qibray district",
      "name:ru": "Кибрайский район",
      "boundary": "administrative",
      "old_name": "Орджоникидзевский Район",
      "way_area": "0.0585022",
      "wikidata": "Q3711386",
      "wikipedia": "ru:Кибрайский район",
      "admin_level": "6",
      "old_name:ru": "Орджоникидзевский Район",
      "is_in:country": "Uzbekistan",
      "is_in:province": "Toshkent Viloyati",
      "is_in:country_code": "UZ"
    }
  },
  {
    "osm_id": -4060435,
    "boundary": "administrative",
    "admin_level": 6,
    "parents": "-196251,-196240",
    "name": "Zangiota Tumani",
    "local_name": "Zangiota Tumani",
    "name_en": null,
    "all_tags": {
      "name": "Zangiota Tumani",
      "place": "district",
      "gns:dsg": "ADM2",
      "gns:uni": "517287",
      "name:ru": "Зангиатинский район",
      "boundary": "administrative",
      "old_name": "Калининский район",
      "way_area": "0.0221523",
      "wikidata": "Q3711623",
      "wikipedia": "ru:Зангиатинский район",
      "admin_level": "6",
      "is_in:country": "Uzbekistan",
      "is_in:province": "Toshkent Viloyati",
      "is_in:country_code": "UZ"
    }
  },
  {
    "osm_id": -3772474,
    "boundary": "administrative",
    "admin_level": 6,
    "parents": "-178018,-196240",
    "name": "Soʻx",
    "local_name": "Soʻx",
    "name_en": null,
    "all_tags": {
      "name": "Soʻx",
      "name:ru": "Сох",
      "boundary": "administrative",
      "way_area": "0.0240496",
      "wikidata": "Q1027768",
      "wikipedia": "uz:Soʻx tumani",
      "admin_level": "6"
    }
  },
  {
    "osm_id": -2560214,
    "boundary": "administrative",
    "admin_level": 6,
    "parents": "-178018,-196240",
    "name": "Shohimardon Exclave",
    "local_name": "Shohimardon eksklavi",
    "name_en": "Shohimardon Exclave",
    "all_tags": {
      "name": "Shohimardon eksklavi",
      "place": "region",
      "name:en": "Shohimardon Exclave",
      "name:it": "Exclave di Shohimardon",
      "name:ru": "Шахимарданский эксклав",
      "name:uz": "Shohimardon eksklavi",
      "alt_name": "Шахимарданский инклав",
      "boundary": "administrative",
      "int_name": "Shakhimardanskiy eksklav",
      "way_area": "0.00448349",
      "wikidata": "Q3498718",
      "wikipedia": "ru:Шахимарданский эксклав",
      "admin_level": "6"
    }
  },
  {
    "osm_id": -2216724,
    "boundary": "administrative",
    "admin_level": 4,
    "parents": "-196240",
    "name": "Tashkent",
    "local_name": "Toshkent",
    "name_en": "Tashkent",
    "all_tags": {
      "name": "Toshkent",
      "place": "city",
      "capital": "yes",
      "name:af": "Tasjkent",
      "name:am": "ታሽኬንት",
      "name:ar": "طشقند",
      "name:az": "Daşkənd",
      "name:be": "Ташкент",
      "name:bg": "Ташкент",
      "name:bn": "তাশখন্দ",
      "name:bo": "ཐ་ཧྲི་ཀན།",
      "name:br": "Tochkent",
      "name:bs": "Taškent",
      "name:ca": "Taixkent",
      "name:cs": "Taškent",
      "name:cv": "Ташкент",
      "name:cy": "Tashkent",
      "name:da": "Tasjkent",
      "name:de": "Taschkent",
      "name:el": "Τασκένδη",
      "name:en": "Tashkent",
      "name:eo": "Taŝkento",
      "name:es": "Taskent",
      "name:et": "Toshkent",
      "name:eu": "Tashkent",
      "name:fa": "تاشکند",
      "name:fi": "Taškent",
      "name:fr": "Tachkent",
      "name:fy": "Tasjkent",
      "name:ga": "Tashkent",
      "name:gd": "Tashkent",
      "name:gl": "Tashkent",
      "name:he": "טשקנט",
      "name:hi": "ताशकन्द",
      "name:hr": "Taškent",
      "name:ht": "Tachkènt",
      "name:hu": "Taskent",
      "name:hy": "Տաշքենդ",
      "name:id": "Tashkent",
      "name:ie": "Tashkent",
      "name:io": "Tashkent",
      "name:is": "Taskent",
      "name:it": "Tashkent",
      "name:ja": "タシュケント",
      "name:ka": "ტაშკენტი",
      "name:kk": "Ташкент",
      "name:kn": "ತಾಷ್ಕೆಂಟ್",
      "name:ko": "타슈켄트",
      "name:ku": "Taşkent, Ûzbêkistan",
      "name:kv": "Ташкент",
      "name:ky": "Ташкен",
      "name:la": "Lithopolis",
      "name:lt": "Taškentas",
      "name:lv": "Taškenta",
      "name:mk": "Ташкент",
      "name:ml": "താഷ്കന്റ്",
      "name:mn": "Ташкент",
      "name:mr": "ताश्कंद",
      "name:ms": "Tashkent",
      "name:nl": "Tasjkent",
      "name:nn": "Tasjkent",
      "name:no": "Tasjkent",
      "name:oc": "Tashkent",
      "name:os": "Ташкент",
      "name:pl": "Taszkent",
      "name:ps": "تاشكند",
      "name:pt": "Tashkent",
      "name:ro": "Tașkent",
      "name:ru": "Ташкент",
      "name:sh": "Taškent",
      "name:sk": "Taškent",
      "name:sq": "Tashkenti",
      "name:sr": "Ташкент",
      "name:sv": "Tasjkent",
      "name:sw": "Tashkent",
      "name:ta": "தாஷ்கந்து",
      "name:te": "తాష్కెంట్",
      "name:tg": "Тошканд",
      "name:th": "ทาชเคนต์",
      "name:tk": "Daşkent",
      "name:tl": "Tashkent",
      "name:tr": "Taşkent",
      "name:tt": "Ташкент",
      "name:ug": "Tashkent",
      "name:uk": "Ташкент",
      "name:ur": "تاشقند",
      "name:uz": "Toshkent",
      "name:vi": "Tashkent",
      "name:vo": "Toshkent",
      "name:yi": "טאשקענט",
      "name:yo": "Tashkent",
      "name:zh": "塔什干",
      "boundary": "administrative",
      "int_name": "Tashkent",
      "name:ace": "Tashkent",
      "name:ckb": "تاشکەند",
      "name:crh": "Taşkent",
      "name:hif": "Tashkent",
      "name:hsb": "Taškent",
      "name:lmo": "Taškent",
      "name:mhr": "Ташкент",
      "name:myv": "Ташкент ош",
      "name:mzn": "تاشکند",
      "name:nan": "Tashkent",
      "name:nov": "Tashkent",
      "name:pms": "Tashkent",
      "name:pnb": "تاشقند",
      "name:sah": "Ташкент",
      "name:sco": "Tashkent",
      "name:tlh": "mIw'a'",
      "name:udm": "Ташкент",
      "name:vec": "Taškent",
      "name:vep": "Taškent",
      "name:war": "Tashkent",
      "old_name": "Chach",
      "way_area": "0.0381524",
      "wikidata": "Q269",
      "ISO3166-2": "UZ-TK",
      "wikipedia": "ru:Ташкент",
      "addr:region": "Toshkent",
      "admin_level": "4",
      "alt_name:ru": "Ташкентъ",
      "alt_name:uz": "Тошкент",
      "alt_name:vi": "Toshkent",
      "border_type": "region",
      "name:simple": "Tashkent",
      "old_name:ru": "Ташкентъ;Чач;Шаш;Джадж;Бинкент",
      "old_name:vi": "Khang Cư",
      "addr:country": "UZ",
      "addr:postcode": "100000",
      "is_in:country": "O'zbekiston",
      "name:be-tarask": "Ташкент",
      "capital_ISO3166-1": "yes"
    }
  },
  {
    "osm_id": -2186087,
    "boundary": "administrative",
    "admin_level": 6,
    "parents": "-196246,-196240",
    "name": "Uchkuduk District",
    "local_name": "Uchquduq Tumani",
    "name_en": "Uchkuduk District",
    "all_tags": {
      "name": "Uchquduq Tumani",
      "gns:dsg": "ADM2",
      "gns:uni": "515730",
      "name:en": "Uchkuduk District",
      "name:fa": "شهرستان اوچ قودوق",
      "name:lt": "Učkuduko rajonas",
      "name:ru": "Учкудукский район",
      "name:uk": "Учкудуцький район",
      "name:uz": "Uchquduq Tumani",
      "boundary": "administrative",
      "way_area": "5.16974",
      "wikidata": "Q2603558",
      "wikipedia": "uz:Uchquduq tumani",
      "addr:state": "Navoiy Viloyati",
      "admin_level": "6",
      "addr:country": "UZ"
    }
  },
  {
    "osm_id": -2186086,
    "boundary": "administrative",
    "admin_level": 6,
    "parents": "-196246,-196240",
    "name": "Tamdy",
    "local_name": "Tomdi Тumani",
    "name_en": "Tamdy",
    "all_tags": {
      "name": "Tomdi Тumani",
      "gns:dsg": "ADM2",
      "gns:uni": "515732",
      "name:en": "Tamdy",
      "name:ru": "Тамдынский район",
      "boundary": "administrative",
      "way_area": "4.59406",
      "wikidata": "Q2639165",
      "wikipedia": "ru:Тамдынский район",
      "addr:state": "Navoiy Viloyati",
      "admin_level": "6",
      "addr:country": "UZ"
    }
  },
  {
    "osm_id": -2186085,
    "boundary": "administrative",
    "admin_level": 6,
    "parents": "-196246,-196240",
    "name": "Kanimekh",
    "local_name": "Konimex Tumani",
    "name_en": "Kanimekh",
    "all_tags": {
      "name": "Konimex Tumani",
      "gns:dsg": "ADM2",
      "gns:uni": "9126726",
      "name:en": "Kanimekh",
      "name:ru": "Канимехский район",
      "boundary": "administrative",
      "way_area": "0.878677",
      "wikidata": "Q2639074",
      "wikipedia": "ru:Канимехский район",
      "admin_level": "6",
      "addr:country": "UZ",
      "is_in:country": "Uzbekistan",
      "is_in:province": "Navoiy Viloyati",
      "is_in:country_code": "UZ"
    }
  },
  {
    "osm_id": -2120216,
    "boundary": "administrative",
    "admin_level": 6,
    "parents": "-196251,-196240",
    "name": "Bostanlik district",
    "local_name": "Bo'stonliq Tumani",
    "name_en": "Bostanlik district",
    "all_tags": {
      "name": "Bo'stonliq Tumani",
      "place": "district",
      "gns:dsg": "ADM2",
      "gns:uni": "379140",
      "name:en": "Bostanlik district",
      "name:ru": "Бостанлыкский район",
      "boundary": "administrative",
      "way_area": "0.532083",
      "wikidata": "Q1074695",
      "wikipedia": "ru:Бостанлыкский туман",
      "admin_level": "6",
      "border_type": "territorial",
      "is_in:country": "Uzbekistan",
      "is_in:province": "Toshkent Viloyati",
      "is_in:country_code": "UZ"
    }
  },
  {
    "osm_id": -2097814,
    "boundary": "administrative",
    "admin_level": 6,
    "parents": "-196242,-196240",
    "name": "Hazorasp district",
    "local_name": "Xazorasp Tumani",
    "name_en": "Hazorasp district",
    "all_tags": {
      "name": "Xazorasp Tumani",
      "gns:dsg": "ADM2",
      "gns:uni": "515691",
      "name:en": "Hazorasp district",
      "name:ja": "ハザラスプ",
      "name:ru": "Хазараспский район",
      "boundary": "administrative",
      "way_area": "0.0417516",
      "wikidata": "Q943068",
      "wikipedia": "ru:Хазараспский район",
      "admin_level": "6",
      "addr:country": "UZ",
      "is_in:country": "Uzbekistan",
      "is_in:province": "Xorazm Viloyati",
      "is_in:country_code": "UZ"
    }
  },
  {
    "osm_id": -2097712,
    "boundary": "administrative",
    "admin_level": 6,
    "parents": "-196242,-196240",
    "name": "Khanka",
    "local_name": "Khonqa Tumani",
    "name_en": "Khanka",
    "all_tags": {
      "name": "Khonqa Tumani",
      "gns:dsg": "ADM2",
      "gns:uni": "515687",
      "name:en": "Khanka",
      "name:ru": "Ханкинский район",
      "boundary": "administrative",
      "way_area": "0.0443182",
      "wikidata": "Q2396519",
      "wikipedia": "ru:Ханкинский район",
      "admin_level": "6",
      "addr:country": "UZ",
      "is_in:country": "Uzbekistan",
      "is_in:province": "Xorazm Viloyati",
      "is_in:country_code": "UZ"
    }
  },
  {
    "osm_id": -2097711,
    "boundary": "administrative",
    "admin_level": 6,
    "parents": "-196242,-196240",
    "name": "Bagat",
    "local_name": "Boghot Tumani",
    "name_en": "Bagat",
    "all_tags": {
      "name": "Boghot Tumani",
      "gns:dsg": "ADM2",
      "gns:uni": "515689",
      "name:en": "Bagat",
      "name:ru": "Багатский район",
      "boundary": "administrative",
      "way_area": "0.0479343",
      "wikidata": "Q2605506",
      "wikipedia": "ru:Багатский район",
      "admin_level": "6",
      "addr:country": "UZ",
      "is_in:country": "Uzbekistan",
      "is_in:province": "Xorazm Viloyati",
      "is_in:country_code": "UZ"
    }
  },
  {
    "osm_id": -2097692,
    "boundary": "administrative",
    "admin_level": 6,
    "parents": "-196242,-196240",
    "name": "Yangiariq District",
    "local_name": "Yangiariq Tumani",
    "name_en": "Yangiariq District",
    "all_tags": {
      "name": "Yangiariq Tumani",
      "gns:dsg": "ADM2",
      "gns:uni": "515681",
      "name:en": "Yangiariq District",
      "name:it": "Distretto di Yangiariq",
      "name:ms": "Daerah Yangiariq",
      "name:ru": "Янгиарыкский район",
      "name:tr": "Yeniarık İlçesi",
      "name:uk": "Янґіарикський район",
      "boundary": "administrative",
      "name:pnb": "ضلع یانگی آرق",
      "way_area": "0.0443004",
      "wikidata": "Q2605147",
      "wikipedia": "uz:Yangiariq tumani",
      "admin_level": "6",
      "addr:country": "UZ",
      "is_in:country": "Uzbekistan",
      "is_in:province": "Xorazm Viloyati",
      "is_in:country_code": "UZ"
    }
  },
  {
    "osm_id": -2097691,
    "boundary": "administrative",
    "admin_level": 6,
    "parents": "-196242,-196240",
    "name": "Khiva",
    "local_name": "Xiva Tumani",
    "name_en": "Khiva",
    "all_tags": {
      "name": "Xiva Tumani",
      "gns:dsg": "ADM2",
      "gns:uni": "515680",
      "name:en": "Khiva",
      "name:ru": "Хивинский район",
      "boundary": "administrative",
      "way_area": "0.0513516",
      "wikidata": "Q2609563",
      "wikipedia": "ru:Хивинский район",
      "admin_level": "6",
      "addr:country": "UZ",
      "wikipedia:ru": "Хивинский район",
      "is_in:country": "Uzbekistan",
      "is_in:province": "Xorazm Viloyati",
      "is_in:country_code": "UZ"
    }
  },
  {
    "osm_id": -2097690,
    "boundary": "administrative",
    "admin_level": 6,
    "parents": "-196242,-196240",
    "name": "Urgench",
    "local_name": "Urganch Tumani",
    "name_en": "Urgench",
    "all_tags": {
      "name": "Urganch Tumani",
      "gns:dsg": "ADM2",
      "gns:uni": "515660",
      "name:en": "Urgench",
      "name:id": "Distrik Urgench",
      "name:it": "Distretto di Urgench",
      "name:ms": "Daerah Urganch",
      "name:ru": "Ургенчский район",
      "boundary": "administrative",
      "way_area": "0.0584665",
      "wikidata": "Q2609539",
      "wikipedia": "ru:Ургенчский район",
      "admin_level": "6",
      "addr:country": "UZ",
      "is_in:country": "Uzbekistan",
      "is_in:province": "Xorazm Viloyati",
      "is_in:country_code": "UZ"
    }
  },
  {
    "osm_id": -2097689,
    "boundary": "administrative",
    "admin_level": 6,
    "parents": "-196242,-196240",
    "name": "Koshkupyr",
    "local_name": "Qoshkopir Tumani",
    "name_en": "Koshkupyr",
    "all_tags": {
      "name": "Qoshkopir Tumani",
      "gns:dsg": "ADM2",
      "gns:uni": "515677",
      "name:en": "Koshkupyr",
      "name:ru": "Кошкупырский район",
      "boundary": "administrative",
      "way_area": "0.0585735",
      "wikidata": "Q2396643",
      "wikipedia": "ru:Кошкупырский район",
      "admin_level": "6",
      "addr:country": "UZ",
      "is_in:country": "Uzbekistan",
      "is_in:province": "Xorazm Viloyati",
      "is_in:country_code": "UZ"
    }
  },
  {
    "osm_id": -2097625,
    "boundary": "administrative",
    "admin_level": 6,
    "parents": "-196242,-196240",
    "name": "Yangibazar district",
    "local_name": "Yangibozor Tumani",
    "name_en": "Yangibazar district",
    "all_tags": {
      "name": "Yangibozor Tumani",
      "gns:dsg": "ADM2",
      "gns:uni": "515569",
      "name:en": "Yangibazar district",
      "name:ru": "Янгибазарский район",
      "boundary": "administrative",
      "way_area": "0.0377124",
      "wikidata": "Q637940",
      "wikipedia": "ru:Янгибазарский район",
      "admin_level": "6",
      "addr:country": "UZ",
      "is_in:country": "Uzbekistan",
      "is_in:province": "Xorazm Viloyati",
      "is_in:country_code": "UZ"
    }
  },
  {
    "osm_id": -2097624,
    "boundary": "administrative",
    "admin_level": 6,
    "parents": "-196242,-196240",
    "name": "Shavat district",
    "local_name": "Showot Tumani",
    "name_en": "Shavat district",
    "all_tags": {
      "name": "Showot Tumani",
      "gns:dsg": "ADM2",
      "gns:uni": "515576",
      "name:en": "Shavat district",
      "name:ru": "Шаватский район",
      "boundary": "administrative",
      "way_area": "0.0491186",
      "wikidata": "Q2396590",
      "wikipedia": "ru:Шаватский район",
      "admin_level": "6",
      "addr:country": "UZ",
      "is_in:country": "Uzbekistan",
      "is_in:province": "Xorazm Viloyati",
      "is_in:country_code": "UZ"
    }
  },
  {
    "osm_id": -2097623,
    "boundary": "administrative",
    "admin_level": 6,
    "parents": "-196242,-196240",
    "name": "Gurlen",
    "local_name": "Gurlan Tumani",
    "name_en": "Gurlen",
    "all_tags": {
      "name": "Gurlan Tumani",
      "gns:dsg": "ADM2",
      "gns:uni": "515562",
      "name:en": "Gurlen",
      "name:ru": "Гурленский район",
      "boundary": "administrative",
      "way_area": "0.0486827",
      "wikidata": "Q2605437",
      "wikipedia": "ru:Гурленский район",
      "admin_level": "6",
      "addr:country": "UZ",
      "is_in:country": "Uzbekistan",
      "is_in:province": "Xorazm Viloyati",
      "is_in:country_code": "UZ"
    }
  },
  {
    "osm_id": -2095999,
    "boundary": "administrative",
    "admin_level": 6,
    "parents": "-196241,-196240",
    "name": "Ellikqala rayonı",
    "local_name": "Ellikqala rayonı",
    "name_en": null,
    "all_tags": {
      "name": "Ellikqala rayonı",
      "gns:dsg": "ADM2",
      "gns:uni": "515172",
      "name:ru": "Элликкалинский район",
      "name:uz": "Ellikqala Tumani",
      "boundary": "administrative",
      "way_area": "0.654713",
      "wikidata": "Q939147",
      "wikipedia": "ru:Элликкалинский район",
      "admin_level": "6",
      "addr:country": "UZ",
      "is_in:country": "Uzbekistan",
      "is_in:province": "Qaraqalpaqstan Respublikası",
      "is_in:country_code": "UZ"
    }
  },
  {
    "osm_id": -2095998,
    "boundary": "administrative",
    "admin_level": 6,
    "parents": "-196241,-196240",
    "name": "To'rku'l rayonı",
    "local_name": "To'rku'l rayonı",
    "name_en": null,
    "all_tags": {
      "name": "To'rku'l rayonı",
      "gns:dsg": "ADM2",
      "gns:uni": "515178",
      "name:ru": "Турткульский район",
      "name:uz": "Tortkol Tumani",
      "boundary": "administrative",
      "way_area": "0.745241",
      "wikidata": "Q2642167",
      "wikipedia": "ru:Турткульский район",
      "admin_level": "6",
      "addr:country": "UZ",
      "is_in:country": "Uzbekistan",
      "is_in:province": "Qaraqalpaqstan Respublikası",
      "is_in:country_code": "UZ"
    }
  },
  {
    "osm_id": -2095997,
    "boundary": "administrative",
    "admin_level": 6,
    "parents": "-196241,-196240",
    "name": "Beruniy rayonı",
    "local_name": "Beruniy rayonı",
    "name_en": null,
    "all_tags": {
      "name": "Beruniy rayonı",
      "gns:dsg": "ADM2",
      "gns:uni": "515164",
      "name:ru": "Берунийский район",
      "name:uz": "Beruniy Tumani",
      "boundary": "administrative",
      "way_area": "0.954981",
      "wikidata": "Q2603530",
      "wikipedia": "ru:Берунийский район",
      "admin_level": "6",
      "addr:country": "UZ",
      "is_in:country": "Uzbekistan",
      "is_in:province": "Qaraqalpaqstan Respublikası",
      "is_in:country_code": "UZ"
    }
  },
  {
    "osm_id": -2095849,
    "boundary": "administrative",
    "admin_level": 6,
    "parents": "-196241,-196240",
    "name": "Taxtakopir District",
    "local_name": "Taxtako'pir rayonı",
    "name_en": "Taxtakopir District",
    "all_tags": {
      "name": "Taxtako'pir rayonı",
      "gns:dsg": "ADM2",
      "gns:uni": "515133",
      "name:en": "Taxtakopir District",
      "name:lt": "Tachtakupyro rajonas",
      "name:ru": "Тахтакупырский район",
      "name:uk": "Тахтакупирський район",
      "name:uz": "Taxtakopir tumani",
      "boundary": "administrative",
      "name:kaa": "Taxtako'pir rayonı",
      "way_area": "1.85228",
      "wikidata": "Q2603597",
      "wikipedia": "ru:Тахтакупырский район",
      "addr:state": "Qaraqalpaqstan Respublikasi",
      "admin_level": "6",
      "addr:country": "UZ"
    }
  },
  {
    "osm_id": -2095807,
    "boundary": "administrative",
    "admin_level": 6,
    "parents": "-196241,-196240",
    "name": "Amudarya rayonı",
    "local_name": "Amudarya rayonı",
    "name_en": null,
    "all_tags": {
      "name": "Amudarya rayonı",
      "gns:dsg": "ADM2",
      "gns:uni": "515157",
      "name:ru": "Амударьинский район",
      "name:uz": "Amudaryo Tumani",
      "boundary": "administrative",
      "way_area": "0.127755",
      "wikidata": "Q2603639",
      "wikipedia": "ru:Амударьинский район",
      "admin_level": "6",
      "addr:country": "UZ",
      "is_in:country": "Uzbekistan",
      "is_in:province": "Qaraqalpaqstan Respublikası",
      "is_in:country_code": "UZ"
    }
  },
  {
    "osm_id": -2095797,
    "boundary": "administrative",
    "admin_level": 6,
    "parents": "-196241,-196240",
    "name": "Qarao'zek rayonı",
    "local_name": "Qarao'zek rayonı",
    "name_en": null,
    "all_tags": {
      "name": "Qarao'zek rayonı",
      "name:ru": "Караузякский район",
      "name:uz": "Qorao'zak tumani",
      "boundary": "administrative",
      "way_area": "0.6231",
      "wikidata": "Q2609548",
      "wikipedia": "ru:Караузякский район",
      "admin_level": "6",
      "addr:country": "UZ",
      "is_in:country": "Uzbekistan",
      "is_in:province": "Qaraqalpaqstan Respublikası",
      "is_in:country_code": "UZ"
    }
  },
  {
    "osm_id": -2095789,
    "boundary": "administrative",
    "admin_level": 6,
    "parents": "-196241,-196240",
    "name": "Chimbay",
    "local_name": "Shımbay rayonı",
    "name_en": "Chimbay",
    "all_tags": {
      "name": "Shımbay rayonı",
      "gns:dsg": "ADM2",
      "gns:uni": "515108",
      "name:en": "Chimbay",
      "name:it": "Distretto di Chimboy",
      "name:ms": "Daerah Chimboy",
      "name:ru": "Чимбайский район",
      "name:tr": "Çimbay İlçesi",
      "name:uk": "Чимбайський район",
      "name:ur": "چیمبای ضلع",
      "name:uz": "Chimboy Tumani",
      "boundary": "administrative",
      "name:pnb": "ضلع چمبائی",
      "way_area": "0.155464",
      "wikidata": "Q2609551",
      "wikipedia": "ru:Чимбайский район",
      "admin_level": "6",
      "addr:country": "UZ",
      "is_in:country": "Uzbekistan",
      "is_in:province": "Qaraqalpaqstan Respublikası",
      "is_in:country_code": "UZ"
    }
  },
  {
    "osm_id": -2095788,
    "boundary": "administrative",
    "admin_level": 6,
    "parents": "-196241,-196240",
    "name": "Kegeyli District",
    "local_name": "Kegeyli rayonı",
    "name_en": "Kegeyli District",
    "all_tags": {
      "name": "Kegeyli rayonı",
      "gns:dsg": "ADM2",
      "gns:uni": "515137",
      "name:en": "Kegeyli District",
      "name:it": "Distretto di Kegeyli",
      "name:ms": "Daerah Kegeyli",
      "name:ru": "Кегейлийский район",
      "name:uk": "Кеґейлійський район",
      "name:uz": "Kegeili Tumani",
      "boundary": "administrative",
      "way_area": "0.101495",
      "wikidata": "Q2609556",
      "wikipedia": "ru:Кегейлийский район",
      "admin_level": "6",
      "addr:country": "UZ",
      "is_in:country": "Uzbekistan",
      "is_in:province": "Qaraqalpaqstan Respublikası",
      "is_in:country_code": "UZ"
    }
  },
  {
    "osm_id": -2094540,
    "boundary": "administrative",
    "admin_level": 6,
    "parents": "-196241,-196240",
    "name": "Nókis rayonı",
    "local_name": "Nókis rayonı",
    "name_en": null,
    "all_tags": {
      "name": "Nókis rayonı",
      "gns:dsg": "ADM2",
      "gns:uni": "515153",
      "name:ru": "Нукусский район",
      "name:uz": "Nukus Tumani",
      "boundary": "administrative",
      "way_area": "0.104191",
      "wikidata": "Q2603584",
      "wikipedia": "ru:Нукусский_район",
      "admin_level": "6",
      "addr:country": "UZ",
      "is_in:country": "Uzbekistan",
      "is_in:province": "Qaraqalpaqstan Respublikası",
      "is_in:country_code": "UZ"
    }
  },
  {
    "osm_id": -2094524,
    "boundary": "administrative",
    "admin_level": 6,
    "parents": "-196241,-196240",
    "name": "Xojeli rayonı",
    "local_name": "Xojeli rayonı",
    "name_en": null,
    "all_tags": {
      "name": "Xojeli rayonı",
      "gns:dsg": "ADM2",
      "gns:uni": "515156",
      "name:ru": "Ходжейлийский район",
      "name:uk": "Ходжейлійський район",
      "name:uz": "Xo'jayli Tumani",
      "boundary": "administrative",
      "name:kaa": "Xojeli rayonı",
      "way_area": "0.0584157",
      "wikidata": "Q2603630",
      "wikipedia": "uz:Xoʻjayli tumani",
      "admin_level": "6",
      "addr:country": "UZ",
      "is_in:country": "Uzbekistan",
      "is_in:province": "Qaraqalpaqstan Respublikasi",
      "is_in:country_code": "UZ"
    }
  },
  {
    "osm_id": -2094502,
    "boundary": "administrative",
    "admin_level": 6,
    "parents": "-196241,-196240",
    "name": "Qanliko'l rayonı",
    "local_name": "Qanliko'l rayonı",
    "name_en": null,
    "all_tags": {
      "name": "Qanliko'l rayonı",
      "gns:dsg": "ADM2",
      "gns:uni": "515147",
      "name:ru": "Канликульский район",
      "name:uz": "Qanlikul Tumani",
      "boundary": "administrative",
      "way_area": "0.0842254",
      "wikidata": "Q2603644",
      "wikipedia": "ru:Канлыкульский район",
      "admin_level": "6",
      "addr:country": "UZ",
      "is_in:country": "Uzbekistan",
      "is_in:province": "Qaraqalpaqstan Respublikası",
      "is_in:country_code": "UZ"
    }
  },
  {
    "osm_id": -2094497,
    "boundary": "administrative",
    "admin_level": 6,
    "parents": "-196241,-196240",
    "name": "Shomanay rayonı",
    "local_name": "Shomanay rayonı",
    "name_en": null,
    "all_tags": {
      "name": "Shomanay rayonı",
      "gns:dsg": "ADM2",
      "gns:uni": "515143",
      "name:ru": "Шуманайский район",
      "name:uz": "Shumanay Tumani",
      "boundary": "administrative",
      "way_area": "0.0884246",
      "wikidata": "Q693197",
      "wikipedia": "ru:Шуманайский район",
      "admin_level": "6",
      "addr:country": "UZ",
      "is_in:country": "Uzbekistan",
      "is_in:province": "Qaraqalpaqstan Respublikası",
      "is_in:country_code": "UZ"
    }
  },
  {
    "osm_id": -2094483,
    "boundary": "administrative",
    "admin_level": 6,
    "parents": "-196241,-196240",
    "name": "Muynoq district",
    "local_name": "Moynaq rayoni",
    "name_en": "Muynoq district",
    "all_tags": {
      "name": "Moynaq rayoni",
      "gns:dsg": "ADM2",
      "gns:uni": "515089",
      "name:en": "Muynoq district",
      "name:ru": "Муйнакский район",
      "name:uk": "Муйнацький район",
      "name:uz": "Moynoq Tumani",
      "boundary": "administrative",
      "way_area": "4.25125",
      "wikidata": "Q2603621",
      "wikipedia": "ru:Муйнакский район",
      "addr:state": "Qaraqalpaqstan Respublikasi",
      "admin_level": "6",
      "addr:country": "UZ"
    }
  },
  {
    "osm_id": -2094349,
    "boundary": "administrative",
    "admin_level": 6,
    "parents": "-196241,-196240",
    "name": "Qon'irat rayonı",
    "local_name": "Qon'irat rayonı",
    "name_en": null,
    "all_tags": {
      "name": "Qon'irat rayonı",
      "gns:dsg": "ADM2",
      "gns:uni": "515067",
      "name:ru": "Кунградский район",
      "name:uk": "Кунґрадський район",
      "name:uz": "Qoʻngʻirot Tumani",
      "boundary": "administrative",
      "way_area": "8.44024",
      "wikidata": "Q2609569",
      "wikipedia": "ru:Кунградский район",
      "addr:state": "Qaraqalpaqstan Respublikası",
      "admin_level": "6",
      "addr:country": "UZ"
    }
  },
  {
    "osm_id": -1670974,
    "boundary": "administrative",
    "admin_level": 4,
    "parents": "-196240",
    "name": "Qashqadaryo Region",
    "local_name": "Qashqadaryo Viloyati",
    "name_en": "Qashqadaryo Region",
    "all_tags": {
      "name": "Qashqadaryo Viloyati",
      "name:de": "Provinz Qashqadaryo",
      "name:en": "Qashqadaryo Region",
      "name:es": "Provincia de Kashkadar",
      "name:fa": "استان کشکرود",
      "name:fr": "Province de Kachkadaria",
      "name:ja": "カシュカダリヤ州",
      "name:lt": "Kaškadarjos vilajetas",
      "name:pl": "Wilajet kaszkadaryjski",
      "name:ru": "Кашкадарьинская область",
      "name:uk": "Кашкадар'їнська область",
      "boundary": "administrative",
      "timezone": "Asia/Samarkand",
      "way_area": "2.9659",
      "wikidata": "Q487577",
      "ISO3166-2": "UZ-QA",
      "wikipedia": "ru:Кашкадарьинская область",
      "addr:region": "Qashqadaryo Viloyati",
      "admin_level": "4",
      "addr:country": "UZ",
      "addr:postcode": "180000",
      "is_in:country": "Uzbekistan",
      "is_in:continent": "Asia",
      "is_in:country_code": "UZ"
    }
  },
  {
    "osm_id": -1670973,
    "boundary": "administrative",
    "admin_level": 4,
    "parents": "-196240",
    "name": "Bukhara Region",
    "local_name": "Buxoro Viloyati",
    "name_en": "Bukhara Region",
    "all_tags": {
      "name": "Buxoro Viloyati",
      "name:ar": "ولاية بخارى",
      "name:de": "Provinz Buchara",
      "name:en": "Bukhara Region",
      "name:es": "Provincia de Bujara",
      "name:fa": "استان بخارا",
      "name:fr": "Province de Boukhara",
      "name:ja": "ブハラ州",
      "name:lt": "Bucharos vilajetas",
      "name:pl": "Wilajet bucharski",
      "name:ru": "Бухарская область",
      "name:ug": "بۇخارا ۋىلايىتى",
      "name:ur": "بخارا صوبہ",
      "boundary": "administrative",
      "name:azb": "بخارا ویلایت",
      "name:pnb": "صوبہ بخارا",
      "timezone": "Asia/Samarkand",
      "way_area": "4.2217",
      "wikidata": "Q487372",
      "ISO3166-2": "UZ-BU",
      "wikipedia": "ru:Бухарская область",
      "admin_level": "4",
      "is_in:country": "Uzbekistan",
      "is_in:continent": "Asia",
      "is_in:country_code": "UZ"
    }
  },
  {
    "osm_id": -196254,
    "boundary": "administrative",
    "admin_level": 4,
    "parents": "-196240",
    "name": "Jizzakh Region",
    "local_name": "Jizzax Viloyati",
    "name_en": "Jizzakh Region",
    "all_tags": {
      "name": "Jizzax Viloyati",
      "name:de": "Provinz Jizzax",
      "name:en": "Jizzakh Region",
      "name:es": "Provincia de Djizaks",
      "name:fr": "Province de Djizak",
      "name:ja": "ジザフ州",
      "name:lt": "Džizako vilajetas",
      "name:pl": "Wilajet dżyzacki",
      "name:ru": "Джизакская область",
      "name:uk": "Джізакська область",
      "boundary": "administrative",
      "timezone": "Asia/Tashkent",
      "way_area": "2.21676",
      "wikidata": "Q488811",
      "ISO3166-2": "UZ-JI",
      "wikipedia": "ru:Джизакская область",
      "admin_level": "4",
      "is_in:country": "Uzbekistan",
      "is_in:continent": "Asia",
      "is_in:country_code": "UZ"
    }
  },
  {
    "osm_id": -196253,
    "boundary": "administrative",
    "admin_level": 4,
    "parents": "-196240",
    "name": "Sirdaryo Region",
    "local_name": "Sirdaryo Viloyati",
    "name_en": "Sirdaryo Region",
    "all_tags": {
      "name": "Sirdaryo Viloyati",
      "name:de": "Provinz Sirdaryo",
      "name:en": "Sirdaryo Region",
      "name:fr": "Province de Syr-Daria",
      "name:ja": "シルダリヤ州",
      "name:pl": "Wilajet syrdaryjski",
      "name:ru": "Сырдарьинская область",
      "boundary": "administrative",
      "timezone": "Asia/Tashkent",
      "way_area": "0.449159",
      "wikidata": "Q487547",
      "ISO3166-2": "UZ-SI",
      "wikipedia": "en:Sirdaryo Region",
      "admin_level": "4"
    }
  },
  {
    "osm_id": -196251,
    "boundary": "administrative",
    "admin_level": 4,
    "parents": "-196240",
    "name": "Tashkent Region",
    "local_name": "Toshkent Viloyati",
    "name_en": "Tashkent Region",
    "all_tags": {
      "name": "Toshkent Viloyati",
      "name:de": "Provinz Taschkent",
      "name:en": "Tashkent Region",
      "name:fr": "Province de Tachkent",
      "name:ja": "タシュケント州",
      "name:pl": "Wilajet taszkencki",
      "name:ru": "Ташкентская область",
      "boundary": "administrative",
      "timezone": "Asia/Tashkent",
      "way_area": "1.62978",
      "wikidata": "Q487585",
      "ISO3166-2": "UZ-TO",
      "wikipedia": "ru:Ташкентская область",
      "admin_level": "4"
    }
  },
  {
    "osm_id": -196249,
    "boundary": "administrative",
    "admin_level": 4,
    "parents": "-196240",
    "name": "Samarqand Region",
    "local_name": "Samarqand Viloyati",
    "name_en": "Samarqand Region",
    "all_tags": {
      "name": "Samarqand Viloyati",
      "name:de": "Provinz Samarkand",
      "name:en": "Samarqand Region",
      "name:es": "Provincia de Samarcanda",
      "name:fa": "استان سمرقند",
      "name:fr": "Province de Samarcande",
      "name:ja": "サマルカンド州",
      "name:lt": "Samarkando vilajetas",
      "name:pl": "Wilajet samarkandzki",
      "name:ru": "Самаркандская область",
      "name:uk": "Самаркандська область",
      "boundary": "administrative",
      "timezone": "Asia/Samarkand",
      "way_area": "1.7404",
      "wikidata": "Q487532",
      "ISO3166-2": "UZ-SA",
      "wikipedia": "ru:Самаркандская область",
      "addr:region": "Samarqand Viloyati",
      "admin_level": "4",
      "addr:country": "UZ",
      "addr:postcode": "140000",
      "is_in:country": "Uzbekistan",
      "is_in:continent": "Asia",
      "is_in:country_code": "UZ"
    }
  },
  {
    "osm_id": -196248,
    "boundary": "administrative",
    "admin_level": 4,
    "parents": "-196240",
    "name": "Surxondaryo Region",
    "local_name": "Surxondaryo Viloyati",
    "name_en": "Surxondaryo Region",
    "all_tags": {
      "name": "Surxondaryo Viloyati",
      "name:de": "Provinz Surxondaryo",
      "name:en": "Surxondaryo Region",
      "name:es": "Provincia de Surjandarín",
      "name:fa": "استان سُرخان‌دریا",
      "name:fr": "Province de Sourkhan-Daria",
      "name:ja": "スルハンダリヤ州",
      "name:lt": "Surchandarjos vilajetas",
      "name:pl": "Wilajet surchandaryjski",
      "name:ru": "Сурхандарьинская область",
      "boundary": "administrative",
      "timezone": "Asia/Samarkand",
      "way_area": "2.05388",
      "wikidata": "Q487537",
      "ISO3166-2": "UZ-SU",
      "wikipedia": "ru:Сурхандарьинская область",
      "admin_level": "4",
      "is_in:country": "Uzbekistan",
      "is_in:continent": "Asia",
      "is_in:country_code": "UZ"
    }
  },
  {
    "osm_id": -196246,
    "boundary": "administrative",
    "admin_level": 4,
    "parents": "-196240",
    "name": "Navoiy Region",
    "local_name": "Navoiy Viloyati",
    "name_en": "Navoiy Region",
    "all_tags": {
      "name": "Navoiy Viloyati",
      "name:de": "Provinz Navoiy",
      "name:en": "Navoiy Region",
      "name:es": "Provincia de Navoi",
      "name:fa": "استان نوایی",
      "name:fr": "Province de Navoï",
      "name:ja": "ナヴァーイー州",
      "name:ko": "나보이 주",
      "name:lt": "Navojo vilajetas",
      "name:pl": "Wilajet nawojski",
      "name:ru": "Навоийская область",
      "name:uk": "Навоїська область",
      "name:uz": "Navoiy Viloyati",
      "boundary": "administrative",
      "timezone": "Asia/Samarkand",
      "way_area": "12.0041",
      "wikidata": "Q487570",
      "ISO3166-2": "UZ-NW",
      "wikipedia": "uz:Navoiy viloyati",
      "admin_level": "4",
      "is_in:country": "Uzbekistan",
      "is_in:continent": "Asia",
      "is_in:country_code": "UZ"
    }
  },
  {
    "osm_id": -196242,
    "boundary": "administrative",
    "admin_level": 4,
    "parents": "-196240",
    "name": "Xorazm Region",
    "local_name": "Xorazm Viloyati",
    "name_en": "Xorazm Region",
    "all_tags": {
      "name": "Xorazm Viloyati",
      "name:de": "Provinz Xorazm",
      "name:en": "Xorazm Region",
      "name:es": "Provincia de Corasmia",
      "name:fa": "استان خوارزم",
      "name:fr": "Province de Khorezm",
      "name:ja": "ホラズム州",
      "name:pl": "Wilajet chorezmijski",
      "name:ru": "Хорезмская область",
      "boundary": "administrative",
      "timezone": "Asia/Samarkand",
      "way_area": "0.710348",
      "wikidata": "Q487561",
      "ISO3166-2": "UZ-XO",
      "wikipedia": "ru:Хорезмская область",
      "admin_level": "4",
      "is_in:country": "Uzbekistan",
      "is_in:continent": "Asia",
      "is_in:country_code": "UZ"
    }
  },
  {
    "osm_id": -196241,
    "boundary": "administrative",
    "admin_level": 4,
    "parents": "-196240",
    "name": "Republic of Karakalpakstan",
    "local_name": "Qaraqalpaqstan Respublikası",
    "name_en": "Republic of Karakalpakstan",
    "all_tags": {
      "name": "Qaraqalpaqstan Respublikası",
      "int_ref": "UZ-QR",
      "name:de": "Republik Karakalpakistan",
      "name:en": "Republic of Karakalpakstan",
      "name:es": "Republica Autónoma de Karakalpakistan",
      "name:fa": "جمهوری قره قالپاقستان",
      "name:fr": "République du Karakalpakistan",
      "name:ja": "カラカルパクスタン共和国",
      "name:lt": "Karakalpakistano Respublika",
      "name:nl": "Karakalpakië",
      "name:pl": "Karakałpacja",
      "name:ru": "Республика Каракалпакстан",
      "name:uk": "Республіка Каракалпакстан.",
      "name:uz": "Qoraqalpogʻiston Respublikasi",
      "boundary": "administrative",
      "name:kaa": "Qaraqalpaqstan Respublikası",
      "timezone": "Asia/Samarkand",
      "way_area": "18.5033",
      "wikidata": "Q484245",
      "ISO3166-2": "UZ-QR",
      "wikipedia": "kaa:Qaraqalpaqstan",
      "admin_level": "4",
      "alt_name:kaa": "Каракалпакстан Республикаси",
      "is_in:country": "Uzbekistan",
      "is_in:continent": "Asia",
      "official_name:pl": "Republika Karakałpacka",
      "is_in:country_code": "UZ"
    }
  },
  {
    "osm_id": -178018,
    "boundary": "administrative",
    "admin_level": 4,
    "parents": "-196240",
    "name": "Fergana Region",
    "local_name": "Farg'ona Viloyati",
    "name_en": "Fergana Region",
    "all_tags": {
      "name": "Farg'ona Viloyati",
      "name:ar": "ولاية فرغانة",
      "name:de": "Provinz Fargʻona",
      "name:el": "επαρχία Φεργκάνα",
      "name:en": "Fergana Region",
      "name:es": "Provincia de Ferganá",
      "name:fa": "ولایت فرغانه",
      "name:fr": "Province de Ferghana",
      "name:ja": "フェルガナ州",
      "name:pa": "ਫ਼ਰਗਨਾ ਖੇਤਰ",
      "name:pl": "Wilajet fergański",
      "name:ru": "Ферганская область",
      "name:ug": "پەرغانە ۋىلايىتى",
      "name:ur": "فرغانہ صوبہ",
      "name:uz": "Farg'ona Viloyati",
      "boundary": "administrative",
      "name:azb": "فرغانه ویلایت",
      "name:pnb": "صوبہ فرغانہ",
      "timezone": "Asia/Tashkent",
      "way_area": "0.704395",
      "wikidata": "Q487089",
      "ISO3166-2": "UZ-FA",
      "wikipedia": "uz:Fargʻona viloyati",
      "population": "3229200",
      "admin_level": "4",
      "name:az-Arab": "فرغانه ویلایت",
      "name:pa-Arab": "صوبہ فرغانہ"
    }
  },
  {
    "osm_id": -178017,
    "boundary": "administrative",
    "admin_level": 4,
    "parents": "-196240",
    "name": "Namangan Region",
    "local_name": "Namangan Viloyati",
    "name_en": "Namangan Region",
    "all_tags": {
      "name": "Namangan Viloyati",
      "name:ar": "ولاية نمنكان",
      "name:de": "Provinz Namangan",
      "name:en": "Namangan Region",
      "name:fr": "Province de Namangan",
      "name:ja": "ナマンガン州",
      "name:pl": "Wilajet namangański",
      "name:ru": "Наманганская область",
      "boundary": "administrative",
      "timezone": "Asia/Tashkent",
      "way_area": "0.787462",
      "wikidata": "Q474876",
      "ISO3166-2": "UZ-NG",
      "wikipedia": "ru:Наманганская область",
      "admin_level": "4",
      "alt_name:ar": "ولاية نمنغان"
    }
  },
  {
    "osm_id": -178016,
    "boundary": "administrative",
    "admin_level": 4,
    "parents": "-196240",
    "name": "Andijan Region",
    "local_name": "Andijon Viloyati",
    "name_en": "Andijan Region",
    "all_tags": {
      "name": "Andijon Viloyati",
      "int_ref": "UZ-AN",
      "name:de": "Provinz Andijon",
      "name:en": "Andijan Region",
      "name:fr": "Province d'Andijan",
      "name:ja": "アンディジャン州",
      "name:pl": "Wilajet andiżański",
      "name:ru": "Андижанская область",
      "boundary": "administrative",
      "timezone": "Asia/Tashkent",
      "way_area": "0.45042",
      "wikidata": "Q487384",
      "ISO3166-2": "UZ-AN",
      "wikipedia": "ru:Андижанская область",
      "admin_level": "4"
    }
  }
]
