[
  {
    "osm_id": -7426353,
    "boundary": "administrative",
    "admin_level": 6,
    "parents": "-2088990",
    "name": "Municipality of North Mitrovica",
    "local_name": "Opština Severna Kosovska Mitrovica / Komuna e Mitrovicës Veriore",
    "name_en": "Municipality of North Mitrovica",
    "all_tags": {
      "name": "Opština Severna Kosovska Mitrovica / Komuna e Mitrovicës Veriore",
      "place": "municipality",
      "name:de": "Gemeinde Nord-Mitrovica",
      "name:en": "Municipality of North Mitrovica",
      "name:sq": "Komuna e Mitrovicës Veriore",
      "name:sr": "Општина Северна Косовска Митровица",
      "boundary": "administrative",
      "way_area": "0.000602006",
      "admin_level": "6",
      "name:sr-Latn": "Opština Severna Kosovska Mitrovica"
    }
  },
  {
    "osm_id": -6903238,
    "boundary": "administrative",
    "admin_level": 6,
    "parents": "-2088990",
    "name": "Municipality of Ranilug / Ranillug",
    "local_name": "Opština Ranilug / Komuna e Ranillugut",
    "name_en": "Municipality of Ranilug / Ranillug",
    "all_tags": {
      "name": "Opština Ranilug / Komuna e Ranillugut",
      "place": "municipality",
      "name:de": "Gemeinde Ranilug",
      "name:en": "Municipality of Ranilug / Ranillug",
      "name:sq": "Komuna e Ranillugut",
      "name:sr": "Општина Ранилуг",
      "boundary": "administrative",
      "way_area": "0.00850241",
      "wikidata": "Q15529552",
      "population": "3866",
      "admin_level": "6"
    }
  },
  {
    "osm_id": -6901844,
    "boundary": "administrative",
    "admin_level": 6,
    "parents": "-2088990",
    "name": "Municipality of Parteš",
    "local_name": "Opština Parteš / Komuna e Parteshit",
    "name_en": "Municipality of Parteš",
    "all_tags": {
      "name": "Opština Parteš / Komuna e Parteshit",
      "place": "municipality",
      "name:de": "Gemeinde Parteš",
      "name:en": "Municipality of Parteš",
      "name:sq": "Komuna e Parteshit",
      "name:sr": "Општина Партеш",
      "boundary": "administrative",
      "way_area": "0.00313546",
      "wikidata": "Q2605602",
      "population": "1787",
      "admin_level": "6",
      "name:sr-Latn": "Opština Parteš"
    }
  },
  {
    "osm_id": -6901841,
    "boundary": "administrative",
    "admin_level": 6,
    "parents": "-2088990",
    "name": "Municipality of Klokot",
    "local_name": "Komuna e Kllokotit / Opština Klokot",
    "name_en": "Municipality of Klokot",
    "all_tags": {
      "name": "Komuna e Kllokotit / Opština Klokot",
      "place": "municipality",
      "name:de": "Gemeinde Kllokot",
      "name:en": "Municipality of Klokot",
      "name:sq": "Komuna e Kllokotit",
      "name:sr": "Општина Клокот",
      "boundary": "administrative",
      "way_area": "0.00255593",
      "wikidata": "Q860171",
      "population": "2556",
      "admin_level": "6",
      "postal_code": "61050",
      "name:sr-Latn": "Opština Klokot"
    }
  },
  {
    "osm_id": -6901830,
    "boundary": "administrative",
    "admin_level": 6,
    "parents": "-2088990",
    "name": "Municipality of Gračanica / Graçanica",
    "local_name": "Opština Gračanica / Komuna e Graçanicës / E Gracanicaki Komuna",
    "name_en": "Municipality of Gračanica / Graçanica",
    "all_tags": {
      "name": "Opština Gračanica / Komuna e Graçanicës / E Gracanicaki Komuna",
      "place": "municipality",
      "name:de": "Gemeinde Gračanica",
      "name:en": "Municipality of Gračanica / Graçanica",
      "name:sq": "Komuna e Graçanicës",
      "name:sr": "Општина Грачаница",
      "name:tr": "E Gracanicaki Komuna",
      "boundary": "administrative",
      "way_area": "0.0134248",
      "wikidata": "Q3655958",
      "population": "10675",
      "admin_level": "6"
    }
  },
  {
    "osm_id": -1332198,
    "boundary": "administrative",
    "admin_level": 6,
    "parents": "-2088990",
    "name": "Municipality of Dragash / Dragaš",
    "local_name": "Komuna e Dragashit / Opština Dragaš",
    "name_en": "Municipality of Dragash / Dragaš",
    "all_tags": {
      "name": "Komuna e Dragashit / Opština Dragaš",
      "place": "municipality",
      "name:de": "Gemeinde Dragash",
      "name:en": "Municipality of Dragash / Dragaš",
      "name:fa": "دراگاش",
      "name:mk": "Општина Драгаш",
      "name:sq": "Komuna e Dragashit",
      "name:sr": "Општина Драгаш",
      "boundary": "administrative",
      "way_area": "0.0471619",
      "wikidata": "Q3191420",
      "population": "33997",
      "admin_level": "6",
      "alt_name:sq": "Komuna e Sharrit"
    }
  },
  {
    "osm_id": -1332197,
    "boundary": "administrative",
    "admin_level": 6,
    "parents": "-2088990",
    "name": "Municipality of Elez Han",
    "local_name": "Komuna e Han i Elezit / Opština Elez Han",
    "name_en": "Municipality of Elez Han",
    "all_tags": {
      "name": "Komuna e Han i Elezit / Opština Elez Han",
      "place": "municipality",
      "name:de": "Gemeinde Han i Elezit",
      "name:en": "Municipality of Elez Han",
      "name:mk": "Општина Генерал Јанковиќ",
      "name:sq": "Komuna e Han i Elezit",
      "name:sr": "Општина Елез Хан",
      "boundary": "administrative",
      "way_area": "0.00905309",
      "wikidata": "Q2347012",
      "population": "9403",
      "admin_level": "6",
      "postal_code": "71510",
      "name:sr-Latn": "Opština Elez Han",
      "old_name:sr:2008-2012": "Општина Ђенерал Јанковић",
      "old_name:sr-Latn:2008-2012": "Opština Đeneral Janković"
    }
  },
  {
    "osm_id": -1332196,
    "boundary": "administrative",
    "admin_level": 6,
    "parents": "-2088990",
    "name": "Municipality of Orahovac",
    "local_name": "Komuna e Rahovecit / Opština Orahovac",
    "name_en": "Municipality of Orahovac",
    "all_tags": {
      "name": "Komuna e Rahovecit / Opština Orahovac",
      "place": "municipality",
      "name:de": "Gemeinde Rahovec",
      "name:el": "Δήμος Οράχοβατς",
      "name:en": "Municipality of Orahovac",
      "name:sq": "Komuna e Rahovecit",
      "name:sr": "Општина Ораховац",
      "boundary": "administrative",
      "way_area": "0.0301769",
      "wikidata": "Q794039",
      "population": "56208",
      "admin_level": "6",
      "name:sr-Latn": "Opština Orahovac"
    }
  },
  {
    "osm_id": -1332195,
    "boundary": "administrative",
    "admin_level": 6,
    "parents": "-2088990",
    "name": "Municipality of Zvečan",
    "local_name": "Opština Zvečan / Komuna e Zveçanit",
    "name_en": "Municipality of Zvečan",
    "all_tags": {
      "name": "Opština Zvečan / Komuna e Zveçanit",
      "place": "municipality",
      "name:de": "Gemeinde Zvečan",
      "name:en": "Municipality of Zvečan",
      "name:sq": "Komuna e Zveçanit",
      "name:sr": "Општина Звечан",
      "boundary": "administrative",
      "way_area": "0.0135752",
      "population": "7481",
      "admin_level": "6",
      "name:sr-Latn": "Opština Zvečan"
    }
  },
  {
    "osm_id": -1332194,
    "boundary": "administrative",
    "admin_level": 6,
    "parents": "-2088990",
    "name": "Municipality of Vitina",
    "local_name": "Komuna e Vitisë / Opština Vitina",
    "name_en": "Municipality of Vitina",
    "all_tags": {
      "name": "Komuna e Vitisë / Opština Vitina",
      "name:de": "Gemeinde Viti",
      "name:en": "Municipality of Vitina",
      "name:sq": "Komuna e Vitisë",
      "name:sr": "Општина Витина",
      "boundary": "administrative",
      "way_area": "0.0294597",
      "wikidata": "Q860303",
      "population": "46987",
      "admin_level": "6",
      "postal_code": "61000"
    }
  },
  {
    "osm_id": -1332193,
    "boundary": "administrative",
    "admin_level": 6,
    "parents": "-2088990",
    "name": "Municipality of Prizren",
    "local_name": "Komuna e Prizrenit / Opština Prizren / Prizren Belediyesi",
    "name_en": "Municipality of Prizren",
    "all_tags": {
      "name": "Komuna e Prizrenit / Opština Prizren / Prizren Belediyesi",
      "place": "municipality",
      "name:de": "Gemeinde Prizren",
      "name:el": "Δήμος Πρίζρεν",
      "name:en": "Municipality of Prizren",
      "name:ru": "Призренский округ",
      "name:sq": "Komuna e Prizrenit",
      "name:sr": "Општина Призрен",
      "name:tr": "Prizren Belediyesi",
      "boundary": "administrative",
      "way_area": "0.0683497",
      "wikidata": "Q2507200",
      "population": "177781",
      "admin_level": "6",
      "name:sr-Latn": "Opština Prizren"
    }
  },
  {
    "osm_id": -1332192,
    "boundary": "administrative",
    "admin_level": 6,
    "parents": "-2088990",
    "name": "Municipality of Ferizaj",
    "local_name": "Komuna e Ferizajt / Opština Uroševac",
    "name_en": "Municipality of Ferizaj",
    "all_tags": {
      "name": "Komuna e Ferizajt / Opština Uroševac",
      "place": "municipality",
      "name:de": "Gemeinde Ferizaj",
      "name:en": "Municipality of Ferizaj",
      "name:sq": "Komuna e Ferizajit",
      "name:sr": "Општина Урошевац",
      "boundary": "administrative",
      "way_area": "0.0376736",
      "wikidata": "Q868964",
      "population": "108610",
      "admin_level": "6",
      "name:sr-Latn": "Opština Uroševac"
    }
  },
  {
    "osm_id": -1332191,
    "boundary": "administrative",
    "admin_level": 6,
    "parents": "-2088990",
    "name": "Municipality of Junik",
    "local_name": "Komuna e Junikut / Opština Junik",
    "name_en": "Municipality of Junik",
    "all_tags": {
      "name": "Komuna e Junikut / Opština Junik",
      "place": "municipality",
      "name:de": "Gemeinde Junik",
      "name:en": "Municipality of Junik",
      "name:sq": "Komuna e Junikut",
      "name:sr": "Општина Јуник",
      "boundary": "administrative",
      "way_area": "0.00851772",
      "wikidata": "Q794068",
      "population": "6048",
      "admin_level": "6",
      "postal_code": "51050"
    }
  },
  {
    "osm_id": -1332190,
    "boundary": "administrative",
    "admin_level": 6,
    "parents": "-2088990",
    "name": "Municipality of Fushë Kosovë / Kosovo Polje",
    "local_name": "Komuna e Fushë Kosovës / Opština Kosovo Polje",
    "name_en": "Municipality of Fushë Kosovë / Kosovo Polje",
    "all_tags": {
      "name": "Komuna e Fushë Kosovës / Opština Kosovo Polje",
      "place": "municipality",
      "name:de": "Gemeinde Fushë Kosova",
      "name:en": "Municipality of Fushë Kosovë / Kosovo Polje",
      "name:fa": "فوشیو کوسوفا",
      "name:sq": "Komuna e Fushë Kosovës",
      "name:sr": "Општина Косово Поље",
      "boundary": "administrative",
      "way_area": "0.00922849",
      "wikidata": "Q2447449",
      "population": "34827",
      "admin_level": "6"
    }
  },
  {
    "osm_id": -1332188,
    "boundary": "administrative",
    "admin_level": 6,
    "parents": "-2088990",
    "name": "Municipality of Lipljan",
    "local_name": "Komuna e Lipjanit / Opština Lipljan",
    "name_en": "Municipality of Lipljan",
    "all_tags": {
      "name": "Komuna e Lipjanit / Opština Lipljan",
      "place": "municipality",
      "name:de": "Gemeinde Lipjan",
      "name:en": "Municipality of Lipljan",
      "name:sq": "Komuna e Lipjanit",
      "name:sr": "Општина Липљан",
      "boundary": "administrative",
      "way_area": "0.0370814",
      "wikidata": "Q16036965",
      "population": "57605",
      "admin_level": "6"
    }
  },
  {
    "osm_id": -1332187,
    "boundary": "administrative",
    "admin_level": 6,
    "parents": "-2088990",
    "name": "Municipality of Peja",
    "local_name": "Komuna e Pejës / Opština Peć",
    "name_en": "Municipality of Peja",
    "all_tags": {
      "name": "Komuna e Pejës / Opština Peć",
      "place": "municipality",
      "name:de": "Gemeinde Peja",
      "name:el": "Δήμος Πετς",
      "name:en": "Municipality of Peja",
      "name:sq": "Komuna e Pejës",
      "name:sr": "Општина Пећ",
      "boundary": "administrative",
      "way_area": "0.06619",
      "wikidata": "Q2507287",
      "population": "96450",
      "admin_level": "6",
      "name:sr-Latn": "Opština Peć"
    }
  },
  {
    "osm_id": -1332183,
    "boundary": "administrative",
    "admin_level": 6,
    "parents": "-2088990",
    "name": "Municipality of Skenderaj",
    "local_name": "Komuna e Skënderajt / Opština Srbica",
    "name_en": "Municipality of Skenderaj",
    "all_tags": {
      "name": "Komuna e Skënderajt / Opština Srbica",
      "place": "municipality",
      "name:de": "Gemeinde Skënderaj",
      "name:el": "Δήμος Σρμπιτσα",
      "name:en": "Municipality of Skenderaj",
      "name:sq": "Komuna e Skënderajt",
      "name:sr": "Општина Србица",
      "boundary": "administrative",
      "way_area": "0.0411647",
      "wikidata": "Q2043122",
      "population": "50858",
      "admin_level": "6",
      "name:sr-Latn": "Opština Srbica"
    }
  },
  {
    "osm_id": -1332182,
    "boundary": "administrative",
    "admin_level": 6,
    "parents": "-2088990",
    "name": "Municipality of Podujeva / Podujevo",
    "local_name": "Komuna e Podujevës / Opština Podujevo",
    "name_en": "Municipality of Podujeva / Podujevo",
    "all_tags": {
      "name": "Komuna e Podujevës / Opština Podujevo",
      "place": "municipality",
      "name:de": "Gemeinde Podujeva",
      "name:el": "Δήμος Ποντούγιεβο",
      "name:en": "Municipality of Podujeva / Podujevo",
      "name:sq": "Komuna e Podujevës",
      "name:sr": "Општина Подујево",
      "boundary": "administrative",
      "way_area": "0.069758",
      "wikidata": "Q860399",
      "population": "88499",
      "admin_level": "6"
    }
  },
  {
    "osm_id": -1332181,
    "boundary": "administrative",
    "admin_level": 6,
    "parents": "-2088990",
    "name": "Municipality of Pristina",
    "local_name": "Komuna e Prishtinës / Opština Priština",
    "name_en": "Municipality of Pristina",
    "all_tags": {
      "name": "Komuna e Prishtinës / Opština Priština",
      "name:de": "Gemeinde Pristina",
      "name:en": "Municipality of Pristina",
      "name:sq": "Komuna e Prishtinës",
      "name:sr": "Општина Приштина",
      "boundary": "administrative",
      "way_area": "0.0574852",
      "wikidata": "Q3625575",
      "population": "198897",
      "admin_level": "6",
      "name:sr-Latn": "Opština Priština"
    }
  },
  {
    "osm_id": -1332180,
    "boundary": "administrative",
    "admin_level": 6,
    "parents": "-2088990",
    "name": "Municipality of Kaçanik",
    "local_name": "Komuna e Kaçanikut / Opština Kačanik",
    "name_en": "Municipality of Kaçanik",
    "all_tags": {
      "name": "Komuna e Kaçanikut / Opština Kačanik",
      "place": "municipality",
      "name:de": "Gemeinde Kaçanik",
      "name:en": "Municipality of Kaçanik",
      "name:sq": "Komuna e Kaçanikut",
      "name:sr": "Општина Качаник",
      "boundary": "administrative",
      "way_area": "0.0230414",
      "wikidata": "Q2043130",
      "population": "33409",
      "admin_level": "6",
      "postal_code": "71000",
      "name:sr-Latn": "Opština Kačanik"
    }
  },
  {
    "osm_id": -1332179,
    "boundary": "administrative",
    "admin_level": 6,
    "parents": "-2088990",
    "name": "Municipality of Klina",
    "local_name": "Komuna e Klinës / Opština Klina",
    "name_en": "Municipality of Klina",
    "all_tags": {
      "name": "Komuna e Klinës / Opština Klina",
      "place": "municipality",
      "name:de": "Gemeinde Klina",
      "name:el": "Δήμος Κλίνα",
      "name:en": "Municipality of Klina",
      "name:sq": "Komuna e Klinës",
      "name:sr": "Општина Клина",
      "boundary": "administrative",
      "way_area": "0.0339096",
      "wikidata": "Q860157",
      "population": "38496",
      "admin_level": "6",
      "name:sr-Latn": "Opština Klina"
    }
  },
  {
    "osm_id": -1332178,
    "boundary": "administrative",
    "admin_level": 6,
    "parents": "-2088990",
    "name": "Municipality of Obiliq / Obilić",
    "local_name": "Komuna e Obiliqit / Opština Obilić",
    "name_en": "Municipality of Obiliq / Obilić",
    "all_tags": {
      "name": "Komuna e Obiliqit / Opština Obilić",
      "place": "municipality",
      "name:de": "Gemeinde Obiliq",
      "name:en": "Municipality of Obiliq / Obilić",
      "name:sq": "Komuna e Obiliqit",
      "name:sr": "Општина Обилић",
      "boundary": "administrative",
      "way_area": "0.0115215",
      "wikidata": "Q4329229",
      "population": "21549",
      "admin_level": "6",
      "postal_code": "15000",
      "name:sr-Latn": "Opština Obilić",
      "is_in:country": "Republic of Kosovo"
    }
  },
  {
    "osm_id": -1332177,
    "boundary": "administrative",
    "admin_level": 6,
    "parents": "-2088990",
    "name": "Municipality of Novo Brdo / Novobërdë",
    "local_name": "Opština Novo Brdo / Komuna e Novobërdës",
    "name_en": "Municipality of Novo Brdo / Novobërdë",
    "all_tags": {
      "name": "Opština Novo Brdo / Komuna e Novobërdës",
      "place": "municipality",
      "name:de": "Gemeinde Novo Brdo",
      "name:en": "Municipality of Novo Brdo / Novobërdë",
      "name:sq": "Komuna e Novobërdës",
      "name:sr": "Општина Ново Брдо",
      "boundary": "administrative",
      "way_area": "0.0223657",
      "wikidata": "Q6081267",
      "population": "6729",
      "admin_level": "6",
      "postal_code": "16000"
    }
  },
  {
    "osm_id": -1332176,
    "boundary": "administrative",
    "admin_level": 6,
    "parents": "-2088990",
    "name": "Municipality of Leposavić",
    "local_name": "Opština Leposavić / Komuna e Leposaviqit",
    "name_en": "Municipality of Leposavić",
    "all_tags": {
      "name": "Opština Leposavić / Komuna e Leposaviqit",
      "place": "municipality",
      "name:de": "Gemeinde Leposavić",
      "name:el": "Δήμος Λεποσάβιτς",
      "name:en": "Municipality of Leposavić",
      "name:sq": "Komuna e Leposaviqit",
      "name:sr": "Општина Лепосавић",
      "boundary": "administrative",
      "way_area": "0.0596378",
      "wikidata": "Q2048354",
      "population": "13773",
      "admin_level": "6",
      "alt_name:sq": "Komuna e Albanikut",
      "name:sr-Latn": "Opština Leposavić"
    }
  },
  {
    "osm_id": -1332175,
    "boundary": "administrative",
    "admin_level": 6,
    "parents": "-2088990",
    "name": "Municipality of Štimlje",
    "local_name": "Komuna e Shtimes / Opština Štimlje",
    "name_en": "Municipality of Štimlje",
    "all_tags": {
      "name": "Komuna e Shtimes / Opština Štimlje",
      "place": "municipality",
      "name:de": "Gemeinde Shtime",
      "name:en": "Municipality of Štimlje",
      "name:sq": "Komuna e Shtimes",
      "name:sr": "Општина Штимље",
      "boundary": "administrative",
      "way_area": "0.01471",
      "wikidata": "Q4526883",
      "population": "27324",
      "admin_level": "6",
      "postal_code": "72000",
      "name:sr-Latn": "Opština Štimlje"
    }
  },
  {
    "osm_id": -1332174,
    "boundary": "administrative",
    "admin_level": 6,
    "parents": "-2088990",
    "name": "Municipality of Mamuša",
    "local_name": "Mamuşa Belediyesi / Komuna e Mamushës",
    "name_en": "Municipality of Mamuša",
    "all_tags": {
      "name": "Mamuşa Belediyesi / Komuna e Mamushës",
      "place": "municipality",
      "name:de": "Gemeinde Mamusha",
      "name:el": "Δήμος Μάμουσα",
      "name:en": "Municipality of Mamuša",
      "name:sq": "Komuna e Mamushës",
      "name:sr": "Општина Мамуша",
      "boundary": "administrative",
      "way_area": "0.00119556",
      "wikidata": "Q794116",
      "population": "5507",
      "admin_level": "6",
      "postal_code": "20520",
      "name:sr-Latn": "Optšina Mamuša"
    }
  },
  {
    "osm_id": -1332173,
    "boundary": "administrative",
    "admin_level": 6,
    "parents": "-2088990",
    "name": "Municipality of Zubin Potok",
    "local_name": "Opština Zubin Potok / Komuna e Zubin Potokut",
    "name_en": "Municipality of Zubin Potok",
    "all_tags": {
      "name": "Opština Zubin Potok / Komuna e Zubin Potokut",
      "place": "municipality",
      "name:de": "Gemeinde Zubin Potok",
      "name:el": "Δήμος Ζουμπίν Πότοκ",
      "name:en": "Municipality of Zubin Potok",
      "name:sq": "Komuna e Zubin Potokut",
      "name:sr": "Општина Зубин Поток",
      "boundary": "administrative",
      "way_area": "0.036874",
      "wikidata": "Q2500688",
      "population": "6616",
      "admin_level": "6",
      "name:sr-Latn": "Opština Zubin Potok"
    }
  },
  {
    "osm_id": -1332172,
    "boundary": "administrative",
    "admin_level": 6,
    "parents": "-2088990",
    "name": "Municipality of Gjilan / Gnjilane",
    "local_name": "Komuna e Gjilanit / Opština Gnjilane / Gilan Belediyesi",
    "name_en": "Municipality of Gjilan / Gnjilane",
    "all_tags": {
      "name": "Komuna e Gjilanit / Opština Gnjilane / Gilan Belediyesi",
      "place": "municipality",
      "name:de": "Gemeinde Gjilan",
      "name:en": "Municipality of Gjilan / Gnjilane",
      "name:sq": "Komuna e Gjilanit",
      "name:sr": "Општина Гњилане",
      "name:tr": "Gilan Belediyesi",
      "boundary": "administrative",
      "way_area": "0.0428728",
      "wikidata": "Q2513453",
      "population": "90178",
      "admin_level": "6",
      "name:sr-Latn": "Opština Gnjilane"
    }
  },
  {
    "osm_id": -1332171,
    "boundary": "administrative",
    "admin_level": 6,
    "parents": "-2088990",
    "name": "Municipality of Štrpce",
    "local_name": "Komuna e Shtërpcës / Opština Štrpce",
    "name_en": "Municipality of Štrpce",
    "all_tags": {
      "name": "Komuna e Shtërpcës / Opština Štrpce",
      "place": "municipality",
      "name:de": "Gemeinde Shtërpca",
      "name:en": "Municipality of Štrpce",
      "name:mk": "Општина Штрпце",
      "name:sq": "Komuna e Shtërpcës",
      "name:sr": "Општина Штрпце",
      "boundary": "administrative",
      "way_area": "0.027021",
      "wikidata": "Q2043155",
      "population": "6949",
      "admin_level": "6",
      "postal_code": "73000",
      "name:sr-Latn": "Opština Štrpce"
    }
  },
  {
    "osm_id": -1332170,
    "boundary": "administrative",
    "admin_level": 6,
    "parents": "-2088990",
    "name": "Municipality of Deçan / Dečane",
    "local_name": "Komuna e Deçanit / Opština Dečane",
    "name_en": "Municipality of Deçan / Dečane",
    "all_tags": {
      "name": "Komuna e Deçanit / Opština Dečane",
      "place": "municipality",
      "name:de": "Gemeinde Deçan",
      "name:en": "Municipality of Deçan / Dečane",
      "name:fa": "دچانی",
      "name:sq": "Komuna e Deçanit",
      "name:sr": "Општина Дечане",
      "boundary": "administrative",
      "way_area": "0.0322293",
      "wikidata": "Q860148",
      "population": "40019",
      "admin_level": "6",
      "postal_code": "51000",
      "name:sr-Latn": "Opština Dečane"
    }
  },
  {
    "osm_id": -1332169,
    "boundary": "administrative",
    "admin_level": 6,
    "parents": "-2088990",
    "name": "Municipality of Gjakova",
    "local_name": "Komuna e Gjakovës / Opština Ðakovica",
    "name_en": "Municipality of Gjakova",
    "all_tags": {
      "name": "Komuna e Gjakovës / Opština Ðakovica",
      "place": "municipality",
      "name:de": "Gemeinde Gjakova",
      "name:el": "Δήμος Τζακόβιτσα",
      "name:en": "Municipality of Gjakova",
      "name:mk": "Општина Ѓаковица",
      "name:sq": "Komuna e Gjakovës",
      "name:sr": "Општина Ђаковица",
      "boundary": "administrative",
      "way_area": "0.0641525",
      "wikidata": "Q3656386",
      "population": "94556",
      "admin_level": "6",
      "name:sr-Latn": "Opšrina Đakovica"
    }
  },
  {
    "osm_id": -1332168,
    "boundary": "administrative",
    "admin_level": 6,
    "parents": "-2088990",
    "name": "Municipality of Drenas / Glogovac",
    "local_name": "Komuna e Drenasit / Opština Glogovac",
    "name_en": "Municipality of Drenas / Glogovac",
    "all_tags": {
      "name": "Komuna e Drenasit / Opština Glogovac",
      "place": "municipality",
      "name:de": "Gemeinde Drenas",
      "name:en": "Municipality of Drenas / Glogovac",
      "name:fa": "گلوگوواس",
      "name:sq": "Komuna e Drenasit",
      "name:sr": "Општина Глоговац",
      "boundary": "administrative",
      "way_area": "0.0302477",
      "wikidata": "Q1008042",
      "population": "58531",
      "admin_level": "6",
      "postal_code": "13000"
    }
  },
  {
    "osm_id": -1332167,
    "boundary": "administrative",
    "admin_level": 6,
    "parents": "-2088990",
    "name": "Mitrovica Municipality",
    "local_name": "Komuna e Mitrovicës / Opština Kosovska Mitrovica",
    "name_en": "Mitrovica Municipality",
    "all_tags": {
      "name": "Komuna e Mitrovicës / Opština Kosovska Mitrovica",
      "place": "municipality",
      "name:de": "Gemeinde Süd-Mitrovica",
      "name:el": "Δήμος Μιτρόβιτσας",
      "name:en": "Mitrovica Municipality",
      "name:hr": "Općina Kosovska Mitrovica",
      "name:sq": "Komuna e Mitrovicës",
      "name:sr": "Општина Косовска Митровица",
      "boundary": "administrative",
      "way_area": "0.0364804",
      "wikidata": "Q3657448",
      "population": "71909",
      "admin_level": "6",
      "alt_name:sr": "Општина Митровица",
      "name:sr-Latn": "Opština Kosovska Mitrovica",
      "alt_name:sr-Latn": "Opština Mitrovica"
    }
  },
  {
    "osm_id": -1332166,
    "boundary": "administrative",
    "admin_level": 6,
    "parents": "-2088990",
    "name": "Municipality of Suharekë / Suva Reka",
    "local_name": "Komuna e Suharekës / Opština Suva Reka",
    "name_en": "Municipality of Suharekë / Suva Reka",
    "all_tags": {
      "name": "Komuna e Suharekës / Opština Suva Reka",
      "place": "municipality",
      "name:de": "Gemeinde Suhareka",
      "name:el": "Δήμος Σούβα Ρέκα",
      "name:en": "Municipality of Suharekë / Suva Reka",
      "name:sq": "Komuna e Suharekës",
      "name:sr": "Општина Сува Река",
      "boundary": "administrative",
      "way_area": "0.0394583",
      "wikidata": "Q794044",
      "population": "59722",
      "admin_level": "6",
      "name:sr-Latn": "Opština Suva Reka"
    }
  },
  {
    "osm_id": -1332165,
    "boundary": "administrative",
    "admin_level": 6,
    "parents": "-2088990",
    "name": "Municipality of Mališevo",
    "local_name": "Komuna e Malishevës / Opština Mališevo",
    "name_en": "Municipality of Mališevo",
    "all_tags": {
      "name": "Komuna e Malishevës / Opština Mališevo",
      "place": "municipality",
      "name:de": "Gemeinde Malisheva",
      "name:el": "Δήμος Μαλίσεβο",
      "name:en": "Municipality of Mališevo",
      "name:sq": "Komuna e Malishevës",
      "name:sr": "Општина Малишево",
      "boundary": "administrative",
      "way_area": "0.0335642",
      "wikidata": "Q794063",
      "population": "54613",
      "admin_level": "6",
      "name:sr-Latn": "Opština Mališevo"
    }
  },
  {
    "osm_id": -1332164,
    "boundary": "administrative",
    "admin_level": 6,
    "parents": "-2088990",
    "name": "Municipality of Vushtrri / Vučitrn",
    "local_name": "Komuna e Vushtrrisë / Opština Vučitrn",
    "name_en": "Municipality of Vushtrri / Vučitrn",
    "all_tags": {
      "name": "Komuna e Vushtrrisë / Opština Vučitrn",
      "place": "municipality",
      "name:de": "Gemeinde Vushtrri",
      "name:en": "Municipality of Vushtrri / Vučitrn",
      "name:sq": "Komuna e Vushtrrisë",
      "name:sr": "Општина Вучитрн",
      "boundary": "administrative",
      "way_area": "0.0379629",
      "wikidata": "Q3657833",
      "population": "69870",
      "admin_level": "6"
    }
  },
  {
    "osm_id": -1332163,
    "boundary": "administrative",
    "admin_level": 6,
    "parents": "-2088990",
    "name": "Municipality of Istok",
    "local_name": "Komuna e Istogut / Opština Istok",
    "name_en": "Municipality of Istok",
    "all_tags": {
      "name": "Komuna e Istogut / Opština Istok",
      "place": "municipality",
      "name:de": "Gemeinde Istog",
      "name:el": "Δήμος Ίστοκ",
      "name:en": "Municipality of Istok",
      "name:sq": "Komuna e Istogut",
      "name:sr": "Општина Исток",
      "alt_name": "Komuna e Burimit",
      "boundary": "administrative",
      "way_area": "0.0499886",
      "wikidata": "Q2043104",
      "population": "39289",
      "admin_level": "6",
      "name:sr-Latn": "Opština Istok"
    }
  },
  {
    "osm_id": -1332162,
    "boundary": "administrative",
    "admin_level": 6,
    "parents": "-2088990",
    "name": "Municipality of Kamenica",
    "local_name": "Komuna e Kamenicës / Opština Kamenica",
    "name_en": "Municipality of Kamenica",
    "all_tags": {
      "name": "Komuna e Kamenicës / Opština Kamenica",
      "place": "municipality",
      "name:de": "Gemeinde Kamenica",
      "name:en": "Municipality of Kamenica",
      "name:sq": "Komuna e Kamenicës",
      "boundary": "administrative",
      "way_area": "0.0457224",
      "wikidata": "Q2043136",
      "population": "36085",
      "admin_level": "6",
      "alt_name:sq": "Komuna e Dardanës",
      "postal_code": "62000"
    }
  }
]
